{"type":"FeatureCollection","features":[{"type":"Feature","properties":{"name_en":"Naphoneua","did":1001,"pid":10,"uuid":"1.001002e+06"},"geometry":{"type":"Point","coordinates":[102.4250621098805,18.51606717027784]}},{"type":"Feature","properties":{"name_en":"Namuang","did":1001,"pid":10,"uuid":"1.001004e+06"},"geometry":{"type":"Point","coordinates":[102.42659273036206,18.53631726034171]}},{"type":"Feature","properties":{"name_en":"Phonehor","did":1001,"pid":10,"uuid":"1.001005e+06"},"geometry":{"type":"Point","coordinates":[102.4419326996639,18.52448998036514]}},{"type":"Feature","properties":{"name_en":"Xangyai","did":1001,"pid":10,"uuid":"1.001007e+06"},"geometry":{"type":"Point","coordinates":[102.45164741025039,18.520528690439644]}},{"type":"Feature","properties":{"name_en":"Namkam","did":1001,"pid":10,"uuid":"1.001009e+06"},"geometry":{"type":"Point","coordinates":[102.41192498027931,18.54053243993447]}},{"type":"Feature","properties":{"name_en":"Naxone","did":1001,"pid":10,"uuid":"1.00101e+06"},"geometry":{"type":"Point","coordinates":[102.42109965031007,18.551988069933667]}},{"type":"Feature","properties":{"name_en":"Phonehong","did":1001,"pid":10,"uuid":"1.001012e+06"},"geometry":{"type":"Point","coordinates":[102.41676929969132,18.49834540037726]}},{"type":"Feature","properties":{"name_en":"Phonekgang","did":1001,"pid":10,"uuid":"1.001015e+06"},"geometry":{"type":"Point","coordinates":[102.4191872302501,18.49266221977069]}},{"type":"Feature","properties":{"name_en":"Phonesitai","did":1001,"pid":10,"uuid":"1.001017e+06"},"geometry":{"type":"Point","coordinates":[102.41226318979493,18.48427964031107]}},{"type":"Feature","properties":{"name_en":"Namlin","did":1001,"pid":10,"uuid":"1.001018e+06"},"geometry":{"type":"Point","coordinates":[102.41078370046584,18.491511379770067]}},{"type":"Feature","properties":{"name_en":"Namjame","did":1001,"pid":10,"uuid":"1.001019e+06"},"geometry":{"type":"Point","coordinates":[102.41105285007066,18.46689113004495]}},{"type":"Feature","properties":{"name_en":"Hoythou","did":1001,"pid":10,"uuid":"1.00102e+06"},"geometry":{"type":"Point","coordinates":[102.4101528797522,18.44497665013324]}},{"type":"Feature","properties":{"name_en":"Hoypong","did":1001,"pid":10,"uuid":"1.001022e+06"},"geometry":{"type":"Point","coordinates":[102.3784044902623,18.48228164987195]}},{"type":"Feature","properties":{"name_en":"Nongboua","did":1001,"pid":10,"uuid":"1.001023e+06"},"geometry":{"type":"Point","coordinates":[102.39644637016447,18.505388130046565]}},{"type":"Feature","properties":{"name_en":"Nasu","did":1001,"pid":10,"uuid":"1.001025e+06"},"geometry":{"type":"Point","coordinates":[102.43195212035141,18.500652269762142]}},{"type":"Feature","properties":{"name_en":"Phonekam","did":1001,"pid":10,"uuid":"1.001027e+06"},"geometry":{"type":"Point","coordinates":[102.43481754970607,18.505556850115745]}},{"type":"Feature","properties":{"name_en":"sengsou","did":1001,"pid":10,"uuid":"1.001028e+06"},"geometry":{"type":"Point","coordinates":[102.37733621964655,18.56319007007492]}},{"type":"Feature","properties":{"name_en":"That","did":1001,"pid":10,"uuid":"1.001029e+06"},"geometry":{"type":"Point","coordinates":[102.41692110017962,18.60089596963933]}},{"type":"Feature","properties":{"name_en":"Phonekeo","did":1001,"pid":10,"uuid":"1.00103e+06"},"geometry":{"type":"Point","coordinates":[102.39042942041416,18.565003660028037]}},{"type":"Feature","properties":{"name_en":"kam","did":1001,"pid":10,"uuid":"1.001032e+06"},"geometry":{"type":"Point","coordinates":[102.39807103957347,18.570886239764487]}},{"type":"Feature","properties":{"name_en":"Phonesineua","did":1001,"pid":10,"uuid":"1.001033e+06"},"geometry":{"type":"Point","coordinates":[102.39424629040073,18.556172740390313]}},{"type":"Feature","properties":{"name_en":"Naphophalat","did":1001,"pid":10,"uuid":"1.001036e+06"},"geometry":{"type":"Point","coordinates":[102.43387962044284,18.59703259043]}},{"type":"Feature","properties":{"name_en":"Nathong","did":1001,"pid":10,"uuid":"1.001042e+06"},"geometry":{"type":"Point","coordinates":[102.46956674032262,18.48319980003906]}},{"type":"Feature","properties":{"name_en":"Phone","did":1001,"pid":10,"uuid":"1.001043e+06"},"geometry":{"type":"Point","coordinates":[102.4602793398451,18.489039139608064]}},{"type":"Feature","properties":{"name_en":"Phonesavat","did":1001,"pid":10,"uuid":"1.001044e+06"},"geometry":{"type":"Point","coordinates":[102.46466827983593,18.4944733001801]}},{"type":"Feature","properties":{"name_en":"Nalao","did":1001,"pid":10,"uuid":"1.001045e+06"},"geometry":{"type":"Point","coordinates":[102.4678624501301,18.49409209000681]}},{"type":"Feature","properties":{"name_en":"Phonethat","did":1001,"pid":10,"uuid":"1.001046e+06"},"geometry":{"type":"Point","coordinates":[102.48065281993934,18.490444200066076]}},{"type":"Feature","properties":{"name_en":"Nayung","did":1001,"pid":10,"uuid":"1.001047e+06"},"geometry":{"type":"Point","coordinates":[102.44884341043303,18.489464609938906]}},{"type":"Feature","properties":{"name_en":"Saka","did":1001,"pid":10,"uuid":"1.001049e+06"},"geometry":{"type":"Point","coordinates":[102.42642609008232,18.404397090353736]}},{"type":"Feature","properties":{"name_en":"vangmoonkhat","did":1001,"pid":10,"uuid":"1.00105e+06"},"geometry":{"type":"Point","coordinates":[102.42569494034109,18.401853100332847]}},{"type":"Feature","properties":{"name_en":"Nabone","did":1001,"pid":10,"uuid":"1.001052e+06"},"geometry":{"type":"Point","coordinates":[102.425578680139,18.387633699864992]}},{"type":"Feature","properties":{"name_en":"Nongkone","did":1001,"pid":10,"uuid":"1.001053e+06"},"geometry":{"type":"Point","coordinates":[102.4616476898847,18.36764897977472]}},{"type":"Feature","properties":{"name_en":"Phonethane","did":1001,"pid":10,"uuid":"1.001054e+06"},"geometry":{"type":"Point","coordinates":[102.39603993017597,18.37925305972704]}},{"type":"Feature","properties":{"name_en":"Honglueai","did":1001,"pid":10,"uuid":"1.001055e+06"},"geometry":{"type":"Point","coordinates":[102.42420899988255,18.376263310319878]}},{"type":"Feature","properties":{"name_en":"Hoyduea","did":1001,"pid":10,"uuid":"1.001056e+06"},"geometry":{"type":"Point","coordinates":[102.32271914981226,18.357747689615326]}},{"type":"Feature","properties":{"name_en":"Naphotai","did":1001,"pid":10,"uuid":"1.001057e+06"},"geometry":{"type":"Point","coordinates":[102.45509177993577,18.427115320436613]}},{"type":"Feature","properties":{"name_en":"bannoy","did":1001,"pid":10,"uuid":"1.00106e+06"},"geometry":{"type":"Point","coordinates":[102.43634330969077,18.425686369801156]}},{"type":"Feature","properties":{"name_en":"Phonhtong","did":1001,"pid":10,"uuid":"1.001061e+06"},"geometry":{"type":"Point","coordinates":[102.4159316998775,18.422849509757032]}},{"type":"Feature","properties":{"name_en":"Phonhngern","did":1001,"pid":10,"uuid":"1.001063e+06"},"geometry":{"type":"Point","coordinates":[102.41897591994419,18.434115129973218]}},{"type":"Feature","properties":{"name_en":"Phonhsawang","did":1001,"pid":10,"uuid":"1.001065e+06"},"geometry":{"type":"Point","coordinates":[102.4267347198031,18.426135050420974]}},{"type":"Feature","properties":{"name_en":"Phonhxoung","did":1001,"pid":10,"uuid":"1.001066e+06"},"geometry":{"type":"Point","coordinates":[102.46036583990801,18.325718850178124]}},{"type":"Feature","properties":{"name_en":"Phonhsaytai","did":1001,"pid":10,"uuid":"1.001067e+06"},"geometry":{"type":"Point","coordinates":[102.45328097172727,18.32742373604735]}},{"type":"Feature","properties":{"name_en":"Dongkhaow","did":1001,"pid":10,"uuid":"1.001068e+06"},"geometry":{"type":"Point","coordinates":[102.4695712699464,18.320325340326473]}},{"type":"Feature","properties":{"name_en":"Xivilay","did":1001,"pid":10,"uuid":"1.001069e+06"},"geometry":{"type":"Point","coordinates":[102.46995608006672,18.29341734023733]}},{"type":"Feature","properties":{"name_en":"Mai","did":1001,"pid":10,"uuid":"1.00107e+06"},"geometry":{"type":"Point","coordinates":[102.45903999981564,18.313161999878968]}},{"type":"Feature","properties":{"name_en":"Natheb","did":1001,"pid":10,"uuid":"1.001071e+06"},"geometry":{"type":"Point","coordinates":[102.44295436994447,18.31317565977193]}},{"type":"Feature","properties":{"name_en":"Jangsavang","did":1001,"pid":10,"uuid":"1.001072e+06"},"geometry":{"type":"Point","coordinates":[102.43114585963181,18.316603109973137]}},{"type":"Feature","properties":{"name_en":"Nongpong","did":1001,"pid":10,"uuid":"1.001073e+06"},"geometry":{"type":"Point","coordinates":[102.42802409997319,18.319514559987088]}},{"type":"Feature","properties":{"name_en":"Phonhkhong","did":1001,"pid":10,"uuid":"1.001074e+06"},"geometry":{"type":"Point","coordinates":[102.42322621997276,18.33580461970672]}},{"type":"Feature","properties":{"name_en":"Lak52","did":1001,"pid":10,"uuid":"1.001075e+06"},"geometry":{"type":"Point","coordinates":[102.42481635013073,18.350613430305735]}},{"type":"Feature","properties":{"name_en":"Aekxang","did":1001,"pid":10,"uuid":"1.001076e+06"},"geometry":{"type":"Point","coordinates":[102.45974894038875,18.355843659628746]}},{"type":"Feature","properties":{"name_en":"Nalao","did":1001,"pid":10,"uuid":"1.001077e+06"},"geometry":{"type":"Point","coordinates":[102.43307947979453,18.340443420354905]}},{"type":"Feature","properties":{"name_en":"Nongnak","did":1001,"pid":10,"uuid":"1.001078e+06"},"geometry":{"type":"Point","coordinates":[102.41859714978149,18.351204020184138]}},{"type":"Feature","properties":{"name_en":"Phonngamtai","did":1001,"pid":10,"uuid":"1.001079e+06"},"geometry":{"type":"Point","coordinates":[102.41713907377867,18.356080287741495]}},{"type":"Feature","properties":{"name_en":"Phonhkhamneua","did":1001,"pid":10,"uuid":"1.00108e+06"},"geometry":{"type":"Point","coordinates":[102.42450044043241,18.36177904965684]}},{"type":"Feature","properties":{"name_en":"Phonhkhamtai","did":1001,"pid":10,"uuid":"1.001081e+06"},"geometry":{"type":"Point","coordinates":[102.42737458969235,18.356701209872465]}},{"type":"Feature","properties":{"name_en":"Phouxang","did":1001,"pid":10,"uuid":"1.001084e+06"},"geometry":{"type":"Point","coordinates":[102.4143263018943,18.352529098494266]}},{"type":"Feature","properties":{"name_en":"Taothan","did":1001,"pid":10,"uuid":"1.001085e+06"},"geometry":{"type":"Point","coordinates":[102.44428218313008,18.328468332575074]}},{"type":"Feature","properties":{"name_en":"Phonesomboun","did":1001,"pid":10,"uuid":"1.001086e+06"},"geometry":{"type":"Point","coordinates":[102.38862958015656,18.439051650378122]}}]}