{"type":"FeatureCollection","features":[{"type":"Feature","properties":{"name_en":"Kernneua","did":1002,"pid":10,"uuid":"1.002002e+06"},"geometry":{"type":"Point","coordinates":[102.5652066097498,18.3802659296128]}},{"type":"Feature","properties":{"name_en":"Kernkang","did":1002,"pid":10,"uuid":"1.002003e+06"},"geometry":{"type":"Point","coordinates":[102.57258503031743,18.362649259663783]}},{"type":"Feature","properties":{"name_en":"Kuentai","did":1002,"pid":10,"uuid":"1.002004e+06"},"geometry":{"type":"Point","coordinates":[102.57521241955882,18.34764589970613]}},{"type":"Feature","properties":{"name_en":"Namak","did":1002,"pid":10,"uuid":"1.002012e+06"},"geometry":{"type":"Point","coordinates":[102.5951111588789,18.371914023515068]}},{"type":"Feature","properties":{"name_en":"Nala","did":1002,"pid":10,"uuid":"1.002018e+06"},"geometry":{"type":"Point","coordinates":[102.60654254969623,18.355989079981626]}},{"type":"Feature","properties":{"name_en":"Bor","did":1002,"pid":10,"uuid":"1.002021e+06"},"geometry":{"type":"Point","coordinates":[102.59219356968194,18.37821101959722]}},{"type":"Feature","properties":{"name_en":"Nabone","did":1002,"pid":10,"uuid":"1.002024e+06"},"geometry":{"type":"Point","coordinates":[102.59701484005328,18.39585860967115]}},{"type":"Feature","properties":{"name_en":"Naphouey","did":1002,"pid":10,"uuid":"1.002025e+06"},"geometry":{"type":"Point","coordinates":[102.60435345008537,18.422542069936124]}},{"type":"Feature","properties":{"name_en":"Phoukaonang","did":1002,"pid":10,"uuid":"1.002026e+06"},"geometry":{"type":"Point","coordinates":[102.6776582453385,18.46626979650999]}},{"type":"Feature","properties":{"name_en":"Naang","did":1002,"pid":10,"uuid":"1.002027e+06"},"geometry":{"type":"Point","coordinates":[102.62047678991793,18.38989940974658]}},{"type":"Feature","properties":{"name_en":"bongphao","did":1002,"pid":10,"uuid":"1.002028e+06"},"geometry":{"type":"Point","coordinates":[102.54854893382262,18.334615286475067]}},{"type":"Feature","properties":{"name_en":"Hadsay","did":1002,"pid":10,"uuid":"1.002029e+06"},"geometry":{"type":"Point","coordinates":[102.55812548975784,18.34109636972869]}},{"type":"Feature","properties":{"name_en":"Nakhong","did":1002,"pid":10,"uuid":"1.00203e+06"},"geometry":{"type":"Point","coordinates":[102.57585565026886,18.322273209818217]}},{"type":"Feature","properties":{"name_en":"Phonekham","did":1002,"pid":10,"uuid":"1.002032e+06"},"geometry":{"type":"Point","coordinates":[102.61114857041882,18.32759011037351]}},{"type":"Feature","properties":{"name_en":"Phonekgamnapai","did":1002,"pid":10,"uuid":"1.002037e+06"},"geometry":{"type":"Point","coordinates":[102.65187246957507,18.358861390027116]}},{"type":"Feature","properties":{"name_en":"Phonehongnapai","did":1002,"pid":10,"uuid":"1.002039e+06"},"geometry":{"type":"Point","coordinates":[102.63574998342436,18.365649244275]}},{"type":"Feature","properties":{"name_en":"Pakhang","did":1002,"pid":10,"uuid":"1.002043e+06"},"geometry":{"type":"Point","coordinates":[102.66193426977219,18.33605926016166]}},{"type":"Feature","properties":{"name_en":"Phathao","did":1002,"pid":10,"uuid":"1.002044e+06"},"geometry":{"type":"Point","coordinates":[102.65658804013599,18.32990636004042]}},{"type":"Feature","properties":{"name_en":"Phoukyo","did":1002,"pid":10,"uuid":"1.002045e+06"},"geometry":{"type":"Point","coordinates":[102.63530371043375,18.33125937022599]}},{"type":"Feature","properties":{"name_en":"Navone","did":1002,"pid":10,"uuid":"1.002047e+06"},"geometry":{"type":"Point","coordinates":[102.67889546959319,18.333239510166617]}},{"type":"Feature","properties":{"name_en":"Namyam","did":1002,"pid":10,"uuid":"1.002049e+06"},"geometry":{"type":"Point","coordinates":[102.70794974962206,18.343808749688073]}},{"type":"Feature","properties":{"name_en":"Phoukhaokeo","did":1002,"pid":10,"uuid":"1.00205e+06"},"geometry":{"type":"Point","coordinates":[102.66767395043986,18.32092457028131]}},{"type":"Feature","properties":{"name_en":"Vanghueang","did":1002,"pid":10,"uuid":"1.002052e+06"},"geometry":{"type":"Point","coordinates":[102.80849311037761,18.33931428986963]}},{"type":"Feature","properties":{"name_en":"Napheng","did":1002,"pid":10,"uuid":"1.002053e+06"},"geometry":{"type":"Point","coordinates":[102.72170897994772,18.328745470354697]}},{"type":"Feature","properties":{"name_en":"Phonhkeo","did":1002,"pid":10,"uuid":"1.002054e+06"},"geometry":{"type":"Point","coordinates":[102.67000436958895,18.309384110044835]}},{"type":"Feature","properties":{"name_en":"Hayyoymai","did":1002,"pid":10,"uuid":"1.002056e+06"},"geometry":{"type":"Point","coordinates":[102.67687987974857,18.28908272001868]}},{"type":"Feature","properties":{"name_en":"Dong","did":1002,"pid":10,"uuid":"1.002058e+06"},"geometry":{"type":"Point","coordinates":[102.68099782021125,18.277084610219756]}},{"type":"Feature","properties":{"name_en":"Nanaukkhoom","did":1002,"pid":10,"uuid":"1.002059e+06"},"geometry":{"type":"Point","coordinates":[102.69263215046243,18.292603460054888]}},{"type":"Feature","properties":{"name_en":"Nayang","did":1002,"pid":10,"uuid":"1.00206e+06"},"geometry":{"type":"Point","coordinates":[102.72528377032262,18.303879969675194]}},{"type":"Feature","properties":{"name_en":"Nakgurn","did":1002,"pid":10,"uuid":"1.002061e+06"},"geometry":{"type":"Point","coordinates":[102.73208384042825,18.28410302963413]}},{"type":"Feature","properties":{"name_en":"Nongphongtai","did":1002,"pid":10,"uuid":"1.002062e+06"},"geometry":{"type":"Point","coordinates":[102.64219053012138,18.297470409962237]}},{"type":"Feature","properties":{"name_en":"Sookxala","did":1002,"pid":10,"uuid":"1.002064e+06"},"geometry":{"type":"Point","coordinates":[102.61388065040742,18.264392320431053]}},{"type":"Feature","properties":{"name_en":"tanpyo","did":1002,"pid":10,"uuid":"1.002065e+06"},"geometry":{"type":"Point","coordinates":[102.58745863031149,18.24548039972951]}},{"type":"Feature","properties":{"name_en":"Hardxuang","did":1002,"pid":10,"uuid":"1.002066e+06"},"geometry":{"type":"Point","coordinates":[102.5852520098245,18.20700980979306]}},{"type":"Feature","properties":{"name_en":"Choom","did":1002,"pid":10,"uuid":"1.002067e+06"},"geometry":{"type":"Point","coordinates":[102.5548454796258,18.25324019001384]}},{"type":"Feature","properties":{"name_en":"Cheng","did":1002,"pid":10,"uuid":"1.002068e+06"},"geometry":{"type":"Point","coordinates":[102.55581636040999,18.28859438990304]}},{"type":"Feature","properties":{"name_en":"Tinkham","did":1002,"pid":10,"uuid":"1.002069e+06"},"geometry":{"type":"Point","coordinates":[102.5701706201308,18.302301900255284]}},{"type":"Feature","properties":{"name_en":"Lingxang","did":1002,"pid":10,"uuid":"1.00207e+06"},"geometry":{"type":"Point","coordinates":[102.54950453968709,18.31216572986184]}},{"type":"Feature","properties":{"name_en":"Phonhpheng","did":1002,"pid":10,"uuid":"1.002072e+06"},"geometry":{"type":"Point","coordinates":[102.50828761967244,18.286203790147592]}},{"type":"Feature","properties":{"name_en":"Hardxyo","did":1002,"pid":10,"uuid":"1.002073e+06"},"geometry":{"type":"Point","coordinates":[102.5382033798844,18.28206028036978]}},{"type":"Feature","properties":{"name_en":"Phonhhet","did":1002,"pid":10,"uuid":"1.002076e+06"},"geometry":{"type":"Point","coordinates":[102.57804092815407,18.364165006982176]}},{"type":"Feature","properties":{"name_en":"Haikham","did":1002,"pid":10,"uuid":"1.002079e+06"},"geometry":{"type":"Point","coordinates":[102.60748668977159,18.282722449800534]}}]}