{"type":"FeatureCollection","features":[{"type":"Feature","properties":{"name_en":"Napoun","did":1003,"pid":10,"uuid":"1.003001e+06"},"geometry":{"type":"Point","coordinates":[102.49213752975761,18.50227567015614]}},{"type":"Feature","properties":{"name_en":"Thatxang","did":1003,"pid":10,"uuid":"1.003002e+06"},"geometry":{"type":"Point","coordinates":[102.51115614954414,18.501853140314935]}},{"type":"Feature","properties":{"name_en":"Thatlat","did":1003,"pid":10,"uuid":"1.003003e+06"},"geometry":{"type":"Point","coordinates":[102.50703007977015,18.51451283036262]}},{"type":"Feature","properties":{"name_en":"Thinkeo","did":1003,"pid":10,"uuid":"1.003004e+06"},"geometry":{"type":"Point","coordinates":[102.50841184034124,18.51985319975408]}},{"type":"Feature","properties":{"name_en":"Phoukhaokham","did":1003,"pid":10,"uuid":"1.003005e+06"},"geometry":{"type":"Point","coordinates":[102.51065064021743,18.529160130082914]}},{"type":"Feature","properties":{"name_en":"Phonhmuong","did":1003,"pid":10,"uuid":"1.003006e+06"},"geometry":{"type":"Point","coordinates":[102.49742793999701,18.524265760314314]}},{"type":"Feature","properties":{"name_en":"Longkheng","did":1003,"pid":10,"uuid":"1.003007e+06"},"geometry":{"type":"Point","coordinates":[102.49123949967345,18.52951450978169]}},{"type":"Feature","properties":{"name_en":"Phonhyeng","did":1003,"pid":10,"uuid":"1.003009e+06"},"geometry":{"type":"Point","coordinates":[102.489646010401,18.51511725042743]}},{"type":"Feature","properties":{"name_en":"Danexanvanh","did":1003,"pid":10,"uuid":"1.00301e+06"},"geometry":{"type":"Point","coordinates":[102.57503330043129,18.478641640362742]}},{"type":"Feature","properties":{"name_en":"Hoykhong","did":1003,"pid":10,"uuid":"1.003011e+06"},"geometry":{"type":"Point","coordinates":[102.57211505024091,18.454593710183264]}},{"type":"Feature","properties":{"name_en":"Keokou","did":1003,"pid":10,"uuid":"1.003012e+06"},"geometry":{"type":"Point","coordinates":[102.50366013047923,18.553121139743066]}},{"type":"Feature","properties":{"name_en":"Phonhkham","did":1003,"pid":10,"uuid":"1.003013e+06"},"geometry":{"type":"Point","coordinates":[102.49940631975775,18.561050330441848]}},{"type":"Feature","properties":{"name_en":"Khamxang","did":1003,"pid":10,"uuid":"1.003014e+06"},"geometry":{"type":"Point","coordinates":[102.5029193397809,18.56266217031003]}},{"type":"Feature","properties":{"name_en":"Phonhxavanh","did":1003,"pid":10,"uuid":"1.003018e+06"},"geometry":{"type":"Point","coordinates":[102.49669125003618,18.584309699808173]}},{"type":"Feature","properties":{"name_en":"Hardduea","did":1003,"pid":10,"uuid":"1.003019e+06"},"geometry":{"type":"Point","coordinates":[102.49573069039074,18.589066260378004]}},{"type":"Feature","properties":{"name_en":"Kaukkieng","did":1003,"pid":10,"uuid":"1.00302e+06"},"geometry":{"type":"Point","coordinates":[102.46666619008388,18.559526419939086]}},{"type":"Feature","properties":{"name_en":"Viengkeo","did":1003,"pid":10,"uuid":"1.003021e+06"},"geometry":{"type":"Point","coordinates":[102.45718650994836,18.571405079739677]}},{"type":"Feature","properties":{"name_en":"Viengkham","did":1003,"pid":10,"uuid":"1.003022e+06"},"geometry":{"type":"Point","coordinates":[102.45743074995136,18.581861430128995]}},{"type":"Feature","properties":{"name_en":"Hardtha","did":1003,"pid":10,"uuid":"1.003024e+06"},"geometry":{"type":"Point","coordinates":[102.44865933998865,18.60855267011306]}},{"type":"Feature","properties":{"name_en":"Naxeng","did":1003,"pid":10,"uuid":"1.003027e+06"},"geometry":{"type":"Point","coordinates":[102.47193002040578,18.644882190044918]}},{"type":"Feature","properties":{"name_en":"Donesayoudoom","did":1003,"pid":10,"uuid":"1.003028e+06"},"geometry":{"type":"Point","coordinates":[102.64105989968049,18.62153599027587]}},{"type":"Feature","properties":{"name_en":"Hoypoon","did":1003,"pid":10,"uuid":"1.003029e+06"},"geometry":{"type":"Point","coordinates":[102.68975983955974,18.51048926977658]}},{"type":"Feature","properties":{"name_en":"Mai","did":1003,"pid":10,"uuid":"1.00303e+06"},"geometry":{"type":"Point","coordinates":[102.68150962041166,18.476251289618993]}},{"type":"Feature","properties":{"name_en":"Sengxavane","did":1003,"pid":10,"uuid":"1.003033e+06"},"geometry":{"type":"Point","coordinates":[102.51350668966028,18.51687543971554]}},{"type":"Feature","properties":{"name_en":"Samakheexai","did":1003,"pid":10,"uuid":"1.003034e+06"},"geometry":{"type":"Point","coordinates":[102.50266864013763,18.57816600975831]}},{"type":"Feature","properties":{"name_en":"Khonekoum","did":1003,"pid":10,"uuid":"1.003035e+06"},"geometry":{"type":"Point","coordinates":[102.45797222041232,18.614905069677892]}}]}