{"type":"FeatureCollection","features":[{"type":"Feature","properties":{"name_en":"Houamuang","did":1004,"pid":10,"uuid":"1.004001e+06"},"geometry":{"type":"Point","coordinates":[102.30446823045494,19.274676520051496]}},{"type":"Feature","properties":{"name_en":"Phonhsidan","did":1004,"pid":10,"uuid":"1.004002e+06"},"geometry":{"type":"Point","coordinates":[102.28901627033962,19.259535949844416]}},{"type":"Feature","properties":{"name_en":"Kyoxoomphou","did":1004,"pid":10,"uuid":"1.004003e+06"},"geometry":{"type":"Point","coordinates":[102.2783811497963,19.25618604015184]}},{"type":"Feature","properties":{"name_en":"Phonhkgam","did":1004,"pid":10,"uuid":"1.004004e+06"},"geometry":{"type":"Point","coordinates":[102.27479696038702,19.247447740284493]}},{"type":"Feature","properties":{"name_en":"Naxou","did":1004,"pid":10,"uuid":"1.004006e+06"},"geometry":{"type":"Point","coordinates":[102.26919039026704,19.24172642003971]}},{"type":"Feature","properties":{"name_en":"Phoukhamnuea","did":1004,"pid":10,"uuid":"1.004007e+06"},"geometry":{"type":"Point","coordinates":[102.25450244965506,19.23241521019345]}},{"type":"Feature","properties":{"name_en":"Viengkeo","did":1004,"pid":10,"uuid":"1.004008e+06"},"geometry":{"type":"Point","coordinates":[102.25192768998309,19.22504617977457]}},{"type":"Feature","properties":{"name_en":"Namphaud","did":1004,"pid":10,"uuid":"1.004009e+06"},"geometry":{"type":"Point","coordinates":[102.2777523399397,19.198281670355907]}},{"type":"Feature","properties":{"name_en":"Nathan","did":1004,"pid":10,"uuid":"1.00401e+06"},"geometry":{"type":"Point","coordinates":[102.23788121990285,19.19003831994068]}},{"type":"Feature","properties":{"name_en":"Phonhthan","did":1004,"pid":10,"uuid":"1.004011e+06"},"geometry":{"type":"Point","coordinates":[102.23461486953244,19.178128559948775]}},{"type":"Feature","properties":{"name_en":"Nanoonyai","did":1004,"pid":10,"uuid":"1.004012e+06"},"geometry":{"type":"Point","coordinates":[102.24893586031618,19.245021930295852]}},{"type":"Feature","properties":{"name_en":"Namoonmai","did":1004,"pid":10,"uuid":"1.004014e+06"},"geometry":{"type":"Point","coordinates":[102.24814092034917,19.238323109977422]}},{"type":"Feature","properties":{"name_en":"Viengsamai","did":1004,"pid":10,"uuid":"1.004015e+06"},"geometry":{"type":"Point","coordinates":[102.24995291964555,19.24104447041884]}},{"type":"Feature","properties":{"name_en":"Nongbouathong","did":1004,"pid":10,"uuid":"1.004016e+06"},"geometry":{"type":"Point","coordinates":[102.23794809983835,19.25240144015721]}},{"type":"Feature","properties":{"name_en":"Phonhxavane","did":1004,"pid":10,"uuid":"1.004017e+06"},"geometry":{"type":"Point","coordinates":[102.22789165982861,19.26947119006683]}},{"type":"Feature","properties":{"name_en":"Thamtai","did":1004,"pid":10,"uuid":"1.004019e+06"},"geometry":{"type":"Point","coordinates":[102.17141531994227,19.29851548982198]}},{"type":"Feature","properties":{"name_en":"Thongmuead","did":1004,"pid":10,"uuid":"1.00402e+06"},"geometry":{"type":"Point","coordinates":[102.17837306026509,19.313038479610064]}},{"type":"Feature","properties":{"name_en":"Nasaykhao","did":1004,"pid":10,"uuid":"1.004024e+06"},"geometry":{"type":"Point","coordinates":[102.21099995045623,19.228599940193213]}},{"type":"Feature","properties":{"name_en":"Naphou","did":1004,"pid":10,"uuid":"1.004025e+06"},"geometry":{"type":"Point","coordinates":[102.23230992975147,19.224519959815172]}},{"type":"Feature","properties":{"name_en":"Phonhthieng","did":1004,"pid":10,"uuid":"1.004026e+06"},"geometry":{"type":"Point","coordinates":[102.12141215972393,19.065464880257643]}},{"type":"Feature","properties":{"name_en":"Namone","did":1004,"pid":10,"uuid":"1.004027e+06"},"geometry":{"type":"Point","coordinates":[102.14267570963952,19.079019590026316]}},{"type":"Feature","properties":{"name_en":"Sixangvone","did":1004,"pid":10,"uuid":"1.004028e+06"},"geometry":{"type":"Point","coordinates":[102.1746613797043,19.105733390068455]}},{"type":"Feature","properties":{"name_en":"Phonhmi","did":1004,"pid":10,"uuid":"1.004029e+06"},"geometry":{"type":"Point","coordinates":[102.16704910991204,19.09262719993641]}},{"type":"Feature","properties":{"name_en":"Phoukham","did":1004,"pid":10,"uuid":"1.004031e+06"},"geometry":{"type":"Point","coordinates":[102.19052003039847,19.120039959784272]}},{"type":"Feature","properties":{"name_en":"Viengkham","did":1004,"pid":10,"uuid":"1.004032e+06"},"geometry":{"type":"Point","coordinates":[102.22621839034323,19.171154979609398]}},{"type":"Feature","properties":{"name_en":"Chieng","did":1004,"pid":10,"uuid":"1.004033e+06"},"geometry":{"type":"Point","coordinates":[102.20439778015157,19.14111676042473]}},{"type":"Feature","properties":{"name_en":"Viengthong","did":1004,"pid":10,"uuid":"1.004034e+06"},"geometry":{"type":"Point","coordinates":[102.22138622016266,19.160756060219505]}},{"type":"Feature","properties":{"name_en":"Phonhbeng","did":1004,"pid":10,"uuid":"1.004035e+06"},"geometry":{"type":"Point","coordinates":[102.21265168989625,19.151089209656174]}},{"type":"Feature","properties":{"name_en":"Phaxang","did":1004,"pid":10,"uuid":"1.004036e+06"},"geometry":{"type":"Point","coordinates":[102.22398897030112,19.131704470395988]}},{"type":"Feature","properties":{"name_en":"Bouamphook","did":1004,"pid":10,"uuid":"1.004037e+06"},"geometry":{"type":"Point","coordinates":[102.25278676043821,19.12409470002856]}},{"type":"Feature","properties":{"name_en":"Nongkham","did":1004,"pid":10,"uuid":"1.004038e+06"},"geometry":{"type":"Point","coordinates":[102.26629192982506,19.128881609572492]}},{"type":"Feature","properties":{"name_en":"Hoyhauk","did":1004,"pid":10,"uuid":"1.004039e+06"},"geometry":{"type":"Point","coordinates":[102.27892015893258,19.1319093844115]}},{"type":"Feature","properties":{"name_en":"Sengdin","did":1004,"pid":10,"uuid":"1.00404e+06"},"geometry":{"type":"Point","coordinates":[102.30915018998236,19.139904230031107]}},{"type":"Feature","properties":{"name_en":"Nalan","did":1004,"pid":10,"uuid":"1.004042e+06"},"geometry":{"type":"Point","coordinates":[102.0680729102712,19.0562695196711]}},{"type":"Feature","properties":{"name_en":"Ponglak","did":1004,"pid":10,"uuid":"1.004043e+06"},"geometry":{"type":"Point","coordinates":[102.05343994953401,19.07319996042779]}},{"type":"Feature","properties":{"name_en":"Phato","did":1004,"pid":10,"uuid":"1.004044e+06"},"geometry":{"type":"Point","coordinates":[102.11585999045535,19.15006000026883]}},{"type":"Feature","properties":{"name_en":"Hoyphanla","did":1004,"pid":10,"uuid":"1.004045e+06"},"geometry":{"type":"Point","coordinates":[102.0346299601959,19.07193998991801]}},{"type":"Feature","properties":{"name_en":"Hoytangna","did":1004,"pid":10,"uuid":"1.004046e+06"},"geometry":{"type":"Point","coordinates":[101.97171991983076,19.008179939645306]}},{"type":"Feature","properties":{"name_en":"Phouhinlak","did":1004,"pid":10,"uuid":"1.004047e+06"},"geometry":{"type":"Point","coordinates":[102.3259614779014,19.137502991020202]}},{"type":"Feature","properties":{"name_en":"Hinkgonh","did":1004,"pid":10,"uuid":"1.004048e+06"},"geometry":{"type":"Point","coordinates":[102.42314315043645,19.359791560268107]}},{"type":"Feature","properties":{"name_en":"Nampeng","did":1004,"pid":10,"uuid":"1.004049e+06"},"geometry":{"type":"Point","coordinates":[102.40910791025165,19.347950109932288]}},{"type":"Feature","properties":{"name_en":"Kyokhoua","did":1004,"pid":10,"uuid":"1.00405e+06"},"geometry":{"type":"Point","coordinates":[102.3967863399341,19.340942169804006]}},{"type":"Feature","properties":{"name_en":"Namkeng","did":1004,"pid":10,"uuid":"1.004051e+06"},"geometry":{"type":"Point","coordinates":[102.37751685047171,19.339517330024925]}},{"type":"Feature","properties":{"name_en":"Phachao","did":1004,"pid":10,"uuid":"1.004052e+06"},"geometry":{"type":"Point","coordinates":[102.33600354985279,19.3038800697905]}},{"type":"Feature","properties":{"name_en":"Phonhkham","did":1004,"pid":10,"uuid":"1.004054e+06"},"geometry":{"type":"Point","coordinates":[102.0677799597578,19.112379990001195]}},{"type":"Feature","properties":{"name_en":"Hoysan","did":1004,"pid":10,"uuid":"1.004056e+06"},"geometry":{"type":"Point","coordinates":[102.17209861977605,19.30045463978275]}},{"type":"Feature","properties":{"name_en":"Naxangthong","did":1004,"pid":10,"uuid":"1.004058e+06"},"geometry":{"type":"Point","coordinates":[102.2820166300761,19.188837280193788]}},{"type":"Feature","properties":{"name_en":"Longmakkhai","did":1004,"pid":10,"uuid":"1.004059e+06"},"geometry":{"type":"Point","coordinates":[102.40518517998149,19.27680669033064]}},{"type":"Feature","properties":{"name_en":"Phaluck","did":1004,"pid":10,"uuid":"1.00406e+06"},"geometry":{"type":"Point","coordinates":[102.05887998017606,19.08901995989422]}},{"type":"Feature","properties":{"name_en":"Nongsane","did":1004,"pid":10,"uuid":"1.004061e+06"},"geometry":{"type":"Point","coordinates":[102.00855997020821,19.137179939667398]}},{"type":"Feature","properties":{"name_en":"Tumterb","did":1004,"pid":10,"uuid":"1.004062e+06"},"geometry":{"type":"Point","coordinates":[102.02342996956452,19.141399980173247]}}]}