{"type":"FeatureCollection","features":[{"type":"Feature","properties":{"name_en":"Samxavanh","did":1005,"pid":10,"uuid":"1.005001e+06"},"geometry":{"type":"Point","coordinates":[102.35934120029017,19.119493290398857]}},{"type":"Feature","properties":{"name_en":"Phahone","did":1005,"pid":10,"uuid":"1.005002e+06"},"geometry":{"type":"Point","coordinates":[102.38112341972702,19.110288120400046]}},{"type":"Feature","properties":{"name_en":"Phadeng","did":1005,"pid":10,"uuid":"1.005004e+06"},"geometry":{"type":"Point","coordinates":[102.40355036958475,19.098541129812332]}},{"type":"Feature","properties":{"name_en":"Hoynamhin","did":1005,"pid":10,"uuid":"1.005005e+06"},"geometry":{"type":"Point","coordinates":[102.44228121957808,19.109504239676443]}},{"type":"Feature","properties":{"name_en":"Kyokaung","did":1005,"pid":10,"uuid":"1.005006e+06"},"geometry":{"type":"Point","coordinates":[102.45726764001466,19.117382980290873]}},{"type":"Feature","properties":{"name_en":"Phatang","did":1005,"pid":10,"uuid":"1.005007e+06"},"geometry":{"type":"Point","coordinates":[102.42878945969557,19.077181279958065]}},{"type":"Feature","properties":{"name_en":"Nadao","did":1005,"pid":10,"uuid":"1.00501e+06"},"geometry":{"type":"Point","coordinates":[102.43863559032036,19.038098139597825]}},{"type":"Feature","properties":{"name_en":"Phousay","did":1005,"pid":10,"uuid":"1.005013e+06"},"geometry":{"type":"Point","coordinates":[102.44763399035938,19.00737711978466]}},{"type":"Feature","properties":{"name_en":"Phathao","did":1005,"pid":10,"uuid":"1.005014e+06"},"geometry":{"type":"Point","coordinates":[102.4341080199286,19.019316470413855]}},{"type":"Feature","properties":{"name_en":"Viengsamai","did":1005,"pid":10,"uuid":"1.005015e+06"},"geometry":{"type":"Point","coordinates":[102.44420444992876,18.989605729669872]}},{"type":"Feature","properties":{"name_en":"Pakpo","did":1005,"pid":10,"uuid":"1.005016e+06"},"geometry":{"type":"Point","coordinates":[102.45037142996294,18.974770680141987]}},{"type":"Feature","properties":{"name_en":"Nakhand","did":1005,"pid":10,"uuid":"1.005017e+06"},"geometry":{"type":"Point","coordinates":[102.47707911008627,18.973544069670723]}},{"type":"Feature","properties":{"name_en":"Phoudindeng","did":1005,"pid":10,"uuid":"1.005018e+06"},"geometry":{"type":"Point","coordinates":[102.44608518041379,18.96120725012869]}},{"type":"Feature","properties":{"name_en":"Hoysakgao","did":1005,"pid":10,"uuid":"1.005019e+06"},"geometry":{"type":"Point","coordinates":[102.44982753047731,18.936345439929255]}},{"type":"Feature","properties":{"name_en":"Vangvieng","did":1005,"pid":10,"uuid":"1.00502e+06"},"geometry":{"type":"Point","coordinates":[102.44977689983486,18.929517370255297]}},{"type":"Feature","properties":{"name_en":"Phonhpheng","did":1005,"pid":10,"uuid":"1.005021e+06"},"geometry":{"type":"Point","coordinates":[102.45698098018221,18.930166800424736]}},{"type":"Feature","properties":{"name_en":"Nadao","did":1005,"pid":10,"uuid":"1.005022e+06"},"geometry":{"type":"Point","coordinates":[102.48054820973478,18.939802049914437]}},{"type":"Feature","properties":{"name_en":"Viengkeo","did":1005,"pid":10,"uuid":"1.005025e+06"},"geometry":{"type":"Point","coordinates":[102.44982854022477,18.91968572968796]}},{"type":"Feature","properties":{"name_en":"Mueangxoua","did":1005,"pid":10,"uuid":"1.005026e+06"},"geometry":{"type":"Point","coordinates":[102.44627368963432,18.917745160109043]}},{"type":"Feature","properties":{"name_en":"Nakhou","did":1005,"pid":10,"uuid":"1.005028e+06"},"geometry":{"type":"Point","coordinates":[102.42409609014241,18.881047089804365]}},{"type":"Feature","properties":{"name_en":"Viengsaynaloung","did":1005,"pid":10,"uuid":"1.005029e+06"},"geometry":{"type":"Point","coordinates":[102.46425630957764,18.898761489649193]}},{"type":"Feature","properties":{"name_en":"Hoykgam","did":1005,"pid":10,"uuid":"1.00503e+06"},"geometry":{"type":"Point","coordinates":[102.46809320969831,18.89253330998682]}},{"type":"Feature","properties":{"name_en":"Phonhxou","did":1005,"pid":10,"uuid":"1.005032e+06"},"geometry":{"type":"Point","coordinates":[102.47290836043906,18.88321524011233]}},{"type":"Feature","properties":{"name_en":"Phonhxou","did":1005,"pid":10,"uuid":"1.005033e+06"},"geometry":{"type":"Point","coordinates":[102.45687394038555,18.87191970022146]}},{"type":"Feature","properties":{"name_en":"Khammat","did":1005,"pid":10,"uuid":"1.005034e+06"},"geometry":{"type":"Point","coordinates":[102.48955045985822,18.868462500276042]}},{"type":"Feature","properties":{"name_en":"Vangxong","did":1005,"pid":10,"uuid":"1.005035e+06"},"geometry":{"type":"Point","coordinates":[102.46564904045563,18.875944189842897]}},{"type":"Feature","properties":{"name_en":"Nampay","did":1005,"pid":10,"uuid":"1.005036e+06"},"geometry":{"type":"Point","coordinates":[102.32625565044557,18.968472940206592]}},{"type":"Feature","properties":{"name_en":"Nasai","did":1005,"pid":10,"uuid":"1.005037e+06"},"geometry":{"type":"Point","coordinates":[102.33382299973908,18.94702901010643]}},{"type":"Feature","properties":{"name_en":"Phonhsaitai","did":1005,"pid":10,"uuid":"1.005038e+06"},"geometry":{"type":"Point","coordinates":[102.34517024990254,18.94204144036245]}},{"type":"Feature","properties":{"name_en":"Naxom","did":1005,"pid":10,"uuid":"1.005041e+06"},"geometry":{"type":"Point","coordinates":[102.37288668991974,18.93240326002131]}},{"type":"Feature","properties":{"name_en":"Nathong","did":1005,"pid":10,"uuid":"1.005042e+06"},"geometry":{"type":"Point","coordinates":[102.39947065015596,18.913755790352624]}},{"type":"Feature","properties":{"name_en":"Namoua","did":1005,"pid":10,"uuid":"1.005046e+06"},"geometry":{"type":"Point","coordinates":[102.38911347011603,18.892151939863908]}},{"type":"Feature","properties":{"name_en":"Vangmieng","did":1005,"pid":10,"uuid":"1.00505e+06"},"geometry":{"type":"Point","coordinates":[102.51134524958998,18.847104909987937]}},{"type":"Feature","properties":{"name_en":"Naqmonetai","did":1005,"pid":10,"uuid":"1.005051e+06"},"geometry":{"type":"Point","coordinates":[102.52424274011837,18.858925989996077]}},{"type":"Feature","properties":{"name_en":"Namonenuea","did":1005,"pid":10,"uuid":"1.005052e+06"},"geometry":{"type":"Point","coordinates":[102.5093605002322,18.88358404000268]}},{"type":"Feature","properties":{"name_en":"Phonhxavanh","did":1005,"pid":10,"uuid":"1.005053e+06"},"geometry":{"type":"Point","coordinates":[102.5322713396212,18.854809380000894]}},{"type":"Feature","properties":{"name_en":"Phonhkeo","did":1005,"pid":10,"uuid":"1.005054e+06"},"geometry":{"type":"Point","coordinates":[102.55002881993039,18.863217770431955]}},{"type":"Feature","properties":{"name_en":"Bankgyotai","did":1005,"pid":10,"uuid":"1.005055e+06"},"geometry":{"type":"Point","coordinates":[102.56014008024951,18.868967259997394]}},{"type":"Feature","properties":{"name_en":"Nalao","did":1005,"pid":10,"uuid":"1.005056e+06"},"geometry":{"type":"Point","coordinates":[102.56264450988773,18.878316179562447]}},{"type":"Feature","properties":{"name_en":"Nakhou","did":1005,"pid":10,"uuid":"1.005057e+06"},"geometry":{"type":"Point","coordinates":[102.55745803978316,18.856003549806132]}},{"type":"Feature","properties":{"name_en":"Vanghuea","did":1005,"pid":10,"uuid":"1.005061e+06"},"geometry":{"type":"Point","coordinates":[102.53474643007124,18.844017009618042]}},{"type":"Feature","properties":{"name_en":"Thahueangnuea","did":1005,"pid":10,"uuid":"1.005066e+06"},"geometry":{"type":"Point","coordinates":[102.51454462040435,18.779781460145138]}},{"type":"Feature","properties":{"name_en":"Thahueangtai","did":1005,"pid":10,"uuid":"1.005067e+06"},"geometry":{"type":"Point","coordinates":[102.50960810001284,18.78447130023044]}},{"type":"Feature","properties":{"name_en":"Hoypamone","did":1005,"pid":10,"uuid":"1.005068e+06"},"geometry":{"type":"Point","coordinates":[102.49819588989153,18.79178509974574]}},{"type":"Feature","properties":{"name_en":"Nampatai","did":1005,"pid":10,"uuid":"1.005075e+06"},"geometry":{"type":"Point","coordinates":[102.52893031974631,18.77117291000695]}},{"type":"Feature","properties":{"name_en":"Hoyxi","did":1005,"pid":10,"uuid":"1.005076e+06"},"geometry":{"type":"Point","coordinates":[102.54681352973451,18.76350573043772]}},{"type":"Feature","properties":{"name_en":"Namphao","did":1005,"pid":10,"uuid":"1.005077e+06"},"geometry":{"type":"Point","coordinates":[102.57628245013811,18.74232684008765]}},{"type":"Feature","properties":{"name_en":"hoykgeng","did":1005,"pid":10,"uuid":"1.005081e+06"},"geometry":{"type":"Point","coordinates":[102.44195818039748,18.92159479957422]}},{"type":"Feature","properties":{"name_en":"Namkga","did":1005,"pid":10,"uuid":"1.005084e+06"},"geometry":{"type":"Point","coordinates":[102.53476504040063,18.853355629639594]}},{"type":"Feature","properties":{"name_en":"Thinone","did":1005,"pid":10,"uuid":"1.005085e+06"},"geometry":{"type":"Point","coordinates":[102.51416718991108,19.12001406025098]}},{"type":"Feature","properties":{"name_en":"Naye","did":1005,"pid":10,"uuid":"1.005086e+06"},"geometry":{"type":"Point","coordinates":[102.456117000303,19.10873299977234]}},{"type":"Feature","properties":{"name_en":"Savang","did":1005,"pid":10,"uuid":"1.005087e+06"},"geometry":{"type":"Point","coordinates":[102.50721439966793,19.145542820434766]}},{"type":"Feature","properties":{"name_en":"Nakhoung","did":1005,"pid":10,"uuid":"1.005088e+06"},"geometry":{"type":"Point","coordinates":[102.51678083026886,19.18434382042756]}},{"type":"Feature","properties":{"name_en":"Vangtphou","did":1005,"pid":10,"uuid":"1.005089e+06"},"geometry":{"type":"Point","coordinates":[102.47804428039944,19.085399820414278]}},{"type":"Feature","properties":{"name_en":"Phonhvieng","did":1005,"pid":10,"uuid":"1.00509e+06"},"geometry":{"type":"Point","coordinates":[102.51246306044074,18.8557681100424]}},{"type":"Feature","properties":{"name_en":"Phonnguene","did":1005,"pid":10,"uuid":"1.005091e+06"},"geometry":{"type":"Point","coordinates":[102.41790043983896,18.91740921011433]}},{"type":"Feature","properties":{"name_en":"Sokxai","did":1005,"pid":10,"uuid":"1.005092e+06"},"geometry":{"type":"Point","coordinates":[102.44338855013508,19.027961989614134]}},{"type":"Feature","properties":{"name_en":"Savang","did":1005,"pid":10,"uuid":"1.005093e+06"},"geometry":{"type":"Point","coordinates":[102.44739435028247,18.926760229900843]}},{"type":"Feature","properties":{"name_en":"Nalongkuang","did":1005,"pid":10,"uuid":"1.005094e+06"},"geometry":{"type":"Point","coordinates":[102.3585427398848,18.913571219889487]}},{"type":"Feature","properties":{"name_en":"Phonekham","did":1005,"pid":10,"uuid":"1.005095e+06"},"geometry":{"type":"Point","coordinates":[102.36757742029786,18.90295695987819]}},{"type":"Feature","properties":{"name_en":"Phathong","did":1005,"pid":10,"uuid":"1.005096e+06"},"geometry":{"type":"Point","coordinates":[102.40527595013963,18.899136159641728]}},{"type":"Feature","properties":{"name_en":"Keokhoun","did":1005,"pid":10,"uuid":"1.005097e+06"},"geometry":{"type":"Point","coordinates":[102.53149166017106,18.81858212957662]}},{"type":"Feature","properties":{"name_en":"Houymor","did":1005,"pid":10,"uuid":"1.005098e+06"},"geometry":{"type":"Point","coordinates":[102.51710940031658,18.783843329849994]}}]}