{"type":"FeatureCollection","features":[{"type":"Feature","properties":{"name_en":"Pakhang","did":1006,"pid":10,"uuid":"1.006013e+06"},"geometry":{"type":"Point","coordinates":[101.9739595596108,18.44907153993952]}},{"type":"Feature","properties":{"name_en":"Nakham","did":1006,"pid":10,"uuid":"1.006014e+06"},"geometry":{"type":"Point","coordinates":[101.98358760041938,18.48587790987891]}},{"type":"Feature","properties":{"name_en":"Noonsavane","did":1006,"pid":10,"uuid":"1.006015e+06"},"geometry":{"type":"Point","coordinates":[102.01148232027111,18.49734024030815]}},{"type":"Feature","properties":{"name_en":"Namuea","did":1006,"pid":10,"uuid":"1.006016e+06"},"geometry":{"type":"Point","coordinates":[102.02211099970627,18.51371764041385]}},{"type":"Feature","properties":{"name_en":"Naang","did":1006,"pid":10,"uuid":"1.006017e+06"},"geometry":{"type":"Point","coordinates":[101.97664051031448,18.55724879994072]}},{"type":"Feature","properties":{"name_en":"Nalang","did":1006,"pid":10,"uuid":"1.006018e+06"},"geometry":{"type":"Point","coordinates":[102.0168158102858,18.5885760795943]}},{"type":"Feature","properties":{"name_en":"Nakhop","did":1006,"pid":10,"uuid":"1.006019e+06"},"geometry":{"type":"Point","coordinates":[102.02436523021636,18.559398089810006]}},{"type":"Feature","properties":{"name_en":"Namon","did":1006,"pid":10,"uuid":"1.00602e+06"},"geometry":{"type":"Point","coordinates":[102.03942818038716,18.60156434993717]}},{"type":"Feature","properties":{"name_en":"Nakheng","did":1006,"pid":10,"uuid":"1.006021e+06"},"geometry":{"type":"Point","coordinates":[102.04895912091264,18.608115768253214]}},{"type":"Feature","properties":{"name_en":"Phonhthong","did":1006,"pid":10,"uuid":"1.006022e+06"},"geometry":{"type":"Point","coordinates":[102.06175349803709,18.626573621723146]}},{"type":"Feature","properties":{"name_en":"Phonhbeng","did":1006,"pid":10,"uuid":"1.006023e+06"},"geometry":{"type":"Point","coordinates":[102.03318307150126,18.631061491945022]}},{"type":"Feature","properties":{"name_en":"Namhai","did":1006,"pid":10,"uuid":"1.006024e+06"},"geometry":{"type":"Point","coordinates":[102.01851999987916,18.628820000286932]}},{"type":"Feature","properties":{"name_en":"Nathoun","did":1006,"pid":10,"uuid":"1.006025e+06"},"geometry":{"type":"Point","coordinates":[102.01977830988987,18.636332819631235]}},{"type":"Feature","properties":{"name_en":"Phouphieng","did":1006,"pid":10,"uuid":"1.006026e+06"},"geometry":{"type":"Point","coordinates":[102.04415506994039,18.67036359039328]}},{"type":"Feature","properties":{"name_en":"Phonhsai","did":1006,"pid":10,"uuid":"1.006028e+06"},"geometry":{"type":"Point","coordinates":[102.0899891603621,18.639434119827783]}},{"type":"Feature","properties":{"name_en":"Nathong","did":1006,"pid":10,"uuid":"1.006029e+06"},"geometry":{"type":"Point","coordinates":[102.10148476978802,18.650015350127465]}},{"type":"Feature","properties":{"name_en":"Laokham","did":1006,"pid":10,"uuid":"1.00603e+06"},"geometry":{"type":"Point","coordinates":[102.11542799994216,18.65556399957845]}},{"type":"Feature","properties":{"name_en":"Nampoung","did":1006,"pid":10,"uuid":"1.006032e+06"},"geometry":{"type":"Point","coordinates":[102.0728521032811,18.67428031627189]}},{"type":"Feature","properties":{"name_en":"Nawane","did":1006,"pid":10,"uuid":"1.006033e+06"},"geometry":{"type":"Point","coordinates":[102.08293101013889,18.69244118990243]}},{"type":"Feature","properties":{"name_en":"Nakang","did":1006,"pid":10,"uuid":"1.006034e+06"},"geometry":{"type":"Point","coordinates":[102.12253147958708,18.65993064022208]}},{"type":"Feature","properties":{"name_en":"Tha","did":1006,"pid":10,"uuid":"1.006035e+06"},"geometry":{"type":"Point","coordinates":[102.12396997968136,18.678979939831997]}},{"type":"Feature","properties":{"name_en":"Nathua","did":1006,"pid":10,"uuid":"1.006036e+06"},"geometry":{"type":"Point","coordinates":[102.12569991963498,18.690779980336035]}},{"type":"Feature","properties":{"name_en":"Mouengfoueng","did":1006,"pid":10,"uuid":"1.006037e+06"},"geometry":{"type":"Point","coordinates":[102.13035887345178,18.72067283812677]}},{"type":"Feature","properties":{"name_en":"Sammeun","did":1006,"pid":10,"uuid":"1.006038e+06"},"geometry":{"type":"Point","coordinates":[102.13218994019844,18.746279999878755]}},{"type":"Feature","properties":{"name_en":"Khonhloueng","did":1006,"pid":10,"uuid":"1.006039e+06"},"geometry":{"type":"Point","coordinates":[102.12526993008527,18.771149939871474]}},{"type":"Feature","properties":{"name_en":"Kaengxieng","did":1006,"pid":10,"uuid":"1.00604e+06"},"geometry":{"type":"Point","coordinates":[102.13783992963788,18.738979950225804]}},{"type":"Feature","properties":{"name_en":"Sysa ath","did":1006,"pid":10,"uuid":"1.006041e+06"},"geometry":{"type":"Point","coordinates":[102.14349998009236,18.751939959957824]}},{"type":"Feature","properties":{"name_en":"Namai","did":1006,"pid":10,"uuid":"1.006042e+06"},"geometry":{"type":"Point","coordinates":[102.16049998978104,18.7749199595625]}},{"type":"Feature","properties":{"name_en":"Nongpeth","did":1006,"pid":10,"uuid":"1.006043e+06"},"geometry":{"type":"Point","coordinates":[102.15362616894866,18.78595750318801]}},{"type":"Feature","properties":{"name_en":"Nabon","did":1006,"pid":10,"uuid":"1.006044e+06"},"geometry":{"type":"Point","coordinates":[102.17144993991496,18.804939990004836]}},{"type":"Feature","properties":{"name_en":"Naxaeng","did":1006,"pid":10,"uuid":"1.006045e+06"},"geometry":{"type":"Point","coordinates":[102.12749992979941,18.793549989880624]}},{"type":"Feature","properties":{"name_en":"Phasangneua","did":1006,"pid":10,"uuid":"1.006051e+06"},"geometry":{"type":"Point","coordinates":[101.9809293701889,18.474990819650763]}},{"type":"Feature","properties":{"name_en":"Phonhinhae","did":1006,"pid":10,"uuid":"1.006052e+06"},"geometry":{"type":"Point","coordinates":[102.1064799698741,18.715859980342493]}},{"type":"Feature","properties":{"name_en":"Huoideua","did":1006,"pid":10,"uuid":"1.006053e+06"},"geometry":{"type":"Point","coordinates":[101.97524693960575,18.578011530195184]}},{"type":"Feature","properties":{"name_en":"Phonhnhaeng","did":1006,"pid":10,"uuid":"1.006054e+06"},"geometry":{"type":"Point","coordinates":[102.04634055955906,18.60623364997788]}},{"type":"Feature","properties":{"name_en":"Napheung","did":1006,"pid":10,"uuid":"1.006055e+06"},"geometry":{"type":"Point","coordinates":[102.06407400043216,18.63006599977536]}},{"type":"Feature","properties":{"name_en":"Don","did":1006,"pid":10,"uuid":"1.006057e+06"},"geometry":{"type":"Point","coordinates":[102.12824995029041,18.678629990076335]}},{"type":"Feature","properties":{"name_en":"Phosy","did":1006,"pid":10,"uuid":"1.006058e+06"},"geometry":{"type":"Point","coordinates":[102.12329993018902,18.70968996967851]}},{"type":"Feature","properties":{"name_en":"Pakngua","did":1006,"pid":10,"uuid":"1.00606e+06"},"geometry":{"type":"Point","coordinates":[102.14249993961639,18.75800996955477]}},{"type":"Feature","properties":{"name_en":"Phaluang","did":1006,"pid":10,"uuid":"1.006061e+06"},"geometry":{"type":"Point","coordinates":[101.97485274045899,18.519478190246435]}},{"type":"Feature","properties":{"name_en":"Nongpor","did":1006,"pid":10,"uuid":"1.006062e+06"},"geometry":{"type":"Point","coordinates":[102.04042192999415,18.698834150329333]}},{"type":"Feature","properties":{"name_en":"Phasangtai","did":1006,"pid":10,"uuid":"1.006063e+06"},"geometry":{"type":"Point","coordinates":[101.97866549973836,18.465441480154254]}},{"type":"Feature","properties":{"name_en":"Saenxai","did":1006,"pid":10,"uuid":"1.006065e+06"},"geometry":{"type":"Point","coordinates":[101.91236984003989,18.454202939742054]}},{"type":"Feature","properties":{"name_en":"Phonesavat","did":1006,"pid":10,"uuid":"1.006066e+06"},"geometry":{"type":"Point","coordinates":[101.97359947027766,18.545459910159753]}}]}