{"type":"FeatureCollection","features":[{"type":"Feature","properties":{"name_en":"Siphoum","did":1007,"pid":10,"uuid":"1.007002e+06"},"geometry":{"type":"Point","coordinates":[101.66377851978936,17.906497879900886]}},{"type":"Feature","properties":{"name_en":"Jouansawanh","did":1007,"pid":10,"uuid":"1.007005e+06"},"geometry":{"type":"Point","coordinates":[101.63596225047799,17.90058292994741]}},{"type":"Feature","properties":{"name_en":"Takdaeth","did":1007,"pid":10,"uuid":"1.007006e+06"},"geometry":{"type":"Point","coordinates":[101.65571957015703,17.902576649803464]}},{"type":"Feature","properties":{"name_en":"Pakmy","did":1007,"pid":10,"uuid":"1.007007e+06"},"geometry":{"type":"Point","coordinates":[101.6900477403703,17.9180820799734]}},{"type":"Feature","properties":{"name_en":"Nasomboun","did":1007,"pid":10,"uuid":"1.007008e+06"},"geometry":{"type":"Point","coordinates":[101.75514687990378,18.33006938978157]}},{"type":"Feature","properties":{"name_en":"Phonhsawath","did":1007,"pid":10,"uuid":"1.007009e+06"},"geometry":{"type":"Point","coordinates":[101.74324114004234,18.309824829624247]}},{"type":"Feature","properties":{"name_en":"Phonengam","did":1007,"pid":10,"uuid":"1.00701e+06"},"geometry":{"type":"Point","coordinates":[101.73392984967668,18.29054636961719]}},{"type":"Feature","properties":{"name_en":"Saenchaluern","did":1007,"pid":10,"uuid":"1.007011e+06"},"geometry":{"type":"Point","coordinates":[101.73113867991017,18.27700079039486]}},{"type":"Feature","properties":{"name_en":"Nakang","did":1007,"pid":10,"uuid":"1.007012e+06"},"geometry":{"type":"Point","coordinates":[101.72893776003505,18.26611647010439]}},{"type":"Feature","properties":{"name_en":"Nonhnakaeb","did":1007,"pid":10,"uuid":"1.007013e+06"},"geometry":{"type":"Point","coordinates":[101.72751216032997,18.244157059621315]}},{"type":"Feature","properties":{"name_en":"Namoy","did":1007,"pid":10,"uuid":"1.007014e+06"},"geometry":{"type":"Point","coordinates":[101.71916453962379,18.20683245011843]}},{"type":"Feature","properties":{"name_en":"Nady","did":1007,"pid":10,"uuid":"1.007016e+06"},"geometry":{"type":"Point","coordinates":[101.71748295968371,18.178901089719744]}},{"type":"Feature","properties":{"name_en":"NamKouan","did":1007,"pid":10,"uuid":"1.007018e+06"},"geometry":{"type":"Point","coordinates":[101.71770742980274,18.141822069787494]}},{"type":"Feature","properties":{"name_en":"Huoitao","did":1007,"pid":10,"uuid":"1.007019e+06"},"geometry":{"type":"Point","coordinates":[101.71533065955911,18.133739989553785]}},{"type":"Feature","properties":{"name_en":"Huoikanheng","did":1007,"pid":10,"uuid":"1.00702e+06"},"geometry":{"type":"Point","coordinates":[101.47860800021293,18.304586000215746]}},{"type":"Feature","properties":{"name_en":"Khokngew","did":1007,"pid":10,"uuid":"1.007021e+06"},"geometry":{"type":"Point","coordinates":[101.44207173021087,18.25644552001763]}},{"type":"Feature","properties":{"name_en":"Khokapdam","did":1007,"pid":10,"uuid":"1.007022e+06"},"geometry":{"type":"Point","coordinates":[101.39697919036405,18.16287850040389]}},{"type":"Feature","properties":{"name_en":"Huoitao","did":1007,"pid":10,"uuid":"1.007023e+06"},"geometry":{"type":"Point","coordinates":[101.39761712985944,18.141849139523437]}},{"type":"Feature","properties":{"name_en":"Mai Parkthoon","did":1007,"pid":10,"uuid":"1.007024e+06"},"geometry":{"type":"Point","coordinates":[101.40695364985187,18.104337280061333]}},{"type":"Feature","properties":{"name_en":"Donhphoung","did":1007,"pid":10,"uuid":"1.007026e+06"},"geometry":{"type":"Point","coordinates":[101.42612407039442,18.03089974034805]}},{"type":"Feature","properties":{"name_en":"Nadeua","did":1007,"pid":10,"uuid":"1.007027e+06"},"geometry":{"type":"Point","coordinates":[101.71194102035535,18.113609340441826]}},{"type":"Feature","properties":{"name_en":"Phonhsawang","did":1007,"pid":10,"uuid":"1.007028e+06"},"geometry":{"type":"Point","coordinates":[101.7092120404253,18.09355270023369]}},{"type":"Feature","properties":{"name_en":"Nasack","did":1007,"pid":10,"uuid":"1.00703e+06"},"geometry":{"type":"Point","coordinates":[101.70570882047106,18.06373357988093]}},{"type":"Feature","properties":{"name_en":"Nonhsawanh","did":1007,"pid":10,"uuid":"1.007031e+06"},"geometry":{"type":"Point","coordinates":[101.690322409903,18.069245010396585]}},{"type":"Feature","properties":{"name_en":"Dongkham","did":1007,"pid":10,"uuid":"1.007033e+06"},"geometry":{"type":"Point","coordinates":[101.70385163981379,18.04509331027095]}},{"type":"Feature","properties":{"name_en":"Buasalern","did":1007,"pid":10,"uuid":"1.007034e+06"},"geometry":{"type":"Point","coordinates":[101.69789446015832,18.001449079634213]}},{"type":"Feature","properties":{"name_en":"Namphok","did":1007,"pid":10,"uuid":"1.007036e+06"},"geometry":{"type":"Point","coordinates":[101.65644201011241,17.995540260212675]}},{"type":"Feature","properties":{"name_en":"Napafa","did":1007,"pid":10,"uuid":"1.007038e+06"},"geometry":{"type":"Point","coordinates":[101.68026621991376,17.97953971016902]}},{"type":"Feature","properties":{"name_en":"Naphieng","did":1007,"pid":10,"uuid":"1.007039e+06"},"geometry":{"type":"Point","coordinates":[101.69190768021288,17.973966579853645]}},{"type":"Feature","properties":{"name_en":"Pong","did":1007,"pid":10,"uuid":"1.00704e+06"},"geometry":{"type":"Point","coordinates":[101.69421656007889,17.956224350133]}},{"type":"Feature","properties":{"name_en":"Donesork","did":1007,"pid":10,"uuid":"1.007041e+06"},"geometry":{"type":"Point","coordinates":[101.41511899971249,17.950387000156724]}},{"type":"Feature","properties":{"name_en":"Phalath","did":1007,"pid":10,"uuid":"1.007042e+06"},"geometry":{"type":"Point","coordinates":[101.57042749988526,17.870040199736522]}},{"type":"Feature","properties":{"name_en":"Pakphang","did":1007,"pid":10,"uuid":"1.007044e+06"},"geometry":{"type":"Point","coordinates":[101.60880036016083,17.893944970041456]}},{"type":"Feature","properties":{"name_en":"Sanakham","did":1007,"pid":10,"uuid":"1.007053e+06"},"geometry":{"type":"Point","coordinates":[101.67937706973056,17.914024570089918]}}]}