{"type":"FeatureCollection","features":[{"type":"Feature","properties":{"name_en":"Nadokkhoun","did":1008,"pid":10,"uuid":"1.008001e+06"},"geometry":{"type":"Point","coordinates":[102.05681953987744,18.997369379975833]}},{"type":"Feature","properties":{"name_en":"Nanguew","did":1008,"pid":10,"uuid":"1.008002e+06"},"geometry":{"type":"Point","coordinates":[102.05022992989822,18.971538369575157]}},{"type":"Feature","properties":{"name_en":"Huoitom","did":1008,"pid":10,"uuid":"1.008004e+06"},"geometry":{"type":"Point","coordinates":[102.0340647604261,18.95059853012619]}},{"type":"Feature","properties":{"name_en":"Nathao","did":1008,"pid":10,"uuid":"1.008006e+06"},"geometry":{"type":"Point","coordinates":[102.02546284024119,18.94391069030663]}},{"type":"Feature","properties":{"name_en":"Nakangpa","did":1008,"pid":10,"uuid":"1.008007e+06"},"geometry":{"type":"Point","coordinates":[102.01386537986419,18.925082760315163]}},{"type":"Feature","properties":{"name_en":"Namnhon","did":1008,"pid":10,"uuid":"1.008009e+06"},"geometry":{"type":"Point","coordinates":[102.00985656980086,18.90361142017694]}},{"type":"Feature","properties":{"name_en":"Hadnhao","did":1008,"pid":10,"uuid":"1.00801e+06"},"geometry":{"type":"Point","coordinates":[101.98970187009152,18.894719150408832]}},{"type":"Feature","properties":{"name_en":"Napachat","did":1008,"pid":10,"uuid":"1.008011e+06"},"geometry":{"type":"Point","coordinates":[101.98046157011008,18.878177459709473]}},{"type":"Feature","properties":{"name_en":"Mueangmaeth","did":1008,"pid":10,"uuid":"1.008013e+06"},"geometry":{"type":"Point","coordinates":[101.92780947046603,18.837096159718435]}},{"type":"Feature","properties":{"name_en":"Napho","did":1008,"pid":10,"uuid":"1.008014e+06"},"geometry":{"type":"Point","coordinates":[101.92502927967105,18.82996316023536]}},{"type":"Feature","properties":{"name_en":"Napane","did":1008,"pid":10,"uuid":"1.008016e+06"},"geometry":{"type":"Point","coordinates":[101.91031031984646,18.825780089912318]}},{"type":"Feature","properties":{"name_en":"Namhouang","did":1008,"pid":10,"uuid":"1.008018e+06"},"geometry":{"type":"Point","coordinates":[101.92445889022724,18.857024969610112]}},{"type":"Feature","properties":{"name_en":"Huoipakmath","did":1008,"pid":10,"uuid":"1.008019e+06"},"geometry":{"type":"Point","coordinates":[101.93281364019825,18.876630660224077]}},{"type":"Feature","properties":{"name_en":"Namphueang","did":1008,"pid":10,"uuid":"1.00802e+06"},"geometry":{"type":"Point","coordinates":[101.89416585003214,18.91796802976932]}},{"type":"Feature","properties":{"name_en":"Sixavard","did":1008,"pid":10,"uuid":"1.008023e+06"},"geometry":{"type":"Point","coordinates":[101.89503062009967,18.812507180189794]}},{"type":"Feature","properties":{"name_en":"Pakyan","did":1008,"pid":10,"uuid":"1.008025e+06"},"geometry":{"type":"Point","coordinates":[101.84220567971884,18.768997300169772]}},{"type":"Feature","properties":{"name_en":"Nadi","did":1008,"pid":10,"uuid":"1.008026e+06"},"geometry":{"type":"Point","coordinates":[101.89586654038459,18.78388003974451]}},{"type":"Feature","properties":{"name_en":"Sisaarknuea","did":1008,"pid":10,"uuid":"1.008027e+06"},"geometry":{"type":"Point","coordinates":[101.8853361097472,18.731002389586767]}},{"type":"Feature","properties":{"name_en":"Nayak","did":1008,"pid":10,"uuid":"1.008028e+06"},"geometry":{"type":"Point","coordinates":[101.88679674045221,18.714185780286655]}},{"type":"Feature","properties":{"name_en":"Napou","did":1008,"pid":10,"uuid":"1.008029e+06"},"geometry":{"type":"Point","coordinates":[101.86560251021999,18.685777240414435]}},{"type":"Feature","properties":{"name_en":"Noonsavanh","did":1008,"pid":10,"uuid":"1.00803e+06"},"geometry":{"type":"Point","coordinates":[101.85060736990094,18.66470723026362]}},{"type":"Feature","properties":{"name_en":"Namon","did":1008,"pid":10,"uuid":"1.008031e+06"},"geometry":{"type":"Point","coordinates":[101.84262762973019,18.64554167994443]}},{"type":"Feature","properties":{"name_en":"Sisaark","did":1008,"pid":10,"uuid":"1.008032e+06"},"geometry":{"type":"Point","coordinates":[101.82315320035633,18.611312160152647]}},{"type":"Feature","properties":{"name_en":"Pakphen","did":1008,"pid":10,"uuid":"1.008033e+06"},"geometry":{"type":"Point","coordinates":[101.78923893021886,18.61059408987597]}},{"type":"Feature","properties":{"name_en":"Namphen","did":1008,"pid":10,"uuid":"1.008034e+06"},"geometry":{"type":"Point","coordinates":[101.8060618304775,18.590830730287763]}},{"type":"Feature","properties":{"name_en":"Naxou","did":1008,"pid":10,"uuid":"1.008035e+06"},"geometry":{"type":"Point","coordinates":[101.79100089039565,18.551411650350435]}},{"type":"Feature","properties":{"name_en":"Phonhyeng","did":1008,"pid":10,"uuid":"1.008036e+06"},"geometry":{"type":"Point","coordinates":[101.76879463014829,18.486180909904927]}},{"type":"Feature","properties":{"name_en":"Mueangkhi","did":1008,"pid":10,"uuid":"1.008037e+06"},"geometry":{"type":"Point","coordinates":[101.7645214499184,18.449448060289914]}},{"type":"Feature","properties":{"name_en":"Naoudomtai","did":1008,"pid":10,"uuid":"1.008038e+06"},"geometry":{"type":"Point","coordinates":[101.72081359982322,18.456868140018397]}},{"type":"Feature","properties":{"name_en":"Naxavang","did":1008,"pid":10,"uuid":"1.008039e+06"},"geometry":{"type":"Point","coordinates":[101.76883427027556,18.39258295988709]}},{"type":"Feature","properties":{"name_en":"Hoykoua","did":1008,"pid":10,"uuid":"1.00804e+06"},"geometry":{"type":"Point","coordinates":[101.76419631994662,18.36600076042128]}},{"type":"Feature","properties":{"name_en":"Donesaykgam","did":1008,"pid":10,"uuid":"1.008041e+06"},"geometry":{"type":"Point","coordinates":[101.73292192986094,18.50958376968232]}},{"type":"Feature","properties":{"name_en":"Namhan","did":1008,"pid":10,"uuid":"1.008042e+06"},"geometry":{"type":"Point","coordinates":[101.78379203047268,18.520888699907417]}}]}