{"type":"FeatureCollection","features":[{"type":"Feature","properties":{"name_en":"Pakkayoung","did":1009,"pid":10,"uuid":"1.009001e+06"},"geometry":{"type":"Point","coordinates":[102.54105214001498,18.420748420092192]}},{"type":"Feature","properties":{"name_en":"Thatphousay","did":1009,"pid":10,"uuid":"1.009003e+06"},"geometry":{"type":"Point","coordinates":[102.53670319015956,18.42111748021929]}},{"type":"Feature","properties":{"name_en":"Mueangkao","did":1009,"pid":10,"uuid":"1.009004e+06"},"geometry":{"type":"Point","coordinates":[102.53629482043692,18.427686290183914]}},{"type":"Feature","properties":{"name_en":"Vurnseng","did":1009,"pid":10,"uuid":"1.009005e+06"},"geometry":{"type":"Point","coordinates":[102.53469128031298,18.439628069623737]}},{"type":"Feature","properties":{"name_en":"Nakhuea","did":1009,"pid":10,"uuid":"1.009006e+06"},"geometry":{"type":"Point","coordinates":[102.53294709026723,18.432568000373326]}},{"type":"Feature","properties":{"name_en":"Nanin","did":1009,"pid":10,"uuid":"1.009007e+06"},"geometry":{"type":"Point","coordinates":[102.52895202019539,18.45611694954836]}},{"type":"Feature","properties":{"name_en":"Haaksaykhoun","did":1009,"pid":10,"uuid":"1.009008e+06"},"geometry":{"type":"Point","coordinates":[102.5331808596611,18.458463879827978]}},{"type":"Feature","properties":{"name_en":"Noonxavang","did":1009,"pid":10,"uuid":"1.009009e+06"},"geometry":{"type":"Point","coordinates":[102.50469102990796,18.45045756967984]}},{"type":"Feature","properties":{"name_en":"Phonhminuea","did":1009,"pid":10,"uuid":"1.00901e+06"},"geometry":{"type":"Point","coordinates":[102.486344129991,18.484675690139262]}},{"type":"Feature","properties":{"name_en":"Phonhxong","did":1009,"pid":10,"uuid":"1.009011e+06"},"geometry":{"type":"Point","coordinates":[102.49006050025216,18.49024689025013]}},{"type":"Feature","properties":{"name_en":"Pakcheng","did":1009,"pid":10,"uuid":"1.009012e+06"},"geometry":{"type":"Point","coordinates":[102.53434628018408,18.410380009693988]}},{"type":"Feature","properties":{"name_en":"maipkousi","did":1009,"pid":10,"uuid":"1.009014e+06"},"geometry":{"type":"Point","coordinates":[102.50766115011648,18.4116910201572]}},{"type":"Feature","properties":{"name_en":"Phonhhong","did":1009,"pid":10,"uuid":"1.009015e+06"},"geometry":{"type":"Point","coordinates":[102.50909270040428,18.39879084961042]}},{"type":"Feature","properties":{"name_en":"Donekord","did":1009,"pid":10,"uuid":"1.009016e+06"},"geometry":{"type":"Point","coordinates":[102.54202654022761,18.395766079766453]}},{"type":"Feature","properties":{"name_en":"Thinyong","did":1009,"pid":10,"uuid":"1.009017e+06"},"geometry":{"type":"Point","coordinates":[102.53100189962058,18.36921028007975]}},{"type":"Feature","properties":{"name_en":"Viengkham","did":1009,"pid":10,"uuid":"1.009018e+06"},"geometry":{"type":"Point","coordinates":[102.5446902195411,18.364690840429883]}},{"type":"Feature","properties":{"name_en":"Phonhmitai","did":1009,"pid":10,"uuid":"1.009019e+06"},"geometry":{"type":"Point","coordinates":[102.48825135011846,18.469842400386632]}}]}