{"type":"FeatureCollection","features":[{"type":"Feature","properties":{"name_en":"Nongping","did":101,"pid":1,"uuid":"101001"},"geometry":{"type":"Point","coordinates":[102.59334356989837,18.001621580047487]}},{"type":"Feature","properties":{"name_en":"Bonangoua","did":101,"pid":1,"uuid":"101002"},"geometry":{"type":"Point","coordinates":[102.6019082803217,18.012865570293215]}},{"type":"Feature","properties":{"name_en":"Houyhong","did":101,"pid":1,"uuid":"101003"},"geometry":{"type":"Point","coordinates":[102.61686838005495,18.019177060408442]}},{"type":"Feature","properties":{"name_en":"Phonsavang","did":101,"pid":1,"uuid":"101004"},"geometry":{"type":"Point","coordinates":[102.62463153039266,18.000662019787402]}},{"type":"Feature","properties":{"name_en":"Nongtha-Nua","did":101,"pid":1,"uuid":"101005"},"geometry":{"type":"Point","coordinates":[102.60922216031538,18.006848120418297]}},{"type":"Feature","properties":{"name_en":"Nongtha-Tai","did":101,"pid":1,"uuid":"101006"},"geometry":{"type":"Point","coordinates":[102.61565963013975,18.00053671032246]}},{"type":"Feature","properties":{"name_en":"Dondeng","did":101,"pid":1,"uuid":"101007"},"geometry":{"type":"Point","coordinates":[102.60848245961886,17.997190319988785]}},{"type":"Feature","properties":{"name_en":"Phontongsavat","did":101,"pid":1,"uuid":"101008"},"geometry":{"type":"Point","coordinates":[102.61867703035273,17.99350027006926]}},{"type":"Feature","properties":{"name_en":"Dongpalep","did":101,"pid":1,"uuid":"101009"},"geometry":{"type":"Point","coordinates":[102.60860926953971,17.987825640126896]}},{"type":"Feature","properties":{"name_en":"Phontongchommani","did":101,"pid":1,"uuid":"101010"},"geometry":{"type":"Point","coordinates":[102.6141008501227,17.988249590429376]}},{"type":"Feature","properties":{"name_en":"Hongxeng","did":101,"pid":1,"uuid":"101011"},"geometry":{"type":"Point","coordinates":[102.61937776038091,17.987645339787278]}},{"type":"Feature","properties":{"name_en":"Hongkaikeo","did":101,"pid":1,"uuid":"101012"},"geometry":{"type":"Point","coordinates":[102.62305086979912,17.9860453201294]}},{"type":"Feature","properties":{"name_en":"Thongsangnang","did":101,"pid":1,"uuid":"101013"},"geometry":{"type":"Point","coordinates":[102.61875213041611,17.98168288014465]}},{"type":"Feature","properties":{"name_en":"Savang","did":101,"pid":1,"uuid":"101014"},"geometry":{"type":"Point","coordinates":[102.61151360036678,17.98289581996632]}},{"type":"Feature","properties":{"name_en":"Hongkha","did":101,"pid":1,"uuid":"101015"},"geometry":{"type":"Point","coordinates":[102.60357276009478,17.97727400033702]}},{"type":"Feature","properties":{"name_en":"Thongtoum","did":101,"pid":1,"uuid":"101016"},"geometry":{"type":"Point","coordinates":[102.60638471962187,17.97718992042203]}},{"type":"Feature","properties":{"name_en":"Dongmiang","did":101,"pid":1,"uuid":"101017"},"geometry":{"type":"Point","coordinates":[102.60891496037664,17.976760690167488]}},{"type":"Feature","properties":{"name_en":"Sidamdouan","did":101,"pid":1,"uuid":"101018"},"geometry":{"type":"Point","coordinates":[102.61789381957279,17.97618384003435]}},{"type":"Feature","properties":{"name_en":"Sibounhuang","did":101,"pid":1,"uuid":"101019"},"geometry":{"type":"Point","coordinates":[102.62200096026032,17.97784404968018]}},{"type":"Feature","properties":{"name_en":"Khoualouang","did":101,"pid":1,"uuid":"101020"},"geometry":{"type":"Point","coordinates":[102.60204415019068,17.97343390972553]}},{"type":"Feature","properties":{"name_en":"Sisavat","did":101,"pid":1,"uuid":"101021"},"geometry":{"type":"Point","coordinates":[102.61514086983193,17.972556320269618]}},{"type":"Feature","properties":{"name_en":"Thongkhankham","did":101,"pid":1,"uuid":"101022"},"geometry":{"type":"Point","coordinates":[102.60812454995427,17.970910289815784]}},{"type":"Feature","properties":{"name_en":"Sihom","did":101,"pid":1,"uuid":"101023"},"geometry":{"type":"Point","coordinates":[102.59956729968373,17.96947313037472]}},{"type":"Feature","properties":{"name_en":"Anou","did":101,"pid":1,"uuid":"101024"},"geometry":{"type":"Point","coordinates":[102.60484990957166,17.96932710985118]}},{"type":"Feature","properties":{"name_en":"Hatsadi","did":101,"pid":1,"uuid":"101026"},"geometry":{"type":"Point","coordinates":[102.61388995982426,17.968969959759374]}},{"type":"Feature","properties":{"name_en":"Haysok","did":101,"pid":1,"uuid":"101029"},"geometry":{"type":"Point","coordinates":[102.60554442989896,17.966990909835197]}},{"type":"Feature","properties":{"name_en":"Saylom","did":101,"pid":1,"uuid":"101030"},"geometry":{"type":"Point","coordinates":[102.61282353043262,17.97158930028095]}},{"type":"Feature","properties":{"name_en":"Mixai","did":101,"pid":1,"uuid":"101031"},"geometry":{"type":"Point","coordinates":[102.60472165955116,17.964418250395877]}},{"type":"Feature","properties":{"name_en":"Xianggnun","did":101,"pid":1,"uuid":"101032"},"geometry":{"type":"Point","coordinates":[102.60796260995892,17.96491857036752]}},{"type":"Feature","properties":{"name_en":"Vatchan","did":101,"pid":1,"uuid":"101035"},"geometry":{"type":"Point","coordinates":[102.60213961974728,17.964996269561134]}}]}