{"type":"FeatureCollection","features":[{"type":"Feature","properties":{"name_en":"Hinkgonh","did":1010,"pid":10,"uuid":"1.010002e+06"},"geometry":{"type":"Point","coordinates":[102.3320359696772,18.59656337031139]}},{"type":"Feature","properties":{"name_en":"Viengthong","did":1010,"pid":10,"uuid":"1.010003e+06"},"geometry":{"type":"Point","coordinates":[102.30911724982826,18.643717690009428]}},{"type":"Feature","properties":{"name_en":"Phonhxoung","did":1010,"pid":10,"uuid":"1.010004e+06"},"geometry":{"type":"Point","coordinates":[102.29871396963487,18.641550970154864]}},{"type":"Feature","properties":{"name_en":"Khonephook","did":1010,"pid":10,"uuid":"1.010005e+06"},"geometry":{"type":"Point","coordinates":[102.27325309984883,18.63055424999878]}},{"type":"Feature","properties":{"name_en":"Bochanh","did":1010,"pid":10,"uuid":"1.010006e+06"},"geometry":{"type":"Point","coordinates":[102.2125946095829,18.643098179875928]}},{"type":"Feature","properties":{"name_en":"Phonhmoung","did":1010,"pid":10,"uuid":"1.010007e+06"},"geometry":{"type":"Point","coordinates":[102.25467461029244,18.624426990298645]}},{"type":"Feature","properties":{"name_en":"Hinheubtai","did":1010,"pid":10,"uuid":"1.010008e+06"},"geometry":{"type":"Point","coordinates":[102.32477036983502,18.63588254039024]}},{"type":"Feature","properties":{"name_en":"Hinheubnuea","did":1010,"pid":10,"uuid":"1.010009e+06"},"geometry":{"type":"Point","coordinates":[102.33075018953721,18.6387756398951]}},{"type":"Feature","properties":{"name_en":"Vangkhi","did":1010,"pid":10,"uuid":"1.01001e+06"},"geometry":{"type":"Point","coordinates":[102.40695661003777,18.76945176965155]}},{"type":"Feature","properties":{"name_en":"Sivilay","did":1010,"pid":10,"uuid":"1.010012e+06"},"geometry":{"type":"Point","coordinates":[102.4769600898536,18.793211530408502]}},{"type":"Feature","properties":{"name_en":"Somsanook","did":1010,"pid":10,"uuid":"1.010013e+06"},"geometry":{"type":"Point","coordinates":[102.46100780968402,18.787981390300228]}},{"type":"Feature","properties":{"name_en":"Phonhthongnuea","did":1010,"pid":10,"uuid":"1.010014e+06"},"geometry":{"type":"Point","coordinates":[102.39197629994088,18.741766009831963]}},{"type":"Feature","properties":{"name_en":"Nampuck","did":1010,"pid":10,"uuid":"1.010015e+06"},"geometry":{"type":"Point","coordinates":[102.42054844963943,18.778315720419553]}},{"type":"Feature","properties":{"name_en":"Hoydomai","did":1010,"pid":10,"uuid":"1.010016e+06"},"geometry":{"type":"Point","coordinates":[102.36223789991983,18.721916659715106]}},{"type":"Feature","properties":{"name_en":"Hintit","did":1010,"pid":10,"uuid":"1.010018e+06"},"geometry":{"type":"Point","coordinates":[102.34496354976633,18.699054180188384]}},{"type":"Feature","properties":{"name_en":"Pakxong","did":1010,"pid":10,"uuid":"1.010019e+06"},"geometry":{"type":"Point","coordinates":[102.3420833600398,18.68891903012621]}},{"type":"Feature","properties":{"name_en":"Nakang","did":1010,"pid":10,"uuid":"1.01002e+06"},"geometry":{"type":"Point","coordinates":[102.24883863011041,18.777390019838343]}},{"type":"Feature","properties":{"name_en":"Phabong","did":1010,"pid":10,"uuid":"1.010021e+06"},"geometry":{"type":"Point","coordinates":[102.27504272045954,18.74899246969575]}},{"type":"Feature","properties":{"name_en":"Nalueang","did":1010,"pid":10,"uuid":"1.010022e+06"},"geometry":{"type":"Point","coordinates":[102.2891468596792,18.747881530356086]}},{"type":"Feature","properties":{"name_en":"Natai","did":1010,"pid":10,"uuid":"1.010023e+06"},"geometry":{"type":"Point","coordinates":[102.30489965041727,18.762357660053226]}},{"type":"Feature","properties":{"name_en":"Naang","did":1010,"pid":10,"uuid":"1.010024e+06"},"geometry":{"type":"Point","coordinates":[102.32843201016534,18.778080859974963]}},{"type":"Feature","properties":{"name_en":"NaPhong","did":1010,"pid":10,"uuid":"1.010025e+06"},"geometry":{"type":"Point","coordinates":[102.28653205022,18.71611327969106]}},{"type":"Feature","properties":{"name_en":"Nasak","did":1010,"pid":10,"uuid":"1.010026e+06"},"geometry":{"type":"Point","coordinates":[102.28648184034384,18.697727320021222]}},{"type":"Feature","properties":{"name_en":"Nakhoun","did":1010,"pid":10,"uuid":"1.010027e+06"},"geometry":{"type":"Point","coordinates":[102.28676825040836,18.68078490027345]}},{"type":"Feature","properties":{"name_en":"tangkham","did":1010,"pid":10,"uuid":"1.010028e+06"},"geometry":{"type":"Point","coordinates":[102.28592343991903,18.66643432999741]}},{"type":"Feature","properties":{"name_en":"Hoyileunk","did":1010,"pid":10,"uuid":"1.010029e+06"},"geometry":{"type":"Point","coordinates":[102.35263534009259,18.576469599754873]}},{"type":"Feature","properties":{"name_en":"Phonhsavane","did":1010,"pid":10,"uuid":"1.010032e+06"},"geometry":{"type":"Point","coordinates":[102.28195461021235,18.552574550282337]}},{"type":"Feature","properties":{"name_en":"Phonevilay","did":1010,"pid":10,"uuid":"1.010034e+06"},"geometry":{"type":"Point","coordinates":[102.31658700019328,18.53530599959335]}},{"type":"Feature","properties":{"name_en":"Houay hin lub","did":1010,"pid":10,"uuid":"1.010035e+06"},"geometry":{"type":"Point","coordinates":[102.3443765701992,18.55716699992402]}},{"type":"Feature","properties":{"name_en":"Phonkang","did":1010,"pid":10,"uuid":"1.010036e+06"},"geometry":{"type":"Point","coordinates":[102.2864796603006,18.561986090305346]}},{"type":"Feature","properties":{"name_en":"Phonngeun","did":1010,"pid":10,"uuid":"1.010037e+06"},"geometry":{"type":"Point","coordinates":[102.30641987017525,18.534285410433082]}},{"type":"Feature","properties":{"name_en":"Phon kham","did":1010,"pid":10,"uuid":"1.010038e+06"},"geometry":{"type":"Point","coordinates":[102.32974696031998,18.547522699604077]}},{"type":"Feature","properties":{"name_en":"Khonekeo","did":1010,"pid":10,"uuid":"1.010039e+06"},"geometry":{"type":"Point","coordinates":[102.33299427976111,18.549634349848105]}},{"type":"Feature","properties":{"name_en":"Souanmone","did":1010,"pid":10,"uuid":"1.01004e+06"},"geometry":{"type":"Point","coordinates":[102.21458640035846,18.443634289757558]}},{"type":"Feature","properties":{"name_en":"Naphong","did":1010,"pid":10,"uuid":"1.010041e+06"},"geometry":{"type":"Point","coordinates":[102.23323026993367,18.508816410400588]}},{"type":"Feature","properties":{"name_en":"Viengkham","did":1010,"pid":10,"uuid":"1.010042e+06"},"geometry":{"type":"Point","coordinates":[102.25761497991415,18.503296589894212]}},{"type":"Feature","properties":{"name_en":"Namthom","did":1010,"pid":10,"uuid":"1.010043e+06"},"geometry":{"type":"Point","coordinates":[102.20304803992097,18.44072517973241]}},{"type":"Feature","properties":{"name_en":"Mouk","did":1010,"pid":10,"uuid":"1.010044e+06"},"geometry":{"type":"Point","coordinates":[102.22522789985234,18.462169360157482]}},{"type":"Feature","properties":{"name_en":"Navai","did":1010,"pid":10,"uuid":"1.010045e+06"},"geometry":{"type":"Point","coordinates":[102.26124904024789,18.48125034042806]}},{"type":"Feature","properties":{"name_en":"Nathong","did":1010,"pid":10,"uuid":"1.010046e+06"},"geometry":{"type":"Point","coordinates":[102.2355966498266,18.47735410008971]}},{"type":"Feature","properties":{"name_en":"Naxam","did":1010,"pid":10,"uuid":"1.010047e+06"},"geometry":{"type":"Point","coordinates":[102.27033787043449,18.4854019796762]}},{"type":"Feature","properties":{"name_en":"Khonekaen","did":1010,"pid":10,"uuid":"1.010048e+06"},"geometry":{"type":"Point","coordinates":[102.30485957967876,18.52495349958062]}},{"type":"Feature","properties":{"name_en":"Mai","did":1010,"pid":10,"uuid":"1.010049e+06"},"geometry":{"type":"Point","coordinates":[102.26080219961312,18.757051330205403]}}]}