{"type":"FeatureCollection","features":[{"type":"Feature","properties":{"name_en":"Phonetong","name_lo":"ໂພນມ່ວງ","did":1012,"pid":10,"uuid":"1013001"},"geometry":{"type":"Point","coordinates":[101.9243,18.19799]}},{"type":"Feature","properties":{"name_en":"Nayao","name_lo":"ນາຍາວ","did":1012,"pid":10,"uuid":"1013002"},"geometry":{"type":"Point","coordinates":[101.93199,18.22795]}},{"type":"Feature","properties":{"name_en":"Namphern","name_lo":"ນ້ຳເພີນ","did":1012,"pid":10,"uuid":"1013003"},"geometry":{"type":"Point","coordinates":[101.93456,18.24453]}},{"type":"Feature","properties":{"name_en":"Napaphai","name_lo":"ນາປ່າໄຜ່","did":1012,"pid":10,"uuid":"1013004"},"geometry":{"type":"Point","coordinates":[101.95466,18.27499]}},{"type":"Feature","properties":{"name_en":"Namhone","name_lo":"ນ້ຳຮອນ","did":1012,"pid":10,"uuid":"1013005"},"geometry":{"type":"Point","coordinates":[101.95228,18.2868]}},{"type":"Feature","properties":{"name_en":"Phonengam","name_lo":"ບ້ານໂພນງາມ","did":1012,"pid":10,"uuid":"1013006"},"geometry":{"type":"Point","coordinates":[101.95947,18.28469]}},{"type":"Feature","properties":{"name_en":"Nonehai","name_lo":"ໂນນໄຮ","did":1012,"pid":10,"uuid":"1013007"},"geometry":{"type":"Point","coordinates":[101.95882,18.29027]}},{"type":"Feature","properties":{"name_en":"Phonesivilay","name_lo":"","did":1012,"pid":10,"uuid":"1013008"},"geometry":{"type":"Point","coordinates":[101.96399,18.28886]}},{"type":"Feature","properties":{"name_en":"Natard","name_lo":"","did":1012,"pid":10,"uuid":"1013009"},"geometry":{"type":"Point","coordinates":[101.96462,18.30752]}},{"type":"Feature","properties":{"name_en":"Namlao","name_lo":"ນາໝໍ້","did":1012,"pid":10,"uuid":"1013010"},"geometry":{"type":"Point","coordinates":[101.96252,18.31859]}},{"type":"Feature","properties":{"name_en":"Namor","name_lo":"ນາໝໍ້","did":1012,"pid":10,"uuid":"1013011"},"geometry":{"type":"Point","coordinates":[101.96958,18.34979]}},{"type":"Feature","properties":{"name_en":"Meuangmeun","name_lo":"ເມືອງໝື່ນ","did":1012,"pid":10,"uuid":"1013012"},"geometry":{"type":"Point","coordinates":[101.96293,18.36741]}},{"type":"Feature","properties":{"name_en":"Namphad","name_lo":"ດອນສຳພັນ","did":1012,"pid":10,"uuid":"1013013"},"geometry":{"type":"Point","coordinates":[101.95897,18.40952]}},{"type":"Feature","properties":{"name_en":"Phonesan","name_lo":"ໂພນແສນ","did":1012,"pid":10,"uuid":"1013014"},"geometry":{"type":"Point","coordinates":[101.95426,18.37977]}},{"type":"Feature","properties":{"name_en":"Naboua","name_lo":"ນາບົວ","did":1012,"pid":10,"uuid":"1013015"},"geometry":{"type":"Point","coordinates":[101.93047,18.2119]}},{"type":"Feature","properties":{"name_en":"Paksao","name_lo":"ປາກຊາວ","did":1012,"pid":10,"uuid":"1013016"},"geometry":{"type":"Point","coordinates":[101.75137,18.0266]}},{"type":"Feature","properties":{"name_en":"Donehieng","name_lo":"ດອນຮຽງ","did":1012,"pid":10,"uuid":"1013017"},"geometry":{"type":"Point","coordinates":[101.78907,18.07647]}},{"type":"Feature","properties":{"name_en":"Vung","name_lo":"","did":1012,"pid":10,"uuid":"1013018"},"geometry":{"type":"Point","coordinates":[101.85338,18.05125]}},{"type":"Feature","properties":{"name_en":"Namhi","name_lo":"ນ້ຳຄຽນ","did":1012,"pid":10,"uuid":"1013019"},"geometry":{"type":"Point","coordinates":[101.8911,18.0398]}},{"type":"Feature","properties":{"name_en":"Konekham","name_lo":"ກ້ອນຄຳ","did":1012,"pid":10,"uuid":"1013020"},"geometry":{"type":"Point","coordinates":[101.93066,18.08161]}},{"type":"Feature","properties":{"name_en":"Khokmeuad","name_lo":"","did":1012,"pid":10,"uuid":"1013021"},"geometry":{"type":"Point","coordinates":[101.9533,18.10739]}},{"type":"Feature","properties":{"name_en":"Pakchan","name_lo":"ປາກຈັນ","did":1012,"pid":10,"uuid":"1013022"},"geometry":{"type":"Point","coordinates":[102.01901,18.15498]}}]}