{"type":"FeatureCollection","features":[{"type":"Feature","properties":{"name_en":"Nakham","did":102,"pid":1,"uuid":"102001"},"geometry":{"type":"Point","coordinates":[102.58812196995656,17.97429649012069]}},{"type":"Feature","properties":{"name_en":"Oupmoung","did":102,"pid":1,"uuid":"102002"},"geometry":{"type":"Point","coordinates":[102.58424173981508,17.969430799682844]}},{"type":"Feature","properties":{"name_en":"Nongpanai","did":102,"pid":1,"uuid":"102003"},"geometry":{"type":"Point","coordinates":[102.58219277959233,17.971070970116543]}},{"type":"Feature","properties":{"name_en":"Vattainoy-Tha","did":102,"pid":1,"uuid":"102004"},"geometry":{"type":"Point","coordinates":[102.57934309969085,17.969398189814843]}},{"type":"Feature","properties":{"name_en":"Vattainoy-Thong","did":102,"pid":1,"uuid":"102005"},"geometry":{"type":"Point","coordinates":[102.58158652036536,17.971199799821783]}},{"type":"Feature","properties":{"name_en":"Nongsanokham","did":102,"pid":1,"uuid":"102006"},"geometry":{"type":"Point","coordinates":[102.57806016953352,17.975723930179978]}},{"type":"Feature","properties":{"name_en":"Vattaignai-Thong","did":102,"pid":1,"uuid":"102007"},"geometry":{"type":"Point","coordinates":[102.57850264992904,17.971442959775352]}},{"type":"Feature","properties":{"name_en":"Vattaignai-Tha","did":102,"pid":1,"uuid":"102008"},"geometry":{"type":"Point","coordinates":[102.57390995983835,17.96928997961709]}},{"type":"Feature","properties":{"name_en":"Akat","did":102,"pid":1,"uuid":"102009"},"geometry":{"type":"Point","coordinates":[102.56999995975711,17.969999929715204]}},{"type":"Feature","properties":{"name_en":"Muangva-Thong","did":102,"pid":1,"uuid":"102010"},"geometry":{"type":"Point","coordinates":[102.56391923036716,17.97321740961297]}},{"type":"Feature","properties":{"name_en":"Muangva-Tha","did":102,"pid":1,"uuid":"102011"},"geometry":{"type":"Point","coordinates":[102.565494270227,17.96977562971253]}},{"type":"Feature","properties":{"name_en":"Sikhai-Tha","did":102,"pid":1,"uuid":"102012"},"geometry":{"type":"Point","coordinates":[102.56217387043947,17.972187940381186]}},{"type":"Feature","properties":{"name_en":"Sikhai-thong","did":102,"pid":1,"uuid":"102013"},"geometry":{"type":"Point","coordinates":[102.55908245036649,17.976735459986273]}},{"type":"Feature","properties":{"name_en":"Gnapha","did":102,"pid":1,"uuid":"102015"},"geometry":{"type":"Point","coordinates":[102.56008225025963,17.972526740176775]}},{"type":"Feature","properties":{"name_en":"Sibounhuang-Tha","did":102,"pid":1,"uuid":"102016"},"geometry":{"type":"Point","coordinates":[102.55642270984721,17.97418919959022]}},{"type":"Feature","properties":{"name_en":"Sibounhuang-Thong","did":102,"pid":1,"uuid":"102017"},"geometry":{"type":"Point","coordinates":[102.55389036987637,17.97362056956942]}},{"type":"Feature","properties":{"name_en":"Sixomxun","did":102,"pid":1,"uuid":"102018"},"geometry":{"type":"Point","coordinates":[102.53976383995531,17.976930759851438]}},{"type":"Feature","properties":{"name_en":"Nonsavang","did":102,"pid":1,"uuid":"102019"},"geometry":{"type":"Point","coordinates":[102.53900192972759,17.982978380429216]}},{"type":"Feature","properties":{"name_en":"Kaoliao","did":102,"pid":1,"uuid":"102020"},"geometry":{"type":"Point","coordinates":[102.53025474019972,17.9793111303808]}},{"type":"Feature","properties":{"name_en":"Dankham","did":102,"pid":1,"uuid":"102021"},"geometry":{"type":"Point","coordinates":[102.52662370032387,17.97771924017376]}},{"type":"Feature","properties":{"name_en":"Nonkhilek","did":102,"pid":1,"uuid":"102022"},"geometry":{"type":"Point","coordinates":[102.5201022404267,17.98504913042076]}},{"type":"Feature","properties":{"name_en":"Nonkeo","did":102,"pid":1,"uuid":"102023"},"geometry":{"type":"Point","coordinates":[102.52636755034793,17.98349352982637]}},{"type":"Feature","properties":{"name_en":"Phonsavat-Nua","did":102,"pid":1,"uuid":"102024"},"geometry":{"type":"Point","coordinates":[102.52781888006481,17.991400600448177]}},{"type":"Feature","properties":{"name_en":"Phonsomboun","did":102,"pid":1,"uuid":"102025"},"geometry":{"type":"Point","coordinates":[102.51690915970622,17.998108640302696]}},{"type":"Feature","properties":{"name_en":"Tatthong","did":102,"pid":1,"uuid":"102026"},"geometry":{"type":"Point","coordinates":[102.50559702985711,17.98840977026179]}},{"type":"Feature","properties":{"name_en":"Nongda","did":102,"pid":1,"uuid":"102027"},"geometry":{"type":"Point","coordinates":[102.50316611041573,17.974924550257334]}},{"type":"Feature","properties":{"name_en":"Mai","did":102,"pid":1,"uuid":"102028"},"geometry":{"type":"Point","coordinates":[102.46721150986319,17.97705657041819]}},{"type":"Feature","properties":{"name_en":"Houyhom","did":102,"pid":1,"uuid":"102029"},"geometry":{"type":"Point","coordinates":[102.44820999035562,17.9831699898267]}},{"type":"Feature","properties":{"name_en":"Ang-Gnai","did":102,"pid":1,"uuid":"102030"},"geometry":{"type":"Point","coordinates":[102.39414236018784,18.016709930255963]}},{"type":"Feature","properties":{"name_en":"Phosi","did":102,"pid":1,"uuid":"102031"},"geometry":{"type":"Point","coordinates":[102.55358594029224,17.98389344018301]}},{"type":"Feature","properties":{"name_en":"Nahe","did":102,"pid":1,"uuid":"102032"},"geometry":{"type":"Point","coordinates":[102.55181434037124,17.981562849834887]}},{"type":"Feature","properties":{"name_en":"Viangsavan","did":102,"pid":1,"uuid":"102033"},"geometry":{"type":"Point","coordinates":[102.54534393027306,17.979647670066893]}},{"type":"Feature","properties":{"name_en":"Thongpong","did":102,"pid":1,"uuid":"102034"},"geometry":{"type":"Point","coordinates":[102.53980876995676,17.99271262029593]}},{"type":"Feature","properties":{"name_en":"Nalao","did":102,"pid":1,"uuid":"102035"},"geometry":{"type":"Point","coordinates":[102.54303379001706,17.998575090011705]}},{"type":"Feature","properties":{"name_en":"Nongniao","did":102,"pid":1,"uuid":"102036"},"geometry":{"type":"Point","coordinates":[102.54397558010328,18.00687183976691]}},{"type":"Feature","properties":{"name_en":"Nongteng-Tai","did":102,"pid":1,"uuid":"102037"},"geometry":{"type":"Point","coordinates":[102.5474797997076,18.017780300100828]}},{"type":"Feature","properties":{"name_en":"Nongteng-Nua","did":102,"pid":1,"uuid":"102038"},"geometry":{"type":"Point","coordinates":[102.54216626007066,18.017774760038595]}},{"type":"Feature","properties":{"name_en":"Viangkham","did":102,"pid":1,"uuid":"102039"},"geometry":{"type":"Point","coordinates":[102.50082353040197,18.0210074996918]}},{"type":"Feature","properties":{"name_en":"Champa","did":102,"pid":1,"uuid":"102040"},"geometry":{"type":"Point","coordinates":[102.47593381032455,18.031750499965913]}},{"type":"Feature","properties":{"name_en":"Dongnaxok-Tai","did":102,"pid":1,"uuid":"102041"},"geometry":{"type":"Point","coordinates":[102.58642622959867,17.98532506043319]}},{"type":"Feature","properties":{"name_en":"Dongnaxok-Nua","did":102,"pid":1,"uuid":"102042"},"geometry":{"type":"Point","coordinates":[102.58443116985327,17.98144843026496]}},{"type":"Feature","properties":{"name_en":"Pakthang","did":102,"pid":1,"uuid":"102043"},"geometry":{"type":"Point","coordinates":[102.57536068987332,17.98798631968528]}},{"type":"Feature","properties":{"name_en":"Dongnathong","did":102,"pid":1,"uuid":"102044"},"geometry":{"type":"Point","coordinates":[102.55687037987258,18.00312529023967]}},{"type":"Feature","properties":{"name_en":"Lakhin","did":102,"pid":1,"uuid":"102045"},"geometry":{"type":"Point","coordinates":[102.56448870025399,18.018016410381136]}},{"type":"Feature","properties":{"name_en":"Nongbuk-Tai","did":102,"pid":1,"uuid":"102046"},"geometry":{"type":"Point","coordinates":[102.57236835952806,18.023539080428957]}},{"type":"Feature","properties":{"name_en":"Nongbuk-Nua","did":102,"pid":1,"uuid":"102047"},"geometry":{"type":"Point","coordinates":[102.57021052014932,18.0248037401053]}},{"type":"Feature","properties":{"name_en":"Dongkalao","did":102,"pid":1,"uuid":"102048"},"geometry":{"type":"Point","coordinates":[102.576338109558,18.026033710039396]}},{"type":"Feature","properties":{"name_en":"Xamket","did":102,"pid":1,"uuid":"102049"},"geometry":{"type":"Point","coordinates":[102.58319853016265,18.02827469008178]}},{"type":"Feature","properties":{"name_en":"Khounta-Thong","did":102,"pid":1,"uuid":"102050"},"geometry":{"type":"Point","coordinates":[102.59066907039372,17.969260389624118]}},{"type":"Feature","properties":{"name_en":"Khounta-Tha","did":102,"pid":1,"uuid":"102051"},"geometry":{"type":"Point","coordinates":[102.58948739015304,17.967045310025885]}},{"type":"Feature","properties":{"name_en":"Sithan-Nua","did":102,"pid":1,"uuid":"102052"},"geometry":{"type":"Point","coordinates":[102.59638585988782,17.967013619724153]}},{"type":"Feature","properties":{"name_en":"Nongdouang-Nua","did":102,"pid":1,"uuid":"102053"},"geometry":{"type":"Point","coordinates":[102.59656465018682,17.970423630049194]}},{"type":"Feature","properties":{"name_en":"Nongdouang-Tai","did":102,"pid":1,"uuid":"102054"},"geometry":{"type":"Point","coordinates":[102.59701843975634,17.974884730257354]}},{"type":"Feature","properties":{"name_en":"Nongdouang-Thong","did":102,"pid":1,"uuid":"102055"},"geometry":{"type":"Point","coordinates":[102.5978345895817,17.97514843028823]}},{"type":"Feature","properties":{"name_en":"Phonsavat-Tai","did":102,"pid":1,"uuid":"102056"},"geometry":{"type":"Point","coordinates":[102.59882994027785,17.98133318035615]}},{"type":"Feature","properties":{"name_en":"Nongbouathong-Tai","did":102,"pid":1,"uuid":"102057"},"geometry":{"type":"Point","coordinates":[102.60258067040179,17.98638839019728]}},{"type":"Feature","properties":{"name_en":"Nongbouathong-Nua","did":102,"pid":1,"uuid":"102058"},"geometry":{"type":"Point","coordinates":[102.59836441034439,17.990187239894578]}},{"type":"Feature","properties":{"name_en":"Phonkham","did":102,"pid":1,"uuid":"102059"},"geometry":{"type":"Point","coordinates":[102.60138667020097,17.996731409896796]}},{"type":"Feature","properties":{"name_en":"Chansavang","did":102,"pid":1,"uuid":"102060"},"geometry":{"type":"Point","coordinates":[102.52420995954985,18.02029997957442]}},{"type":"Feature","properties":{"name_en":"Donxingsou","did":102,"pid":1,"uuid":"102061"},"geometry":{"type":"Point","coordinates":[102.53924266003213,17.968638959621135]}}]}