{"type":"FeatureCollection","features":[{"type":"Feature","properties":{"name_en":"Chommani","did":103,"pid":1,"uuid":"103001"},"geometry":{"type":"Point","coordinates":[102.63014129036986,18.007350529651717]}},{"type":"Feature","properties":{"name_en":"Phonphanao","did":103,"pid":1,"uuid":"103004"},"geometry":{"type":"Point","coordinates":[102.63707648040109,17.991806040113516]}},{"type":"Feature","properties":{"name_en":"Phonkheng","did":103,"pid":1,"uuid":"103005"},"geometry":{"type":"Point","coordinates":[102.63443994995079,17.985342419867766]}},{"type":"Feature","properties":{"name_en":"Nongsangtho","did":103,"pid":1,"uuid":"103006"},"geometry":{"type":"Point","coordinates":[102.62811420998838,17.981971969990386]}},{"type":"Feature","properties":{"name_en":"Phonsa-At","did":103,"pid":1,"uuid":"103007"},"geometry":{"type":"Point","coordinates":[102.6274645299189,17.97822878020521]}},{"type":"Feature","properties":{"name_en":"Thatlouang-Nua","did":103,"pid":1,"uuid":"103008"},"geometry":{"type":"Point","coordinates":[102.63530069018098,17.98072305983253]}},{"type":"Feature","properties":{"name_en":"Nongbon","did":103,"pid":1,"uuid":"103009"},"geometry":{"type":"Point","coordinates":[102.63076960023187,17.975183210402516]}},{"type":"Feature","properties":{"name_en":"Phonxai","did":103,"pid":1,"uuid":"103010"},"geometry":{"type":"Point","coordinates":[102.62357322965372,17.970867460076118]}},{"type":"Feature","properties":{"name_en":"Naxai","did":103,"pid":1,"uuid":"103011"},"geometry":{"type":"Point","coordinates":[102.63017305993182,17.96882939999916]}},{"type":"Feature","properties":{"name_en":"Fay","did":103,"pid":1,"uuid":"103012"},"geometry":{"type":"Point","coordinates":[102.62001469991903,17.965313770124766]}},{"type":"Feature","properties":{"name_en":"Viangchaleun","did":103,"pid":1,"uuid":"103013"},"geometry":{"type":"Point","coordinates":[102.6384749196166,17.986096950164658]}},{"type":"Feature","properties":{"name_en":"Thatlouang-Kang","did":103,"pid":1,"uuid":"103014"},"geometry":{"type":"Point","coordinates":[102.63826989998819,17.976625490253255]}},{"type":"Feature","properties":{"name_en":"Thatlouang-Tai","did":103,"pid":1,"uuid":"103015"},"geometry":{"type":"Point","coordinates":[102.63725107994138,17.97304532013694]}},{"type":"Feature","properties":{"name_en":"Hongke","did":103,"pid":1,"uuid":"103016"},"geometry":{"type":"Point","coordinates":[102.63794300007527,17.969892390055236]}},{"type":"Feature","properties":{"name_en":"Sisangvon","did":103,"pid":1,"uuid":"103017"},"geometry":{"type":"Point","coordinates":[102.63515367039787,17.968933159572686]}},{"type":"Feature","properties":{"name_en":"Saphangmo","did":103,"pid":1,"uuid":"103018"},"geometry":{"type":"Point","coordinates":[102.63382102974978,17.96274472026928]}},{"type":"Feature","properties":{"name_en":"Phonthan","did":103,"pid":1,"uuid":"103019"},"geometry":{"type":"Point","coordinates":[102.64129022993805,17.95762908017588]}},{"type":"Feature","properties":{"name_en":"Hongsouphap","did":103,"pid":1,"uuid":"103021"},"geometry":{"type":"Point","coordinates":[102.65887739044099,18.004764289799162]}},{"type":"Feature","properties":{"name_en":"Nonsavan","did":103,"pid":1,"uuid":"103022"},"geometry":{"type":"Point","coordinates":[102.66512342044174,18.005344740283842]}},{"type":"Feature","properties":{"name_en":"Nongniang","did":103,"pid":1,"uuid":"103023"},"geometry":{"type":"Point","coordinates":[102.65520862962201,18.000056590028876]}},{"type":"Feature","properties":{"name_en":"Nonsanga","did":103,"pid":1,"uuid":"103024"},"geometry":{"type":"Point","coordinates":[102.65844472029936,17.99508436971019]}},{"type":"Feature","properties":{"name_en":"Amon","did":103,"pid":1,"uuid":"103025"},"geometry":{"type":"Point","coordinates":[102.67095528976107,18.00495396959108]}},{"type":"Feature","properties":{"name_en":"Sengsavang","did":103,"pid":1,"uuid":"103026"},"geometry":{"type":"Point","coordinates":[102.67054391045572,17.989697739850566]}},{"type":"Feature","properties":{"name_en":"Xokkham","did":103,"pid":1,"uuid":"103027"},"geometry":{"type":"Point","coordinates":[102.6636802196779,17.982982990055554]}},{"type":"Feature","properties":{"name_en":"Vangxay","did":103,"pid":1,"uuid":"103028"},"geometry":{"type":"Point","coordinates":[102.65739739981933,17.987474689985028]}},{"type":"Feature","properties":{"name_en":"Nonsavang","did":103,"pid":1,"uuid":"103029"},"geometry":{"type":"Point","coordinates":[102.65517854025109,17.98071132989691]}},{"type":"Feature","properties":{"name_en":"Houakhoua","did":103,"pid":1,"uuid":"103030"},"geometry":{"type":"Point","coordinates":[102.65295063023997,17.97407781044788]}},{"type":"Feature","properties":{"name_en":"Nonkho-Nua","did":103,"pid":1,"uuid":"103031"},"geometry":{"type":"Point","coordinates":[102.65541206003046,17.970058850247337]}},{"type":"Feature","properties":{"name_en":"Khamsavat","did":103,"pid":1,"uuid":"103032"},"geometry":{"type":"Point","coordinates":[102.67258808975302,17.963036410083156]}},{"type":"Feature","properties":{"name_en":"Nonvay","did":103,"pid":1,"uuid":"103033"},"geometry":{"type":"Point","coordinates":[102.66715670029899,17.95273714988179]}},{"type":"Feature","properties":{"name_en":"Muang-Noy","did":103,"pid":1,"uuid":"103034"},"geometry":{"type":"Point","coordinates":[102.66774293034047,17.94291331000824]}},{"type":"Feature","properties":{"name_en":"Xiangda","did":103,"pid":1,"uuid":"103035"},"geometry":{"type":"Point","coordinates":[102.66916257030648,17.932745470286328]}},{"type":"Feature","properties":{"name_en":"Khamngoy","did":103,"pid":1,"uuid":"103036"},"geometry":{"type":"Point","coordinates":[102.68388052046228,17.979558899877304]}},{"type":"Feature","properties":{"name_en":"Nasangphai","did":103,"pid":1,"uuid":"103037"},"geometry":{"type":"Point","coordinates":[102.69426981000035,17.966476179727845]}},{"type":"Feature","properties":{"name_en":"Somsanga","did":103,"pid":1,"uuid":"103038"},"geometry":{"type":"Point","coordinates":[102.68722809041981,17.959819350333014]}},{"type":"Feature","properties":{"name_en":"Haikham","did":103,"pid":1,"uuid":"103039"},"geometry":{"type":"Point","coordinates":[102.70318546985658,17.955575680112076]}},{"type":"Feature","properties":{"name_en":"Nakhoay-Kang","did":103,"pid":1,"uuid":"103040"},"geometry":{"type":"Point","coordinates":[102.70269832015732,17.953321369952192]}},{"type":"Feature","properties":{"name_en":"Nakhoay-Tai","did":103,"pid":1,"uuid":"103041"},"geometry":{"type":"Point","coordinates":[102.70304800999672,17.950798249868566]}},{"type":"Feature","properties":{"name_en":"Xok-Gnai","did":103,"pid":1,"uuid":"103042"},"geometry":{"type":"Point","coordinates":[102.6850190397453,18.020444070287326]}},{"type":"Feature","properties":{"name_en":"Xok-Noy","did":103,"pid":1,"uuid":"103043"},"geometry":{"type":"Point","coordinates":[102.69099524959546,18.010443109676125]}},{"type":"Feature","properties":{"name_en":"Xamkhe","did":103,"pid":1,"uuid":"103044"},"geometry":{"type":"Point","coordinates":[102.67570741036727,18.005177769924845]}},{"type":"Feature","properties":{"name_en":"Phonthong","did":103,"pid":1,"uuid":"103045"},"geometry":{"type":"Point","coordinates":[102.6964210303534,17.995445039954173]}},{"type":"Feature","properties":{"name_en":"Nabian","did":103,"pid":1,"uuid":"103046"},"geometry":{"type":"Point","coordinates":[102.69926139989315,17.99106675004422]}},{"type":"Feature","properties":{"name_en":"Doung-Kang","did":103,"pid":1,"uuid":"103048"},"geometry":{"type":"Point","coordinates":[102.70259715012433,17.984402889906193]}},{"type":"Feature","properties":{"name_en":"Nahai","did":103,"pid":1,"uuid":"103049"},"geometry":{"type":"Point","coordinates":[102.73642030989107,17.974997640044922]}},{"type":"Feature","properties":{"name_en":"Nano","did":103,"pid":1,"uuid":"103050"},"geometry":{"type":"Point","coordinates":[102.75720659001537,17.986877730372157]}},{"type":"Feature","properties":{"name_en":"Chomsi","did":103,"pid":1,"uuid":"103051"},"geometry":{"type":"Point","coordinates":[102.7447036397552,17.96859546002436]}},{"type":"Feature","properties":{"name_en":"Nonkho-Tai","did":103,"pid":1,"uuid":"103052"},"geometry":{"type":"Point","coordinates":[102.66439017045332,17.969468769628513]}}]}