{"type":"FeatureCollection","features":[{"type":"Feature","properties":{"name_en":"Phiavat","did":104,"pid":1,"uuid":"104001"},"geometry":{"type":"Point","coordinates":[102.61452723037918,17.958530469937344]}},{"type":"Feature","properties":{"name_en":"Kaognot","did":104,"pid":1,"uuid":"104002"},"geometry":{"type":"Point","coordinates":[102.61642991993952,17.95994718022702]}},{"type":"Feature","properties":{"name_en":"Simuang","did":104,"pid":1,"uuid":"104003"},"geometry":{"type":"Point","coordinates":[102.61758612031498,17.957739799712936]}},{"type":"Feature","properties":{"name_en":"Nongchan","did":104,"pid":1,"uuid":"104004"},"geometry":{"type":"Point","coordinates":[102.6179710203762,17.965189470041782]}},{"type":"Feature","properties":{"name_en":"Dongpalan-Tha","did":104,"pid":1,"uuid":"104005"},"geometry":{"type":"Point","coordinates":[102.62243279027331,17.961309400369117]}},{"type":"Feature","properties":{"name_en":"Dongpalan-Thong","did":104,"pid":1,"uuid":"104006"},"geometry":{"type":"Point","coordinates":[102.62221846956825,17.963464139720337]}},{"type":"Feature","properties":{"name_en":"Phonsinouan","did":104,"pid":1,"uuid":"104007"},"geometry":{"type":"Point","coordinates":[102.62706462975345,17.961672589549895]}},{"type":"Feature","properties":{"name_en":"Saphanthong-Nua","did":104,"pid":1,"uuid":"104008"},"geometry":{"type":"Point","coordinates":[102.63245557119502,17.95522859073537]}},{"type":"Feature","properties":{"name_en":"Saphanthong","did":104,"pid":1,"uuid":"104010"},"geometry":{"type":"Point","coordinates":[102.63420794015146,17.952931690308766]}},{"type":"Feature","properties":{"name_en":"Thatkhao","did":104,"pid":1,"uuid":"104011"},"geometry":{"type":"Point","coordinates":[102.6189670404772,17.951905999810084]}},{"type":"Feature","properties":{"name_en":"Phapho","did":104,"pid":1,"uuid":"104012"},"geometry":{"type":"Point","coordinates":[102.62015332979837,17.954889280183323]}},{"type":"Feature","properties":{"name_en":"Phaxai","did":104,"pid":1,"uuid":"104013"},"geometry":{"type":"Point","coordinates":[102.62056999966343,17.95258661017148]}},{"type":"Feature","properties":{"name_en":"Phonsavan-Nua","did":104,"pid":1,"uuid":"104014"},"geometry":{"type":"Point","coordinates":[102.62426121985784,17.95607122044677]}},{"type":"Feature","properties":{"name_en":"Phonsavan-Tai","did":104,"pid":1,"uuid":"104015"},"geometry":{"type":"Point","coordinates":[102.6252587499414,17.951350779678467]}},{"type":"Feature","properties":{"name_en":"Bungkhagnong","did":104,"pid":1,"uuid":"104017"},"geometry":{"type":"Point","coordinates":[102.62085272002822,17.950241440111512]}},{"type":"Feature","properties":{"name_en":"Sokpalouang","did":104,"pid":1,"uuid":"104018"},"geometry":{"type":"Point","coordinates":[102.62543686963357,17.9446856599274]}},{"type":"Feature","properties":{"name_en":"Saphanthong-Tai","did":104,"pid":1,"uuid":"104019"},"geometry":{"type":"Point","coordinates":[102.62945993007912,17.94873999036648]}},{"type":"Feature","properties":{"name_en":"Vatnak","did":104,"pid":1,"uuid":"104020"},"geometry":{"type":"Point","coordinates":[102.61986919044072,17.93461028018166]}},{"type":"Feature","properties":{"name_en":"Thaphalanxai","did":104,"pid":1,"uuid":"104021"},"geometry":{"type":"Point","coordinates":[102.61870687036016,17.93172974978452]}},{"type":"Feature","properties":{"name_en":"Phanman","did":104,"pid":1,"uuid":"104022"},"geometry":{"type":"Point","coordinates":[102.61617930990059,17.92678761041832]}},{"type":"Feature","properties":{"name_en":"Thong-Kang","did":104,"pid":1,"uuid":"104023"},"geometry":{"type":"Point","coordinates":[102.62552605010352,17.935357439916494]}},{"type":"Feature","properties":{"name_en":"Phonpapao","did":104,"pid":1,"uuid":"104025"},"geometry":{"type":"Point","coordinates":[102.63886399957012,17.946421380216403]}},{"type":"Feature","properties":{"name_en":"Donkoy","did":104,"pid":1,"uuid":"104026"},"geometry":{"type":"Point","coordinates":[102.650126520375,17.931927139944236]}},{"type":"Feature","properties":{"name_en":"Donnokkhoum","did":104,"pid":1,"uuid":"104027"},"geometry":{"type":"Point","coordinates":[102.63475268015031,17.931903170017613]}},{"type":"Feature","properties":{"name_en":"Donpa-Mai","did":104,"pid":1,"uuid":"104028"},"geometry":{"type":"Point","coordinates":[102.6250804073016,17.926539819035177]}},{"type":"Feature","properties":{"name_en":"Vatsop","did":104,"pid":1,"uuid":"104029"},"geometry":{"type":"Point","coordinates":[102.61873453040467,17.92428897037495]}},{"type":"Feature","properties":{"name_en":"Phoxai","did":104,"pid":1,"uuid":"104030"},"geometry":{"type":"Point","coordinates":[102.61784772022575,17.92187238040434]}},{"type":"Feature","properties":{"name_en":"Souanmon","did":104,"pid":1,"uuid":"104031"},"geometry":{"type":"Point","coordinates":[102.61852850035503,17.920452649822764]}},{"type":"Feature","properties":{"name_en":"Sangveuy","did":104,"pid":1,"uuid":"104032"},"geometry":{"type":"Point","coordinates":[102.62516352958764,17.92085565960805]}},{"type":"Feature","properties":{"name_en":"Dongsavat","did":104,"pid":1,"uuid":"104033"},"geometry":{"type":"Point","coordinates":[102.63934486954783,17.923365279556567]}},{"type":"Feature","properties":{"name_en":"Chomphet-Nua","did":104,"pid":1,"uuid":"104034"},"geometry":{"type":"Point","coordinates":[102.62522580977043,17.91419154035658]}},{"type":"Feature","properties":{"name_en":"Haysok","did":104,"pid":1,"uuid":"104035"},"geometry":{"type":"Point","coordinates":[102.618125999766,17.916913309940785]}},{"type":"Feature","properties":{"name_en":"Chomcheng","did":104,"pid":1,"uuid":"104036"},"geometry":{"type":"Point","coordinates":[102.6170455801922,17.91421466969979]}},{"type":"Feature","properties":{"name_en":"Khoknin","did":104,"pid":1,"uuid":"104037"},"geometry":{"type":"Point","coordinates":[102.61698439044144,17.911124689568773]}},{"type":"Feature","properties":{"name_en":"Chomphet-Tai","did":104,"pid":1,"uuid":"104038"},"geometry":{"type":"Point","coordinates":[102.62331717019205,17.908754199698098]}},{"type":"Feature","properties":{"name_en":"Saysathan","did":104,"pid":1,"uuid":"104039"},"geometry":{"type":"Point","coordinates":[102.61790756969033,17.907717020178634]}},{"type":"Feature","properties":{"name_en":"Phonsavang","did":104,"pid":1,"uuid":"104040"},"geometry":{"type":"Point","coordinates":[102.61607922965824,17.899269320380963]}}]}