{"type":"FeatureCollection","features":[{"type":"Feature","properties":{"name_en":"Nasiaw","did":105,"pid":1,"uuid":"105001"},"geometry":{"type":"Point","coordinates":[102.57465065970543,18.034392139819197]}},{"type":"Feature","properties":{"name_en":"Xai moung khoun","did":105,"pid":1,"uuid":"105002"},"geometry":{"type":"Point","coordinates":[102.5482551301509,18.03000001974323]}},{"type":"Feature","properties":{"name_en":"Sikerd","did":105,"pid":1,"uuid":"105003"},"geometry":{"type":"Point","coordinates":[102.5469719398434,18.039944899902014]}},{"type":"Feature","properties":{"name_en":"Phang haeng","did":105,"pid":1,"uuid":"105004"},"geometry":{"type":"Point","coordinates":[102.54689332017672,18.048954020412786]}},{"type":"Feature","properties":{"name_en":"Nalien","did":105,"pid":1,"uuid":"105005"},"geometry":{"type":"Point","coordinates":[102.54140275993473,18.049066759659066]}},{"type":"Feature","properties":{"name_en":"Park haed","did":105,"pid":1,"uuid":"105006"},"geometry":{"type":"Point","coordinates":[102.5255756302095,18.061542799638136]}},{"type":"Feature","properties":{"name_en":"Phonsavanh","did":105,"pid":1,"uuid":"105007"},"geometry":{"type":"Point","coordinates":[102.5618712802164,18.062194069788664]}},{"type":"Feature","properties":{"name_en":"Phonkeo","did":105,"pid":1,"uuid":"105008"},"geometry":{"type":"Point","coordinates":[102.57505558966203,18.060627910331423]}},{"type":"Feature","properties":{"name_en":"Dong xieng dii","did":105,"pid":1,"uuid":"105009"},"geometry":{"type":"Point","coordinates":[102.59993735994739,18.062228519894884]}},{"type":"Feature","properties":{"name_en":"Naxaitai","did":105,"pid":1,"uuid":"105010"},"geometry":{"type":"Point","coordinates":[102.53432498996595,18.07418506037434]}},{"type":"Feature","properties":{"name_en":"Naxaikang","did":105,"pid":1,"uuid":"105011"},"geometry":{"type":"Point","coordinates":[102.53299243954868,18.076988549711942]}},{"type":"Feature","properties":{"name_en":"Naxayneua","did":105,"pid":1,"uuid":"105012"},"geometry":{"type":"Point","coordinates":[102.52916811033403,18.078555380176674]}},{"type":"Feature","properties":{"name_en":"Na khoun neua","did":105,"pid":1,"uuid":"105013"},"geometry":{"type":"Point","coordinates":[102.54234680983312,18.08615014020502]}},{"type":"Feature","properties":{"name_en":"Nong gnao","did":105,"pid":1,"uuid":"105015"},"geometry":{"type":"Point","coordinates":[102.58705529033844,18.092029539848067]}},{"type":"Feature","properties":{"name_en":"Dongbong","did":105,"pid":1,"uuid":"105016"},"geometry":{"type":"Point","coordinates":[102.59700403032676,18.110667370116204]}},{"type":"Feature","properties":{"name_en":"Houaxang","did":105,"pid":1,"uuid":"105017"},"geometry":{"type":"Point","coordinates":[102.51956529970553,18.088549040351655]}},{"type":"Feature","properties":{"name_en":"Darnxii","did":105,"pid":1,"uuid":"105018"},"geometry":{"type":"Point","coordinates":[102.48342663989015,18.081416709858527]}},{"type":"Feature","properties":{"name_en":"Houa khoua","did":105,"pid":1,"uuid":"105019"},"geometry":{"type":"Point","coordinates":[102.50994531000053,18.105973760132592]}},{"type":"Feature","properties":{"name_en":"Naxone","did":105,"pid":1,"uuid":"105020"},"geometry":{"type":"Point","coordinates":[102.50579869004117,18.105922710071876]}},{"type":"Feature","properties":{"name_en":"Na gnang","did":105,"pid":1,"uuid":"105021"},"geometry":{"type":"Point","coordinates":[102.47833831973608,18.11378167026924]}},{"type":"Feature","properties":{"name_en":"Nong khan khou","did":105,"pid":1,"uuid":"105022"},"geometry":{"type":"Point","coordinates":[102.50754673975673,18.118730179947267]}},{"type":"Feature","properties":{"name_en":"Namkieng tai","did":105,"pid":1,"uuid":"105023"},"geometry":{"type":"Point","coordinates":[102.52008523037115,18.116164900311194]}},{"type":"Feature","properties":{"name_en":"Na xab","did":105,"pid":1,"uuid":"105025"},"geometry":{"type":"Point","coordinates":[102.53386666999556,18.115786450064363]}},{"type":"Feature","properties":{"name_en":"I lai tai","did":105,"pid":1,"uuid":"105026"},"geometry":{"type":"Point","coordinates":[102.50580523010842,18.138775920114547]}},{"type":"Feature","properties":{"name_en":"I lai neua","did":105,"pid":1,"uuid":"105027"},"geometry":{"type":"Point","coordinates":[102.50335477998459,18.14440737959081]}},{"type":"Feature","properties":{"name_en":"Songkhouakangsaen","did":105,"pid":1,"uuid":"105028"},"geometry":{"type":"Point","coordinates":[102.50122243027157,18.15558632956813]}},{"type":"Feature","properties":{"name_en":"Chaengsavang","did":105,"pid":1,"uuid":"105029"},"geometry":{"type":"Point","coordinates":[102.49978676979487,18.161922210246864]}},{"type":"Feature","properties":{"name_en":"Houai nam yen","did":105,"pid":1,"uuid":"105030"},"geometry":{"type":"Point","coordinates":[102.50119719961472,18.172853719694835]}},{"type":"Feature","properties":{"name_en":"Sisavard","did":105,"pid":1,"uuid":"105031"},"geometry":{"type":"Point","coordinates":[102.49127310986647,18.17371763993708]}},{"type":"Feature","properties":{"name_en":"Ang nam houm","did":105,"pid":1,"uuid":"105032"},"geometry":{"type":"Point","coordinates":[102.47098253037586,18.171646309823128]}},{"type":"Feature","properties":{"name_en":"Nathone","did":105,"pid":1,"uuid":"105033"},"geometry":{"type":"Point","coordinates":[102.45237118977215,18.1933739597352]}},{"type":"Feature","properties":{"name_en":"Songpeuaitai","did":105,"pid":1,"uuid":"105034"},"geometry":{"type":"Point","coordinates":[102.49928587035281,18.182768589808685]}},{"type":"Feature","properties":{"name_en":"Songpeuaineua","did":105,"pid":1,"uuid":"105035"},"geometry":{"type":"Point","coordinates":[102.50056269032541,18.186189579573675]}},{"type":"Feature","properties":{"name_en":"Namhoum","did":105,"pid":1,"uuid":"105036"},"geometry":{"type":"Point","coordinates":[102.51100686969433,18.181777599991914]}},{"type":"Feature","properties":{"name_en":"Perk","did":105,"pid":1,"uuid":"105037"},"geometry":{"type":"Point","coordinates":[102.5127688301437,18.177513299942035]}},{"type":"Feature","properties":{"name_en":"Houm baeng","did":105,"pid":1,"uuid":"105038"},"geometry":{"type":"Point","coordinates":[102.5182022301647,18.18693037013328]}},{"type":"Feature","properties":{"name_en":"Phonkham","did":105,"pid":1,"uuid":"105039"},"geometry":{"type":"Point","coordinates":[102.49788390984926,18.197397190305626]}},{"type":"Feature","properties":{"name_en":"Houana","did":105,"pid":1,"uuid":"105040"},"geometry":{"type":"Point","coordinates":[102.50585032982384,18.19812516030881]}},{"type":"Feature","properties":{"name_en":"Nanard","did":105,"pid":1,"uuid":"105041"},"geometry":{"type":"Point","coordinates":[102.51223138993426,18.19255178002249]}},{"type":"Feature","properties":{"name_en":"Phonmouang","did":105,"pid":1,"uuid":"105042"},"geometry":{"type":"Point","coordinates":[102.49760630989135,18.220798709746706]}},{"type":"Feature","properties":{"name_en":"Hong ngoua","did":105,"pid":1,"uuid":"105043"},"geometry":{"type":"Point","coordinates":[102.51478300015701,18.214954930246535]}},{"type":"Feature","properties":{"name_en":"Saendin","did":105,"pid":1,"uuid":"105044"},"geometry":{"type":"Point","coordinates":[102.54636493012887,18.232147469953272]}},{"type":"Feature","properties":{"name_en":"Tham","did":105,"pid":1,"uuid":"105045"},"geometry":{"type":"Point","coordinates":[102.44018943007573,18.229812019642658]}},{"type":"Feature","properties":{"name_en":"Na kha","did":105,"pid":1,"uuid":"105046"},"geometry":{"type":"Point","coordinates":[102.4984140696131,18.209694530338457]}},{"type":"Feature","properties":{"name_en":"Na nga","did":105,"pid":1,"uuid":"105047"},"geometry":{"type":"Point","coordinates":[102.48409467961972,18.243074960195564]}},{"type":"Feature","properties":{"name_en":"Sivilai","did":105,"pid":1,"uuid":"105048"},"geometry":{"type":"Point","coordinates":[102.47083173994194,18.24667053964381]}},{"type":"Feature","properties":{"name_en":"Phoxai","did":105,"pid":1,"uuid":"105049"},"geometry":{"type":"Point","coordinates":[102.4687801902897,18.25724448018444]}},{"type":"Feature","properties":{"name_en":"Phosi","did":105,"pid":1,"uuid":"105050"},"geometry":{"type":"Point","coordinates":[102.45769125966349,18.27601827012382]}},{"type":"Feature","properties":{"name_en":"Phonthong","did":105,"pid":1,"uuid":"105051"},"geometry":{"type":"Point","coordinates":[102.45547341030286,18.272567189884427]}},{"type":"Feature","properties":{"name_en":"Boua","did":105,"pid":1,"uuid":"105052"},"geometry":{"type":"Point","coordinates":[102.48662769032315,18.25374202025545]}},{"type":"Feature","properties":{"name_en":"Nongsa","did":105,"pid":1,"uuid":"105053"},"geometry":{"type":"Point","coordinates":[102.48356516134125,18.268753936246174]}},{"type":"Feature","properties":{"name_en":"Phatthana","did":105,"pid":1,"uuid":"105054"},"geometry":{"type":"Point","coordinates":[102.48875157963842,18.261609189860383]}},{"type":"Feature","properties":{"name_en":"Nadii","did":105,"pid":1,"uuid":"105055"},"geometry":{"type":"Point","coordinates":[102.47374092981765,18.286772080164173]}},{"type":"Feature","properties":{"name_en":"Donglouang","did":105,"pid":1,"uuid":"105056"},"geometry":{"type":"Point","coordinates":[102.53984691008381,18.064075810315664]}}]}