{"type":"FeatureCollection","features":[{"type":"Feature","properties":{"name_en":"Khoud sam barth","did":106,"pid":1,"uuid":"106001"},"geometry":{"type":"Point","coordinates":[102.68503898966442,18.259139290045226]}},{"type":"Feature","properties":{"name_en":"Thong mang","did":106,"pid":1,"uuid":"106002"},"geometry":{"type":"Point","coordinates":[102.69234817003924,18.234774019632766]}},{"type":"Feature","properties":{"name_en":"Na koung","did":106,"pid":1,"uuid":"106003"},"geometry":{"type":"Point","coordinates":[102.65493797972539,18.192732830061775]}},{"type":"Feature","properties":{"name_en":"Phoun khor","did":106,"pid":1,"uuid":"106004"},"geometry":{"type":"Point","coordinates":[102.66104629001636,18.18186945966612]}},{"type":"Feature","properties":{"name_en":"Harth kieng","did":106,"pid":1,"uuid":"106005"},"geometry":{"type":"Point","coordinates":[102.65805914964841,18.177887219680024]}},{"type":"Feature","properties":{"name_en":"Phaun haung","did":106,"pid":1,"uuid":"106006"},"geometry":{"type":"Point","coordinates":[102.65529932035638,18.17645249035839]}},{"type":"Feature","properties":{"name_en":"Phaun ti kham","did":106,"pid":1,"uuid":"106007"},"geometry":{"type":"Point","coordinates":[102.64607236023129,18.174364140349322]}},{"type":"Feature","properties":{"name_en":"Hi","did":106,"pid":1,"uuid":"106008"},"geometry":{"type":"Point","coordinates":[102.61698823983623,18.14799055987418]}},{"type":"Feature","properties":{"name_en":"Tha sa vang","did":106,"pid":1,"uuid":"106009"},"geometry":{"type":"Point","coordinates":[102.61624568968185,18.132122280088947]}},{"type":"Feature","properties":{"name_en":"Vurn kham","did":106,"pid":1,"uuid":"106010"},"geometry":{"type":"Point","coordinates":[102.60834843047598,18.165401119552687]}},{"type":"Feature","properties":{"name_en":"Cha lurn say","did":106,"pid":1,"uuid":"106011"},"geometry":{"type":"Point","coordinates":[102.59930570029464,18.17710494010545]}},{"type":"Feature","properties":{"name_en":"Nong kheng","did":106,"pid":1,"uuid":"106012"},"geometry":{"type":"Point","coordinates":[102.62511333026328,18.19015287982035]}},{"type":"Feature","properties":{"name_en":"Nong nau","did":106,"pid":1,"uuid":"106013"},"geometry":{"type":"Point","coordinates":[102.61340715971289,18.204144960415288]}},{"type":"Feature","properties":{"name_en":"Phaun nham","did":106,"pid":1,"uuid":"106014"},"geometry":{"type":"Point","coordinates":[102.58199429982074,18.179548930419664]}},{"type":"Feature","properties":{"name_en":"Phaun say","did":106,"pid":1,"uuid":"106015"},"geometry":{"type":"Point","coordinates":[102.57238486993894,18.18666298971852]}},{"type":"Feature","properties":{"name_en":"Sam sar arth","did":106,"pid":1,"uuid":"106016"},"geometry":{"type":"Point","coordinates":[102.58924070965833,18.166142920382267]}},{"type":"Feature","properties":{"name_en":"Thar ngon","did":106,"pid":1,"uuid":"106017"},"geometry":{"type":"Point","coordinates":[102.62592158983661,18.128886359706907]}},{"type":"Feature","properties":{"name_en":"Na","did":106,"pid":1,"uuid":"106018"},"geometry":{"type":"Point","coordinates":[102.63354543973887,18.128744120191747]}},{"type":"Feature","properties":{"name_en":"Phou kham","did":106,"pid":1,"uuid":"106019"},"geometry":{"type":"Point","coordinates":[102.63546907987109,18.140426319927787]}},{"type":"Feature","properties":{"name_en":"Keng khay","did":106,"pid":1,"uuid":"106020"},"geometry":{"type":"Point","coordinates":[102.63670759030208,18.14887787030059]}},{"type":"Feature","properties":{"name_en":"Thar suam mor","did":106,"pid":1,"uuid":"106021"},"geometry":{"type":"Point","coordinates":[102.65659726019335,18.154096190063242]}},{"type":"Feature","properties":{"name_en":"Ou daum phaun","did":106,"pid":1,"uuid":"106022"},"geometry":{"type":"Point","coordinates":[102.66797561046386,18.129690440277923]}},{"type":"Feature","properties":{"name_en":"Larth khouai","did":106,"pid":1,"uuid":"106023"},"geometry":{"type":"Point","coordinates":[102.68779252989822,18.132222700383494]}},{"type":"Feature","properties":{"name_en":"Naun sa arth","did":106,"pid":1,"uuid":"106024"},"geometry":{"type":"Point","coordinates":[102.65440481015891,18.110090949676955]}},{"type":"Feature","properties":{"name_en":"Dong mark khy","did":106,"pid":1,"uuid":"106025"},"geometry":{"type":"Point","coordinates":[102.69560278008983,18.093315579559228]}},{"type":"Feature","properties":{"name_en":"Darn sang","did":106,"pid":1,"uuid":"106026"},"geometry":{"type":"Point","coordinates":[102.66798257008622,18.079469850111124]}},{"type":"Feature","properties":{"name_en":"Don teaw","did":106,"pid":1,"uuid":"106027"},"geometry":{"type":"Point","coordinates":[102.66979298019527,18.068595419693928]}},{"type":"Feature","properties":{"name_en":"Say sa vang","did":106,"pid":1,"uuid":"106028"},"geometry":{"type":"Point","coordinates":[102.66442352982044,18.057409099617445]}},{"type":"Feature","properties":{"name_en":"Don noun","did":106,"pid":1,"uuid":"106029"},"geometry":{"type":"Point","coordinates":[102.66064202992314,18.049024849647353]}},{"type":"Feature","properties":{"name_en":"Say","did":106,"pid":1,"uuid":"106030"},"geometry":{"type":"Point","coordinates":[102.66878789975803,18.04668579021348]}},{"type":"Feature","properties":{"name_en":"Na kha","did":106,"pid":1,"uuid":"106031"},"geometry":{"type":"Point","coordinates":[102.67057794014812,18.04064746981421]}},{"type":"Feature","properties":{"name_en":"Sa phang meuk","did":106,"pid":1,"uuid":"106032"},"geometry":{"type":"Point","coordinates":[102.64941924966199,18.03547776037853]}},{"type":"Feature","properties":{"name_en":"Sang khou","did":106,"pid":1,"uuid":"106033"},"geometry":{"type":"Point","coordinates":[102.64513928043866,18.028891349848422]}},{"type":"Feature","properties":{"name_en":"Phar khao","did":106,"pid":1,"uuid":"106034"},"geometry":{"type":"Point","coordinates":[102.64501825028046,18.020969020384015]}},{"type":"Feature","properties":{"name_en":"Sivilay","did":106,"pid":1,"uuid":"106035"},"geometry":{"type":"Point","coordinates":[102.63276440980776,18.01136906041581]}},{"type":"Feature","properties":{"name_en":"Kham houng","did":106,"pid":1,"uuid":"106036"},"geometry":{"type":"Point","coordinates":[102.63096514995937,18.025890709751387]}},{"type":"Feature","properties":{"name_en":"Nonng vieng kham","did":106,"pid":1,"uuid":"106037"},"geometry":{"type":"Point","coordinates":[102.63896273960368,18.048411209834]}},{"type":"Feature","properties":{"name_en":"Houai dan mueang","did":106,"pid":1,"uuid":"106038"},"geometry":{"type":"Point","coordinates":[102.64348150974631,18.068142630350255]}},{"type":"Feature","properties":{"name_en":"Dong dauk","did":106,"pid":1,"uuid":"106039"},"geometry":{"type":"Point","coordinates":[102.63178481990617,18.039236710228845]}},{"type":"Feature","properties":{"name_en":"Tan mee say","did":106,"pid":1,"uuid":"106040"},"geometry":{"type":"Point","coordinates":[102.62853079047537,18.03706780996262]}},{"type":"Feature","properties":{"name_en":"Nong pha nhang","did":106,"pid":1,"uuid":"106041"},"geometry":{"type":"Point","coordinates":[102.60504076006289,18.041814060294637]}},{"type":"Feature","properties":{"name_en":"Na taum","did":106,"pid":1,"uuid":"106042"},"geometry":{"type":"Point","coordinates":[102.62874923021968,18.05174451985929]}},{"type":"Feature","properties":{"name_en":"Vieng keo","did":106,"pid":1,"uuid":"106043"},"geometry":{"type":"Point","coordinates":[102.63012527989392,18.06460420963736]}},{"type":"Feature","properties":{"name_en":"Naun seng chanh","did":106,"pid":1,"uuid":"106044"},"geometry":{"type":"Point","coordinates":[102.62596551047115,18.07532499975001]}},{"type":"Feature","properties":{"name_en":"Houai tuai","did":106,"pid":1,"uuid":"106045"},"geometry":{"type":"Point","coordinates":[102.62788580961525,18.092499100030583]}},{"type":"Feature","properties":{"name_en":"Dong sang hin","did":106,"pid":1,"uuid":"106046"},"geometry":{"type":"Point","coordinates":[102.69031070046712,18.059651170447165]}},{"type":"Feature","properties":{"name_en":"Phau kham","did":106,"pid":1,"uuid":"106047"},"geometry":{"type":"Point","coordinates":[102.7057959302817,18.070853500136348]}},{"type":"Feature","properties":{"name_en":"Kauk noi","did":106,"pid":1,"uuid":"106048"},"geometry":{"type":"Point","coordinates":[102.71147182003028,18.05006369985455]}},{"type":"Feature","properties":{"name_en":"Kauk nhay","did":106,"pid":1,"uuid":"106049"},"geometry":{"type":"Point","coordinates":[102.70824739044481,18.046227719894137]}},{"type":"Feature","properties":{"name_en":"Sa phang kha nong","did":106,"pid":1,"uuid":"106050"},"geometry":{"type":"Point","coordinates":[102.7223389603533,18.03786007003246]}},{"type":"Feature","properties":{"name_en":"Na lom","did":106,"pid":1,"uuid":"106051"},"geometry":{"type":"Point","coordinates":[102.72936744024219,18.082890919876032]}},{"type":"Feature","properties":{"name_en":"Nong boua","did":106,"pid":1,"uuid":"106052"},"geometry":{"type":"Point","coordinates":[102.72862907037106,18.093085410298166]}},{"type":"Feature","properties":{"name_en":"Na maun","did":106,"pid":1,"uuid":"106053"},"geometry":{"type":"Point","coordinates":[102.74850809985892,18.104875140092393]}},{"type":"Feature","properties":{"name_en":"Dong bang","did":106,"pid":1,"uuid":"106054"},"geometry":{"type":"Point","coordinates":[102.73821603966624,18.12311281965627]}},{"type":"Feature","properties":{"name_en":"Naun taa","did":106,"pid":1,"uuid":"106055"},"geometry":{"type":"Point","coordinates":[102.7065178704613,18.123487909938994]}},{"type":"Feature","properties":{"name_en":"Phaun tong","did":106,"pid":1,"uuid":"106056"},"geometry":{"type":"Point","coordinates":[102.73659581978157,18.15693774026896]}},{"type":"Feature","properties":{"name_en":"Hardpha eanh","did":106,"pid":1,"uuid":"106057"},"geometry":{"type":"Point","coordinates":[102.6980288397372,18.149538790050514]}},{"type":"Feature","properties":{"name_en":"Duang boud dee","did":106,"pid":1,"uuid":"106058"},"geometry":{"type":"Point","coordinates":[102.72949919986216,18.1517568003941]}},{"type":"Feature","properties":{"name_en":"Tha dork kham","did":106,"pid":1,"uuid":"106059"},"geometry":{"type":"Point","coordinates":[102.73407009989721,18.159986070150502]}},{"type":"Feature","properties":{"name_en":"Na thaa","did":106,"pid":1,"uuid":"106060"},"geometry":{"type":"Point","coordinates":[102.73872399006524,18.16676887994187]}},{"type":"Feature","properties":{"name_en":"Phaun ngam song","did":106,"pid":1,"uuid":"106061"},"geometry":{"type":"Point","coordinates":[102.74933119968523,18.163074639668135]}},{"type":"Feature","properties":{"name_en":"Phaun ngam neung","did":106,"pid":1,"uuid":"106062"},"geometry":{"type":"Point","coordinates":[102.75346708026615,18.165698590440478]}},{"type":"Feature","properties":{"name_en":"Tha dean deng nuea","did":106,"pid":1,"uuid":"106063"},"geometry":{"type":"Point","coordinates":[102.77270020035566,18.170824629880414]}},{"type":"Feature","properties":{"name_en":"Tha deanh deng tay","did":106,"pid":1,"uuid":"106064"},"geometry":{"type":"Point","coordinates":[102.77666684978102,18.167687869747226]}},{"type":"Feature","properties":{"name_en":"Na phork","did":106,"pid":1,"uuid":"106065"},"geometry":{"type":"Point","coordinates":[102.76692205005932,18.13010970013083]}},{"type":"Feature","properties":{"name_en":"Pak sap kow","did":106,"pid":1,"uuid":"106066"},"geometry":{"type":"Point","coordinates":[102.77676567034247,18.139210859714286]}},{"type":"Feature","properties":{"name_en":"Pak sap may","did":106,"pid":1,"uuid":"106067"},"geometry":{"type":"Point","coordinates":[102.7951323501562,18.129621870424785]}},{"type":"Feature","properties":{"name_en":"San ou dom","did":106,"pid":1,"uuid":"106068"},"geometry":{"type":"Point","coordinates":[102.81404159025813,18.11270325042465]}},{"type":"Feature","properties":{"name_en":"Saum sar may","did":106,"pid":1,"uuid":"106069"},"geometry":{"type":"Point","coordinates":[102.82129671003202,18.135424579787497]}},{"type":"Feature","properties":{"name_en":"Vurn tan","did":106,"pid":1,"uuid":"106070"},"geometry":{"type":"Point","coordinates":[102.81075051996409,18.140966950333663]}},{"type":"Feature","properties":{"name_en":"Pa lay","did":106,"pid":1,"uuid":"106071"},"geometry":{"type":"Point","coordinates":[102.82890446010404,18.1345940196779]}},{"type":"Feature","properties":{"name_en":"Doun eian","did":106,"pid":1,"uuid":"106072"},"geometry":{"type":"Point","coordinates":[102.83624450038981,18.12313377980267]}},{"type":"Feature","properties":{"name_en":"Na khao","did":106,"pid":1,"uuid":"106073"},"geometry":{"type":"Point","coordinates":[102.86202999986614,18.109769919570635]}},{"type":"Feature","properties":{"name_en":"Tha cham pa","did":106,"pid":1,"uuid":"106074"},"geometry":{"type":"Point","coordinates":[102.82730897007963,18.163770839792004]}},{"type":"Feature","properties":{"name_en":"Natanh","did":106,"pid":1,"uuid":"106075"},"geometry":{"type":"Point","coordinates":[102.8303190797017,18.205746239598167]}},{"type":"Feature","properties":{"name_en":"Na ngaun may","did":106,"pid":1,"uuid":"106076"},"geometry":{"type":"Point","coordinates":[102.81899823016603,18.236122759959816]}},{"type":"Feature","properties":{"name_en":"Na ngaun kow","did":106,"pid":1,"uuid":"106077"},"geometry":{"type":"Point","coordinates":[102.83160116977919,18.238479160389055]}},{"type":"Feature","properties":{"name_en":"Na khy","did":106,"pid":1,"uuid":"106078"},"geometry":{"type":"Point","coordinates":[102.80463910954253,18.247727580383824]}},{"type":"Feature","properties":{"name_en":"Na khan thoung","did":106,"pid":1,"uuid":"106079"},"geometry":{"type":"Point","coordinates":[102.77279961002942,18.265069909551002]}},{"type":"Feature","properties":{"name_en":"Houa na","did":106,"pid":1,"uuid":"106080"},"geometry":{"type":"Point","coordinates":[102.75689242973742,18.265293199664978]}},{"type":"Feature","properties":{"name_en":"Houa khoua","did":106,"pid":1,"uuid":"106081"},"geometry":{"type":"Point","coordinates":[102.74617248008958,18.281752079734748]}},{"type":"Feature","properties":{"name_en":"Phaun phang","did":106,"pid":1,"uuid":"106082"},"geometry":{"type":"Point","coordinates":[102.77221732012151,18.226279719873304]}},{"type":"Feature","properties":{"name_en":"Sam born","did":106,"pid":1,"uuid":"106083"},"geometry":{"type":"Point","coordinates":[102.74537897001505,18.221969329565827]}},{"type":"Feature","properties":{"name_en":"Khauk sivilay","did":106,"pid":1,"uuid":"106084"},"geometry":{"type":"Point","coordinates":[102.74858663974466,18.073103869762996]}},{"type":"Feature","properties":{"name_en":"Say saum boun","did":106,"pid":1,"uuid":"106085"},"geometry":{"type":"Point","coordinates":[102.74875418986096,18.057009619952783]}},{"type":"Feature","properties":{"name_en":"Khauk sa ard","did":106,"pid":1,"uuid":"106086"},"geometry":{"type":"Point","coordinates":[102.73924819014394,18.050732659701755]}},{"type":"Feature","properties":{"name_en":"Tha nark","did":106,"pid":1,"uuid":"106087"},"geometry":{"type":"Point","coordinates":[102.75274598994254,18.08698036960341]}},{"type":"Feature","properties":{"name_en":"Naun thong","did":106,"pid":1,"uuid":"106088"},"geometry":{"type":"Point","coordinates":[102.75993355957456,18.062108749704112]}},{"type":"Feature","properties":{"name_en":"Houa xieng","did":106,"pid":1,"uuid":"106089"},"geometry":{"type":"Point","coordinates":[102.79123643964107,18.0295961804285]}},{"type":"Feature","properties":{"name_en":"Dongkhouai","did":106,"pid":1,"uuid":"106090"},"geometry":{"type":"Point","coordinates":[102.80824239953981,18.023423749601562]}},{"type":"Feature","properties":{"name_en":"Sang houa bor","did":106,"pid":1,"uuid":"106091"},"geometry":{"type":"Point","coordinates":[102.7892738197201,18.0065406702701]}},{"type":"Feature","properties":{"name_en":"Phi lom","did":106,"pid":1,"uuid":"106092"},"geometry":{"type":"Point","coordinates":[102.77647281026145,18.06593256979762]}},{"type":"Feature","properties":{"name_en":"Sang khom","did":106,"pid":1,"uuid":"106093"},"geometry":{"type":"Point","coordinates":[102.78497818040454,18.0531753998961]}},{"type":"Feature","properties":{"name_en":"Saum sa vanh","did":106,"pid":1,"uuid":"106094"},"geometry":{"type":"Point","coordinates":[102.78966668012967,18.06226430982995]}},{"type":"Feature","properties":{"name_en":"Khauk sar vang","did":106,"pid":1,"uuid":"106095"},"geometry":{"type":"Point","coordinates":[102.80647188989371,18.05988057958332]}},{"type":"Feature","properties":{"name_en":"Phaun sa vanh","did":106,"pid":1,"uuid":"106096"},"geometry":{"type":"Point","coordinates":[102.82055465981087,18.057291159751905]}},{"type":"Feature","properties":{"name_en":"Don loum","did":106,"pid":1,"uuid":"106097"},"geometry":{"type":"Point","coordinates":[102.8173407900862,18.044137690028837]}},{"type":"Feature","properties":{"name_en":"Na pha sook","did":106,"pid":1,"uuid":"106098"},"geometry":{"type":"Point","coordinates":[102.83570060019743,18.05477961023786]}},{"type":"Feature","properties":{"name_en":"Bor lake","did":106,"pid":1,"uuid":"106099"},"geometry":{"type":"Point","coordinates":[102.87994153957436,18.04340838031291]}},{"type":"Feature","properties":{"name_en":"Hard vieng kham","did":106,"pid":1,"uuid":"106100"},"geometry":{"type":"Point","coordinates":[102.83897422966879,18.16438515044436]}},{"type":"Feature","properties":{"name_en":"Na sa la","did":106,"pid":1,"uuid":"106101"},"geometry":{"type":"Point","coordinates":[102.72907876026241,18.12381698961824]}},{"type":"Feature","properties":{"name_en":"Sa nam ngurnh","did":106,"pid":1,"uuid":"106102"},"geometry":{"type":"Point","coordinates":[102.63075426040677,18.011118440136006]}},{"type":"Feature","properties":{"name_en":"Naun bor keo","did":106,"pid":1,"uuid":"106103"},"geometry":{"type":"Point","coordinates":[102.63419093017126,18.12003925969957]}},{"type":"Feature","properties":{"name_en":"Nong song hong","did":106,"pid":1,"uuid":"106104"},"geometry":{"type":"Point","coordinates":[102.76547600970902,18.160528720236375]}}]}