{"type":"FeatureCollection","features":[{"type":"Feature","properties":{"name_en":"Thana","did":107,"pid":1,"uuid":"107001"},"geometry":{"type":"Point","coordinates":[102.6138109202324,17.895258409790372]}},{"type":"Feature","properties":{"name_en":"Donedou","did":107,"pid":1,"uuid":"107002"},"geometry":{"type":"Point","coordinates":[102.62486915990529,17.893339210104145]}},{"type":"Feature","properties":{"name_en":"Bor o","did":107,"pid":1,"uuid":"107003"},"geometry":{"type":"Point","coordinates":[102.61158217021773,17.89111775021421]}},{"type":"Feature","properties":{"name_en":"Phao","did":107,"pid":1,"uuid":"107004"},"geometry":{"type":"Point","coordinates":[102.61037550974339,17.881774530395425]}},{"type":"Feature","properties":{"name_en":"Kang","did":107,"pid":1,"uuid":"107005"},"geometry":{"type":"Point","coordinates":[102.60903867993827,17.88507707986643]}},{"type":"Feature","properties":{"name_en":"Somhong","did":107,"pid":1,"uuid":"107006"},"geometry":{"type":"Point","coordinates":[102.61025934026999,17.88186504963566]}},{"type":"Feature","properties":{"name_en":"Kangnhang","did":107,"pid":1,"uuid":"107007"},"geometry":{"type":"Point","coordinates":[102.60666065010948,17.880907920266377]}},{"type":"Feature","properties":{"name_en":"Donkhasai","did":107,"pid":1,"uuid":"107008"},"geometry":{"type":"Point","coordinates":[102.62373140033608,17.871702580298106]}},{"type":"Feature","properties":{"name_en":"Natham","did":107,"pid":1,"uuid":"107009"},"geometry":{"type":"Point","coordinates":[102.60843601971726,17.86586668031837]}},{"type":"Feature","properties":{"name_en":"Kangphanhang","did":107,"pid":1,"uuid":"107010"},"geometry":{"type":"Point","coordinates":[102.61503475996317,17.870436829838955]}},{"type":"Feature","properties":{"name_en":"Hadonekeo","did":107,"pid":1,"uuid":"107011"},"geometry":{"type":"Point","coordinates":[102.59882205978361,17.85650510037091]}},{"type":"Feature","properties":{"name_en":"Houaha","did":107,"pid":1,"uuid":"107012"},"geometry":{"type":"Point","coordinates":[102.61421769024375,17.846726689983424]}},{"type":"Feature","properties":{"name_en":"Hadkansa","did":107,"pid":1,"uuid":"107013"},"geometry":{"type":"Point","coordinates":[102.60294838960232,17.840170530177893]}},{"type":"Feature","properties":{"name_en":"Donekerd","did":107,"pid":1,"uuid":"107014"},"geometry":{"type":"Point","coordinates":[102.61946283039032,17.840515949558693]}},{"type":"Feature","properties":{"name_en":"Phongern","did":107,"pid":1,"uuid":"107015"},"geometry":{"type":"Point","coordinates":[102.62208468969955,17.849630689914406]}},{"type":"Feature","properties":{"name_en":"Phosi","did":107,"pid":1,"uuid":"107016"},"geometry":{"type":"Point","coordinates":[102.63128593039846,17.84176477023689]}},{"type":"Feature","properties":{"name_en":"Savang","did":107,"pid":1,"uuid":"107017"},"geometry":{"type":"Point","coordinates":[102.63232234964052,17.839895189860968]}},{"type":"Feature","properties":{"name_en":"Phaphang","did":107,"pid":1,"uuid":"107018"},"geometry":{"type":"Point","coordinates":[102.63545323997647,17.83786206985928]}},{"type":"Feature","properties":{"name_en":"Chormthong","did":107,"pid":1,"uuid":"107019"},"geometry":{"type":"Point","coordinates":[102.63913399038275,17.836677540390685]}},{"type":"Feature","properties":{"name_en":"Hormtay","did":107,"pid":1,"uuid":"107020"},"geometry":{"type":"Point","coordinates":[102.64575720003023,17.83092210958039]}},{"type":"Feature","properties":{"name_en":"Chiemphang","did":107,"pid":1,"uuid":"107021"},"geometry":{"type":"Point","coordinates":[102.64398014957825,17.835799620001783]}},{"type":"Feature","properties":{"name_en":"Tinpeer","did":107,"pid":1,"uuid":"107022"},"geometry":{"type":"Point","coordinates":[102.65128557014167,17.827295340205442]}},{"type":"Feature","properties":{"name_en":"Thakhaek","did":107,"pid":1,"uuid":"107023"},"geometry":{"type":"Point","coordinates":[102.66465595976422,17.81747519001911]}},{"type":"Feature","properties":{"name_en":"Saiphongneua","did":107,"pid":1,"uuid":"107024"},"geometry":{"type":"Point","coordinates":[102.67245239028651,17.809441050041308]}},{"type":"Feature","properties":{"name_en":"Saiphongtay","did":107,"pid":1,"uuid":"107025"},"geometry":{"type":"Point","coordinates":[102.68088659038804,17.81222854002814]}},{"type":"Feature","properties":{"name_en":"Kokxai","did":107,"pid":1,"uuid":"107026"},"geometry":{"type":"Point","coordinates":[102.6855030896225,17.825293079611615]}},{"type":"Feature","properties":{"name_en":"Sitantay","did":107,"pid":1,"uuid":"107027"},"geometry":{"type":"Point","coordinates":[102.68053598004077,17.830898639992707]}},{"type":"Feature","properties":{"name_en":"Hadsaikhao","did":107,"pid":1,"uuid":"107028"},"geometry":{"type":"Point","coordinates":[102.63271344979556,17.908862830076067]}},{"type":"Feature","properties":{"name_en":"Somvangneua","did":107,"pid":1,"uuid":"107029"},"geometry":{"type":"Point","coordinates":[102.63461824007857,17.89979863986292]}},{"type":"Feature","properties":{"name_en":"Somvangtay","did":107,"pid":1,"uuid":"107030"},"geometry":{"type":"Point","coordinates":[102.63751551958703,17.899060700076262]}},{"type":"Feature","properties":{"name_en":"Nonghay","did":107,"pid":1,"uuid":"107031"},"geometry":{"type":"Point","coordinates":[102.64724750042316,17.90065879005216]}},{"type":"Feature","properties":{"name_en":"Somsanook","did":107,"pid":1,"uuid":"107032"},"geometry":{"type":"Point","coordinates":[102.64527012974297,17.892136490233344]}},{"type":"Feature","properties":{"name_en":"Nongvang","did":107,"pid":1,"uuid":"107033"},"geometry":{"type":"Point","coordinates":[102.64321596982386,17.879799589558115]}},{"type":"Feature","properties":{"name_en":"Salakhamneua","did":107,"pid":1,"uuid":"107034"},"geometry":{"type":"Point","coordinates":[102.64886898009628,17.881060060296424]}},{"type":"Feature","properties":{"name_en":"Nahay","did":107,"pid":1,"uuid":"107035"},"geometry":{"type":"Point","coordinates":[102.66298997035912,17.87767996960045]}},{"type":"Feature","properties":{"name_en":"Dongkhamsang","did":107,"pid":1,"uuid":"107036"},"geometry":{"type":"Point","coordinates":[102.6637116497134,17.904400969897953]}},{"type":"Feature","properties":{"name_en":"Nahay","did":107,"pid":1,"uuid":"107037"},"geometry":{"type":"Point","coordinates":[102.67989324955307,17.873358259966032]}},{"type":"Feature","properties":{"name_en":"Nongheo","did":107,"pid":1,"uuid":"107038"},"geometry":{"type":"Point","coordinates":[102.68719054006681,17.877066829562942]}},{"type":"Feature","properties":{"name_en":"Dongphosi","did":107,"pid":1,"uuid":"107039"},"geometry":{"type":"Point","coordinates":[102.71743738989369,17.885783090130193]}},{"type":"Feature","properties":{"name_en":"Thanalang","did":107,"pid":1,"uuid":"107040"},"geometry":{"type":"Point","coordinates":[102.7236088996459,17.888156090109057]}},{"type":"Feature","properties":{"name_en":"Thamouang","did":107,"pid":1,"uuid":"107041"},"geometry":{"type":"Point","coordinates":[102.73138756007087,17.887585029735202]}},{"type":"Feature","properties":{"name_en":"Dongphonhhae","did":107,"pid":1,"uuid":"107042"},"geometry":{"type":"Point","coordinates":[102.72242805993717,17.913882749908907]}},{"type":"Feature","properties":{"name_en":"Phava","did":107,"pid":1,"uuid":"107043"},"geometry":{"type":"Point","coordinates":[102.7391160904769,17.889027639618366]}},{"type":"Feature","properties":{"name_en":"Thadeua","did":107,"pid":1,"uuid":"107044"},"geometry":{"type":"Point","coordinates":[102.75204400982211,17.896383350067627]}},{"type":"Feature","properties":{"name_en":"Thintom","did":107,"pid":1,"uuid":"107045"},"geometry":{"type":"Point","coordinates":[102.75656201978954,17.900637419790648]}},{"type":"Feature","properties":{"name_en":"Khamchalern","did":107,"pid":1,"uuid":"107046"},"geometry":{"type":"Point","coordinates":[102.74319800017828,17.91887350004041]}},{"type":"Feature","properties":{"name_en":"Nongphandneua","did":107,"pid":1,"uuid":"107047"},"geometry":{"type":"Point","coordinates":[102.7450845104531,17.932995839615856]}},{"type":"Feature","properties":{"name_en":"Siengkouan","did":107,"pid":1,"uuid":"107048"},"geometry":{"type":"Point","coordinates":[102.76837462966775,17.921341890127806]}},{"type":"Feature","properties":{"name_en":"Nongphandtay","did":107,"pid":1,"uuid":"107049"},"geometry":{"type":"Point","coordinates":[102.7567330901388,17.934039469931495]}},{"type":"Feature","properties":{"name_en":"Thapha","did":107,"pid":1,"uuid":"107050"},"geometry":{"type":"Point","coordinates":[102.78422221962494,17.936360000126964]}},{"type":"Feature","properties":{"name_en":"Pakpeng","did":107,"pid":1,"uuid":"107051"},"geometry":{"type":"Point","coordinates":[102.7917121204467,17.939891129630958]}},{"type":"Feature","properties":{"name_en":"Nongphong","did":107,"pid":1,"uuid":"107052"},"geometry":{"type":"Point","coordinates":[102.78727029039806,17.962085569958425]}},{"type":"Feature","properties":{"name_en":"Thinthand","did":107,"pid":1,"uuid":"107053"},"geometry":{"type":"Point","coordinates":[102.79744038965131,17.942046949746594]}},{"type":"Feature","properties":{"name_en":"Khouaydang","did":107,"pid":1,"uuid":"107054"},"geometry":{"type":"Point","coordinates":[102.82934904020296,17.956364670028012]}},{"type":"Feature","properties":{"name_en":"Simmanoneua","did":107,"pid":1,"uuid":"107055"},"geometry":{"type":"Point","coordinates":[102.83977403029533,17.966740619615788]}},{"type":"Feature","properties":{"name_en":"Simmanotay","did":107,"pid":1,"uuid":"107056"},"geometry":{"type":"Point","coordinates":[102.84475857999367,17.968673579868515]}},{"type":"Feature","properties":{"name_en":"Nalong","did":107,"pid":1,"uuid":"107057"},"geometry":{"type":"Point","coordinates":[102.88777626992916,17.983011830309596]}},{"type":"Feature","properties":{"name_en":"Donephai","did":107,"pid":1,"uuid":"107058"},"geometry":{"type":"Point","coordinates":[102.65609996016198,17.85189866013575]}},{"type":"Feature","properties":{"name_en":"Salakhamtay","did":107,"pid":1,"uuid":"107059"},"geometry":{"type":"Point","coordinates":[102.65313385970768,17.87185571973513]}},{"type":"Feature","properties":{"name_en":"Dongphonhlao","did":107,"pid":1,"uuid":"107060"},"geometry":{"type":"Point","coordinates":[102.64714457014497,17.872115480106455]}}]}