{"type":"FeatureCollection","features":[{"type":"Feature","properties":{"name_en":"Koua","did":108,"pid":1,"uuid":"108001"},"geometry":{"type":"Point","coordinates":[102.20519707999266,18.37689213005005]}},{"type":"Feature","properties":{"name_en":"Taohay","did":108,"pid":1,"uuid":"108002"},"geometry":{"type":"Point","coordinates":[102.219039199602,18.347629390117763]}},{"type":"Feature","properties":{"name_en":"Hayneua","did":108,"pid":1,"uuid":"108003"},"geometry":{"type":"Point","coordinates":[102.23184288963921,18.34785150984587]}},{"type":"Feature","properties":{"name_en":"Nahoyphang","did":108,"pid":1,"uuid":"108004"},"geometry":{"type":"Point","coordinates":[102.23910253983517,18.343218750344274]}},{"type":"Feature","properties":{"name_en":"Nalath","did":108,"pid":1,"uuid":"108005"},"geometry":{"type":"Point","coordinates":[102.21704104026634,18.329816260127274]}},{"type":"Feature","properties":{"name_en":"Nongboua","did":108,"pid":1,"uuid":"108007"},"geometry":{"type":"Point","coordinates":[102.20150669037012,18.313634910187243]}},{"type":"Feature","properties":{"name_en":"Natan","did":108,"pid":1,"uuid":"108009"},"geometry":{"type":"Point","coordinates":[102.22341781979375,18.308382890337796]}},{"type":"Feature","properties":{"name_en":"Parkthap","did":108,"pid":1,"uuid":"108010"},"geometry":{"type":"Point","coordinates":[102.22573911039896,18.288987420050603]}},{"type":"Feature","properties":{"name_en":"Nasaonang","did":108,"pid":1,"uuid":"108011"},"geometry":{"type":"Point","coordinates":[102.22604043967814,18.279317719554847]}},{"type":"Feature","properties":{"name_en":"Haytay","did":108,"pid":1,"uuid":"108012"},"geometry":{"type":"Point","coordinates":[102.22388377033892,18.26594623967637]}},{"type":"Feature","properties":{"name_en":"Hinsiew","did":108,"pid":1,"uuid":"108013"},"geometry":{"type":"Point","coordinates":[102.22200883011085,18.244269800045167]}},{"type":"Feature","properties":{"name_en":"Pheerlath","did":108,"pid":1,"uuid":"108014"},"geometry":{"type":"Point","coordinates":[102.24133120957305,18.221172120206383]}},{"type":"Feature","properties":{"name_en":"Thanakham","did":108,"pid":1,"uuid":"108015"},"geometry":{"type":"Point","coordinates":[102.24304993150815,18.19490051469226]}},{"type":"Feature","properties":{"name_en":"Nahoy","did":108,"pid":1,"uuid":"108016"},"geometry":{"type":"Point","coordinates":[102.2650909623486,18.152894939058573]}},{"type":"Feature","properties":{"name_en":"Hinlub","did":108,"pid":1,"uuid":"108017"},"geometry":{"type":"Point","coordinates":[102.28233274717549,18.13185156205492]}},{"type":"Feature","properties":{"name_en":"Vangma","did":108,"pid":1,"uuid":"108018"},"geometry":{"type":"Point","coordinates":[102.09647055003023,18.390104440386462]}},{"type":"Feature","properties":{"name_en":"Kouay","did":108,"pid":1,"uuid":"108019"},"geometry":{"type":"Point","coordinates":[102.1741022302699,18.276009630172105]}},{"type":"Feature","properties":{"name_en":"Naphor","did":108,"pid":1,"uuid":"108020"},"geometry":{"type":"Point","coordinates":[102.17480999000031,18.265484809553264]}},{"type":"Feature","properties":{"name_en":"Huoaila","did":108,"pid":1,"uuid":"108021"},"geometry":{"type":"Point","coordinates":[102.08021041018294,18.221815270012744]}},{"type":"Feature","properties":{"name_en":"Houaitom","did":108,"pid":1,"uuid":"108022"},"geometry":{"type":"Point","coordinates":[102.14081970001376,18.24896618002415]}},{"type":"Feature","properties":{"name_en":"May","did":108,"pid":1,"uuid":"108023"},"geometry":{"type":"Point","coordinates":[102.1432005801634,18.23454126030654]}},{"type":"Feature","properties":{"name_en":"Sor","did":108,"pid":1,"uuid":"108024"},"geometry":{"type":"Point","coordinates":[102.12672176008981,18.301584410172016]}},{"type":"Feature","properties":{"name_en":"Thanasa","did":108,"pid":1,"uuid":"108025"},"geometry":{"type":"Point","coordinates":[102.16054885984626,18.216423769589866]}},{"type":"Feature","properties":{"name_en":"Sanord","did":108,"pid":1,"uuid":"108026"},"geometry":{"type":"Point","coordinates":[102.17419492984706,18.208531120123077]}},{"type":"Feature","properties":{"name_en":"Kokhae","did":108,"pid":1,"uuid":"108027"},"geometry":{"type":"Point","coordinates":[102.17981280415206,18.186492354989436]}},{"type":"Feature","properties":{"name_en":"Angnoy","did":108,"pid":1,"uuid":"108028"},"geometry":{"type":"Point","coordinates":[102.1969488601338,18.154564069581518]}},{"type":"Feature","properties":{"name_en":"Sakay","did":108,"pid":1,"uuid":"108029"},"geometry":{"type":"Point","coordinates":[102.22766618972796,18.128012050073874]}},{"type":"Feature","properties":{"name_en":"Kokpheui","did":108,"pid":1,"uuid":"108030"},"geometry":{"type":"Point","coordinates":[102.26042695070666,18.098233881082848]}},{"type":"Feature","properties":{"name_en":"Phaktone","did":108,"pid":1,"uuid":"108031"},"geometry":{"type":"Point","coordinates":[102.28754977946568,18.09125312644326]}},{"type":"Feature","properties":{"name_en":"Thanasanghin","did":108,"pid":1,"uuid":"108032"},"geometry":{"type":"Point","coordinates":[102.29353102043575,18.08148913000204]}},{"type":"Feature","properties":{"name_en":"Donekangkong","did":108,"pid":1,"uuid":"108033"},"geometry":{"type":"Point","coordinates":[102.27712729961625,18.07329589992213]}},{"type":"Feature","properties":{"name_en":"Kangmor","did":108,"pid":1,"uuid":"108034"},"geometry":{"type":"Point","coordinates":[102.30899664923794,18.0565874780357]}},{"type":"Feature","properties":{"name_en":"Samphanna","did":108,"pid":1,"uuid":"108035"},"geometry":{"type":"Point","coordinates":[102.31465475970609,18.055752410425587]}},{"type":"Feature","properties":{"name_en":"Huoaihang","did":108,"pid":1,"uuid":"108036"},"geometry":{"type":"Point","coordinates":[102.0580753101293,18.209701069835596]}},{"type":"Feature","properties":{"name_en":"Houaikham","did":108,"pid":1,"uuid":"108037"},"geometry":{"type":"Point","coordinates":[102.25467536999085,18.1341755902397]}}]}