{"type":"FeatureCollection","features":[{"type":"Feature","properties":{"name_en":"Xienglaena","did":109,"pid":1,"uuid":"109001"},"geometry":{"type":"Point","coordinates":[102.94450984996614,18.215980200316686]}},{"type":"Feature","properties":{"name_en":"Vernkabao","did":109,"pid":1,"uuid":"109002"},"geometry":{"type":"Point","coordinates":[102.97269568003036,18.209522449962762]}},{"type":"Feature","properties":{"name_en":"Non","did":109,"pid":1,"uuid":"109003"},"geometry":{"type":"Point","coordinates":[102.89689518962037,18.21014421985937]}},{"type":"Feature","properties":{"name_en":"Phonkham","did":109,"pid":1,"uuid":"109004"},"geometry":{"type":"Point","coordinates":[102.8740099199198,18.146997139777955]}},{"type":"Feature","properties":{"name_en":"Houanathong","did":109,"pid":1,"uuid":"109005"},"geometry":{"type":"Point","coordinates":[102.87491599975401,18.13332986027241]}},{"type":"Feature","properties":{"name_en":"Nabong","did":109,"pid":1,"uuid":"109006"},"geometry":{"type":"Point","coordinates":[102.87922304013154,18.17045247028963]}},{"type":"Feature","properties":{"name_en":"Thakokhai","did":109,"pid":1,"uuid":"109007"},"geometry":{"type":"Point","coordinates":[102.88059649996048,18.182765400110064]}},{"type":"Feature","properties":{"name_en":"Nongdong","did":109,"pid":1,"uuid":"109008"},"geometry":{"type":"Point","coordinates":[102.91818228962933,18.177737939892758]}},{"type":"Feature","properties":{"name_en":"Houaynamgnun","did":109,"pid":1,"uuid":"109009"},"geometry":{"type":"Point","coordinates":[102.9324697501868,18.152734799818855]}},{"type":"Feature","properties":{"name_en":"Thaxang","did":109,"pid":1,"uuid":"109010"},"geometry":{"type":"Point","coordinates":[102.91898671018599,18.203173489809572]}},{"type":"Feature","properties":{"name_en":"Xienglaetha","did":109,"pid":1,"uuid":"109011"},"geometry":{"type":"Point","coordinates":[102.93080459957925,18.204160880097234]}},{"type":"Feature","properties":{"name_en":"Fangdeng","did":109,"pid":1,"uuid":"109012"},"geometry":{"type":"Point","coordinates":[103.0230490401424,18.19985275018103]}},{"type":"Feature","properties":{"name_en":"Pakkouang","did":109,"pid":1,"uuid":"109013"},"geometry":{"type":"Point","coordinates":[102.99594933990782,18.165048660100037]}},{"type":"Feature","properties":{"name_en":"Vernkham","did":109,"pid":1,"uuid":"109014"},"geometry":{"type":"Point","coordinates":[103.04467451961115,18.142338139561613]}},{"type":"Feature","properties":{"name_en":"Sompaserd","did":109,"pid":1,"uuid":"109015"},"geometry":{"type":"Point","coordinates":[103.0498913296503,18.141164590210447]}},{"type":"Feature","properties":{"name_en":"Hai","did":109,"pid":1,"uuid":"109016"},"geometry":{"type":"Point","coordinates":[103.05741617964041,18.175048100267237]}},{"type":"Feature","properties":{"name_en":"Nonxay","did":109,"pid":1,"uuid":"109017"},"geometry":{"type":"Point","coordinates":[103.06715336030783,18.115618480433817]}},{"type":"Feature","properties":{"name_en":"Donesangkhy","did":109,"pid":1,"uuid":"109018"},"geometry":{"type":"Point","coordinates":[103.07154556000455,18.105733869966485]}},{"type":"Feature","properties":{"name_en":"Thunloua","did":109,"pid":1,"uuid":"109019"},"geometry":{"type":"Point","coordinates":[103.07120894002692,18.063139970439227]}},{"type":"Feature","properties":{"name_en":"Phao","did":109,"pid":1,"uuid":"109020"},"geometry":{"type":"Point","coordinates":[103.03634952960236,18.128577819939576]}},{"type":"Feature","properties":{"name_en":"Donegneng","did":109,"pid":1,"uuid":"109021"},"geometry":{"type":"Point","coordinates":[103.0655944895762,18.10504689009931]}},{"type":"Feature","properties":{"name_en":"Thakok","did":109,"pid":1,"uuid":"109022"},"geometry":{"type":"Point","coordinates":[103.07577029012418,18.05521103034588]}},{"type":"Feature","properties":{"name_en":"Nakang","did":109,"pid":1,"uuid":"109023"},"geometry":{"type":"Point","coordinates":[103.0725603598482,18.03752068003704]}},{"type":"Feature","properties":{"name_en":"Nongphuovieng","did":109,"pid":1,"uuid":"109024"},"geometry":{"type":"Point","coordinates":[103.03392431024669,18.063027909597242]}},{"type":"Feature","properties":{"name_en":"Naxone","did":109,"pid":1,"uuid":"109025"},"geometry":{"type":"Point","coordinates":[102.99077955046434,18.080706759611623]}},{"type":"Feature","properties":{"name_en":"Natham","did":109,"pid":1,"uuid":"109026"},"geometry":{"type":"Point","coordinates":[102.97040297965606,18.10313020044203]}},{"type":"Feature","properties":{"name_en":"Nongkhene","did":109,"pid":1,"uuid":"109027"},"geometry":{"type":"Point","coordinates":[102.92754245023237,18.111982580146798]}},{"type":"Feature","properties":{"name_en":"Donesangphai","did":109,"pid":1,"uuid":"109028"},"geometry":{"type":"Point","coordinates":[102.91592639031168,18.116967549666487]}},{"type":"Feature","properties":{"name_en":"Nonsomboun","did":109,"pid":1,"uuid":"109029"},"geometry":{"type":"Point","coordinates":[102.90356887000085,18.09348321975923]}},{"type":"Feature","properties":{"name_en":"Nongbouathong","did":109,"pid":1,"uuid":"109030"},"geometry":{"type":"Point","coordinates":[102.90242984982581,18.064423490426016]}},{"type":"Feature","properties":{"name_en":"Khoksa","did":109,"pid":1,"uuid":"109031"},"geometry":{"type":"Point","coordinates":[102.91167147970341,18.0751209801852]}},{"type":"Feature","properties":{"name_en":"Donehai","did":109,"pid":1,"uuid":"109032"},"geometry":{"type":"Point","coordinates":[102.93524683980596,18.080071330188908]}},{"type":"Feature","properties":{"name_en":"Thangkhong","did":109,"pid":1,"uuid":"109033"},"geometry":{"type":"Point","coordinates":[102.92771360989153,18.080200830119153]}},{"type":"Feature","properties":{"name_en":"Nonsung","did":109,"pid":1,"uuid":"109034"},"geometry":{"type":"Point","coordinates":[102.97584508998852,18.054801820119526]}},{"type":"Feature","properties":{"name_en":"Nalerd","did":109,"pid":1,"uuid":"109035"},"geometry":{"type":"Point","coordinates":[103.0070344899909,18.03832359033297]}},{"type":"Feature","properties":{"name_en":"Nongvangpherng","did":109,"pid":1,"uuid":"109036"},"geometry":{"type":"Point","coordinates":[103.0202196397028,18.020417410128015]}},{"type":"Feature","properties":{"name_en":"Dontai","did":109,"pid":1,"uuid":"109037"},"geometry":{"type":"Point","coordinates":[103.06199915997693,18.018142810029577]}},{"type":"Feature","properties":{"name_en":"Donneua","did":109,"pid":1,"uuid":"109038"},"geometry":{"type":"Point","coordinates":[103.05831220977566,18.012809239955754]}},{"type":"Feature","properties":{"name_en":"Dongkaleum","did":109,"pid":1,"uuid":"109039"},"geometry":{"type":"Point","coordinates":[103.02098114027294,17.999117740434137]}},{"type":"Feature","properties":{"name_en":"Dongsane","did":109,"pid":1,"uuid":"109040"},"geometry":{"type":"Point","coordinates":[103.03493708962309,17.99429596037768]}},{"type":"Feature","properties":{"name_en":"Thadeuasingkom","did":109,"pid":1,"uuid":"109041"},"geometry":{"type":"Point","coordinates":[103.0386527899901,17.987703599893567]}},{"type":"Feature","properties":{"name_en":"Thinthieng","did":109,"pid":1,"uuid":"109042"},"geometry":{"type":"Point","coordinates":[103.01659438956744,17.977604829657263]}},{"type":"Feature","properties":{"name_en":"Donevangpho","did":109,"pid":1,"uuid":"109043"},"geometry":{"type":"Point","coordinates":[103.00960555989948,17.993941830085628]}},{"type":"Feature","properties":{"name_en":"Maknaotai","did":109,"pid":1,"uuid":"109044"},"geometry":{"type":"Point","coordinates":[102.96365310986211,18.009068150303925]}},{"type":"Feature","properties":{"name_en":"Maknaoneua","did":109,"pid":1,"uuid":"109045"},"geometry":{"type":"Point","coordinates":[102.9592557197386,18.009895099608215]}},{"type":"Feature","properties":{"name_en":"Naxa","did":109,"pid":1,"uuid":"109046"},"geometry":{"type":"Point","coordinates":[102.94189654030971,18.04927378974159]}},{"type":"Feature","properties":{"name_en":"Maknaodong","did":109,"pid":1,"uuid":"109047"},"geometry":{"type":"Point","coordinates":[102.95909234981256,18.018072070333844]}},{"type":"Feature","properties":{"name_en":"Nafai","did":109,"pid":1,"uuid":"109048"},"geometry":{"type":"Point","coordinates":[102.91660901015865,18.04639082991151]}},{"type":"Feature","properties":{"name_en":"Sangsai","did":109,"pid":1,"uuid":"109049"},"geometry":{"type":"Point","coordinates":[102.90739000958646,18.041740890027246]}},{"type":"Feature","properties":{"name_en":"Mak hiaw","did":109,"pid":1,"uuid":"109050"},"geometry":{"type":"Point","coordinates":[102.91670121006838,17.998025320201826]}},{"type":"Feature","properties":{"name_en":"Somsavad","did":109,"pid":1,"uuid":"109051"},"geometry":{"type":"Point","coordinates":[103.0507822404557,18.182313369893453]}},{"type":"Feature","properties":{"name_en":"Pakngeum","did":109,"pid":1,"uuid":"109052"},"geometry":{"type":"Point","coordinates":[103.10241309003048,18.14654794977366]}},{"type":"Feature","properties":{"name_en":"Nongkhiad","did":109,"pid":1,"uuid":"109053"},"geometry":{"type":"Point","coordinates":[103.13603817997229,18.169696760038946]}}]}