{"type":"FeatureCollection","features":[{"type":"Feature","properties":{"name_en":"Paksanhtai","did":1101,"pid":11,"uuid":"1.101001e+06"},"geometry":{"type":"Point","coordinates":[103.66550724956491,18.373754280090616]}},{"type":"Feature","properties":{"name_en":"Phonhxai","did":1101,"pid":11,"uuid":"1.101002e+06"},"geometry":{"type":"Point","coordinates":[103.65074067976032,18.395418389620527]}},{"type":"Feature","properties":{"name_en":"Phosy","did":1101,"pid":11,"uuid":"1.101003e+06"},"geometry":{"type":"Point","coordinates":[103.65914043976282,18.390014499974257]}},{"type":"Feature","properties":{"name_en":"Symoungkhoun","did":1101,"pid":11,"uuid":"1.101004e+06"},"geometry":{"type":"Point","coordinates":[103.65707061016124,18.392238049790933]}},{"type":"Feature","properties":{"name_en":"Paksanhneua","did":1101,"pid":11,"uuid":"1.101005e+06"},"geometry":{"type":"Point","coordinates":[103.66119275040602,18.380743690322323]}},{"type":"Feature","properties":{"name_en":"Phoxai","did":1101,"pid":11,"uuid":"1.101006e+06"},"geometry":{"type":"Point","coordinates":[103.65825866001175,18.384959200327632]}},{"type":"Feature","properties":{"name_en":"Pakpeung","did":1101,"pid":11,"uuid":"1.101008e+06"},"geometry":{"type":"Point","coordinates":[103.70310351994564,18.346443520428988]}},{"type":"Feature","properties":{"name_en":"Myxai","did":1101,"pid":11,"uuid":"1.101009e+06"},"geometry":{"type":"Point","coordinates":[103.65958484953056,18.397084129993413]}},{"type":"Feature","properties":{"name_en":"Huoisieth","did":1101,"pid":11,"uuid":"1.101011e+06"},"geometry":{"type":"Point","coordinates":[103.63106114977363,18.398109570359694]}},{"type":"Feature","properties":{"name_en":"Sysa ath","did":1101,"pid":11,"uuid":"1.101012e+06"},"geometry":{"type":"Point","coordinates":[103.68859385967015,18.400463629730478]}},{"type":"Feature","properties":{"name_en":"Phonhsa ath","did":1101,"pid":11,"uuid":"1.101013e+06"},"geometry":{"type":"Point","coordinates":[103.70089463996639,18.394139479993818]}},{"type":"Feature","properties":{"name_en":"Thasykhai","did":1101,"pid":11,"uuid":"1.101015e+06"},"geometry":{"type":"Point","coordinates":[103.69718355030957,18.405347679900775]}},{"type":"Feature","properties":{"name_en":"Syvilai","did":1101,"pid":11,"uuid":"1.101017e+06"},"geometry":{"type":"Point","coordinates":[103.66053685973814,18.40100241956833]}},{"type":"Feature","properties":{"name_en":"Suansawanh","did":1101,"pid":11,"uuid":"1.101018e+06"},"geometry":{"type":"Point","coordinates":[103.67526990020168,18.413398080240572]}},{"type":"Feature","properties":{"name_en":"Nachick","did":1101,"pid":11,"uuid":"1.101019e+06"},"geometry":{"type":"Point","coordinates":[103.68508812952722,18.4068107403347]}},{"type":"Feature","properties":{"name_en":"Khamphai","did":1101,"pid":11,"uuid":"1.10102e+06"},"geometry":{"type":"Point","coordinates":[103.80943123021613,18.49999521035923]}},{"type":"Feature","properties":{"name_en":"Nakham","did":1101,"pid":11,"uuid":"1.101021e+06"},"geometry":{"type":"Point","coordinates":[103.81839760976816,18.44607358986698]}},{"type":"Feature","properties":{"name_en":"Khambon","did":1101,"pid":11,"uuid":"1.101022e+06"},"geometry":{"type":"Point","coordinates":[103.84514577014019,18.474836170253354]}},{"type":"Feature","properties":{"name_en":"Na oy nou","did":1101,"pid":11,"uuid":"1.101023e+06"},"geometry":{"type":"Point","coordinates":[103.83517474016328,18.426529090321644]}},{"type":"Feature","properties":{"name_en":"Na khao lom","did":1101,"pid":11,"uuid":"1.101025e+06"},"geometry":{"type":"Point","coordinates":[103.82488327020867,18.48686805970964]}},{"type":"Feature","properties":{"name_en":"Somsawath","did":1101,"pid":11,"uuid":"1.101026e+06"},"geometry":{"type":"Point","coordinates":[103.79330085029447,18.459625450421232]}},{"type":"Feature","properties":{"name_en":"Namai","did":1101,"pid":11,"uuid":"1.101027e+06"},"geometry":{"type":"Point","coordinates":[103.88110295986324,18.445153259775047]}},{"type":"Feature","properties":{"name_en":"Thongwane","did":1101,"pid":11,"uuid":"1.101028e+06"},"geometry":{"type":"Point","coordinates":[103.84609685987397,18.39902269977546]}},{"type":"Feature","properties":{"name_en":"Hangxing","did":1101,"pid":11,"uuid":"1.101031e+06"},"geometry":{"type":"Point","coordinates":[103.53188186042605,18.42895925027261]}},{"type":"Feature","properties":{"name_en":"Kuoihinlath","did":1101,"pid":11,"uuid":"1.101033e+06"},"geometry":{"type":"Point","coordinates":[103.59903398006091,18.418383470370856]}},{"type":"Feature","properties":{"name_en":"Namngieb","did":1101,"pid":11,"uuid":"1.101036e+06"},"geometry":{"type":"Point","coordinates":[103.60440811994508,18.418738690216983]}},{"type":"Feature","properties":{"name_en":"Hathxaykhoun","did":1101,"pid":11,"uuid":"1.10104e+06"},"geometry":{"type":"Point","coordinates":[103.81475055977427,18.34550332008061]}},{"type":"Feature","properties":{"name_en":"Sinxai","did":1101,"pid":11,"uuid":"1.101041e+06"},"geometry":{"type":"Point","coordinates":[103.75276813959938,18.351432180164576]}},{"type":"Feature","properties":{"name_en":"Phonhngam","did":1101,"pid":11,"uuid":"1.101042e+06"},"geometry":{"type":"Point","coordinates":[103.7683610802174,18.369810089743055]}},{"type":"Feature","properties":{"name_en":"Phonhsawang","did":1101,"pid":11,"uuid":"1.101043e+06"},"geometry":{"type":"Point","coordinates":[103.75579802988167,18.369593419788526]}},{"type":"Feature","properties":{"name_en":"Thana","did":1101,"pid":11,"uuid":"1.101044e+06"},"geometry":{"type":"Point","coordinates":[103.78587012033039,18.352300120220715]}},{"type":"Feature","properties":{"name_en":"Pakkadanh","did":1101,"pid":11,"uuid":"1.101045e+06"},"geometry":{"type":"Point","coordinates":[103.83458389971578,18.333883829694724]}},{"type":"Feature","properties":{"name_en":"Nasommor","did":1101,"pid":11,"uuid":"1.101047e+06"},"geometry":{"type":"Point","coordinates":[103.72861586016037,18.376667910418472]}},{"type":"Feature","properties":{"name_en":"Thongnoy","did":1101,"pid":11,"uuid":"1.101051e+06"},"geometry":{"type":"Point","coordinates":[103.65170510029809,18.445843250223263]}},{"type":"Feature","properties":{"name_en":"Thongnhai","did":1101,"pid":11,"uuid":"1.101052e+06"},"geometry":{"type":"Point","coordinates":[103.65014640969613,18.437236039879835]}},{"type":"Feature","properties":{"name_en":"Sybounhueng","did":1101,"pid":11,"uuid":"1.101055e+06"},"geometry":{"type":"Point","coordinates":[103.69272286990245,18.43359360044544]}},{"type":"Feature","properties":{"name_en":"Bouavaengkham","did":1101,"pid":11,"uuid":"1.101057e+06"},"geometry":{"type":"Point","coordinates":[103.76602084976466,18.43773300968467]}},{"type":"Feature","properties":{"name_en":"Nahuaphou","did":1101,"pid":11,"uuid":"1.101059e+06"},"geometry":{"type":"Point","coordinates":[103.79345382045882,18.411301179973645]}},{"type":"Feature","properties":{"name_en":"Nady","did":1101,"pid":11,"uuid":"1.10106e+06"},"geometry":{"type":"Point","coordinates":[103.75325823017936,18.44698470025408]}},{"type":"Feature","properties":{"name_en":"Songkhorn","did":1101,"pid":11,"uuid":"1.101061e+06"},"geometry":{"type":"Point","coordinates":[103.70607372969431,18.477960950391587]}},{"type":"Feature","properties":{"name_en":"Nasavanh","did":1101,"pid":11,"uuid":"1.101062e+06"},"geometry":{"type":"Point","coordinates":[103.8094369298788,18.39210359969657]}},{"type":"Feature","properties":{"name_en":"Nonoudom","did":1101,"pid":11,"uuid":"1.101064e+06"},"geometry":{"type":"Point","coordinates":[103.74005858030166,18.43060159984224]}},{"type":"Feature","properties":{"name_en":"thabor","did":1101,"pid":11,"uuid":"1.101065e+06"},"geometry":{"type":"Point","coordinates":[103.71317664026483,18.468820480010056]}},{"type":"Feature","properties":{"name_en":"Pathsoum","did":1101,"pid":11,"uuid":"1.101066e+06"},"geometry":{"type":"Point","coordinates":[103.71137687996006,18.42759493031077]}},{"type":"Feature","properties":{"name_en":"Don","did":1101,"pid":11,"uuid":"1.101067e+06"},"geometry":{"type":"Point","coordinates":[103.88744327961115,18.30192757040986]}},{"type":"Feature","properties":{"name_en":"Kangsadork","did":1101,"pid":11,"uuid":"1.101068e+06"},"geometry":{"type":"Point","coordinates":[103.85141165973687,18.30026653029274]}},{"type":"Feature","properties":{"name_en":"Phonhom","did":1101,"pid":11,"uuid":"1.101069e+06"},"geometry":{"type":"Point","coordinates":[103.86523115004633,18.35001036014082]}},{"type":"Feature","properties":{"name_en":"Huoixai","did":1101,"pid":11,"uuid":"1.10107e+06"},"geometry":{"type":"Point","coordinates":[103.87223339954798,18.359022489702337]}},{"type":"Feature","properties":{"name_en":"Namuang","did":1101,"pid":11,"uuid":"1.101071e+06"},"geometry":{"type":"Point","coordinates":[103.87762270984784,18.38199486038145]}},{"type":"Feature","properties":{"name_en":"Phonxay","did":1101,"pid":11,"uuid":"1.101072e+06"},"geometry":{"type":"Point","coordinates":[103.86135376992586,18.326555609647723]}},{"type":"Feature","properties":{"name_en":"Nongsaman","did":1101,"pid":11,"uuid":"1.101075e+06"},"geometry":{"type":"Point","coordinates":[103.84327300043768,18.374673519844606]}},{"type":"Feature","properties":{"name_en":"Bong","did":1101,"pid":11,"uuid":"1.101076e+06"},"geometry":{"type":"Point","coordinates":[103.88065369008172,18.388128490220062]}},{"type":"Feature","properties":{"name_en":"Xanaxay","did":1101,"pid":11,"uuid":"1.101077e+06"},"geometry":{"type":"Point","coordinates":[103.63644534998421,18.412237519611736]}},{"type":"Feature","properties":{"name_en":"Hongxay","did":1101,"pid":11,"uuid":"1.101078e+06"},"geometry":{"type":"Point","coordinates":[103.64876648954267,18.40139585982322]}},{"type":"Feature","properties":{"name_en":"Anousonexay","did":1101,"pid":11,"uuid":"1.101079e+06"},"geometry":{"type":"Point","coordinates":[103.64440127956372,18.397987449573513]}}]}