{"type":"FeatureCollection","features":[{"type":"Feature","properties":{"name_en":"Thabook","did":1102,"pid":11,"uuid":"1.102001e+06"},"geometry":{"type":"Point","coordinates":[103.2002639304499,18.373698869903826]}},{"type":"Feature","properties":{"name_en":"Phalai","did":1102,"pid":11,"uuid":"1.102002e+06"},"geometry":{"type":"Point","coordinates":[103.19622887980552,18.367104659837178]}},{"type":"Feature","properties":{"name_en":"Nackam","did":1102,"pid":11,"uuid":"1.102003e+06"},"geometry":{"type":"Point","coordinates":[103.26334436979091,18.398981629564677]}},{"type":"Feature","properties":{"name_en":"Phonhsavanh","did":1102,"pid":11,"uuid":"1.102004e+06"},"geometry":{"type":"Point","coordinates":[103.24967247960456,18.41532759038307]}},{"type":"Feature","properties":{"name_en":"Sisomsay","did":1102,"pid":11,"uuid":"1.102005e+06"},"geometry":{"type":"Point","coordinates":[103.30694360025743,18.4379174902207]}},{"type":"Feature","properties":{"name_en":"Huoaileuk","did":1102,"pid":11,"uuid":"1.102007e+06"},"geometry":{"type":"Point","coordinates":[103.14975960978892,18.38998163984818]}},{"type":"Feature","properties":{"name_en":"Hathkay","did":1102,"pid":11,"uuid":"1.102008e+06"},"geometry":{"type":"Point","coordinates":[103.15965746989191,18.408241619927185]}},{"type":"Feature","properties":{"name_en":"Phonenham","did":1102,"pid":11,"uuid":"1.102009e+06"},"geometry":{"type":"Point","coordinates":[103.14519172961049,18.37573249003314]}},{"type":"Feature","properties":{"name_en":"Nhangkuea","did":1102,"pid":11,"uuid":"1.10201e+06"},"geometry":{"type":"Point","coordinates":[103.12113875974262,18.3660121601885]}},{"type":"Feature","properties":{"name_en":"Phaphong","did":1102,"pid":11,"uuid":"1.102011e+06"},"geometry":{"type":"Point","coordinates":[103.24034467970033,18.336221710130218]}},{"type":"Feature","properties":{"name_en":"Oudomsay","did":1102,"pid":11,"uuid":"1.102012e+06"},"geometry":{"type":"Point","coordinates":[103.19833319999866,18.356692999999854]}},{"type":"Feature","properties":{"name_en":"Phabath","did":1102,"pid":11,"uuid":"1.102013e+06"},"geometry":{"type":"Point","coordinates":[103.16912719999853,18.277664599999838]}},{"type":"Feature","properties":{"name_en":"Thaphonsun","did":1102,"pid":11,"uuid":"1.102014e+06"},"geometry":{"type":"Point","coordinates":[103.1820645601637,18.269087100048875]}},{"type":"Feature","properties":{"name_en":"Na","did":1102,"pid":11,"uuid":"1.102015e+06"},"geometry":{"type":"Point","coordinates":[103.16168569999849,18.286999499999833]}},{"type":"Feature","properties":{"name_en":"Somsaath","did":1102,"pid":11,"uuid":"1.102016e+06"},"geometry":{"type":"Point","coordinates":[103.18233449999859,18.294331599999833]}},{"type":"Feature","properties":{"name_en":"Thouay","did":1102,"pid":11,"uuid":"1.102017e+06"},"geometry":{"type":"Point","coordinates":[103.1904055999986,18.308576899999828]}},{"type":"Feature","properties":{"name_en":"ThouayMai","did":1102,"pid":11,"uuid":"1.102018e+06"},"geometry":{"type":"Point","coordinates":[103.20544499999868,18.304874099999843]}},{"type":"Feature","properties":{"name_en":"Thouaynhai","did":1102,"pid":11,"uuid":"1.102019e+06"},"geometry":{"type":"Point","coordinates":[103.21327399039016,18.279633720077218]}},{"type":"Feature","properties":{"name_en":"Thongthong","did":1102,"pid":11,"uuid":"1.10202e+06"},"geometry":{"type":"Point","coordinates":[103.27411185042719,18.2960143898553]}},{"type":"Feature","properties":{"name_en":"Hathsay","did":1102,"pid":11,"uuid":"1.102021e+06"},"geometry":{"type":"Point","coordinates":[103.27930309973418,18.326648900085086]}},{"type":"Feature","properties":{"name_en":"Naxay","did":1102,"pid":11,"uuid":"1.102022e+06"},"geometry":{"type":"Point","coordinates":[103.06986876015681,18.20646036979396]}},{"type":"Feature","properties":{"name_en":"Laockam","did":1102,"pid":11,"uuid":"1.102023e+06"},"geometry":{"type":"Point","coordinates":[103.11690346961427,18.23507526983919]}},{"type":"Feature","properties":{"name_en":"Saiphai","did":1102,"pid":11,"uuid":"1.102024e+06"},"geometry":{"type":"Point","coordinates":[103.1400918400946,18.219773769645617]}},{"type":"Feature","properties":{"name_en":"Xaysavang","did":1102,"pid":11,"uuid":"1.102025e+06"},"geometry":{"type":"Point","coordinates":[103.1000472099585,18.22268648008688]}},{"type":"Feature","properties":{"name_en":"Phakthouaynuea","did":1102,"pid":11,"uuid":"1.102026e+06"},"geometry":{"type":"Point","coordinates":[103.44092059999939,18.443803899999928]}},{"type":"Feature","properties":{"name_en":"Phakthouaytay","did":1102,"pid":11,"uuid":"1.102027e+06"},"geometry":{"type":"Point","coordinates":[103.45028646019394,18.43923529990994]}},{"type":"Feature","properties":{"name_en":"Vernthath","did":1102,"pid":11,"uuid":"1.102028e+06"},"geometry":{"type":"Point","coordinates":[103.47798865026958,18.433060679552028]}},{"type":"Feature","properties":{"name_en":"Nongkern","did":1102,"pid":11,"uuid":"1.102029e+06"},"geometry":{"type":"Point","coordinates":[103.41282865967322,18.451655599731154]}},{"type":"Feature","properties":{"name_en":"Nhoyhai","did":1102,"pid":11,"uuid":"1.10203e+06"},"geometry":{"type":"Point","coordinates":[103.36005368028574,18.4431060602844]}},{"type":"Feature","properties":{"name_en":"Namlo","did":1102,"pid":11,"uuid":"1.102031e+06"},"geometry":{"type":"Point","coordinates":[103.32620303013424,18.437080810076317]}},{"type":"Feature","properties":{"name_en":"Doneckonelath","did":1102,"pid":11,"uuid":"1.102032e+06"},"geometry":{"type":"Point","coordinates":[103.1275049899672,18.23793341019666]}},{"type":"Feature","properties":{"name_en":"Nackae","did":1102,"pid":11,"uuid":"1.102033e+06"},"geometry":{"type":"Point","coordinates":[103.19364063000116,18.318161140412112]}},{"type":"Feature","properties":{"name_en":"Xaysavanh","did":1102,"pid":11,"uuid":"1.102034e+06"},"geometry":{"type":"Point","coordinates":[103.27805678984933,18.404287539728845]}}]}