{"type":"FeatureCollection","features":[{"type":"Feature","properties":{"name_en":"Phakkadingnuea","did":1103,"pid":11,"uuid":"1.103001e+06"},"geometry":{"type":"Point","coordinates":[103.99202604955192,18.327943820070722]}},{"type":"Feature","properties":{"name_en":"Phakkadingtay","did":1103,"pid":11,"uuid":"1.103002e+06"},"geometry":{"type":"Point","coordinates":[103.99807393004951,18.320034319740934]}},{"type":"Feature","properties":{"name_en":"Sandsamlanh","did":1103,"pid":11,"uuid":"1.103003e+06"},"geometry":{"type":"Point","coordinates":[103.90331307032483,18.32973101037493]}},{"type":"Feature","properties":{"name_en":"Phaksa","did":1103,"pid":11,"uuid":"1.103005e+06"},"geometry":{"type":"Point","coordinates":[103.93826174967744,18.346685509830746]}},{"type":"Feature","properties":{"name_en":"Bone","did":1103,"pid":11,"uuid":"1.103007e+06"},"geometry":{"type":"Point","coordinates":[103.92475516025445,18.39069402038198]}},{"type":"Feature","properties":{"name_en":"Bortheun","did":1103,"pid":11,"uuid":"1.103009e+06"},"geometry":{"type":"Point","coordinates":[103.91132240044396,18.406276649894977]}},{"type":"Feature","properties":{"name_en":"Phakphang","did":1103,"pid":11,"uuid":"1.10301e+06"},"geometry":{"type":"Point","coordinates":[104.00596800002886,18.35095943969272]}},{"type":"Feature","properties":{"name_en":"Donesay","did":1103,"pid":11,"uuid":"1.103011e+06"},"geometry":{"type":"Point","coordinates":[104.01306277977311,18.329827659998]}},{"type":"Feature","properties":{"name_en":"Somsanook","did":1103,"pid":11,"uuid":"1.103012e+06"},"geometry":{"type":"Point","coordinates":[104.06155771031474,18.232886840225607]}},{"type":"Feature","properties":{"name_en":"Sord","did":1103,"pid":11,"uuid":"1.103013e+06"},"geometry":{"type":"Point","coordinates":[104.07994500042668,18.191738899876274]}},{"type":"Feature","properties":{"name_en":"Thakanhthin","did":1103,"pid":11,"uuid":"1.103014e+06"},"geometry":{"type":"Point","coordinates":[104.0873681000194,18.173673889840142]}},{"type":"Feature","properties":{"name_en":"Ckoneckouang","did":1103,"pid":11,"uuid":"1.103016e+06"},"geometry":{"type":"Point","coordinates":[104.11129910013133,18.124400539840703]}},{"type":"Feature","properties":{"name_en":"Phakthone","did":1103,"pid":11,"uuid":"1.103018e+06"},"geometry":{"type":"Point","coordinates":[104.1480651499308,18.080937180176644]}},{"type":"Feature","properties":{"name_en":"Thongnoy","did":1103,"pid":11,"uuid":"1.103019e+06"},"geometry":{"type":"Point","coordinates":[104.16311025046302,18.061224040043776]}},{"type":"Feature","properties":{"name_en":"Kanglouang","did":1103,"pid":11,"uuid":"1.10302e+06"},"geometry":{"type":"Point","coordinates":[104.18135581024846,18.100822329939387]}},{"type":"Feature","properties":{"name_en":"Thasaaath","did":1103,"pid":11,"uuid":"1.103021e+06"},"geometry":{"type":"Point","coordinates":[104.19337586995728,18.02829220972557]}},{"type":"Feature","properties":{"name_en":"Nalouang","did":1103,"pid":11,"uuid":"1.103022e+06"},"geometry":{"type":"Point","coordinates":[104.21901678973241,18.005407769678236]}},{"type":"Feature","properties":{"name_en":"Boungkouang","did":1103,"pid":11,"uuid":"1.103024e+06"},"geometry":{"type":"Point","coordinates":[104.23128587988525,17.982616370297663]}},{"type":"Feature","properties":{"name_en":"Done","did":1103,"pid":11,"uuid":"1.103025e+06"},"geometry":{"type":"Point","coordinates":[104.25318981015495,17.939259630294128]}},{"type":"Feature","properties":{"name_en":"Nanam","did":1103,"pid":11,"uuid":"1.103026e+06"},"geometry":{"type":"Point","coordinates":[104.26912405975995,17.922818279947887]}},{"type":"Feature","properties":{"name_en":"Hathsaickam","did":1103,"pid":11,"uuid":"1.103027e+06"},"geometry":{"type":"Point","coordinates":[104.03927500046552,18.301180569765563]}},{"type":"Feature","properties":{"name_en":"Phaksum","did":1103,"pid":11,"uuid":"1.103028e+06"},"geometry":{"type":"Point","coordinates":[104.04715206032736,18.32005385037413]}},{"type":"Feature","properties":{"name_en":"Phonhxay","did":1103,"pid":11,"uuid":"1.103029e+06"},"geometry":{"type":"Point","coordinates":[104.06639331010192,18.279730110300232]}},{"type":"Feature","properties":{"name_en":"Huoaileuk","did":1103,"pid":11,"uuid":"1.10303e+06"},"geometry":{"type":"Point","coordinates":[104.03782527039183,18.391053600441833]}},{"type":"Feature","properties":{"name_en":"Phonhsi","did":1103,"pid":11,"uuid":"1.103031e+06"},"geometry":{"type":"Point","coordinates":[104.09520937020156,18.29946420997449]}},{"type":"Feature","properties":{"name_en":"Phonhnham","did":1103,"pid":11,"uuid":"1.103032e+06"},"geometry":{"type":"Point","coordinates":[104.11330187954799,18.301018799711784]}},{"type":"Feature","properties":{"name_en":"Namduea","did":1103,"pid":11,"uuid":"1.103034e+06"},"geometry":{"type":"Point","coordinates":[104.19099959981315,18.231611280400426]}},{"type":"Feature","properties":{"name_en":"Nakueanodk","did":1103,"pid":11,"uuid":"1.103035e+06"},"geometry":{"type":"Point","coordinates":[104.19902058007945,18.22298780985928]}},{"type":"Feature","properties":{"name_en":"Nackueanay","did":1103,"pid":11,"uuid":"1.103036e+06"},"geometry":{"type":"Point","coordinates":[104.2056067496069,18.231360740361332]}},{"type":"Feature","properties":{"name_en":"Nahin","did":1103,"pid":11,"uuid":"1.103037e+06"},"geometry":{"type":"Point","coordinates":[104.21210690973611,18.24155916975492]}},{"type":"Feature","properties":{"name_en":"Thonghab","did":1103,"pid":11,"uuid":"1.103038e+06"},"geometry":{"type":"Point","coordinates":[104.19136698000514,18.19290499023093]}},{"type":"Feature","properties":{"name_en":"Nabouay","did":1103,"pid":11,"uuid":"1.103039e+06"},"geometry":{"type":"Point","coordinates":[104.22980094034075,18.216903470084457]}},{"type":"Feature","properties":{"name_en":"Namkou","did":1103,"pid":11,"uuid":"1.10304e+06"},"geometry":{"type":"Point","coordinates":[104.22111277009786,18.19249745959114]}},{"type":"Feature","properties":{"name_en":"Nongboua","did":1103,"pid":11,"uuid":"1.103041e+06"},"geometry":{"type":"Point","coordinates":[104.19363570971365,18.135039519768696]}},{"type":"Feature","properties":{"name_en":"Phonesavang","did":1103,"pid":11,"uuid":"1.103043e+06"},"geometry":{"type":"Point","coordinates":[104.18524927995016,18.12591355036946]}},{"type":"Feature","properties":{"name_en":"Namsang","did":1103,"pid":11,"uuid":"1.103044e+06"},"geometry":{"type":"Point","coordinates":[104.26666120036077,18.12726219979629]}},{"type":"Feature","properties":{"name_en":"Viengckam","did":1103,"pid":11,"uuid":"1.103046e+06"},"geometry":{"type":"Point","coordinates":[104.28689485983435,18.09774181000659]}},{"type":"Feature","properties":{"name_en":"Nasang","did":1103,"pid":11,"uuid":"1.103048e+06"},"geometry":{"type":"Point","coordinates":[104.23990029962674,18.080411390415488]}},{"type":"Feature","properties":{"name_en":"Houaihay","did":1103,"pid":11,"uuid":"1.103049e+06"},"geometry":{"type":"Point","coordinates":[104.30869233993442,18.10596923026131]}},{"type":"Feature","properties":{"name_en":"Huoaiphet","did":1103,"pid":11,"uuid":"1.10305e+06"},"geometry":{"type":"Point","coordinates":[104.33968701988064,18.11224116026103]}},{"type":"Feature","properties":{"name_en":"Naphong","did":1103,"pid":11,"uuid":"1.103051e+06"},"geometry":{"type":"Point","coordinates":[104.39112097996583,18.16463517965882]}},{"type":"Feature","properties":{"name_en":"Namthone","did":1103,"pid":11,"uuid":"1.103052e+06"},"geometry":{"type":"Point","coordinates":[104.30197357004944,18.061413380246158]}},{"type":"Feature","properties":{"name_en":"Ckonesong","did":1103,"pid":11,"uuid":"1.103053e+06"},"geometry":{"type":"Point","coordinates":[104.29824681015792,18.06177515006807]}},{"type":"Feature","properties":{"name_en":"Phonhthong","did":1103,"pid":11,"uuid":"1.103054e+06"},"geometry":{"type":"Point","coordinates":[104.325824189812,18.08047266016877]}},{"type":"Feature","properties":{"name_en":"Naain","did":1103,"pid":11,"uuid":"1.103055e+06"},"geometry":{"type":"Point","coordinates":[104.31372793030798,18.038160059774242]}},{"type":"Feature","properties":{"name_en":"Nalieng","did":1103,"pid":11,"uuid":"1.103056e+06"},"geometry":{"type":"Point","coordinates":[104.31886938958269,17.99344864043835]}},{"type":"Feature","properties":{"name_en":"Thongnaminuea","did":1103,"pid":11,"uuid":"1.103057e+06"},"geometry":{"type":"Point","coordinates":[104.25028729772704,18.15124036474452]}},{"type":"Feature","properties":{"name_en":"Sonephunxay","did":1103,"pid":11,"uuid":"1.103059e+06"},"geometry":{"type":"Point","coordinates":[104.31580655973798,18.10628490011043]}}]}