{"type":"FeatureCollection","features":[{"type":"Feature","properties":{"name_en":"Vadthath","did":1104,"pid":11,"uuid":"1.104001e+06"},"geometry":{"type":"Point","coordinates":[103.72536853977884,18.5631024702775]}},{"type":"Feature","properties":{"name_en":"Phonhsy","did":1104,"pid":11,"uuid":"1.104002e+06"},"geometry":{"type":"Point","coordinates":[103.7320414595798,18.563303719897256]}},{"type":"Feature","properties":{"name_en":"Symoungkhoun","did":1104,"pid":11,"uuid":"1.104003e+06"},"geometry":{"type":"Point","coordinates":[103.7293744999998,18.563300199999954]}},{"type":"Feature","properties":{"name_en":"Sysawath","did":1104,"pid":11,"uuid":"1.104004e+06"},"geometry":{"type":"Point","coordinates":[103.71363730994305,18.56048949973861]}},{"type":"Feature","properties":{"name_en":"Nahaen","did":1104,"pid":11,"uuid":"1.104005e+06"},"geometry":{"type":"Point","coordinates":[103.72290291968851,18.556263010314577]}},{"type":"Feature","properties":{"name_en":"Don","did":1104,"pid":11,"uuid":"1.104006e+06"},"geometry":{"type":"Point","coordinates":[103.72741909045469,18.55831078990201]}},{"type":"Feature","properties":{"name_en":"Hadxiengtom","did":1104,"pid":11,"uuid":"1.104007e+06"},"geometry":{"type":"Point","coordinates":[103.73433557971548,18.558992160099397]}},{"type":"Feature","properties":{"name_en":"Na oh","did":1104,"pid":11,"uuid":"1.104008e+06"},"geometry":{"type":"Point","coordinates":[103.75912874970075,18.519800140405767]}},{"type":"Feature","properties":{"name_en":"Phonhkham","did":1104,"pid":11,"uuid":"1.104009e+06"},"geometry":{"type":"Point","coordinates":[103.72527818045874,18.530078110066743]}},{"type":"Feature","properties":{"name_en":"Hadpho","did":1104,"pid":11,"uuid":"1.10401e+06"},"geometry":{"type":"Point","coordinates":[103.7110545097337,18.540497989876275]}},{"type":"Feature","properties":{"name_en":"Phonhthong","did":1104,"pid":11,"uuid":"1.104013e+06"},"geometry":{"type":"Point","coordinates":[103.74119339979103,18.63810366033494]}},{"type":"Feature","properties":{"name_en":"Phonsomboun","did":1104,"pid":11,"uuid":"1.104015e+06"},"geometry":{"type":"Point","coordinates":[103.69857946981278,18.54380909026837]}},{"type":"Feature","properties":{"name_en":"Phiengdy","did":1104,"pid":11,"uuid":"1.104016e+06"},"geometry":{"type":"Point","coordinates":[103.68185480996195,18.50824501034299]}},{"type":"Feature","properties":{"name_en":"Huoikhoun","did":1104,"pid":11,"uuid":"1.104018e+06"},"geometry":{"type":"Point","coordinates":[103.65625069013565,18.486836209622876]}},{"type":"Feature","properties":{"name_en":"Xomxeun","did":1104,"pid":11,"uuid":"1.10402e+06"},"geometry":{"type":"Point","coordinates":[103.65878840010697,18.50551050017491]}},{"type":"Feature","properties":{"name_en":"Hadyeun","did":1104,"pid":11,"uuid":"1.104022e+06"},"geometry":{"type":"Point","coordinates":[103.58854269030672,18.655062429694365]}},{"type":"Feature","properties":{"name_en":"Thaheua","did":1104,"pid":11,"uuid":"1.104023e+06"},"geometry":{"type":"Point","coordinates":[103.61428108043181,18.65574018987328]}},{"type":"Feature","properties":{"name_en":"Phonhsawath","did":1104,"pid":11,"uuid":"1.104026e+06"},"geometry":{"type":"Point","coordinates":[103.69198064989853,18.687372069627077]}},{"type":"Feature","properties":{"name_en":"Nalong","did":1104,"pid":11,"uuid":"1.104027e+06"},"geometry":{"type":"Point","coordinates":[103.68753087008335,18.702873809733802]}},{"type":"Feature","properties":{"name_en":"Huana","did":1104,"pid":11,"uuid":"1.104028e+06"},"geometry":{"type":"Point","coordinates":[103.68371174015486,18.711874550095054]}},{"type":"Feature","properties":{"name_en":"Phamueng","did":1104,"pid":11,"uuid":"1.10403e+06"},"geometry":{"type":"Point","coordinates":[103.6911729700485,18.74362494999715]}},{"type":"Feature","properties":{"name_en":"Dong","did":1104,"pid":11,"uuid":"1.104032e+06"},"geometry":{"type":"Point","coordinates":[103.71762182010214,18.74064091040009]}},{"type":"Feature","properties":{"name_en":"Khaenyong","did":1104,"pid":11,"uuid":"1.104033e+06"},"geometry":{"type":"Point","coordinates":[103.79235738015119,18.75211740991536]}},{"type":"Feature","properties":{"name_en":"Pakhueng","did":1104,"pid":11,"uuid":"1.104034e+06"},"geometry":{"type":"Point","coordinates":[103.78314390954513,18.68485381024938]}},{"type":"Feature","properties":{"name_en":"Thasy","did":1104,"pid":11,"uuid":"1.104035e+06"},"geometry":{"type":"Point","coordinates":[103.81597330997465,18.839471170346922]}},{"type":"Feature","properties":{"name_en":"Nakoun","did":1104,"pid":11,"uuid":"1.104036e+06"},"geometry":{"type":"Point","coordinates":[103.90452651964364,18.768230950383575]}},{"type":"Feature","properties":{"name_en":"Xiengxien","did":1104,"pid":11,"uuid":"1.104037e+06"},"geometry":{"type":"Point","coordinates":[103.99637247991606,18.71892825986153]}},{"type":"Feature","properties":{"name_en":"Xiengleu","did":1104,"pid":11,"uuid":"1.104038e+06"},"geometry":{"type":"Point","coordinates":[104.03028549989888,18.69406442991759]}},{"type":"Feature","properties":{"name_en":"Nampa","did":1104,"pid":11,"uuid":"1.104039e+06"},"geometry":{"type":"Point","coordinates":[103.63168233000525,18.484890099776052]}},{"type":"Feature","properties":{"name_en":"Songkhornmai","did":1104,"pid":11,"uuid":"1.104041e+06"},"geometry":{"type":"Point","coordinates":[103.68822514010401,18.478727470431608]}},{"type":"Feature","properties":{"name_en":"Phonjeng","did":1104,"pid":11,"uuid":"1.104045e+06"},"geometry":{"type":"Point","coordinates":[103.54867449969976,18.785719030059607]}},{"type":"Feature","properties":{"name_en":"Phonhxai","did":1104,"pid":11,"uuid":"1.104047e+06"},"geometry":{"type":"Point","coordinates":[103.5856340802411,18.727193989716003]}},{"type":"Feature","properties":{"name_en":"Bor","did":1104,"pid":11,"uuid":"1.104048e+06"},"geometry":{"type":"Point","coordinates":[103.5916451597639,18.749319529626266]}},{"type":"Feature","properties":{"name_en":"Phonsong","did":1104,"pid":11,"uuid":"1.104049e+06"},"geometry":{"type":"Point","coordinates":[103.53877152954963,18.829897279937533]}},{"type":"Feature","properties":{"name_en":"Nahan","did":1104,"pid":11,"uuid":"1.104051e+06"},"geometry":{"type":"Point","coordinates":[103.53711375954677,18.74490226999105]}},{"type":"Feature","properties":{"name_en":"Phadai","did":1104,"pid":11,"uuid":"1.104054e+06"},"geometry":{"type":"Point","coordinates":[103.67548590994454,18.81582045984251]}},{"type":"Feature","properties":{"name_en":"Thongphanhkham","did":1104,"pid":11,"uuid":"1.104055e+06"},"geometry":{"type":"Point","coordinates":[103.88361853990716,18.532769789893113]}},{"type":"Feature","properties":{"name_en":"Hinngonh","did":1104,"pid":11,"uuid":"1.104057e+06"},"geometry":{"type":"Point","coordinates":[103.99068293030493,18.511595180348277]}},{"type":"Feature","properties":{"name_en":"Pakphoy","did":1104,"pid":11,"uuid":"1.104058e+06"},"geometry":{"type":"Point","coordinates":[103.9678167601527,18.546305559563866]}},{"type":"Feature","properties":{"name_en":"Kokpho","did":1104,"pid":11,"uuid":"1.10406e+06"},"geometry":{"type":"Point","coordinates":[103.88755501005804,18.771204760275147]}},{"type":"Feature","properties":{"name_en":"Wa","did":1104,"pid":11,"uuid":"1.104061e+06"},"geometry":{"type":"Point","coordinates":[103.96192839041808,18.734850939711183]}},{"type":"Feature","properties":{"name_en":"Nongdaeng","did":1104,"pid":11,"uuid":"1.104062e+06"},"geometry":{"type":"Point","coordinates":[103.85050632971377,18.805115430130837]}},{"type":"Feature","properties":{"name_en":"namteck","did":1104,"pid":11,"uuid":"1.104063e+06"},"geometry":{"type":"Point","coordinates":[104.13886516987446,18.51846515005516]}},{"type":"Feature","properties":{"name_en":"Phonhmyxai","did":1104,"pid":11,"uuid":"1.104064e+06"},"geometry":{"type":"Point","coordinates":[103.91641131007638,18.617430119946054]}},{"type":"Feature","properties":{"name_en":"Phukham","did":1104,"pid":11,"uuid":"1.104065e+06"},"geometry":{"type":"Point","coordinates":[103.9810171701988,18.57696136002668]}}]}