{"type":"FeatureCollection","features":[{"type":"Feature","properties":{"name_en":"luck 12","did":1105,"pid":11,"uuid":"1.105023e+06"},"geometry":{"type":"Point","coordinates":[105.01550990025004,18.243372849924615]}},{"type":"Feature","properties":{"name_en":"Luck 7","did":1105,"pid":11,"uuid":"1.105025e+06"},"geometry":{"type":"Point","coordinates":[105.04450098018812,18.27132096985047]}},{"type":"Feature","properties":{"name_en":"Hangthang","did":1105,"pid":11,"uuid":"1.105028e+06"},"geometry":{"type":"Point","coordinates":[105.04081185042163,18.315998349884527]}},{"type":"Feature","properties":{"name_en":"Nahueang","did":1105,"pid":11,"uuid":"1.105029e+06"},"geometry":{"type":"Point","coordinates":[105.03802369006416,18.34080082014445]}},{"type":"Feature","properties":{"name_en":"Vangkor","did":1105,"pid":11,"uuid":"1.105033e+06"},"geometry":{"type":"Point","coordinates":[105.10041840970248,18.15379083956829]}},{"type":"Feature","properties":{"name_en":"Thongkae","did":1105,"pid":11,"uuid":"1.105034e+06"},"geometry":{"type":"Point","coordinates":[105.10862438009543,18.152291990355078]}},{"type":"Feature","properties":{"name_en":"Nathone","did":1105,"pid":11,"uuid":"1.105036e+06"},"geometry":{"type":"Point","coordinates":[105.16038740996848,18.1589845997705]}},{"type":"Feature","properties":{"name_en":"Nakadok","did":1105,"pid":11,"uuid":"1.105037e+06"},"geometry":{"type":"Point","coordinates":[105.14664654025836,18.14903562044322]}},{"type":"Feature","properties":{"name_en":"Nahai","did":1105,"pid":11,"uuid":"1.105039e+06"},"geometry":{"type":"Point","coordinates":[105.12985314044035,18.196394039643376]}},{"type":"Feature","properties":{"name_en":"Nongdong","did":1105,"pid":11,"uuid":"1.105049e+06"},"geometry":{"type":"Point","coordinates":[104.9811595202546,18.19561410985165]}},{"type":"Feature","properties":{"name_en":"Thavang","did":1105,"pid":11,"uuid":"1.105051e+06"},"geometry":{"type":"Point","coordinates":[104.97417446029941,18.221006910403588]}},{"type":"Feature","properties":{"name_en":"Sumteuay","did":1105,"pid":11,"uuid":"1.105052e+06"},"geometry":{"type":"Point","coordinates":[104.96951227999618,18.28679663971091]}},{"type":"Feature","properties":{"name_en":"Phonexay","did":1105,"pid":11,"uuid":"1.105053e+06"},"geometry":{"type":"Point","coordinates":[105.03445450961075,18.112484070256205]}},{"type":"Feature","properties":{"name_en":"Nachalay","did":1105,"pid":11,"uuid":"1.105057e+06"},"geometry":{"type":"Point","coordinates":[104.99200846997128,18.312751199699406]}},{"type":"Feature","properties":{"name_en":"Somnhouang","did":1105,"pid":11,"uuid":"1.105059e+06"},"geometry":{"type":"Point","coordinates":[104.63084483969025,18.23718298042903]}},{"type":"Feature","properties":{"name_en":"Thabuck","did":1105,"pid":11,"uuid":"1.105061e+06"},"geometry":{"type":"Point","coordinates":[104.66047737994357,18.232237319987565]}},{"type":"Feature","properties":{"name_en":"Kangbit","did":1105,"pid":11,"uuid":"1.105066e+06"},"geometry":{"type":"Point","coordinates":[104.56830410011294,18.247722389722828]}},{"type":"Feature","properties":{"name_en":"Nongkok","did":1105,"pid":11,"uuid":"1.105068e+06"},"geometry":{"type":"Point","coordinates":[104.61538140005206,18.199855689849706]}},{"type":"Feature","properties":{"name_en":"Phonhvilay","did":1105,"pid":11,"uuid":"1.105072e+06"},"geometry":{"type":"Point","coordinates":[105.04174475963562,18.07763161008743]}},{"type":"Feature","properties":{"name_en":"Phacka","did":1105,"pid":11,"uuid":"1.105074e+06"},"geometry":{"type":"Point","coordinates":[104.6840702597794,18.244837669683477]}},{"type":"Feature","properties":{"name_en":"Phonh tane","did":1105,"pid":11,"uuid":"1.105076e+06"},"geometry":{"type":"Point","coordinates":[104.70421783996392,18.2324392398547]}},{"type":"Feature","properties":{"name_en":"Kouanchanh","did":1105,"pid":11,"uuid":"1.105077e+06"},"geometry":{"type":"Point","coordinates":[104.72832208963227,18.226741560141296]}},{"type":"Feature","properties":{"name_en":"Phoung","did":1105,"pid":11,"uuid":"1.105079e+06"},"geometry":{"type":"Point","coordinates":[104.80321313972568,18.223047239691102]}},{"type":"Feature","properties":{"name_en":"Phamueang","did":1105,"pid":11,"uuid":"1.10508e+06"},"geometry":{"type":"Point","coordinates":[104.79598978998129,18.116298170203706]}},{"type":"Feature","properties":{"name_en":"Nongsong","did":1105,"pid":11,"uuid":"1.105081e+06"},"geometry":{"type":"Point","coordinates":[104.75984383015926,18.140117359804503]}},{"type":"Feature","properties":{"name_en":"Phonhylom","did":1105,"pid":11,"uuid":"1.105084e+06"},"geometry":{"type":"Point","coordinates":[104.6627736797764,18.183232020304988]}},{"type":"Feature","properties":{"name_en":"Vangpha","did":1105,"pid":11,"uuid":"1.105092e+06"},"geometry":{"type":"Point","coordinates":[105.09035694016826,18.122439589631924]}},{"type":"Feature","properties":{"name_en":"Phonesi","did":1105,"pid":11,"uuid":"1.105097e+06"},"geometry":{"type":"Point","coordinates":[105.05209607032684,18.079203640074546]}},{"type":"Feature","properties":{"name_en":"Korhai","did":1105,"pid":11,"uuid":"1.1051e+06"},"geometry":{"type":"Point","coordinates":[105.0424348403228,18.08402273006744]}},{"type":"Feature","properties":{"name_en":"Phonhsaath","did":1105,"pid":11,"uuid":"1.105102e+06"},"geometry":{"type":"Point","coordinates":[105.05272982974991,18.039876250104054]}},{"type":"Feature","properties":{"name_en":"Nongmak","did":1105,"pid":11,"uuid":"1.105104e+06"},"geometry":{"type":"Point","coordinates":[105.06812201993434,18.077902180381532]}},{"type":"Feature","properties":{"name_en":"Numdern","did":1105,"pid":11,"uuid":"1.105107e+06"},"geometry":{"type":"Point","coordinates":[105.08547121978647,18.09942765998918]}},{"type":"Feature","properties":{"name_en":"Nadeuang","did":1105,"pid":11,"uuid":"1.105112e+06"},"geometry":{"type":"Point","coordinates":[104.89915231982303,18.191928249780098]}},{"type":"Feature","properties":{"name_en":"Huoi keo","did":1105,"pid":11,"uuid":"1.105113e+06"},"geometry":{"type":"Point","coordinates":[104.8651616103506,18.205063780438927]}},{"type":"Feature","properties":{"name_en":"Don xath","did":1105,"pid":11,"uuid":"1.105116e+06"},"geometry":{"type":"Point","coordinates":[104.9218598199419,18.160997349922514]}},{"type":"Feature","properties":{"name_en":"Sob phuan","did":1105,"pid":11,"uuid":"1.105117e+06"},"geometry":{"type":"Point","coordinates":[104.95650607966864,18.13361099026463]}},{"type":"Feature","properties":{"name_en":"Phonhthong","did":1105,"pid":11,"uuid":"1.105119e+06"},"geometry":{"type":"Point","coordinates":[104.97996266997933,18.084092050031995]}},{"type":"Feature","properties":{"name_en":"Dong bang","did":1105,"pid":11,"uuid":"1.105126e+06"},"geometry":{"type":"Point","coordinates":[104.88720047991097,18.17083107961088]}},{"type":"Feature","properties":{"name_en":"Khammuane","did":1105,"pid":11,"uuid":"1.105127e+06"},"geometry":{"type":"Point","coordinates":[104.88867880029923,18.161470680132805]}},{"type":"Feature","properties":{"name_en":"Phonhnham","did":1105,"pid":11,"uuid":"1.105128e+06"},"geometry":{"type":"Point","coordinates":[104.84164332974896,18.091778000430466]}},{"type":"Feature","properties":{"name_en":"Nanhoy","did":1105,"pid":11,"uuid":"1.105129e+06"},"geometry":{"type":"Point","coordinates":[104.86973922000058,18.071441740101218]}},{"type":"Feature","properties":{"name_en":"Lcuk 20","did":1105,"pid":11,"uuid":"1.105147e+06"},"geometry":{"type":"Point","coordinates":[104.97390834026801,18.19583219979566]}},{"type":"Feature","properties":{"name_en":"Phonhphang","did":1105,"pid":11,"uuid":"1.105148e+06"},"geometry":{"type":"Point","coordinates":[104.97781992039123,18.206718279914963]}},{"type":"Feature","properties":{"name_en":"Namphao","did":1105,"pid":11,"uuid":"1.105154e+06"},"geometry":{"type":"Point","coordinates":[104.99379372980157,18.175642879775257]}},{"type":"Feature","properties":{"name_en":"Chandsavang","did":1105,"pid":11,"uuid":"1.105155e+06"},"geometry":{"type":"Point","coordinates":[104.99472244973136,18.18676599959688]}},{"type":"Feature","properties":{"name_en":"Sandoudom","did":1105,"pid":11,"uuid":"1.105157e+06"},"geometry":{"type":"Point","coordinates":[104.98259434010384,18.183258009591864]}},{"type":"Feature","properties":{"name_en":"Nongphong","did":1105,"pid":11,"uuid":"1.105158e+06"},"geometry":{"type":"Point","coordinates":[104.97457058979832,18.190034689704493]}},{"type":"Feature","properties":{"name_en":"Houaykeo","did":1105,"pid":11,"uuid":"1.105159e+06"},"geometry":{"type":"Point","coordinates":[104.97163465987754,18.198229180017012]}},{"type":"Feature","properties":{"name_en":"Thasala","did":1105,"pid":11,"uuid":"1.10516e+06"},"geometry":{"type":"Point","coordinates":[104.61306816010216,18.2924927301348]}},{"type":"Feature","properties":{"name_en":"Thongphae","did":1105,"pid":11,"uuid":"1.105174e+06"},"geometry":{"type":"Point","coordinates":[105.08782888005089,18.30686845007695]}},{"type":"Feature","properties":{"name_en":"Nackam","did":1105,"pid":11,"uuid":"1.105177e+06"},"geometry":{"type":"Point","coordinates":[104.72584524040457,18.151353719905895]}},{"type":"Feature","properties":{"name_en":"Na pae","did":1105,"pid":11,"uuid":"1.10518e+06"},"geometry":{"type":"Point","coordinates":[105.07288201965795,18.30448438028329]}},{"type":"Feature","properties":{"name_en":"Nongor","did":1105,"pid":11,"uuid":"1.105181e+06"},"geometry":{"type":"Point","coordinates":[105.06352244962203,18.28827604967233]}},{"type":"Feature","properties":{"name_en":"Thongchalern","did":1105,"pid":11,"uuid":"1.105204e+06"},"geometry":{"type":"Point","coordinates":[104.96505822031074,18.190443900242744]}},{"type":"Feature","properties":{"name_en":"Phonh hong","did":1105,"pid":11,"uuid":"1.105206e+06"},"geometry":{"type":"Point","coordinates":[104.97702540025658,18.200090130186517]}},{"type":"Feature","properties":{"name_en":"Somsanook","did":1105,"pid":11,"uuid":"1.105209e+06"},"geometry":{"type":"Point","coordinates":[104.9776491801439,18.192900380219893]}},{"type":"Feature","properties":{"name_en":"Na hath","did":1105,"pid":11,"uuid":"1.10521e+06"},"geometry":{"type":"Point","coordinates":[105.0723691295599,18.32415805004672]}},{"type":"Feature","properties":{"name_en":"Thongviengckam","did":1105,"pid":11,"uuid":"1.105215e+06"},"geometry":{"type":"Point","coordinates":[104.93987302978715,18.238052440045305]}},{"type":"Feature","properties":{"name_en":"Namueang","did":1105,"pid":11,"uuid":"1.105216e+06"},"geometry":{"type":"Point","coordinates":[105.17067501998048,18.23480008967091]}},{"type":"Feature","properties":{"name_en":"Lak 5","did":1105,"pid":11,"uuid":"1.105221e+06"},"geometry":{"type":"Point","coordinates":[105.04692209005485,18.28069553972171]}},{"type":"Feature","properties":{"name_en":"Namthi","did":1105,"pid":11,"uuid":"1.105222e+06"},"geometry":{"type":"Point","coordinates":[105.02298336992327,18.12948919043725]}},{"type":"Feature","properties":{"name_en":"Naphavanh","did":1105,"pid":11,"uuid":"1.105235e+06"},"geometry":{"type":"Point","coordinates":[104.70026853037679,18.255663400312372]}},{"type":"Feature","properties":{"name_en":"Phonhmuengnoy","did":1105,"pid":11,"uuid":"1.105239e+06"},"geometry":{"type":"Point","coordinates":[104.96047365018185,18.205632329752433]}}]}