{"type":"FeatureCollection","features":[{"type":"Feature","properties":{"name_en":"Thaphae","did":1106,"pid":11,"uuid":"1.106001e+06"},"geometry":{"type":"Point","coordinates":[104.41741250019898,18.494721400172875]}},{"type":"Feature","properties":{"name_en":"Vangmark","did":1106,"pid":11,"uuid":"1.106004e+06"},"geometry":{"type":"Point","coordinates":[104.39438689985715,18.56533382027359]}},{"type":"Feature","properties":{"name_en":"Phonhdou","did":1106,"pid":11,"uuid":"1.106006e+06"},"geometry":{"type":"Point","coordinates":[104.42497598986797,18.544151079622242]}},{"type":"Feature","properties":{"name_en":"Namyang","did":1106,"pid":11,"uuid":"1.106007e+06"},"geometry":{"type":"Point","coordinates":[104.45726761002248,18.497177459922405]}},{"type":"Feature","properties":{"name_en":"Sobna","did":1106,"pid":11,"uuid":"1.106008e+06"},"geometry":{"type":"Point","coordinates":[104.44796462036533,18.514989340233683]}},{"type":"Feature","properties":{"name_en":"Kokkham","did":1106,"pid":11,"uuid":"1.10601e+06"},"geometry":{"type":"Point","coordinates":[104.2748699295498,18.484339990117128]}},{"type":"Feature","properties":{"name_en":"Huoihoy","did":1106,"pid":11,"uuid":"1.106011e+06"},"geometry":{"type":"Point","coordinates":[104.37487475975998,18.584350599932133]}},{"type":"Feature","properties":{"name_en":"Vanghin","did":1106,"pid":11,"uuid":"1.106012e+06"},"geometry":{"type":"Point","coordinates":[104.50963053047221,18.60978272034886]}},{"type":"Feature","properties":{"name_en":"Oudomxai","did":1106,"pid":11,"uuid":"1.106015e+06"},"geometry":{"type":"Point","coordinates":[104.49767584024848,18.436505389899658]}},{"type":"Feature","properties":{"name_en":"Nongpath","did":1106,"pid":11,"uuid":"1.106017e+06"},"geometry":{"type":"Point","coordinates":[104.48598618953399,18.45201953974242]}},{"type":"Feature","properties":{"name_en":"Nady","did":1106,"pid":11,"uuid":"1.106018e+06"},"geometry":{"type":"Point","coordinates":[104.536162019902,18.476101759969108]}},{"type":"Feature","properties":{"name_en":"Hinngonh","did":1106,"pid":11,"uuid":"1.106019e+06"},"geometry":{"type":"Point","coordinates":[104.52323980973183,18.331807289946486]}},{"type":"Feature","properties":{"name_en":"Naxuang","did":1106,"pid":11,"uuid":"1.10602e+06"},"geometry":{"type":"Point","coordinates":[104.47955995045598,18.390987130300093]}},{"type":"Feature","properties":{"name_en":"Namkang","did":1106,"pid":11,"uuid":"1.106021e+06"},"geometry":{"type":"Point","coordinates":[104.48465656017967,18.41566454996054]}},{"type":"Feature","properties":{"name_en":"Navangkhai","did":1106,"pid":11,"uuid":"1.106022e+06"},"geometry":{"type":"Point","coordinates":[104.51780992985985,18.572359949879946]}},{"type":"Feature","properties":{"name_en":"Phiengtonh","did":1106,"pid":11,"uuid":"1.106024e+06"},"geometry":{"type":"Point","coordinates":[104.23647400021427,18.625481000021065]}},{"type":"Feature","properties":{"name_en":"Sobpath ( Phouphieng )","did":1106,"pid":11,"uuid":"1.106025e+06"},"geometry":{"type":"Point","coordinates":[104.28190998039832,18.695209989947042]}},{"type":"Feature","properties":{"name_en":"Khontao","did":1106,"pid":11,"uuid":"1.106026e+06"},"geometry":{"type":"Point","coordinates":[104.28742996045625,18.570679970413444]}},{"type":"Feature","properties":{"name_en":"Koktonh","did":1106,"pid":11,"uuid":"1.106028e+06"},"geometry":{"type":"Point","coordinates":[104.28881640998527,18.65716812980337]}},{"type":"Feature","properties":{"name_en":"Phonhhom","did":1106,"pid":11,"uuid":"1.106029e+06"},"geometry":{"type":"Point","coordinates":[104.2988689998777,18.49319699959148]}},{"type":"Feature","properties":{"name_en":"Thadeua","did":1106,"pid":11,"uuid":"1.10603e+06"},"geometry":{"type":"Point","coordinates":[104.22273994003899,18.689679940417797]}},{"type":"Feature","properties":{"name_en":"Phonhmueng ( Muannoy )","did":1106,"pid":11,"uuid":"1.106031e+06"},"geometry":{"type":"Point","coordinates":[104.35939942025327,18.60332613983205]}},{"type":"Feature","properties":{"name_en":"Chomthong","did":1106,"pid":11,"uuid":"1.106032e+06"},"geometry":{"type":"Point","coordinates":[104.25771661990845,18.71733326013934]}},{"type":"Feature","properties":{"name_en":"Muengmuan","did":1106,"pid":11,"uuid":"1.106037e+06"},"geometry":{"type":"Point","coordinates":[104.53796128000664,18.413125919614263]}},{"type":"Feature","properties":{"name_en":"Myxai","did":1106,"pid":11,"uuid":"1.106039e+06"},"geometry":{"type":"Point","coordinates":[104.26466689001825,18.600886500032043]}},{"type":"Feature","properties":{"name_en":"Xaichaluern","did":1106,"pid":11,"uuid":"1.106042e+06"},"geometry":{"type":"Point","coordinates":[104.10488670027969,18.688348479741364]}},{"type":"Feature","properties":{"name_en":"Natanh","did":1106,"pid":11,"uuid":"1.106045e+06"},"geometry":{"type":"Point","coordinates":[104.55258599977535,18.672689999708364]}},{"type":"Feature","properties":{"name_en":"Vangphieng","did":1106,"pid":11,"uuid":"1.106046e+06"},"geometry":{"type":"Point","coordinates":[104.4837779998657,18.80777099983663]}},{"type":"Feature","properties":{"name_en":"Vangpan","did":1106,"pid":11,"uuid":"1.106053e+06"},"geometry":{"type":"Point","coordinates":[104.29931206992393,18.547368970234213]}},{"type":"Feature","properties":{"name_en":"Phakord","did":1106,"pid":11,"uuid":"1.106058e+06"},"geometry":{"type":"Point","coordinates":[104.68501200034093,18.41882800014138]}},{"type":"Feature","properties":{"name_en":"Maungxang","did":1106,"pid":11,"uuid":"1.106059e+06"},"geometry":{"type":"Point","coordinates":[104.28754998992743,18.400249970083454]}},{"type":"Feature","properties":{"name_en":"Namtong","did":1106,"pid":11,"uuid":"1.106063e+06"},"geometry":{"type":"Point","coordinates":[104.19449468965394,18.761542689716006]}},{"type":"Feature","properties":{"name_en":"Naphern","did":1106,"pid":11,"uuid":"1.106065e+06"},"geometry":{"type":"Point","coordinates":[104.22715399988326,18.90080800020353]}},{"type":"Feature","properties":{"name_en":"Xaybouathong","did":1106,"pid":11,"uuid":"1.106067e+06"},"geometry":{"type":"Point","coordinates":[104.50671664002473,18.604499939826116]}},{"type":"Feature","properties":{"name_en":"Nanhang","did":1106,"pid":11,"uuid":"1.106071e+06"},"geometry":{"type":"Point","coordinates":[104.54557200021176,18.73518800026978]}},{"type":"Feature","properties":{"name_en":"Natho","did":1106,"pid":11,"uuid":"1.106074e+06"},"geometry":{"type":"Point","coordinates":[104.09382700023747,18.69368400004552]}},{"type":"Feature","properties":{"name_en":"Namkou","did":1106,"pid":11,"uuid":"1.106075e+06"},"geometry":{"type":"Point","coordinates":[104.46382700042975,18.73675200002242]}},{"type":"Feature","properties":{"name_en":"Namjong","did":1106,"pid":11,"uuid":"1.106076e+06"},"geometry":{"type":"Point","coordinates":[104.20807991038141,18.942418289758656]}},{"type":"Feature","properties":{"name_en":"Homchalern","did":1106,"pid":11,"uuid":"1.106077e+06"},"geometry":{"type":"Point","coordinates":[104.29145000001172,19.03664900011441]}},{"type":"Feature","properties":{"name_en":"Phabor","did":1106,"pid":11,"uuid":"1.106078e+06"},"geometry":{"type":"Point","coordinates":[104.62179800019433,18.587706000132528]}},{"type":"Feature","properties":{"name_en":"Nummue","did":1106,"pid":11,"uuid":"1.106079e+06"},"geometry":{"type":"Point","coordinates":[104.19066299959393,18.484142999733884]}}]}