{"type":"FeatureCollection","features":[{"type":"Feature","properties":{"name_en":"Tankuang","did":1107,"pid":11,"uuid":"1.107004e+06"},"geometry":{"type":"Point","coordinates":[104.81191899998834,18.48173000012087]}},{"type":"Feature","properties":{"name_en":"Khamkouna","did":1107,"pid":11,"uuid":"1.107006e+06"},"geometry":{"type":"Point","coordinates":[104.73283776013456,18.468588640345832]}},{"type":"Feature","properties":{"name_en":"Phonekham","did":1107,"pid":11,"uuid":"1.107008e+06"},"geometry":{"type":"Point","coordinates":[105.01503691029187,18.586563510449604]}},{"type":"Feature","properties":{"name_en":"Nampan","did":1107,"pid":11,"uuid":"1.107009e+06"},"geometry":{"type":"Point","coordinates":[105.02454509041542,18.45973617015534]}},{"type":"Feature","properties":{"name_en":"Phonemeuang","did":1107,"pid":11,"uuid":"1.107011e+06"},"geometry":{"type":"Point","coordinates":[104.82548611975942,18.734669469999808]}},{"type":"Feature","properties":{"name_en":"Meuangcham","did":1107,"pid":11,"uuid":"1.107012e+06"},"geometry":{"type":"Point","coordinates":[104.80713142978965,18.71680897991037]}},{"type":"Feature","properties":{"name_en":"Sopkhone","did":1107,"pid":11,"uuid":"1.107013e+06"},"geometry":{"type":"Point","coordinates":[104.7652965098302,18.68258592017595]}},{"type":"Feature","properties":{"name_en":"Phonengam","did":1107,"pid":11,"uuid":"1.107014e+06"},"geometry":{"type":"Point","coordinates":[104.7938911198603,18.635878679572997]}},{"type":"Feature","properties":{"name_en":"Phonesy","did":1107,"pid":11,"uuid":"1.107015e+06"},"geometry":{"type":"Point","coordinates":[104.83010353959902,18.60386961962757]}},{"type":"Feature","properties":{"name_en":"Namsack","did":1107,"pid":11,"uuid":"1.107016e+06"},"geometry":{"type":"Point","coordinates":[104.87991786967764,18.618777340278626]}},{"type":"Feature","properties":{"name_en":"Sopkhee","did":1107,"pid":11,"uuid":"1.107017e+06"},"geometry":{"type":"Point","coordinates":[104.90350151974131,18.660784079723413]}},{"type":"Feature","properties":{"name_en":"Namon","did":1107,"pid":11,"uuid":"1.107018e+06"},"geometry":{"type":"Point","coordinates":[104.98465083961919,18.57817875037778]}},{"type":"Feature","properties":{"name_en":"Phoneman","did":1107,"pid":11,"uuid":"1.107019e+06"},"geometry":{"type":"Point","coordinates":[104.94826449037268,18.533813089748215]}},{"type":"Feature","properties":{"name_en":"Vungban","did":1107,"pid":11,"uuid":"1.10702e+06"},"geometry":{"type":"Point","coordinates":[105.00471534979114,18.575975489675905]}},{"type":"Feature","properties":{"name_en":"Thongnamoon","did":1107,"pid":11,"uuid":"1.107023e+06"},"geometry":{"type":"Point","coordinates":[105.08921071955741,18.63347383019522]}},{"type":"Feature","properties":{"name_en":"Phiengdee","did":1107,"pid":11,"uuid":"1.107024e+06"},"geometry":{"type":"Point","coordinates":[104.85115443970795,18.632852979710947]}},{"type":"Feature","properties":{"name_en":"Keosankham","did":1107,"pid":11,"uuid":"1.107025e+06"},"geometry":{"type":"Point","coordinates":[104.9157873797838,18.30170401962463]}},{"type":"Feature","properties":{"name_en":"Nachang","did":1107,"pid":11,"uuid":"1.107026e+06"},"geometry":{"type":"Point","coordinates":[104.72857137023234,18.45199591007596]}}]}