{"type":"FeatureCollection","features":[{"type":"Feature","properties":{"name_en":"Phonkhoun","did":1201,"pid":12,"uuid":"1.201001e+06"},"geometry":{"type":"Point","coordinates":[104.6950573400822,17.57188853025003]}},{"type":"Feature","properties":{"name_en":"Hadkham","did":1201,"pid":12,"uuid":"1.201004e+06"},"geometry":{"type":"Point","coordinates":[104.68433620968763,17.547549240044713]}},{"type":"Feature","properties":{"name_en":"Nangaew","did":1201,"pid":12,"uuid":"1.201006e+06"},"geometry":{"type":"Point","coordinates":[104.71644828965067,17.539699089888735]}},{"type":"Feature","properties":{"name_en":"nakok","did":1201,"pid":12,"uuid":"1.201007e+06"},"geometry":{"type":"Point","coordinates":[104.7519427200741,17.54077222009862]}},{"type":"Feature","properties":{"name_en":"Phonngam","did":1201,"pid":12,"uuid":"1.201008e+06"},"geometry":{"type":"Point","coordinates":[104.76288185004837,17.543435070177274]}},{"type":"Feature","properties":{"name_en":"Nakaikheer","did":1201,"pid":12,"uuid":"1.201009e+06"},"geometry":{"type":"Point","coordinates":[104.75966437972596,17.524626250058702]}},{"type":"Feature","properties":{"name_en":"Sa ngom","did":1201,"pid":12,"uuid":"1.201012e+06"},"geometry":{"type":"Point","coordinates":[104.78071393021689,17.487980649818848]}},{"type":"Feature","properties":{"name_en":"Vern","did":1201,"pid":12,"uuid":"1.201013e+06"},"geometry":{"type":"Point","coordinates":[104.73098477002884,17.49803230997384]}},{"type":"Feature","properties":{"name_en":"Koktong","did":1201,"pid":12,"uuid":"1.201015e+06"},"geometry":{"type":"Point","coordinates":[104.76801467975686,17.501025400177177]}},{"type":"Feature","properties":{"name_en":"Namouang","did":1201,"pid":12,"uuid":"1.201016e+06"},"geometry":{"type":"Point","coordinates":[104.76963817036302,17.49112898024828]}},{"type":"Feature","properties":{"name_en":"Namdon","did":1201,"pid":12,"uuid":"1.201017e+06"},"geometry":{"type":"Point","coordinates":[104.75771834990732,17.47898811976327]}},{"type":"Feature","properties":{"name_en":"Natad","did":1201,"pid":12,"uuid":"1.201018e+06"},"geometry":{"type":"Point","coordinates":[104.74773861000801,17.477215019775024]}},{"type":"Feature","properties":{"name_en":"Donedon","did":1201,"pid":12,"uuid":"1.201019e+06"},"geometry":{"type":"Point","coordinates":[104.76034566015731,17.448130900410156]}},{"type":"Feature","properties":{"name_en":"Phonsung","did":1201,"pid":12,"uuid":"1.201021e+06"},"geometry":{"type":"Point","coordinates":[104.76718194042023,17.46965805993882]}},{"type":"Feature","properties":{"name_en":"Maiphosi","did":1201,"pid":12,"uuid":"1.201023e+06"},"geometry":{"type":"Point","coordinates":[104.78021235999408,17.45363747986253]}},{"type":"Feature","properties":{"name_en":"Nagnarvay","did":1201,"pid":12,"uuid":"1.201024e+06"},"geometry":{"type":"Point","coordinates":[104.79284942001611,17.444550070281714]}},{"type":"Feature","properties":{"name_en":"Phositha","did":1201,"pid":12,"uuid":"1.201026e+06"},"geometry":{"type":"Point","coordinates":[104.81189378016877,17.442146469754075]}},{"type":"Feature","properties":{"name_en":"Nameuang","did":1201,"pid":12,"uuid":"1.201027e+06"},"geometry":{"type":"Point","coordinates":[104.78518198991088,17.42474564021478]}},{"type":"Feature","properties":{"name_en":"Houaynangly","did":1201,"pid":12,"uuid":"1.201029e+06"},"geometry":{"type":"Point","coordinates":[104.79441432041179,17.412389380074526]}},{"type":"Feature","properties":{"name_en":"Chormpeth","did":1201,"pid":12,"uuid":"1.20103e+06"},"geometry":{"type":"Point","coordinates":[104.80617723011066,17.402331010314615]}},{"type":"Feature","properties":{"name_en":"Chormkeo","did":1201,"pid":12,"uuid":"1.201031e+06"},"geometry":{"type":"Point","coordinates":[104.79825064012752,17.40698061998603]}},{"type":"Feature","properties":{"name_en":"Thakhekneua","did":1201,"pid":12,"uuid":"1.201032e+06"},"geometry":{"type":"Point","coordinates":[104.80245584033149,17.400291690194894]}},{"type":"Feature","properties":{"name_en":"Thakekkang","did":1201,"pid":12,"uuid":"1.201033e+06"},"geometry":{"type":"Point","coordinates":[104.80446934006538,17.3937372099273]}},{"type":"Feature","properties":{"name_en":"Nabo","did":1201,"pid":12,"uuid":"1.201034e+06"},"geometry":{"type":"Point","coordinates":[104.80352998034687,17.39705015965837]}},{"type":"Feature","properties":{"name_en":"Somsaat","did":1201,"pid":12,"uuid":"1.201035e+06"},"geometry":{"type":"Point","coordinates":[104.80778086010312,17.398632830081027]}},{"type":"Feature","properties":{"name_en":"Somsanouk","did":1201,"pid":12,"uuid":"1.201036e+06"},"geometry":{"type":"Point","coordinates":[104.8103585497645,17.39700867003553]}},{"type":"Feature","properties":{"name_en":"Donekheuanxang","did":1201,"pid":12,"uuid":"1.201037e+06"},"geometry":{"type":"Point","coordinates":[104.811084000204,17.3916530502227]}},{"type":"Feature","properties":{"name_en":"Sivilay","did":1201,"pid":12,"uuid":"1.201039e+06"},"geometry":{"type":"Point","coordinates":[104.82350992043257,17.39468997996765]}},{"type":"Feature","properties":{"name_en":"phonsaat","did":1201,"pid":12,"uuid":"1.20104e+06"},"geometry":{"type":"Point","coordinates":[104.83111130007913,17.411826699863653]}},{"type":"Feature","properties":{"name_en":"Phonsanam","did":1201,"pid":12,"uuid":"1.201041e+06"},"geometry":{"type":"Point","coordinates":[104.81600024011861,17.40236914960664]}},{"type":"Feature","properties":{"name_en":"Nabong","did":1201,"pid":12,"uuid":"1.201042e+06"},"geometry":{"type":"Point","coordinates":[104.81299398035803,17.400507949930834]}},{"type":"Feature","properties":{"name_en":"Chomthong","did":1201,"pid":12,"uuid":"1.201044e+06"},"geometry":{"type":"Point","coordinates":[104.81588883971135,17.39627407995365]}},{"type":"Feature","properties":{"name_en":"Santisouk","did":1201,"pid":12,"uuid":"1.201045e+06"},"geometry":{"type":"Point","coordinates":[104.82280524982356,17.396157820409332]}},{"type":"Feature","properties":{"name_en":"Souksavan","did":1201,"pid":12,"uuid":"1.201046e+06"},"geometry":{"type":"Point","coordinates":[104.82629699018256,17.396533999959992]}},{"type":"Feature","properties":{"name_en":"Viengvilay","did":1201,"pid":12,"uuid":"1.201047e+06"},"geometry":{"type":"Point","coordinates":[104.83050620957165,17.402702660081438]}},{"type":"Feature","properties":{"name_en":"Nongbouakham","did":1201,"pid":12,"uuid":"1.201048e+06"},"geometry":{"type":"Point","coordinates":[104.81811817983787,17.393745929890425]}},{"type":"Feature","properties":{"name_en":"Pakdong","did":1201,"pid":12,"uuid":"1.201049e+06"},"geometry":{"type":"Point","coordinates":[104.82750179969977,17.383759480311507]}},{"type":"Feature","properties":{"name_en":"Phonphim","did":1201,"pid":12,"uuid":"1.201051e+06"},"geometry":{"type":"Point","coordinates":[104.84692535020872,17.38305908955982]}},{"type":"Feature","properties":{"name_en":"Donemouang","did":1201,"pid":12,"uuid":"1.201052e+06"},"geometry":{"type":"Point","coordinates":[104.85286335025035,17.368056319660564]}},{"type":"Feature","properties":{"name_en":"Nabone","did":1201,"pid":12,"uuid":"1.201054e+06"},"geometry":{"type":"Point","coordinates":[104.87175892040861,17.36523195025599]}},{"type":"Feature","properties":{"name_en":"Kungsi","did":1201,"pid":12,"uuid":"1.201056e+06"},"geometry":{"type":"Point","coordinates":[104.91323870008735,17.365388529800054]}},{"type":"Feature","properties":{"name_en":"Nadon","did":1201,"pid":12,"uuid":"1.201057e+06"},"geometry":{"type":"Point","coordinates":[104.90036946028788,17.336698779600578]}},{"type":"Feature","properties":{"name_en":"Namalad","did":1201,"pid":12,"uuid":"1.201059e+06"},"geometry":{"type":"Point","coordinates":[104.87955458962924,17.329313320068792]}},{"type":"Feature","properties":{"name_en":"Gnangkom","did":1201,"pid":12,"uuid":"1.20106e+06"},"geometry":{"type":"Point","coordinates":[104.86282406014969,17.288694529862788]}},{"type":"Feature","properties":{"name_en":"Kokhet","did":1201,"pid":12,"uuid":"1.201061e+06"},"geometry":{"type":"Point","coordinates":[104.89156208968654,17.31797495038064]}},{"type":"Feature","properties":{"name_en":"Mouanglatkhouay","did":1201,"pid":12,"uuid":"1.201062e+06"},"geometry":{"type":"Point","coordinates":[104.90122609010889,17.289108759937665]}},{"type":"Feature","properties":{"name_en":"Phongneergnai","did":1201,"pid":12,"uuid":"1.201063e+06"},"geometry":{"type":"Point","coordinates":[104.90394727026668,17.314550610096457]}},{"type":"Feature","properties":{"name_en":"Phongneernoy","did":1201,"pid":12,"uuid":"1.201064e+06"},"geometry":{"type":"Point","coordinates":[104.91635718023714,17.324360449918412]}},{"type":"Feature","properties":{"name_en":"Khamkhykai","did":1201,"pid":12,"uuid":"1.201065e+06"},"geometry":{"type":"Point","coordinates":[104.92983470003168,17.3127050002314]}},{"type":"Feature","properties":{"name_en":"Gnangkao","did":1201,"pid":12,"uuid":"1.201067e+06"},"geometry":{"type":"Point","coordinates":[104.91819792982733,17.305013839947122]}},{"type":"Feature","properties":{"name_en":"Nakoum","did":1201,"pid":12,"uuid":"1.201068e+06"},"geometry":{"type":"Point","coordinates":[104.94392099029963,17.2900570103745]}},{"type":"Feature","properties":{"name_en":"Dongkasaen","did":1201,"pid":12,"uuid":"1.201069e+06"},"geometry":{"type":"Point","coordinates":[104.97083084043854,17.28366177959212]}},{"type":"Feature","properties":{"name_en":"Khamboun","did":1201,"pid":12,"uuid":"1.201073e+06"},"geometry":{"type":"Point","coordinates":[104.98255880026163,17.266563369758085]}},{"type":"Feature","properties":{"name_en":"Nabor","did":1201,"pid":12,"uuid":"1.201074e+06"},"geometry":{"type":"Point","coordinates":[104.9618595198161,17.26454384001508]}},{"type":"Feature","properties":{"name_en":"Khokxang","did":1201,"pid":12,"uuid":"1.201076e+06"},"geometry":{"type":"Point","coordinates":[104.94262648996475,17.268863870272654]}},{"type":"Feature","properties":{"name_en":"Xienglae","did":1201,"pid":12,"uuid":"1.201077e+06"},"geometry":{"type":"Point","coordinates":[104.94630346024216,17.250743700334215]}},{"type":"Feature","properties":{"name_en":"Nakang","did":1201,"pid":12,"uuid":"1.201079e+06"},"geometry":{"type":"Point","coordinates":[104.91531992007442,17.215759989874122]}},{"type":"Feature","properties":{"name_en":"Nonghang","did":1201,"pid":12,"uuid":"1.20108e+06"},"geometry":{"type":"Point","coordinates":[104.90869997991565,17.220199959669422]}},{"type":"Feature","properties":{"name_en":"Phonxai","did":1201,"pid":12,"uuid":"1.201081e+06"},"geometry":{"type":"Point","coordinates":[104.82071992013347,17.21211998004903]}},{"type":"Feature","properties":{"name_en":"Pakpeng","did":1201,"pid":12,"uuid":"1.201084e+06"},"geometry":{"type":"Point","coordinates":[104.81792991987378,17.190459969718454]}},{"type":"Feature","properties":{"name_en":"Donethong","did":1201,"pid":12,"uuid":"1.201087e+06"},"geometry":{"type":"Point","coordinates":[104.81262995955935,17.334069959934283]}},{"type":"Feature","properties":{"name_en":"Nadinchi","did":1201,"pid":12,"uuid":"1.201088e+06"},"geometry":{"type":"Point","coordinates":[104.82250995971195,17.21833993995772]}},{"type":"Feature","properties":{"name_en":"Naphotha","did":1201,"pid":12,"uuid":"1.20109e+06"},"geometry":{"type":"Point","coordinates":[104.82521999962839,17.227959929712963]}},{"type":"Feature","properties":{"name_en":"Dongtai","did":1201,"pid":12,"uuid":"1.201091e+06"},"geometry":{"type":"Point","coordinates":[104.82670996017217,17.231599940448348]}},{"type":"Feature","properties":{"name_en":"Thangam","did":1201,"pid":12,"uuid":"1.201094e+06"},"geometry":{"type":"Point","coordinates":[104.83055993964011,17.262409970038195]}},{"type":"Feature","properties":{"name_en":"Thadeua","did":1201,"pid":12,"uuid":"1.201096e+06"},"geometry":{"type":"Point","coordinates":[104.81842997996682,17.305079979585805]}},{"type":"Feature","properties":{"name_en":"Donemalai","did":1201,"pid":12,"uuid":"1.201098e+06"},"geometry":{"type":"Point","coordinates":[104.81726992995723,17.316609959952626]}},{"type":"Feature","properties":{"name_en":"Nongpheu","did":1201,"pid":12,"uuid":"1.201099e+06"},"geometry":{"type":"Point","coordinates":[104.82438994025917,17.3231199299038]}},{"type":"Feature","properties":{"name_en":"Mouangsoum","did":1201,"pid":12,"uuid":"1.2011e+06"},"geometry":{"type":"Point","coordinates":[104.80980994975698,17.346779949800034]}},{"type":"Feature","properties":{"name_en":"Nongmieng","did":1201,"pid":12,"uuid":"1.201102e+06"},"geometry":{"type":"Point","coordinates":[104.83787046978132,17.339942659820554]}},{"type":"Feature","properties":{"name_en":"Paksimang","did":1201,"pid":12,"uuid":"1.201103e+06"},"geometry":{"type":"Point","coordinates":[104.80965413012738,17.363538890008424]}},{"type":"Feature","properties":{"name_en":"Thakhek","did":1201,"pid":12,"uuid":"1.201106e+06"},"geometry":{"type":"Point","coordinates":[104.80936193980219,17.37358451959317]}},{"type":"Feature","properties":{"name_en":"Chomcheng","did":1201,"pid":12,"uuid":"1.201107e+06"},"geometry":{"type":"Point","coordinates":[104.80842635023025,17.37933651971733]}},{"type":"Feature","properties":{"name_en":"Laophoxai","did":1201,"pid":12,"uuid":"1.201108e+06"},"geometry":{"type":"Point","coordinates":[104.80872609039594,17.384946099753076]}},{"type":"Feature","properties":{"name_en":"Laophokham","did":1201,"pid":12,"uuid":"1.201109e+06"},"geometry":{"type":"Point","coordinates":[104.81166025995293,17.369013700224016]}},{"type":"Feature","properties":{"name_en":"Dongmouangkhai","did":1201,"pid":12,"uuid":"1.20111e+06"},"geometry":{"type":"Point","coordinates":[104.84590243022451,17.42692376042062]}},{"type":"Feature","properties":{"name_en":"Tanh","did":1201,"pid":12,"uuid":"1.201111e+06"},"geometry":{"type":"Point","coordinates":[104.85274650019159,17.422036610374846]}},{"type":"Feature","properties":{"name_en":"Laongam","did":1201,"pid":12,"uuid":"1.201113e+06"},"geometry":{"type":"Point","coordinates":[104.86436356992951,17.41434781010728]}},{"type":"Feature","properties":{"name_en":"Xiengvenh","did":1201,"pid":12,"uuid":"1.201115e+06"},"geometry":{"type":"Point","coordinates":[104.87420828005214,17.421197249935126]}},{"type":"Feature","properties":{"name_en":"Tham","did":1201,"pid":12,"uuid":"1.201116e+06"},"geometry":{"type":"Point","coordinates":[104.86506430031142,17.427090479566672]}},{"type":"Feature","properties":{"name_en":"Thakhae","did":1201,"pid":12,"uuid":"1.201118e+06"},"geometry":{"type":"Point","coordinates":[104.84521603018113,17.442751479708214]}},{"type":"Feature","properties":{"name_en":"Nakhangxang","did":1201,"pid":12,"uuid":"1.201119e+06"},"geometry":{"type":"Point","coordinates":[104.86848118008133,17.47627330979293]}},{"type":"Feature","properties":{"name_en":"Songkhone","did":1201,"pid":12,"uuid":"1.20112e+06"},"geometry":{"type":"Point","coordinates":[104.9361203700654,17.454616819677764]}},{"type":"Feature","properties":{"name_en":"Phin","did":1201,"pid":12,"uuid":"1.201122e+06"},"geometry":{"type":"Point","coordinates":[104.95983989985666,17.454718910393563]}},{"type":"Feature","properties":{"name_en":"Nanhor","did":1201,"pid":12,"uuid":"1.201123e+06"},"geometry":{"type":"Point","coordinates":[104.92253138004322,17.480791160282536]}},{"type":"Feature","properties":{"name_en":"Phondou","did":1201,"pid":12,"uuid":"1.201125e+06"},"geometry":{"type":"Point","coordinates":[104.88876386955447,17.534343469890143]}},{"type":"Feature","properties":{"name_en":"Nasae","did":1201,"pid":12,"uuid":"1.201127e+06"},"geometry":{"type":"Point","coordinates":[104.87041948954554,17.51434189989035]}},{"type":"Feature","properties":{"name_en":"Doy","did":1201,"pid":12,"uuid":"1.20113e+06"},"geometry":{"type":"Point","coordinates":[104.82591083018758,17.557492360450663]}},{"type":"Feature","properties":{"name_en":"Phalaem","did":1201,"pid":12,"uuid":"1.201131e+06"},"geometry":{"type":"Point","coordinates":[104.82191048969635,17.572216089754765]}},{"type":"Feature","properties":{"name_en":"Nonsavang","did":1201,"pid":12,"uuid":"1.201134e+06"},"geometry":{"type":"Point","coordinates":[104.69274699967866,17.564286999666173]}},{"type":"Feature","properties":{"name_en":"Nasa at","did":1201,"pid":12,"uuid":"1.201142e+06"},"geometry":{"type":"Point","coordinates":[104.9527198095831,17.296399849929244]}}]}