{"type":"FeatureCollection","features":[{"type":"Feature","properties":{"name_en":"Phar nang","did":1202,"pid":12,"uuid":"1.202006e+06"},"geometry":{"type":"Point","coordinates":[105.19596574011257,17.347480759907075]}},{"type":"Feature","properties":{"name_en":"Phong","did":1202,"pid":12,"uuid":"1.202007e+06"},"geometry":{"type":"Point","coordinates":[105.12967778982966,17.319560889729345]}},{"type":"Feature","properties":{"name_en":"Keng sa vang","did":1202,"pid":12,"uuid":"1.202008e+06"},"geometry":{"type":"Point","coordinates":[105.20441009010679,17.440845350171113]}},{"type":"Feature","properties":{"name_en":"Phon sa ard","did":1202,"pid":12,"uuid":"1.20201e+06"},"geometry":{"type":"Point","coordinates":[105.15588012981964,17.454302080149546]}},{"type":"Feature","properties":{"name_en":"Lark chet","did":1202,"pid":12,"uuid":"1.202011e+06"},"geometry":{"type":"Point","coordinates":[105.14674838020044,17.447063300335437]}},{"type":"Feature","properties":{"name_en":"Phoun kham","did":1202,"pid":12,"uuid":"1.202012e+06"},"geometry":{"type":"Point","coordinates":[105.184644130405,17.432384990100214]}},{"type":"Feature","properties":{"name_en":"Nar saa","did":1202,"pid":12,"uuid":"1.202013e+06"},"geometry":{"type":"Point","coordinates":[105.05193303997079,17.4055588797254]}},{"type":"Feature","properties":{"name_en":"Park song","did":1202,"pid":12,"uuid":"1.202014e+06"},"geometry":{"type":"Point","coordinates":[105.03833743043741,17.40449219968216]}},{"type":"Feature","properties":{"name_en":"Nar toung","did":1202,"pid":12,"uuid":"1.202016e+06"},"geometry":{"type":"Point","coordinates":[105.09270814994215,17.457368010182893]}},{"type":"Feature","properties":{"name_en":"Lark kow","did":1202,"pid":12,"uuid":"1.202018e+06"},"geometry":{"type":"Point","coordinates":[105.12758584021934,17.44516362017892]}},{"type":"Feature","properties":{"name_en":"Tan","did":1202,"pid":12,"uuid":"1.20202e+06"},"geometry":{"type":"Point","coordinates":[105.07958494017588,17.4492332099351]}},{"type":"Feature","properties":{"name_en":"Na dee","did":1202,"pid":12,"uuid":"1.202021e+06"},"geometry":{"type":"Point","coordinates":[105.06035090024976,17.45199764026817]}},{"type":"Feature","properties":{"name_en":"Kuan khouai","did":1202,"pid":12,"uuid":"1.202022e+06"},"geometry":{"type":"Point","coordinates":[105.04909342024146,17.45461891029612]}},{"type":"Feature","properties":{"name_en":"Phonlai","did":1202,"pid":12,"uuid":"1.202023e+06"},"geometry":{"type":"Point","coordinates":[105.0440890097222,17.445769300133524]}},{"type":"Feature","properties":{"name_en":"Nadou","did":1202,"pid":12,"uuid":"1.202024e+06"},"geometry":{"type":"Point","coordinates":[105.03022333010186,17.437170559589696]}},{"type":"Feature","properties":{"name_en":"Nakham","did":1202,"pid":12,"uuid":"1.202025e+06"},"geometry":{"type":"Point","coordinates":[104.99911230022461,17.454744390431383]}},{"type":"Feature","properties":{"name_en":"Lao","did":1202,"pid":12,"uuid":"1.202026e+06"},"geometry":{"type":"Point","coordinates":[104.98542708003096,17.45799565038185]}},{"type":"Feature","properties":{"name_en":"Nahii","did":1202,"pid":12,"uuid":"1.20203e+06"},"geometry":{"type":"Point","coordinates":[105.37667151971341,17.442408489790093]}},{"type":"Feature","properties":{"name_en":"Wern","did":1202,"pid":12,"uuid":"1.202031e+06"},"geometry":{"type":"Point","coordinates":[105.35147988029703,17.4791497302301]}},{"type":"Feature","properties":{"name_en":"I larn","did":1202,"pid":12,"uuid":"1.202034e+06"},"geometry":{"type":"Point","coordinates":[105.32848000016519,17.49009000000318]}},{"type":"Feature","properties":{"name_en":"Dangkang","did":1202,"pid":12,"uuid":"1.202037e+06"},"geometry":{"type":"Point","coordinates":[105.2550540495741,17.457756600239065]}},{"type":"Feature","properties":{"name_en":"Somsanook","did":1202,"pid":12,"uuid":"1.202038e+06"},"geometry":{"type":"Point","coordinates":[105.22794815032901,17.450729709565937]}},{"type":"Feature","properties":{"name_en":"Nakiew","did":1202,"pid":12,"uuid":"1.202039e+06"},"geometry":{"type":"Point","coordinates":[105.21695008971831,17.456471570255328]}},{"type":"Feature","properties":{"name_en":"Kava","did":1202,"pid":12,"uuid":"1.20204e+06"},"geometry":{"type":"Point","coordinates":[105.27244239033931,17.32931290040331]}},{"type":"Feature","properties":{"name_en":"Phakiew","did":1202,"pid":12,"uuid":"1.202041e+06"},"geometry":{"type":"Point","coordinates":[105.28885701003887,17.33918074993526]}},{"type":"Feature","properties":{"name_en":"Phar khaen","did":1202,"pid":12,"uuid":"1.202042e+06"},"geometry":{"type":"Point","coordinates":[105.23990559981483,17.331876920131084]}},{"type":"Feature","properties":{"name_en":"Nacharn","did":1202,"pid":12,"uuid":"1.202043e+06"},"geometry":{"type":"Point","coordinates":[105.26521996030611,17.34774185037916]}},{"type":"Feature","properties":{"name_en":"Khae","did":1202,"pid":12,"uuid":"1.202044e+06"},"geometry":{"type":"Point","coordinates":[105.28181100965678,17.318105039563115]}},{"type":"Feature","properties":{"name_en":"Phon sa meun","did":1202,"pid":12,"uuid":"1.202045e+06"},"geometry":{"type":"Point","coordinates":[105.29164817959251,17.304750069813725]}},{"type":"Feature","properties":{"name_en":"Kouan louang","did":1202,"pid":12,"uuid":"1.202046e+06"},"geometry":{"type":"Point","coordinates":[105.30931413041465,17.314958050123632]}},{"type":"Feature","properties":{"name_en":"Khamphalaeng","did":1202,"pid":12,"uuid":"1.202047e+06"},"geometry":{"type":"Point","coordinates":[105.37007764998442,17.291182030264448]}},{"type":"Feature","properties":{"name_en":"Phon na dee","did":1202,"pid":12,"uuid":"1.202048e+06"},"geometry":{"type":"Point","coordinates":[105.38922543994157,17.296203210130077]}},{"type":"Feature","properties":{"name_en":"Xong","did":1202,"pid":12,"uuid":"1.202051e+06"},"geometry":{"type":"Point","coordinates":[105.3600834897157,17.390497940111157]}},{"type":"Feature","properties":{"name_en":"Non daeng","did":1202,"pid":12,"uuid":"1.202052e+06"},"geometry":{"type":"Point","coordinates":[105.22205994029552,17.25094997983684]}},{"type":"Feature","properties":{"name_en":"Khamphaedong","did":1202,"pid":12,"uuid":"1.202053e+06"},"geometry":{"type":"Point","coordinates":[105.21602823953273,17.291672119749258]}},{"type":"Feature","properties":{"name_en":"Na ngiew","did":1202,"pid":12,"uuid":"1.202055e+06"},"geometry":{"type":"Point","coordinates":[105.25653815042324,17.274049750440415]}},{"type":"Feature","properties":{"name_en":"Nathone","did":1202,"pid":12,"uuid":"1.202056e+06"},"geometry":{"type":"Point","coordinates":[105.26552640026723,17.278007769666583]}},{"type":"Feature","properties":{"name_en":"Kham feung","did":1202,"pid":12,"uuid":"1.202057e+06"},"geometry":{"type":"Point","coordinates":[105.17553317010692,17.31460256972524]}},{"type":"Feature","properties":{"name_en":"Khamphaena","did":1202,"pid":12,"uuid":"1.202058e+06"},"geometry":{"type":"Point","coordinates":[105.20891611011447,17.27384917012897]}},{"type":"Feature","properties":{"name_en":"Khamphae gnai","did":1202,"pid":12,"uuid":"1.202059e+06"},"geometry":{"type":"Point","coordinates":[105.19430101032151,17.282510450000334]}},{"type":"Feature","properties":{"name_en":"Mai","did":1202,"pid":12,"uuid":"1.20206e+06"},"geometry":{"type":"Point","coordinates":[105.23403457955328,17.285619710337034]}},{"type":"Feature","properties":{"name_en":"Nammala","did":1202,"pid":12,"uuid":"1.202061e+06"},"geometry":{"type":"Point","coordinates":[105.2597022296207,17.24946093973868]}},{"type":"Feature","properties":{"name_en":"Donethong","did":1202,"pid":12,"uuid":"1.202062e+06"},"geometry":{"type":"Point","coordinates":[105.27273466961395,17.261963640087558]}},{"type":"Feature","properties":{"name_en":"Par narm","did":1202,"pid":12,"uuid":"1.202064e+06"},"geometry":{"type":"Point","coordinates":[105.28989216991434,17.290102270126656]}},{"type":"Feature","properties":{"name_en":"Namarkbar","did":1202,"pid":12,"uuid":"1.202065e+06"},"geometry":{"type":"Point","coordinates":[105.30808902988203,17.255215449975644]}},{"type":"Feature","properties":{"name_en":"Nasathoung","did":1202,"pid":12,"uuid":"1.202067e+06"},"geometry":{"type":"Point","coordinates":[105.32010607976427,17.275329920351627]}},{"type":"Feature","properties":{"name_en":"Chaloum","did":1202,"pid":12,"uuid":"1.202068e+06"},"geometry":{"type":"Point","coordinates":[105.34278792980342,17.276623329992656]}},{"type":"Feature","properties":{"name_en":"Nakathangthong","did":1202,"pid":12,"uuid":"1.202069e+06"},"geometry":{"type":"Point","coordinates":[105.32313623042613,17.245529240110432]}},{"type":"Feature","properties":{"name_en":"Phonxai","did":1202,"pid":12,"uuid":"1.202071e+06"},"geometry":{"type":"Point","coordinates":[105.36255404974867,17.351087990243677]}},{"type":"Feature","properties":{"name_en":"Nakathangdong","did":1202,"pid":12,"uuid":"1.202072e+06"},"geometry":{"type":"Point","coordinates":[105.33861357966825,17.22681471025253]}},{"type":"Feature","properties":{"name_en":"Khouan tan","did":1202,"pid":12,"uuid":"1.202075e+06"},"geometry":{"type":"Point","coordinates":[105.43985958955312,17.322129100025638]}},{"type":"Feature","properties":{"name_en":"Napouak","did":1202,"pid":12,"uuid":"1.202076e+06"},"geometry":{"type":"Point","coordinates":[105.42814839982498,17.314431670388014]}},{"type":"Feature","properties":{"name_en":"Natapoi","did":1202,"pid":12,"uuid":"1.202077e+06"},"geometry":{"type":"Point","coordinates":[105.45011283963518,17.295654020360292]}},{"type":"Feature","properties":{"name_en":"Phon lek","did":1202,"pid":12,"uuid":"1.20208e+06"},"geometry":{"type":"Point","coordinates":[105.46880038014412,17.343166090246545]}},{"type":"Feature","properties":{"name_en":"Sangphork","did":1202,"pid":12,"uuid":"1.202081e+06"},"geometry":{"type":"Point","coordinates":[105.362559420032,17.351074410132508]}},{"type":"Feature","properties":{"name_en":"Man","did":1202,"pid":12,"uuid":"1.202082e+06"},"geometry":{"type":"Point","coordinates":[105.47584209989593,17.40710248959702]}},{"type":"Feature","properties":{"name_en":"Phon meung","did":1202,"pid":12,"uuid":"1.202084e+06"},"geometry":{"type":"Point","coordinates":[105.52179362022585,17.350621539613368]}},{"type":"Feature","properties":{"name_en":"Phon daeng","did":1202,"pid":12,"uuid":"1.202085e+06"},"geometry":{"type":"Point","coordinates":[105.54623189038278,17.324799749928125]}},{"type":"Feature","properties":{"name_en":"Thongkouang","did":1202,"pid":12,"uuid":"1.202086e+06"},"geometry":{"type":"Point","coordinates":[105.5337559297286,17.325626029766788]}},{"type":"Feature","properties":{"name_en":"Hai neua","did":1202,"pid":12,"uuid":"1.202087e+06"},"geometry":{"type":"Point","coordinates":[105.58767989997304,17.35172083012505]}},{"type":"Feature","properties":{"name_en":"Kavark","did":1202,"pid":12,"uuid":"1.202089e+06"},"geometry":{"type":"Point","coordinates":[105.61702829958749,17.31521578995514]}},{"type":"Feature","properties":{"name_en":"Naphakeo","did":1202,"pid":12,"uuid":"1.20209e+06"},"geometry":{"type":"Point","coordinates":[105.62018434001979,17.298096089797994]}},{"type":"Feature","properties":{"name_en":"Dongmarkfai","did":1202,"pid":12,"uuid":"1.202091e+06"},"geometry":{"type":"Point","coordinates":[105.24453199009425,17.29843372035709]}},{"type":"Feature","properties":{"name_en":"Mahaxai","did":1202,"pid":12,"uuid":"1.202092e+06"},"geometry":{"type":"Point","coordinates":[105.1955445496759,17.417514909935594]}},{"type":"Feature","properties":{"name_en":"Phova","did":1202,"pid":12,"uuid":"1.202093e+06"},"geometry":{"type":"Point","coordinates":[105.19738923968531,17.4165004501608]}},{"type":"Feature","properties":{"name_en":"Nathan","did":1202,"pid":12,"uuid":"1.202094e+06"},"geometry":{"type":"Point","coordinates":[105.36880669988912,17.468265069851174]}},{"type":"Feature","properties":{"name_en":"Taeng","did":1202,"pid":12,"uuid":"1.202095e+06"},"geometry":{"type":"Point","coordinates":[105.42157497046615,17.293703300163187]}}]}