{"type":"FeatureCollection","features":[{"type":"Feature","properties":{"name_en":"Nalek","did":1203,"pid":12,"uuid":"1.203001e+06"},"geometry":{"type":"Point","coordinates":[104.91932370957784,17.175900009888]}},{"type":"Feature","properties":{"name_en":"Pongkiew","did":1203,"pid":12,"uuid":"1.203002e+06"},"geometry":{"type":"Point","coordinates":[104.92689172986108,17.168845130388352]}},{"type":"Feature","properties":{"name_en":"Nonaila","did":1203,"pid":12,"uuid":"1.203004e+06"},"geometry":{"type":"Point","coordinates":[104.86941266011026,17.18786760983251]}},{"type":"Feature","properties":{"name_en":"Nachampa","did":1203,"pid":12,"uuid":"1.203005e+06"},"geometry":{"type":"Point","coordinates":[104.8991800702083,17.178329510109027]}},{"type":"Feature","properties":{"name_en":"Nahoun","did":1203,"pid":12,"uuid":"1.203006e+06"},"geometry":{"type":"Point","coordinates":[104.88889605960793,17.172804240211153]}},{"type":"Feature","properties":{"name_en":"Phonphang","did":1203,"pid":12,"uuid":"1.203007e+06"},"geometry":{"type":"Point","coordinates":[104.90173436986261,17.161705509596207]}},{"type":"Feature","properties":{"name_en":"Nontae","did":1203,"pid":12,"uuid":"1.203008e+06"},"geometry":{"type":"Point","coordinates":[104.88134663968653,17.15745294983429]}},{"type":"Feature","properties":{"name_en":"Nanoy","did":1203,"pid":12,"uuid":"1.203009e+06"},"geometry":{"type":"Point","coordinates":[104.89686775017789,17.127857709652137]}},{"type":"Feature","properties":{"name_en":"Nongpham","did":1203,"pid":12,"uuid":"1.203011e+06"},"geometry":{"type":"Point","coordinates":[104.89567199012856,17.121264250267096]}},{"type":"Feature","properties":{"name_en":"Dongkhungnakae","did":1203,"pid":12,"uuid":"1.203013e+06"},"geometry":{"type":"Point","coordinates":[104.88482194995848,17.123023029778775]}},{"type":"Feature","properties":{"name_en":"Nonchik","did":1203,"pid":12,"uuid":"1.203014e+06"},"geometry":{"type":"Point","coordinates":[104.87703067967725,17.106596403849213]}},{"type":"Feature","properties":{"name_en":"Nakham","did":1203,"pid":12,"uuid":"1.203015e+06"},"geometry":{"type":"Point","coordinates":[104.85974966998526,17.108454440221855]}},{"type":"Feature","properties":{"name_en":"Namphu","did":1203,"pid":12,"uuid":"1.203016e+06"},"geometry":{"type":"Point","coordinates":[104.87845623026811,17.079007640449866]}},{"type":"Feature","properties":{"name_en":"Dongkasine","did":1203,"pid":12,"uuid":"1.203017e+06"},"geometry":{"type":"Point","coordinates":[104.85557237974074,17.091607319806492]}},{"type":"Feature","properties":{"name_en":"Dongboon","did":1203,"pid":12,"uuid":"1.203018e+06"},"geometry":{"type":"Point","coordinates":[104.8529483395746,17.10109505021586]}},{"type":"Feature","properties":{"name_en":"Kudchab","did":1203,"pid":12,"uuid":"1.20302e+06"},"geometry":{"type":"Point","coordinates":[104.8194930001707,17.165703999597092]}},{"type":"Feature","properties":{"name_en":"Songnongneua","did":1203,"pid":12,"uuid":"1.203023e+06"},"geometry":{"type":"Point","coordinates":[104.82086735982809,17.153874720198974]}},{"type":"Feature","properties":{"name_en":"Songnongtai","did":1203,"pid":12,"uuid":"1.203024e+06"},"geometry":{"type":"Point","coordinates":[104.81555382025746,17.146682800448293]}},{"type":"Feature","properties":{"name_en":"Xiengvangtha","did":1203,"pid":12,"uuid":"1.203025e+06"},"geometry":{"type":"Point","coordinates":[104.79671448004669,17.136966910426814]}},{"type":"Feature","properties":{"name_en":"Xiengvangthong","did":1203,"pid":12,"uuid":"1.203026e+06"},"geometry":{"type":"Point","coordinates":[104.8137161696289,17.126179910310757]}},{"type":"Feature","properties":{"name_en":"Nongpalad","did":1203,"pid":12,"uuid":"1.203028e+06"},"geometry":{"type":"Point","coordinates":[104.79929359953879,17.124315179614307]}},{"type":"Feature","properties":{"name_en":"Donggnang","did":1203,"pid":12,"uuid":"1.203029e+06"},"geometry":{"type":"Point","coordinates":[104.8048319995472,17.117009000145323]}},{"type":"Feature","properties":{"name_en":"Dongkhouang","did":1203,"pid":12,"uuid":"1.20303e+06"},"geometry":{"type":"Point","coordinates":[104.79738645973691,17.095866669828737]}},{"type":"Feature","properties":{"name_en":"Phon","did":1203,"pid":12,"uuid":"1.203032e+06"},"geometry":{"type":"Point","coordinates":[104.7993699601175,17.085089969923846]}},{"type":"Feature","properties":{"name_en":"Nongbok","did":1203,"pid":12,"uuid":"1.203036e+06"},"geometry":{"type":"Point","coordinates":[104.79960204984282,17.0792819002227]}},{"type":"Feature","properties":{"name_en":"Namanpa","did":1203,"pid":12,"uuid":"1.203037e+06"},"geometry":{"type":"Point","coordinates":[104.78943027993031,17.070274619567513]}},{"type":"Feature","properties":{"name_en":"Sokbor","did":1203,"pid":12,"uuid":"1.203038e+06"},"geometry":{"type":"Point","coordinates":[104.83084526038968,17.05993018025471]}},{"type":"Feature","properties":{"name_en":"Natai","did":1203,"pid":12,"uuid":"1.203039e+06"},"geometry":{"type":"Point","coordinates":[104.84037422987804,17.039962639986346]}},{"type":"Feature","properties":{"name_en":"Phak ii tou","did":1203,"pid":12,"uuid":"1.20304e+06"},"geometry":{"type":"Point","coordinates":[104.83258677043861,17.038120549916485]}},{"type":"Feature","properties":{"name_en":"Dongsangam","did":1203,"pid":12,"uuid":"1.203041e+06"},"geometry":{"type":"Point","coordinates":[104.79565711044586,17.022005420018367]}},{"type":"Feature","properties":{"name_en":"Hadxiengdee","did":1203,"pid":12,"uuid":"1.203042e+06"},"geometry":{"type":"Point","coordinates":[104.80905222960513,17.039096460253024]}},{"type":"Feature","properties":{"name_en":"Beungsantha","did":1203,"pid":12,"uuid":"1.203043e+06"},"geometry":{"type":"Point","coordinates":[104.76167369008661,17.054298379815762]}},{"type":"Feature","properties":{"name_en":"Beungsantherng","did":1203,"pid":12,"uuid":"1.203045e+06"},"geometry":{"type":"Point","coordinates":[104.76806010963038,17.04069866000397]}},{"type":"Feature","properties":{"name_en":"Donekhiawneua","did":1203,"pid":12,"uuid":"1.203046e+06"},"geometry":{"type":"Point","coordinates":[104.75146168042609,17.02958215979185]}},{"type":"Feature","properties":{"name_en":"Mouangkhai","did":1203,"pid":12,"uuid":"1.203049e+06"},"geometry":{"type":"Point","coordinates":[104.76368684965236,17.004730649989067]}},{"type":"Feature","properties":{"name_en":"Donekhiawtai","did":1203,"pid":12,"uuid":"1.20305e+06"},"geometry":{"type":"Point","coordinates":[104.74548589045969,17.004014840418417]}},{"type":"Feature","properties":{"name_en":"Nonglom","did":1203,"pid":12,"uuid":"1.203051e+06"},"geometry":{"type":"Point","coordinates":[104.74838217002491,16.977748050022633]}},{"type":"Feature","properties":{"name_en":"Danpakxe","did":1203,"pid":12,"uuid":"1.203053e+06"},"geometry":{"type":"Point","coordinates":[104.74665674959796,16.94666443026623]}},{"type":"Feature","properties":{"name_en":"Donemakmo","did":1203,"pid":12,"uuid":"1.203054e+06"},"geometry":{"type":"Point","coordinates":[104.75777173994803,16.968634830316443]}},{"type":"Feature","properties":{"name_en":"Khokkong","did":1203,"pid":12,"uuid":"1.203055e+06"},"geometry":{"type":"Point","coordinates":[104.75878360995767,16.955873709711927]}},{"type":"Feature","properties":{"name_en":"Dongphangphao","did":1203,"pid":12,"uuid":"1.203056e+06"},"geometry":{"type":"Point","coordinates":[104.76407234009906,16.94251262992491]}},{"type":"Feature","properties":{"name_en":"Phonsao eh","did":1203,"pid":12,"uuid":"1.203057e+06"},"geometry":{"type":"Point","coordinates":[104.78383619037373,16.90298416024335]}},{"type":"Feature","properties":{"name_en":"Thamouang","did":1203,"pid":12,"uuid":"1.203058e+06"},"geometry":{"type":"Point","coordinates":[104.77073996985777,16.906489969664747]}},{"type":"Feature","properties":{"name_en":"Sady","did":1203,"pid":12,"uuid":"1.203059e+06"},"geometry":{"type":"Point","coordinates":[104.83916371016747,16.928900580161798]}},{"type":"Feature","properties":{"name_en":"Navangnoy","did":1203,"pid":12,"uuid":"1.203061e+06"},"geometry":{"type":"Point","coordinates":[104.8223499504091,16.9557500000963]}},{"type":"Feature","properties":{"name_en":"Navangthong","did":1203,"pid":12,"uuid":"1.203064e+06"},"geometry":{"type":"Point","coordinates":[104.81562199962949,16.957055000084857]}},{"type":"Feature","properties":{"name_en":"Xamnadee","did":1203,"pid":12,"uuid":"1.203065e+06"},"geometry":{"type":"Point","coordinates":[104.82761193987088,16.993963349965338]}},{"type":"Feature","properties":{"name_en":"Dongphakpheua","did":1203,"pid":12,"uuid":"1.203066e+06"},"geometry":{"type":"Point","coordinates":[104.80896499957487,16.984183999736807]}},{"type":"Feature","properties":{"name_en":"Hadxayfong","did":1203,"pid":12,"uuid":"1.203067e+06"},"geometry":{"type":"Point","coordinates":[104.79256997006586,17.002249949790517]}},{"type":"Feature","properties":{"name_en":"Nongsaphngthong","did":1203,"pid":12,"uuid":"1.203068e+06"},"geometry":{"type":"Point","coordinates":[104.76564495022983,16.981064940277776]}},{"type":"Feature","properties":{"name_en":"Tantherng","did":1203,"pid":12,"uuid":"1.203069e+06"},"geometry":{"type":"Point","coordinates":[104.79495193987569,16.978658749987577]}},{"type":"Feature","properties":{"name_en":"Nongly","did":1203,"pid":12,"uuid":"1.20307e+06"},"geometry":{"type":"Point","coordinates":[104.78334699958931,16.95382399958397]}},{"type":"Feature","properties":{"name_en":"Khoksavang","did":1203,"pid":12,"uuid":"1.203071e+06"},"geometry":{"type":"Point","coordinates":[104.80154933005548,16.960213700341104]}},{"type":"Feature","properties":{"name_en":"Donepadek","did":1203,"pid":12,"uuid":"1.203072e+06"},"geometry":{"type":"Point","coordinates":[104.73598876963287,17.00622900021544]}},{"type":"Feature","properties":{"name_en":"Navang","did":1203,"pid":12,"uuid":"1.203075e+06"},"geometry":{"type":"Point","coordinates":[104.82127999965773,16.975289970366543]}}]}