{"type":"FeatureCollection","features":[{"type":"Feature","properties":{"name_en":"Vang mon","did":1204,"pid":12,"uuid":"1.204048e+06"},"geometry":{"type":"Point","coordinates":[104.46438870000003,17.880300299999984]}},{"type":"Feature","properties":{"name_en":"Ban sang","did":1204,"pid":12,"uuid":"1.204049e+06"},"geometry":{"type":"Point","coordinates":[104.49094090000003,17.86180029999998]}},{"type":"Feature","properties":{"name_en":"Song khon","did":1204,"pid":12,"uuid":"1.20405e+06"},"geometry":{"type":"Point","coordinates":[104.5004154,17.847742]}},{"type":"Feature","properties":{"name_en":"Park theuck","did":1204,"pid":12,"uuid":"1.204051e+06"},"geometry":{"type":"Point","coordinates":[104.5054354704246,17.84155027964238]}},{"type":"Feature","properties":{"name_en":"Park vang","did":1204,"pid":12,"uuid":"1.204052e+06"},"geometry":{"type":"Point","coordinates":[104.524599,17.813922199999986]}},{"type":"Feature","properties":{"name_en":"Nong dong","did":1204,"pid":12,"uuid":"1.204053e+06"},"geometry":{"type":"Point","coordinates":[104.54931984960808,17.82818993982277]}},{"type":"Feature","properties":{"name_en":"Na tuai","did":1204,"pid":12,"uuid":"1.204054e+06"},"geometry":{"type":"Point","coordinates":[104.56753062005644,17.81212292979847]}},{"type":"Feature","properties":{"name_en":"Nong boua nhai","did":1204,"pid":12,"uuid":"1.204055e+06"},"geometry":{"type":"Point","coordinates":[104.55314375012374,17.7536705504418]}},{"type":"Feature","properties":{"name_en":"Hean khanh","did":1204,"pid":12,"uuid":"1.204056e+06"},"geometry":{"type":"Point","coordinates":[104.57813859040141,17.744182739593278]}},{"type":"Feature","properties":{"name_en":"Phon manh","did":1204,"pid":12,"uuid":"1.204057e+06"},"geometry":{"type":"Point","coordinates":[104.58409460012489,17.774389529558988]}},{"type":"Feature","properties":{"name_en":"Nong chang","did":1204,"pid":12,"uuid":"1.204058e+06"},"geometry":{"type":"Point","coordinates":[104.6202174998736,17.743691639601618]}},{"type":"Feature","properties":{"name_en":"Nong khoun","did":1204,"pid":12,"uuid":"1.204059e+06"},"geometry":{"type":"Point","coordinates":[104.59919644988432,17.747562490316177]}},{"type":"Feature","properties":{"name_en":"Na no","did":1204,"pid":12,"uuid":"1.20406e+06"},"geometry":{"type":"Point","coordinates":[104.6167002896354,17.78867237042979]}},{"type":"Feature","properties":{"name_en":"Na hang","did":1204,"pid":12,"uuid":"1.204061e+06"},"geometry":{"type":"Point","coordinates":[104.64480355044965,17.781826289674065]}},{"type":"Feature","properties":{"name_en":"Bong","did":1204,"pid":12,"uuid":"1.204062e+06"},"geometry":{"type":"Point","coordinates":[104.63238417040347,17.810330789838098]}},{"type":"Feature","properties":{"name_en":"Phea peng","did":1204,"pid":12,"uuid":"1.204064e+06"},"geometry":{"type":"Point","coordinates":[104.61868578976849,17.828248369856635]}},{"type":"Feature","properties":{"name_en":"Na mueang bor","did":1204,"pid":12,"uuid":"1.204065e+06"},"geometry":{"type":"Point","coordinates":[104.63148110954933,17.83451349998985]}},{"type":"Feature","properties":{"name_en":"Na arn","did":1204,"pid":12,"uuid":"1.204066e+06"},"geometry":{"type":"Point","coordinates":[104.63045172039543,17.842916360100077]}},{"type":"Feature","properties":{"name_en":"Na hee","did":1204,"pid":12,"uuid":"1.204067e+06"},"geometry":{"type":"Point","coordinates":[104.61923623004697,17.864188119853754]}},{"type":"Feature","properties":{"name_en":"Houai say","did":1204,"pid":12,"uuid":"1.204068e+06"},"geometry":{"type":"Point","coordinates":[104.64548760010894,17.859250930174394]}},{"type":"Feature","properties":{"name_en":"Houa na","did":1204,"pid":12,"uuid":"1.204069e+06"},"geometry":{"type":"Point","coordinates":[104.65855608040887,17.850766100194317]}},{"type":"Feature","properties":{"name_en":"Bouam lou","did":1204,"pid":12,"uuid":"1.20407e+06"},"geometry":{"type":"Point","coordinates":[104.71523886958323,17.768555130172018]}},{"type":"Feature","properties":{"name_en":"Kouan kar cha","did":1204,"pid":12,"uuid":"1.204071e+06"},"geometry":{"type":"Point","coordinates":[104.68278598002706,17.867392020439244]}},{"type":"Feature","properties":{"name_en":"Phon","did":1204,"pid":12,"uuid":"1.204072e+06"},"geometry":{"type":"Point","coordinates":[104.60960702044002,17.892898570406658]}},{"type":"Feature","properties":{"name_en":"Na don","did":1204,"pid":12,"uuid":"1.204073e+06"},"geometry":{"type":"Point","coordinates":[104.60596374043884,17.903168080222933]}},{"type":"Feature","properties":{"name_en":"Noi","did":1204,"pid":12,"uuid":"1.204077e+06"},"geometry":{"type":"Point","coordinates":[104.59243467979503,17.903142929893068]}},{"type":"Feature","properties":{"name_en":"Na kham bor","did":1204,"pid":12,"uuid":"1.204078e+06"},"geometry":{"type":"Point","coordinates":[104.59398215035284,17.914307380247354]}},{"type":"Feature","properties":{"name_en":"Bor naeng","did":1204,"pid":12,"uuid":"1.204079e+06"},"geometry":{"type":"Point","coordinates":[104.5784796497499,17.958450839906703]}},{"type":"Feature","properties":{"name_en":"Tha gnor","did":1204,"pid":12,"uuid":"1.204081e+06"},"geometry":{"type":"Point","coordinates":[104.57365016044761,17.93551560038608]}},{"type":"Feature","properties":{"name_en":"Vang pherng","did":1204,"pid":12,"uuid":"1.204082e+06"},"geometry":{"type":"Point","coordinates":[104.53989280027777,18.000612989637368]}},{"type":"Feature","properties":{"name_en":"Nasa","did":1204,"pid":12,"uuid":"1.204083e+06"},"geometry":{"type":"Point","coordinates":[104.55918434028042,18.00604966029613]}},{"type":"Feature","properties":{"name_en":"Xao","did":1204,"pid":12,"uuid":"1.204084e+06"},"geometry":{"type":"Point","coordinates":[104.56978501963232,17.906666600342387]}},{"type":"Feature","properties":{"name_en":"Phalaem","did":1204,"pid":12,"uuid":"1.204085e+06"},"geometry":{"type":"Point","coordinates":[104.5361362895423,17.93580998042072]}},{"type":"Feature","properties":{"name_en":"Nongxeun","did":1204,"pid":12,"uuid":"1.204086e+06"},"geometry":{"type":"Point","coordinates":[104.51615752027547,17.943773200239136]}},{"type":"Feature","properties":{"name_en":"Thongkhar","did":1204,"pid":12,"uuid":"1.204087e+06"},"geometry":{"type":"Point","coordinates":[104.52126142967333,17.971717880152795]}},{"type":"Feature","properties":{"name_en":"Thar mii","did":1204,"pid":12,"uuid":"1.204089e+06"},"geometry":{"type":"Point","coordinates":[104.77293662009082,17.66261366012636]}},{"type":"Feature","properties":{"name_en":"Nakhii","did":1204,"pid":12,"uuid":"1.20409e+06"},"geometry":{"type":"Point","coordinates":[104.78485711023679,17.648677660322896]}},{"type":"Feature","properties":{"name_en":"Phar daeng","did":1204,"pid":12,"uuid":"1.204093e+06"},"geometry":{"type":"Point","coordinates":[104.70420316974226,17.642930020197802]}},{"type":"Feature","properties":{"name_en":"Phon kharm","did":1204,"pid":12,"uuid":"1.204094e+06"},"geometry":{"type":"Point","coordinates":[104.67521560264643,17.633529396805553]}},{"type":"Feature","properties":{"name_en":"Namdik","did":1204,"pid":12,"uuid":"1.204095e+06"},"geometry":{"type":"Point","coordinates":[104.69527661012515,17.609294869759164]}},{"type":"Feature","properties":{"name_en":"Hom phan","did":1204,"pid":12,"uuid":"1.204096e+06"},"geometry":{"type":"Point","coordinates":[104.74229054038132,17.60297432969985]}},{"type":"Feature","properties":{"name_en":"Nar pho","did":1204,"pid":12,"uuid":"1.204097e+06"},"geometry":{"type":"Point","coordinates":[104.69729329005976,17.68650175035391]}},{"type":"Feature","properties":{"name_en":"Nar tharn","did":1204,"pid":12,"uuid":"1.204098e+06"},"geometry":{"type":"Point","coordinates":[104.66289865957428,17.76287690001]}},{"type":"Feature","properties":{"name_en":"Pho kham","did":1204,"pid":12,"uuid":"1.2041e+06"},"geometry":{"type":"Point","coordinates":[104.66748750015489,17.55556007960951]}},{"type":"Feature","properties":{"name_en":"Na khor","did":1204,"pid":12,"uuid":"1.204101e+06"},"geometry":{"type":"Point","coordinates":[104.64794878015802,17.565967469673524]}},{"type":"Feature","properties":{"name_en":"Hard hae","did":1204,"pid":12,"uuid":"1.204102e+06"},"geometry":{"type":"Point","coordinates":[104.63476874003156,17.575146160389032]}},{"type":"Feature","properties":{"name_en":"Hine boune tai","did":1204,"pid":12,"uuid":"1.204103e+06"},"geometry":{"type":"Point","coordinates":[104.6200730800053,17.589393460143732]}},{"type":"Feature","properties":{"name_en":"Poung","did":1204,"pid":12,"uuid":"1.204106e+06"},"geometry":{"type":"Point","coordinates":[104.66167439956482,17.595270100408396]}},{"type":"Feature","properties":{"name_en":"Done dou","did":1204,"pid":12,"uuid":"1.204107e+06"},"geometry":{"type":"Point","coordinates":[104.64254304024904,17.62467474002554]}},{"type":"Feature","properties":{"name_en":"Torn noi","did":1204,"pid":12,"uuid":"1.204108e+06"},"geometry":{"type":"Point","coordinates":[104.64914194011546,17.619121980435303]}},{"type":"Feature","properties":{"name_en":"Nong pheu","did":1204,"pid":12,"uuid":"1.204109e+06"},"geometry":{"type":"Point","coordinates":[104.6583399902478,17.62166998960754]}},{"type":"Feature","properties":{"name_en":"Phon kham","did":1204,"pid":12,"uuid":"1.20411e+06"},"geometry":{"type":"Point","coordinates":[104.68831653010042,17.58570501033928]}},{"type":"Feature","properties":{"name_en":"Nong boua noi","did":1204,"pid":12,"uuid":"1.204111e+06"},"geometry":{"type":"Point","coordinates":[104.66161186994097,17.639084820292535]}},{"type":"Feature","properties":{"name_en":"Mainampakan","did":1204,"pid":12,"uuid":"1.204112e+06"},"geometry":{"type":"Point","coordinates":[104.63558454987859,17.659152189660894]}},{"type":"Feature","properties":{"name_en":"Song hong","did":1204,"pid":12,"uuid":"1.204113e+06"},"geometry":{"type":"Point","coordinates":[104.55735122027926,17.73094143028283]}},{"type":"Feature","properties":{"name_en":"Khamkeo","did":1204,"pid":12,"uuid":"1.204115e+06"},"geometry":{"type":"Point","coordinates":[104.58133242988126,17.721498460136953]}},{"type":"Feature","properties":{"name_en":"Sixomxeun","did":1204,"pid":12,"uuid":"1.204116e+06"},"geometry":{"type":"Point","coordinates":[104.58809159992592,17.71293902972539]}},{"type":"Feature","properties":{"name_en":"Kaeng phak kham","did":1204,"pid":12,"uuid":"1.204117e+06"},"geometry":{"type":"Point","coordinates":[104.59417785975094,17.698223090414828]}},{"type":"Feature","properties":{"name_en":"Nong hoi","did":1204,"pid":12,"uuid":"1.204118e+06"},"geometry":{"type":"Point","coordinates":[104.61001614011504,17.69019330961963]}},{"type":"Feature","properties":{"name_en":"Vang houa par","did":1204,"pid":12,"uuid":"1.204119e+06"},"geometry":{"type":"Point","coordinates":[104.61292458004976,17.662683479908324]}},{"type":"Feature","properties":{"name_en":"Park pa kan","did":1204,"pid":12,"uuid":"1.20412e+06"},"geometry":{"type":"Point","coordinates":[104.61881773036974,17.645969049789255]}},{"type":"Feature","properties":{"name_en":"Phon mouang","did":1204,"pid":12,"uuid":"1.204121e+06"},"geometry":{"type":"Point","coordinates":[104.61023038021278,17.61426475042206]}},{"type":"Feature","properties":{"name_en":"Hine boune neua","did":1204,"pid":12,"uuid":"1.204122e+06"},"geometry":{"type":"Point","coordinates":[104.60340507983508,17.591755059703427]}},{"type":"Feature","properties":{"name_en":"Phar vang","did":1204,"pid":12,"uuid":"1.204123e+06"},"geometry":{"type":"Point","coordinates":[104.55734643994826,17.73095308028905]}},{"type":"Feature","properties":{"name_en":"Phon sa vang","did":1204,"pid":12,"uuid":"1.204124e+06"},"geometry":{"type":"Point","coordinates":[104.54677493036266,17.73353629979869]}},{"type":"Feature","properties":{"name_en":"Houai sa koub","did":1204,"pid":12,"uuid":"1.204125e+06"},"geometry":{"type":"Point","coordinates":[104.52254251973629,17.749607510256556]}},{"type":"Feature","properties":{"name_en":"Nong louang","did":1204,"pid":12,"uuid":"1.204126e+06"},"geometry":{"type":"Point","coordinates":[104.51103249020798,17.761724719777188]}},{"type":"Feature","properties":{"name_en":"Hard nang korm","did":1204,"pid":12,"uuid":"1.204127e+06"},"geometry":{"type":"Point","coordinates":[104.57458609019952,17.60560582040346]}},{"type":"Feature","properties":{"name_en":"Houay kha min gnai","did":1204,"pid":12,"uuid":"1.204129e+06"},"geometry":{"type":"Point","coordinates":[104.53241833037143,17.625183439792725]}},{"type":"Feature","properties":{"name_en":"Dong kang","did":1204,"pid":12,"uuid":"1.20413e+06"},"geometry":{"type":"Point","coordinates":[104.51034918961103,17.638888350172646]}},{"type":"Feature","properties":{"name_en":"Naborn","did":1204,"pid":12,"uuid":"1.204131e+06"},"geometry":{"type":"Point","coordinates":[104.48660435019019,17.652899290114195]}},{"type":"Feature","properties":{"name_en":"Hard gnai","did":1204,"pid":12,"uuid":"1.204132e+06"},"geometry":{"type":"Point","coordinates":[104.47268997031378,17.662149980158524]}},{"type":"Feature","properties":{"name_en":"Houa hard","did":1204,"pid":12,"uuid":"1.204133e+06"},"geometry":{"type":"Point","coordinates":[104.46330065008496,17.67023566006161]}},{"type":"Feature","properties":{"name_en":"Maisivilai","did":1204,"pid":12,"uuid":"1.204134e+06"},"geometry":{"type":"Point","coordinates":[104.44516597997523,17.697180800216362]}},{"type":"Feature","properties":{"name_en":"Houaibone","did":1204,"pid":12,"uuid":"1.204135e+06"},"geometry":{"type":"Point","coordinates":[104.49265985983445,17.70266030012467]}},{"type":"Feature","properties":{"name_en":"Nakadaeng","did":1204,"pid":12,"uuid":"1.204136e+06"},"geometry":{"type":"Point","coordinates":[104.46388227045247,17.70715659994207]}},{"type":"Feature","properties":{"name_en":"Thar savang","did":1204,"pid":12,"uuid":"1.204139e+06"},"geometry":{"type":"Point","coordinates":[104.42229697016391,17.724721720161817]}},{"type":"Feature","properties":{"name_en":"Houai kiaw","did":1204,"pid":12,"uuid":"1.20414e+06"},"geometry":{"type":"Point","coordinates":[104.41030815985488,17.742013499914258]}},{"type":"Feature","properties":{"name_en":"Done lab","did":1204,"pid":12,"uuid":"1.204141e+06"},"geometry":{"type":"Point","coordinates":[104.40082487965189,17.765113269675833]}},{"type":"Feature","properties":{"name_en":"Houai tiew","did":1204,"pid":12,"uuid":"1.204142e+06"},"geometry":{"type":"Point","coordinates":[104.41720361981163,17.76447775972121]}},{"type":"Feature","properties":{"name_en":"Tha som hong","did":1204,"pid":12,"uuid":"1.204143e+06"},"geometry":{"type":"Point","coordinates":[104.41326354028286,17.79459619993334]}},{"type":"Feature","properties":{"name_en":"Poungtai","did":1204,"pid":12,"uuid":"1.204144e+06"},"geometry":{"type":"Point","coordinates":[104.37730174004223,17.79808239970372]}},{"type":"Feature","properties":{"name_en":"Naneua","did":1204,"pid":12,"uuid":"1.204146e+06"},"geometry":{"type":"Point","coordinates":[104.36149447010622,17.824033690171976]}},{"type":"Feature","properties":{"name_en":"Houai ka xa","did":1204,"pid":12,"uuid":"1.204147e+06"},"geometry":{"type":"Point","coordinates":[104.38643431953851,17.842464330233337]}},{"type":"Feature","properties":{"name_en":"Phon khor","did":1204,"pid":12,"uuid":"1.204148e+06"},"geometry":{"type":"Point","coordinates":[104.35386852984216,17.831932629960754]}},{"type":"Feature","properties":{"name_en":"Hard xai kham","did":1204,"pid":12,"uuid":"1.204152e+06"},"geometry":{"type":"Point","coordinates":[104.28881397984092,17.860778369644066]}},{"type":"Feature","properties":{"name_en":"Hine lard","did":1204,"pid":12,"uuid":"1.204153e+06"},"geometry":{"type":"Point","coordinates":[104.27682500957042,17.87313530023657]}},{"type":"Feature","properties":{"name_en":"Maeng","did":1204,"pid":12,"uuid":"1.204154e+06"},"geometry":{"type":"Point","coordinates":[104.28184551993904,17.886640809985714]}},{"type":"Feature","properties":{"name_en":"Sivilai","did":1204,"pid":12,"uuid":"1.204155e+06"},"geometry":{"type":"Point","coordinates":[104.30395631010309,17.931811560322334]}},{"type":"Feature","properties":{"name_en":"Phon dii","did":1204,"pid":12,"uuid":"1.204156e+06"},"geometry":{"type":"Point","coordinates":[104.33197692953023,17.936699549584553]}},{"type":"Feature","properties":{"name_en":"Viengthong","did":1204,"pid":12,"uuid":"1.204157e+06"},"geometry":{"type":"Point","coordinates":[104.32155553963925,17.987182659996193]}},{"type":"Feature","properties":{"name_en":"Phon xai","did":1204,"pid":12,"uuid":"1.204158e+06"},"geometry":{"type":"Point","coordinates":[104.34513776957232,17.939738739999278]}},{"type":"Feature","properties":{"name_en":"Kataeb","did":1204,"pid":12,"uuid":"1.204159e+06"},"geometry":{"type":"Point","coordinates":[104.3451194998167,17.991240090438605]}},{"type":"Feature","properties":{"name_en":"Lao khar","did":1204,"pid":12,"uuid":"1.20416e+06"},"geometry":{"type":"Point","coordinates":[104.374345689645,17.90465277025384]}},{"type":"Feature","properties":{"name_en":"Phonsa ard","did":1204,"pid":12,"uuid":"1.204161e+06"},"geometry":{"type":"Point","coordinates":[104.4034811904335,17.883401540138344]}},{"type":"Feature","properties":{"name_en":"Phon soung","did":1204,"pid":12,"uuid":"1.204162e+06"},"geometry":{"type":"Point","coordinates":[104.4324767902,17.852057160086584]}},{"type":"Feature","properties":{"name_en":"Darn hi","did":1204,"pid":12,"uuid":"1.204163e+06"},"geometry":{"type":"Point","coordinates":[104.4648907800673,17.814806059670495]}},{"type":"Feature","properties":{"name_en":"Houai heua","did":1204,"pid":12,"uuid":"1.204164e+06"},"geometry":{"type":"Point","coordinates":[104.4494116698777,17.827019749867112]}},{"type":"Feature","properties":{"name_en":"Naheuang","did":1204,"pid":12,"uuid":"1.204165e+06"},"geometry":{"type":"Point","coordinates":[104.55315004012408,17.753676589934408]}},{"type":"Feature","properties":{"name_en":"Xaisomboune","did":1204,"pid":12,"uuid":"1.204166e+06"},"geometry":{"type":"Point","coordinates":[104.6686522495416,17.625732279860078]}},{"type":"Feature","properties":{"name_en":"Houykhamine","did":1204,"pid":12,"uuid":"1.204169e+06"},"geometry":{"type":"Point","coordinates":[104.4778699998478,17.865160000014278]}},{"type":"Feature","properties":{"name_en":"Phong","did":1204,"pid":12,"uuid":"1.20417e+06"},"geometry":{"type":"Point","coordinates":[104.32605260014924,17.85033041036656]}},{"type":"Feature","properties":{"name_en":"Houykava","did":1204,"pid":12,"uuid":"1.204175e+06"},"geometry":{"type":"Point","coordinates":[104.43675994036438,17.709849959603883]}}]}