{"type":"FeatureCollection","features":[{"type":"Feature","properties":{"name_en":"Laonangam","did":1205,"pid":12,"uuid":"1.205005e+06"},"geometry":{"type":"Point","coordinates":[105.15523555972686,17.638693219880654]}},{"type":"Feature","properties":{"name_en":"Nameexai","did":1205,"pid":12,"uuid":"1.205012e+06"},"geometry":{"type":"Point","coordinates":[105.18661404988494,17.61680229004583]}},{"type":"Feature","properties":{"name_en":"Gnommaladneua","did":1205,"pid":12,"uuid":"1.205013e+06"},"geometry":{"type":"Point","coordinates":[105.17083905992853,17.61193986024757]}},{"type":"Feature","properties":{"name_en":"Gnommaladtai","did":1205,"pid":12,"uuid":"1.205016e+06"},"geometry":{"type":"Point","coordinates":[105.17257436013419,17.601562560450958]}},{"type":"Feature","properties":{"name_en":"Nongping","did":1205,"pid":12,"uuid":"1.205019e+06"},"geometry":{"type":"Point","coordinates":[105.1868375898617,17.597748710017083]}},{"type":"Feature","properties":{"name_en":"Phonsavanh","did":1205,"pid":12,"uuid":"1.205022e+06"},"geometry":{"type":"Point","coordinates":[105.20502322046437,17.62176462011519]}},{"type":"Feature","properties":{"name_en":"Natherd","did":1205,"pid":12,"uuid":"1.205024e+06"},"geometry":{"type":"Point","coordinates":[105.26151934957458,17.59614248985562]}},{"type":"Feature","properties":{"name_en":"Kaenglek","did":1205,"pid":12,"uuid":"1.205027e+06"},"geometry":{"type":"Point","coordinates":[105.19765427016806,17.59020180983004]}},{"type":"Feature","properties":{"name_en":"Houayyen","did":1205,"pid":12,"uuid":"1.20503e+06"},"geometry":{"type":"Point","coordinates":[105.23198001027859,17.562554270156333]}},{"type":"Feature","properties":{"name_en":"Bungbao","did":1205,"pid":12,"uuid":"1.205031e+06"},"geometry":{"type":"Point","coordinates":[105.22442666020427,17.573392580128036]}},{"type":"Feature","properties":{"name_en":"Phonsed","did":1205,"pid":12,"uuid":"1.205033e+06"},"geometry":{"type":"Point","coordinates":[105.26111257013049,17.51212220969717]}},{"type":"Feature","properties":{"name_en":"Nakatang","did":1205,"pid":12,"uuid":"1.205035e+06"},"geometry":{"type":"Point","coordinates":[105.24302349960936,17.534054210448087]}},{"type":"Feature","properties":{"name_en":"Donepeuai","did":1205,"pid":12,"uuid":"1.205036e+06"},"geometry":{"type":"Point","coordinates":[105.22114103987253,17.565188039630804]}},{"type":"Feature","properties":{"name_en":"Phathung","did":1205,"pid":12,"uuid":"1.205037e+06"},"geometry":{"type":"Point","coordinates":[105.15657917955532,17.537896390246257]}},{"type":"Feature","properties":{"name_en":"Khoksavang","did":1205,"pid":12,"uuid":"1.205038e+06"},"geometry":{"type":"Point","coordinates":[105.13025212011704,17.47402737971868]}},{"type":"Feature","properties":{"name_en":"Kouanphanh","did":1205,"pid":12,"uuid":"1.205039e+06"},"geometry":{"type":"Point","coordinates":[105.12246416019073,17.533563949942884]}},{"type":"Feature","properties":{"name_en":"Pheudsikhai","did":1205,"pid":12,"uuid":"1.20504e+06"},"geometry":{"type":"Point","coordinates":[105.11436103957901,17.51788844958586]}},{"type":"Feature","properties":{"name_en":"Phonsang","did":1205,"pid":12,"uuid":"1.205041e+06"},"geometry":{"type":"Point","coordinates":[105.09483094964318,17.518963350255497]}},{"type":"Feature","properties":{"name_en":"Houaytad","did":1205,"pid":12,"uuid":"1.205043e+06"},"geometry":{"type":"Point","coordinates":[105.07519239968519,17.52949269022972]}},{"type":"Feature","properties":{"name_en":"Pomkhoun","did":1205,"pid":12,"uuid":"1.205046e+06"},"geometry":{"type":"Point","coordinates":[104.96149524032568,17.637320770061702]}},{"type":"Feature","properties":{"name_en":"Phonsi","did":1205,"pid":12,"uuid":"1.205048e+06"},"geometry":{"type":"Point","coordinates":[104.95903348039617,17.648885360035813]}},{"type":"Feature","properties":{"name_en":"Phonnad","did":1205,"pid":12,"uuid":"1.205051e+06"},"geometry":{"type":"Point","coordinates":[104.96933383000707,17.65303424018875]}},{"type":"Feature","properties":{"name_en":"Nadenh","did":1205,"pid":12,"uuid":"1.205054e+06"},"geometry":{"type":"Point","coordinates":[105.40152999035695,17.491239950266632]}},{"type":"Feature","properties":{"name_en":"Nateuanchai","did":1205,"pid":12,"uuid":"1.205059e+06"},"geometry":{"type":"Point","coordinates":[105.43762992024195,17.51869999027275]}},{"type":"Feature","properties":{"name_en":"Phonkeo","did":1205,"pid":12,"uuid":"1.20506e+06"},"geometry":{"type":"Point","coordinates":[105.43985993008155,17.498809980076732]}},{"type":"Feature","properties":{"name_en":"Hadxone","did":1205,"pid":12,"uuid":"1.205062e+06"},"geometry":{"type":"Point","coordinates":[105.43444999016548,17.4931199297838]}},{"type":"Feature","properties":{"name_en":"Kaengmouang","did":1205,"pid":12,"uuid":"1.205065e+06"},"geometry":{"type":"Point","coordinates":[105.50460996047077,17.484909940012162]}},{"type":"Feature","properties":{"name_en":"Chakouan","did":1205,"pid":12,"uuid":"1.205067e+06"},"geometry":{"type":"Point","coordinates":[105.52654993022261,17.483449980048157]}},{"type":"Feature","properties":{"name_en":"Thachon","did":1205,"pid":12,"uuid":"1.205068e+06"},"geometry":{"type":"Point","coordinates":[105.55717992019532,17.486619929700158]}},{"type":"Feature","properties":{"name_en":"Thongkong","did":1205,"pid":12,"uuid":"1.205069e+06"},"geometry":{"type":"Point","coordinates":[105.4103916695542,17.586381340317057]}},{"type":"Feature","properties":{"name_en":"Nabor","did":1205,"pid":12,"uuid":"1.20507e+06"},"geometry":{"type":"Point","coordinates":[105.4451629095911,17.57077465980379]}},{"type":"Feature","properties":{"name_en":"Khamhae","did":1205,"pid":12,"uuid":"1.205074e+06"},"geometry":{"type":"Point","coordinates":[105.46459853026533,17.587082660195854]}},{"type":"Feature","properties":{"name_en":"Thangkanh","did":1205,"pid":12,"uuid":"1.205075e+06"},"geometry":{"type":"Point","coordinates":[105.49918585998952,17.584366580256734]}},{"type":"Feature","properties":{"name_en":"Xiengdao","did":1205,"pid":12,"uuid":"1.20508e+06"},"geometry":{"type":"Point","coordinates":[105.53658927041151,17.58530318040465]}},{"type":"Feature","properties":{"name_en":"Sang ---- Pungbone","did":1205,"pid":12,"uuid":"1.205081e+06"},"geometry":{"type":"Point","coordinates":[105.56062428958977,17.586431629656897]}},{"type":"Feature","properties":{"name_en":"Talak","did":1205,"pid":12,"uuid":"1.205084e+06"},"geometry":{"type":"Point","coordinates":[105.60363644960427,17.58324509008451]}},{"type":"Feature","properties":{"name_en":"Thathod","did":1205,"pid":12,"uuid":"1.205089e+06"},"geometry":{"type":"Point","coordinates":[105.14573316035562,17.62540102998598]}},{"type":"Feature","properties":{"name_en":"Nalardkhouy","did":1205,"pid":12,"uuid":"1.20509e+06"},"geometry":{"type":"Point","coordinates":[105.16110640967649,17.61054770994111]}},{"type":"Feature","properties":{"name_en":"Sangkeo","did":1205,"pid":12,"uuid":"1.205091e+06"},"geometry":{"type":"Point","coordinates":[105.1675930001263,17.640095929752828]}},{"type":"Feature","properties":{"name_en":"Thard","did":1205,"pid":12,"uuid":"1.205092e+06"},"geometry":{"type":"Point","coordinates":[105.17496504953665,17.62603268963556]}},{"type":"Feature","properties":{"name_en":"Meuang","did":1205,"pid":12,"uuid":"1.205093e+06"},"geometry":{"type":"Point","coordinates":[105.20824538967841,17.611409370131923]}},{"type":"Feature","properties":{"name_en":"Nasok","did":1205,"pid":12,"uuid":"1.205094e+06"},"geometry":{"type":"Point","coordinates":[105.25421493983666,17.550086859805567]}},{"type":"Feature","properties":{"name_en":"Luang","did":1205,"pid":12,"uuid":"1.205095e+06"},"geometry":{"type":"Point","coordinates":[104.98089389973364,17.599615190387812]}},{"type":"Feature","properties":{"name_en":"Hai","did":1205,"pid":12,"uuid":"1.205096e+06"},"geometry":{"type":"Point","coordinates":[105.4190999598237,17.500479990297915]}},{"type":"Feature","properties":{"name_en":"Tumphuang","did":1205,"pid":12,"uuid":"1.205097e+06"},"geometry":{"type":"Point","coordinates":[105.18676612370867,17.560932460037108]}},{"type":"Feature","properties":{"name_en":"Phonekham","did":1205,"pid":12,"uuid":"1.205098e+06"},"geometry":{"type":"Point","coordinates":[105.18676999996036,17.560930000324067]}}]}