{"type":"FeatureCollection","features":[{"type":"Feature","properties":{"name_en":"Napung","did":1206,"pid":12,"uuid":"1.206004e+06"},"geometry":{"type":"Point","coordinates":[105.77625210046858,17.304587710096023]}},{"type":"Feature","properties":{"name_en":"Naphanang","did":1206,"pid":12,"uuid":"1.206006e+06"},"geometry":{"type":"Point","coordinates":[105.76067332988089,17.299995520426023]}},{"type":"Feature","properties":{"name_en":"Thahae","did":1206,"pid":12,"uuid":"1.206007e+06"},"geometry":{"type":"Point","coordinates":[105.75367762975198,17.299080299570306]}},{"type":"Feature","properties":{"name_en":"Nasomboun","did":1206,"pid":12,"uuid":"1.20601e+06"},"geometry":{"type":"Point","coordinates":[105.74039399031724,17.30425076027916]}},{"type":"Feature","properties":{"name_en":"Pakouaytai","did":1206,"pid":12,"uuid":"1.206012e+06"},"geometry":{"type":"Point","coordinates":[105.72915645026669,17.312420510437306]}},{"type":"Feature","properties":{"name_en":"Thakachanh","did":1206,"pid":12,"uuid":"1.206013e+06"},"geometry":{"type":"Point","coordinates":[105.71937208989284,17.327212139806424]}},{"type":"Feature","properties":{"name_en":"Napeng","did":1206,"pid":12,"uuid":"1.206014e+06"},"geometry":{"type":"Point","coordinates":[105.6747418101594,17.32450060027814]}},{"type":"Feature","properties":{"name_en":"Sobpeng","did":1206,"pid":12,"uuid":"1.206015e+06"},"geometry":{"type":"Point","coordinates":[105.715969879799,17.35399030970057]}},{"type":"Feature","properties":{"name_en":"Napeng","did":1206,"pid":12,"uuid":"1.206016e+06"},"geometry":{"type":"Point","coordinates":[105.72244691022034,17.382964790383753]}},{"type":"Feature","properties":{"name_en":"Pakphanang","did":1206,"pid":12,"uuid":"1.206017e+06"},"geometry":{"type":"Point","coordinates":[105.73134329035686,17.397871250243195]}},{"type":"Feature","properties":{"name_en":"Phonsangphai","did":1206,"pid":12,"uuid":"1.206019e+06"},"geometry":{"type":"Point","coordinates":[105.66139362962721,17.428436450247464]}},{"type":"Feature","properties":{"name_en":"Gnarvaed","did":1206,"pid":12,"uuid":"1.20602e+06"},"geometry":{"type":"Point","coordinates":[105.83595673972522,17.33388086996631]}},{"type":"Feature","properties":{"name_en":"Talong","did":1206,"pid":12,"uuid":"1.206022e+06"},"geometry":{"type":"Point","coordinates":[105.66150854042318,17.362910329776682]}},{"type":"Feature","properties":{"name_en":"Sa ang","did":1206,"pid":12,"uuid":"1.206023e+06"},"geometry":{"type":"Point","coordinates":[105.72404901969257,17.433456619823904]}},{"type":"Feature","properties":{"name_en":"Khagnou","did":1206,"pid":12,"uuid":"1.206024e+06"},"geometry":{"type":"Point","coordinates":[105.71678652007587,17.43682605995616]}},{"type":"Feature","properties":{"name_en":"Kang","did":1206,"pid":12,"uuid":"1.206026e+06"},"geometry":{"type":"Point","coordinates":[105.6703030897116,17.418699939801545]}},{"type":"Feature","properties":{"name_en":"Kaenggnarlouan","did":1206,"pid":12,"uuid":"1.206027e+06"},"geometry":{"type":"Point","coordinates":[105.71754306993863,17.41275306994007]}},{"type":"Feature","properties":{"name_en":"Soeui","did":1206,"pid":12,"uuid":"1.206028e+06"},"geometry":{"type":"Point","coordinates":[105.69469676965446,17.4102604598759]}},{"type":"Feature","properties":{"name_en":"Saenphanh","did":1206,"pid":12,"uuid":"1.206031e+06"},"geometry":{"type":"Point","coordinates":[105.6973045501147,17.488901990121118]}},{"type":"Feature","properties":{"name_en":"Kaengvak","did":1206,"pid":12,"uuid":"1.206032e+06"},"geometry":{"type":"Point","coordinates":[105.68544206046732,17.461490400226765]}},{"type":"Feature","properties":{"name_en":"Katae","did":1206,"pid":12,"uuid":"1.206033e+06"},"geometry":{"type":"Point","coordinates":[105.65782310000809,17.471255229601418]}},{"type":"Feature","properties":{"name_en":"Natangchai","did":1206,"pid":12,"uuid":"1.206035e+06"},"geometry":{"type":"Point","coordinates":[105.76665885002903,17.304152440287886]}},{"type":"Feature","properties":{"name_en":"Kachamnoy","did":1206,"pid":12,"uuid":"1.206038e+06"},"geometry":{"type":"Point","coordinates":[105.61475102036154,17.488310060111036]}},{"type":"Feature","properties":{"name_en":"Xok","did":1206,"pid":12,"uuid":"1.206039e+06"},"geometry":{"type":"Point","coordinates":[105.60401171029544,17.4787221700982]}},{"type":"Feature","properties":{"name_en":"Kachamgnai","did":1206,"pid":12,"uuid":"1.20604e+06"},"geometry":{"type":"Point","coordinates":[105.595257480003,17.486486659610296]}},{"type":"Feature","properties":{"name_en":"Gnarvay","did":1206,"pid":12,"uuid":"1.206041e+06"},"geometry":{"type":"Point","coordinates":[105.75294445970785,17.408836710163865]}},{"type":"Feature","properties":{"name_en":"Nakhagnom","did":1206,"pid":12,"uuid":"1.206043e+06"},"geometry":{"type":"Point","coordinates":[105.80469676041406,17.374976920400428]}},{"type":"Feature","properties":{"name_en":"Thongkham","did":1206,"pid":12,"uuid":"1.206044e+06"},"geometry":{"type":"Point","coordinates":[105.68411227042098,17.555722519708414]}},{"type":"Feature","properties":{"name_en":"Langkhang","did":1206,"pid":12,"uuid":"1.206049e+06"},"geometry":{"type":"Point","coordinates":[105.7218864900805,17.57095109958244]}},{"type":"Feature","properties":{"name_en":"Nongboua","did":1206,"pid":12,"uuid":"1.206052e+06"},"geometry":{"type":"Point","coordinates":[105.75170083962063,17.55923143986454]}},{"type":"Feature","properties":{"name_en":"Phanom","did":1206,"pid":12,"uuid":"1.206053e+06"},"geometry":{"type":"Point","coordinates":[105.74147717955087,17.536847729587095]}},{"type":"Feature","properties":{"name_en":"Vangkhom","did":1206,"pid":12,"uuid":"1.206054e+06"},"geometry":{"type":"Point","coordinates":[105.72340772028178,17.506539780024003]}},{"type":"Feature","properties":{"name_en":"Nongping","did":1206,"pid":12,"uuid":"1.206055e+06"},"geometry":{"type":"Point","coordinates":[105.82112880991377,17.369964210281942]}},{"type":"Feature","properties":{"name_en":"Nongseng","did":1206,"pid":12,"uuid":"1.206056e+06"},"geometry":{"type":"Point","coordinates":[105.79766954023597,17.529998290112456]}},{"type":"Feature","properties":{"name_en":"Nongnai","did":1206,"pid":12,"uuid":"1.206057e+06"},"geometry":{"type":"Point","coordinates":[105.80955441034335,17.528423750386608]}},{"type":"Feature","properties":{"name_en":"Du","did":1206,"pid":12,"uuid":"1.206058e+06"},"geometry":{"type":"Point","coordinates":[105.82180037011842,17.52816366030996]}},{"type":"Feature","properties":{"name_en":"Vangmaner","did":1206,"pid":12,"uuid":"1.206059e+06"},"geometry":{"type":"Point","coordinates":[105.82605644980018,17.517756270286775]}},{"type":"Feature","properties":{"name_en":"Thongxam","did":1206,"pid":12,"uuid":"1.206062e+06"},"geometry":{"type":"Point","coordinates":[105.83864733028821,17.551829880217436]}},{"type":"Feature","properties":{"name_en":"Thaphachom","did":1206,"pid":12,"uuid":"1.206064e+06"},"geometry":{"type":"Point","coordinates":[105.82096385962214,17.23567312991951]}},{"type":"Feature","properties":{"name_en":"Khok","did":1206,"pid":12,"uuid":"1.206065e+06"},"geometry":{"type":"Point","coordinates":[105.82569175038866,17.239381530193562]}},{"type":"Feature","properties":{"name_en":"Phakhiad","did":1206,"pid":12,"uuid":"1.206067e+06"},"geometry":{"type":"Point","coordinates":[105.89519584017359,17.218601120287943]}},{"type":"Feature","properties":{"name_en":"Houaytha","did":1206,"pid":12,"uuid":"1.20607e+06"},"geometry":{"type":"Point","coordinates":[105.95411953027617,17.18948799972695]}},{"type":"Feature","properties":{"name_en":"Khor","did":1206,"pid":12,"uuid":"1.206072e+06"},"geometry":{"type":"Point","coordinates":[105.95614727974565,17.149686700169934]}},{"type":"Feature","properties":{"name_en":"Lay","did":1206,"pid":12,"uuid":"1.206074e+06"},"geometry":{"type":"Point","coordinates":[105.91652350955368,17.131790330320342]}},{"type":"Feature","properties":{"name_en":"Pakouayneua","did":1206,"pid":12,"uuid":"1.206075e+06"},"geometry":{"type":"Point","coordinates":[105.88983192014638,17.10239658976745]}},{"type":"Feature","properties":{"name_en":"Nasalone","did":1206,"pid":12,"uuid":"1.206076e+06"},"geometry":{"type":"Point","coordinates":[105.90349568027862,17.073744310327946]}},{"type":"Feature","properties":{"name_en":"Mouk","did":1206,"pid":12,"uuid":"1.206077e+06"},"geometry":{"type":"Point","coordinates":[105.95514487961054,17.05324285028895]}},{"type":"Feature","properties":{"name_en":"Kaengtapa","did":1206,"pid":12,"uuid":"1.206079e+06"},"geometry":{"type":"Point","coordinates":[105.86753881964798,17.07998414044797]}},{"type":"Feature","properties":{"name_en":"Nongniao","did":1206,"pid":12,"uuid":"1.20608e+06"},"geometry":{"type":"Point","coordinates":[105.87230955020826,17.111469330234172]}},{"type":"Feature","properties":{"name_en":"Nongkapad","did":1206,"pid":12,"uuid":"1.206083e+06"},"geometry":{"type":"Point","coordinates":[105.83803896968332,17.095026889919325]}},{"type":"Feature","properties":{"name_en":"Vangngeuak","did":1206,"pid":12,"uuid":"1.206084e+06"},"geometry":{"type":"Point","coordinates":[105.8437357297835,17.135163459836615]}},{"type":"Feature","properties":{"name_en":"Nam orkhu","did":1206,"pid":12,"uuid":"1.206085e+06"},"geometry":{"type":"Point","coordinates":[105.82159049004397,17.155664589575714]}},{"type":"Feature","properties":{"name_en":"Katae","did":1206,"pid":12,"uuid":"1.206088e+06"},"geometry":{"type":"Point","coordinates":[106.04191945967911,17.12235842966977]}},{"type":"Feature","properties":{"name_en":"Hinlab","did":1206,"pid":12,"uuid":"1.20609e+06"},"geometry":{"type":"Point","coordinates":[106.05249013016514,17.154171099646565]}},{"type":"Feature","properties":{"name_en":"Lachang","did":1206,"pid":12,"uuid":"1.206092e+06"},"geometry":{"type":"Point","coordinates":[106.0455334004147,17.109870990446627]}},{"type":"Feature","properties":{"name_en":"Chalaed","did":1206,"pid":12,"uuid":"1.206093e+06"},"geometry":{"type":"Point","coordinates":[106.08753670988787,17.078361989637642]}},{"type":"Feature","properties":{"name_en":"Nongkung","did":1206,"pid":12,"uuid":"1.206098e+06"},"geometry":{"type":"Point","coordinates":[106.03160519017142,17.058821259845207]}},{"type":"Feature","properties":{"name_en":"Lad","did":1206,"pid":12,"uuid":"1.206099e+06"},"geometry":{"type":"Point","coordinates":[106.00376553989221,17.064870560116283]}},{"type":"Feature","properties":{"name_en":"Thablao","did":1206,"pid":12,"uuid":"1.206104e+06"},"geometry":{"type":"Point","coordinates":[105.94843944977293,17.28478352975641]}},{"type":"Feature","properties":{"name_en":"Ka e","did":1206,"pid":12,"uuid":"1.206106e+06"},"geometry":{"type":"Point","coordinates":[106.06236326017589,17.202164790292485]}},{"type":"Feature","properties":{"name_en":"Namchala","did":1206,"pid":12,"uuid":"1.206108e+06"},"geometry":{"type":"Point","coordinates":[106.08288165040064,17.177662979743285]}},{"type":"Feature","properties":{"name_en":"Laboeui","did":1206,"pid":12,"uuid":"1.206109e+06"},"geometry":{"type":"Point","coordinates":[106.15943884990229,17.208610140338024]}},{"type":"Feature","properties":{"name_en":"Nongnar","did":1206,"pid":12,"uuid":"1.206111e+06"},"geometry":{"type":"Point","coordinates":[106.16419760002488,17.242707549707266]}},{"type":"Feature","properties":{"name_en":"Paxiew","did":1206,"pid":12,"uuid":"1.206114e+06"},"geometry":{"type":"Point","coordinates":[106.11731643978507,17.155354960353577]}},{"type":"Feature","properties":{"name_en":"Khaymaeb","did":1206,"pid":12,"uuid":"1.206115e+06"},"geometry":{"type":"Point","coordinates":[106.16344556956753,17.156054519908338]}},{"type":"Feature","properties":{"name_en":"Ngeuk","did":1206,"pid":12,"uuid":"1.206119e+06"},"geometry":{"type":"Point","coordinates":[106.19997934977631,17.148046030441346]}},{"type":"Feature","properties":{"name_en":"Chanon","did":1206,"pid":12,"uuid":"1.20612e+06"},"geometry":{"type":"Point","coordinates":[106.26648674019567,17.145984580141796]}},{"type":"Feature","properties":{"name_en":"Naphienglanh","did":1206,"pid":12,"uuid":"1.206121e+06"},"geometry":{"type":"Point","coordinates":[105.99001880037405,17.187568550045118]}},{"type":"Feature","properties":{"name_en":"Houayhaed","did":1206,"pid":12,"uuid":"1.206123e+06"},"geometry":{"type":"Point","coordinates":[106.20624976988368,17.09704625025638]}},{"type":"Feature","properties":{"name_en":"Pakern","did":1206,"pid":12,"uuid":"1.206124e+06"},"geometry":{"type":"Point","coordinates":[106.22350232958875,17.113227100200053]}},{"type":"Feature","properties":{"name_en":"Thangbang","did":1206,"pid":12,"uuid":"1.206125e+06"},"geometry":{"type":"Point","coordinates":[106.07807219987437,17.194324189820843]}},{"type":"Feature","properties":{"name_en":"Vat","did":1206,"pid":12,"uuid":"1.206126e+06"},"geometry":{"type":"Point","coordinates":[106.19319500021284,17.103811000178585]}}]}