{"type":"FeatureCollection","features":[{"type":"Feature","properties":{"name_en":"Ou dom souk","did":1207,"pid":12,"uuid":"1.207001e+06"},"geometry":{"type":"Point","coordinates":[105.14835090964093,17.713753330035896]}},{"type":"Feature","properties":{"name_en":"Houymalai","did":1207,"pid":12,"uuid":"1.207011e+06"},"geometry":{"type":"Point","coordinates":[105.17492305002698,17.712857889620977]}},{"type":"Feature","properties":{"name_en":"Bouama","did":1207,"pid":12,"uuid":"1.207018e+06"},"geometry":{"type":"Point","coordinates":[105.19512570007404,17.711775029607917]}},{"type":"Feature","properties":{"name_en":"Done","did":1207,"pid":12,"uuid":"1.207022e+06"},"geometry":{"type":"Point","coordinates":[105.25463336002746,17.669497469959733]}},{"type":"Feature","properties":{"name_en":"Khone kaen","did":1207,"pid":12,"uuid":"1.207023e+06"},"geometry":{"type":"Point","coordinates":[105.31484996027427,17.63593900971808]}},{"type":"Feature","properties":{"name_en":"Thong","did":1207,"pid":12,"uuid":"1.207028e+06"},"geometry":{"type":"Point","coordinates":[105.00332722031291,17.71082887982862]}},{"type":"Feature","properties":{"name_en":"Meuanglouang","did":1207,"pid":12,"uuid":"1.20703e+06"},"geometry":{"type":"Point","coordinates":[104.99333038046062,17.706866840302368]}},{"type":"Feature","properties":{"name_en":"Gnang","did":1207,"pid":12,"uuid":"1.207033e+06"},"geometry":{"type":"Point","coordinates":[104.99338855016333,17.70686901974132]}},{"type":"Feature","properties":{"name_en":"Kouan","did":1207,"pid":12,"uuid":"1.207035e+06"},"geometry":{"type":"Point","coordinates":[104.92217220956776,17.775977139694554]}},{"type":"Feature","properties":{"name_en":"Nabone","did":1207,"pid":12,"uuid":"1.207039e+06"},"geometry":{"type":"Point","coordinates":[104.86143769997207,17.897775419707695]}},{"type":"Feature","properties":{"name_en":"Phadang","did":1207,"pid":12,"uuid":"1.20704e+06"},"geometry":{"type":"Point","coordinates":[104.83989695971232,17.91951514020832]}},{"type":"Feature","properties":{"name_en":"Nahang","did":1207,"pid":12,"uuid":"1.207043e+06"},"geometry":{"type":"Point","coordinates":[104.82806901039498,17.95348004029536]}},{"type":"Feature","properties":{"name_en":"Natan","did":1207,"pid":12,"uuid":"1.207044e+06"},"geometry":{"type":"Point","coordinates":[104.80798035039876,17.958054460029945]}},{"type":"Feature","properties":{"name_en":"Navang","did":1207,"pid":12,"uuid":"1.207051e+06"},"geometry":{"type":"Point","coordinates":[105.23697940032544,17.96071973996309]}},{"type":"Feature","properties":{"name_en":"Nahao","did":1207,"pid":12,"uuid":"1.207052e+06"},"geometry":{"type":"Point","coordinates":[105.18605203963608,17.999507329702496]}},{"type":"Feature","properties":{"name_en":"Fungdang","did":1207,"pid":12,"uuid":"1.207053e+06"},"geometry":{"type":"Point","coordinates":[105.2315627601944,17.944783810266056]}},{"type":"Feature","properties":{"name_en":"Mark feuang","did":1207,"pid":12,"uuid":"1.207058e+06"},"geometry":{"type":"Point","coordinates":[105.35879032995085,17.840814009859688]}},{"type":"Feature","properties":{"name_en":"Tha phai barn","did":1207,"pid":12,"uuid":"1.207064e+06"},"geometry":{"type":"Point","coordinates":[105.3763732104091,17.88741554960314]}},{"type":"Feature","properties":{"name_en":"Thong noi","did":1207,"pid":12,"uuid":"1.207077e+06"},"geometry":{"type":"Point","coordinates":[105.47207510007114,17.87534779034917]}},{"type":"Feature","properties":{"name_en":"Teung","did":1207,"pid":12,"uuid":"1.207079e+06"},"geometry":{"type":"Point","coordinates":[105.50174499983198,17.901550000432636]}},{"type":"Feature","properties":{"name_en":"Maka","did":1207,"pid":12,"uuid":"1.207081e+06"},"geometry":{"type":"Point","coordinates":[105.52774452000219,17.935410409830645]}},{"type":"Feature","properties":{"name_en":"Tong","did":1207,"pid":12,"uuid":"1.207082e+06"},"geometry":{"type":"Point","coordinates":[105.42591092993536,17.830744919663708]}},{"type":"Feature","properties":{"name_en":"Nameui","did":1207,"pid":12,"uuid":"1.207085e+06"},"geometry":{"type":"Point","coordinates":[105.54965438976909,17.845237230203274]}},{"type":"Feature","properties":{"name_en":"Nakay","did":1207,"pid":12,"uuid":"1.207091e+06"},"geometry":{"type":"Point","coordinates":[105.10797804960902,17.750667150118733]}},{"type":"Feature","properties":{"name_en":"Donechalern","did":1207,"pid":12,"uuid":"1.207093e+06"},"geometry":{"type":"Point","coordinates":[105.04974931033018,17.838247639779365]}},{"type":"Feature","properties":{"name_en":"Nonghom","did":1207,"pid":12,"uuid":"1.207094e+06"},"geometry":{"type":"Point","coordinates":[105.0527132299308,17.79995021977888]}},{"type":"Feature","properties":{"name_en":"phonesaon","did":1207,"pid":12,"uuid":"1.207095e+06"},"geometry":{"type":"Point","coordinates":[105.22249797988731,17.685571189687753]}},{"type":"Feature","properties":{"name_en":"Vungthern","did":1207,"pid":12,"uuid":"1.207097e+06"},"geometry":{"type":"Point","coordinates":[105.4114343796508,17.960723840016794]}},{"type":"Feature","properties":{"name_en":"Poungsan","did":1207,"pid":12,"uuid":"1.207098e+06"},"geometry":{"type":"Point","coordinates":[105.457415990121,17.846604230258734]}},{"type":"Feature","properties":{"name_en":"Sopkham","did":1207,"pid":12,"uuid":"1.207099e+06"},"geometry":{"type":"Point","coordinates":[105.04838783009669,17.820600629607043]}},{"type":"Feature","properties":{"name_en":"Korbong","did":1207,"pid":12,"uuid":"1.207999e+06"},"geometry":{"type":"Point","coordinates":[105.35519200022965,17.908913000157558]}}]}