{"type":"FeatureCollection","features":[{"type":"Feature","properties":{"name_en":"Khouaxe","did":1208,"pid":12,"uuid":"1.208001e+06"},"geometry":{"type":"Point","coordinates":[104.98400702036828,17.083454410278314]}},{"type":"Feature","properties":{"name_en":"Nongbone","did":1208,"pid":12,"uuid":"1.208002e+06"},"geometry":{"type":"Point","coordinates":[104.9674888896756,17.10147089012319]}},{"type":"Feature","properties":{"name_en":"Teung","did":1208,"pid":12,"uuid":"1.208007e+06"},"geometry":{"type":"Point","coordinates":[104.98718434998474,17.15362477000458]}},{"type":"Feature","properties":{"name_en":"Dongmarkbar","did":1208,"pid":12,"uuid":"1.208008e+06"},"geometry":{"type":"Point","coordinates":[104.9750146600806,17.181738930172767]}},{"type":"Feature","properties":{"name_en":"Hadphek","did":1208,"pid":12,"uuid":"1.208009e+06"},"geometry":{"type":"Point","coordinates":[105.04900667011378,17.100781899982692]}},{"type":"Feature","properties":{"name_en":"Vernsananh","did":1208,"pid":12,"uuid":"1.20801e+06"},"geometry":{"type":"Point","coordinates":[105.05670326963171,17.174738109950884]}},{"type":"Feature","properties":{"name_en":"Xenoy","did":1208,"pid":12,"uuid":"1.208011e+06"},"geometry":{"type":"Point","coordinates":[105.04411918003764,17.082610189919126]}},{"type":"Feature","properties":{"name_en":"Thasida","did":1208,"pid":12,"uuid":"1.208012e+06"},"geometry":{"type":"Point","coordinates":[105.08506603972836,17.075290859842344]}},{"type":"Feature","properties":{"name_en":"Nathanh","did":1208,"pid":12,"uuid":"1.208013e+06"},"geometry":{"type":"Point","coordinates":[105.10706383966428,17.08148784960595]}},{"type":"Feature","properties":{"name_en":"Naxoy","did":1208,"pid":12,"uuid":"1.208014e+06"},"geometry":{"type":"Point","coordinates":[105.20016482003567,17.109711060145294]}},{"type":"Feature","properties":{"name_en":"Dangtha","did":1208,"pid":12,"uuid":"1.208015e+06"},"geometry":{"type":"Point","coordinates":[104.95212000029096,17.099696780040972]}},{"type":"Feature","properties":{"name_en":"Gnangkham","did":1208,"pid":12,"uuid":"1.208019e+06"},"geometry":{"type":"Point","coordinates":[104.9307441296344,17.079427489812133]}},{"type":"Feature","properties":{"name_en":"Hadkhamhieng","did":1208,"pid":12,"uuid":"1.20802e+06"},"geometry":{"type":"Point","coordinates":[104.90458588957152,17.06970734042091]}},{"type":"Feature","properties":{"name_en":"Gnanggnai","did":1208,"pid":12,"uuid":"1.208021e+06"},"geometry":{"type":"Point","coordinates":[104.95731720018618,17.195729589803708]}},{"type":"Feature","properties":{"name_en":"Som","did":1208,"pid":12,"uuid":"1.208022e+06"},"geometry":{"type":"Point","coordinates":[104.94336267004054,17.194518820152812]}},{"type":"Feature","properties":{"name_en":"Nakhomkao","did":1208,"pid":12,"uuid":"1.208023e+06"},"geometry":{"type":"Point","coordinates":[104.96918178000197,17.207802710140108]}},{"type":"Feature","properties":{"name_en":"Nakhomthong","did":1208,"pid":12,"uuid":"1.208024e+06"},"geometry":{"type":"Point","coordinates":[104.96921816004797,17.212646700163944]}},{"type":"Feature","properties":{"name_en":"Khokkaengkhaen","did":1208,"pid":12,"uuid":"1.208025e+06"},"geometry":{"type":"Point","coordinates":[105.00914995973919,17.196494940137956]}},{"type":"Feature","properties":{"name_en":"Kasy","did":1208,"pid":12,"uuid":"1.208026e+06"},"geometry":{"type":"Point","coordinates":[105.06679641964614,17.192330469853623]}},{"type":"Feature","properties":{"name_en":"Kaengkhaen","did":1208,"pid":12,"uuid":"1.208027e+06"},"geometry":{"type":"Point","coordinates":[105.04826679991407,17.187189769598987]}},{"type":"Feature","properties":{"name_en":"Nongphang","did":1208,"pid":12,"uuid":"1.208028e+06"},"geometry":{"type":"Point","coordinates":[104.94735689970194,17.240806040299947]}},{"type":"Feature","properties":{"name_en":"Phondeethong","did":1208,"pid":12,"uuid":"1.208029e+06"},"geometry":{"type":"Point","coordinates":[104.96278631045318,17.23777722990718]}},{"type":"Feature","properties":{"name_en":"Sang","did":1208,"pid":12,"uuid":"1.20803e+06"},"geometry":{"type":"Point","coordinates":[104.96787897968889,17.23223930987825]}},{"type":"Feature","properties":{"name_en":"Nabeung","did":1208,"pid":12,"uuid":"1.208031e+06"},"geometry":{"type":"Point","coordinates":[104.9810967400349,17.235109689588057]}},{"type":"Feature","properties":{"name_en":"Houaylangmeu","did":1208,"pid":12,"uuid":"1.208032e+06"},"geometry":{"type":"Point","coordinates":[104.98979582032165,17.24177464974959]}},{"type":"Feature","properties":{"name_en":"Noy","did":1208,"pid":12,"uuid":"1.208033e+06"},"geometry":{"type":"Point","coordinates":[104.97926612970973,17.24894779997205]}},{"type":"Feature","properties":{"name_en":"Koktong","did":1208,"pid":12,"uuid":"1.208034e+06"},"geometry":{"type":"Point","coordinates":[105.07013266996249,17.284541210256442]}},{"type":"Feature","properties":{"name_en":"Thamlay","did":1208,"pid":12,"uuid":"1.208035e+06"},"geometry":{"type":"Point","coordinates":[105.07904807985956,17.28174869990999]}},{"type":"Feature","properties":{"name_en":"Sorm","did":1208,"pid":12,"uuid":"1.208036e+06"},"geometry":{"type":"Point","coordinates":[105.0871980002083,17.285306999755147]}},{"type":"Feature","properties":{"name_en":"Kaengpae","did":1208,"pid":12,"uuid":"1.208037e+06"},"geometry":{"type":"Point","coordinates":[105.12872090966978,17.279042769681073]}},{"type":"Feature","properties":{"name_en":"Thakhor","did":1208,"pid":12,"uuid":"1.208038e+06"},"geometry":{"type":"Point","coordinates":[105.11311599024998,17.266945759803423]}},{"type":"Feature","properties":{"name_en":"Thahad","did":1208,"pid":12,"uuid":"1.208039e+06"},"geometry":{"type":"Point","coordinates":[105.11342327017796,17.25136412966901]}},{"type":"Feature","properties":{"name_en":"Spkbor","did":1208,"pid":12,"uuid":"1.20804e+06"},"geometry":{"type":"Point","coordinates":[105.15292399977693,17.23875699954946]}},{"type":"Feature","properties":{"name_en":"Kapha","did":1208,"pid":12,"uuid":"1.208041e+06"},"geometry":{"type":"Point","coordinates":[105.23498617970236,17.214226769867107]}},{"type":"Feature","properties":{"name_en":"Khokkhyminh","did":1208,"pid":12,"uuid":"1.208042e+06"},"geometry":{"type":"Point","coordinates":[105.22093349998659,17.187679190164264]}},{"type":"Feature","properties":{"name_en":"Khoksavang","did":1208,"pid":12,"uuid":"1.208043e+06"},"geometry":{"type":"Point","coordinates":[105.22197159974523,17.15736570043362]}},{"type":"Feature","properties":{"name_en":"Thab","did":1208,"pid":12,"uuid":"1.208044e+06"},"geometry":{"type":"Point","coordinates":[105.22147472032935,17.13782764981491]}},{"type":"Feature","properties":{"name_en":"Donesaat","did":1208,"pid":12,"uuid":"1.208045e+06"},"geometry":{"type":"Point","coordinates":[105.2233917499083,17.127583710289844]}},{"type":"Feature","properties":{"name_en":"Khamteuy","did":1208,"pid":12,"uuid":"1.208046e+06"},"geometry":{"type":"Point","coordinates":[105.22600145001643,17.11936893987205]}},{"type":"Feature","properties":{"name_en":"Pongdeng","did":1208,"pid":12,"uuid":"1.208047e+06"},"geometry":{"type":"Point","coordinates":[105.24633803995931,17.123241959915276]}},{"type":"Feature","properties":{"name_en":"Nonkatae","did":1208,"pid":12,"uuid":"1.208048e+06"},"geometry":{"type":"Point","coordinates":[105.29070765026083,17.13560970966723]}},{"type":"Feature","properties":{"name_en":"Vangdeuanhar","did":1208,"pid":12,"uuid":"1.208049e+06"},"geometry":{"type":"Point","coordinates":[105.31902716022103,17.166835660251394]}},{"type":"Feature","properties":{"name_en":"Vernkhamkhiaw","did":1208,"pid":12,"uuid":"1.20805e+06"},"geometry":{"type":"Point","coordinates":[105.30568928961064,17.06622759017065]}},{"type":"Feature","properties":{"name_en":"Beunghouana","did":1208,"pid":12,"uuid":"1.208051e+06"},"geometry":{"type":"Point","coordinates":[104.98607709957517,17.13681361016312]}},{"type":"Feature","properties":{"name_en":"Naphork","did":1208,"pid":12,"uuid":"1.208052e+06"},"geometry":{"type":"Point","coordinates":[104.93193670971412,17.10223950961154]}}]}