{"type":"FeatureCollection","features":[{"type":"Feature","properties":{"name_en":"Phakouaydong","did":1209,"pid":12,"uuid":"1.209003e+06"},"geometry":{"type":"Point","coordinates":[105.3787645701077,17.220046909554835]}},{"type":"Feature","properties":{"name_en":"Phakouaythong","did":1209,"pid":12,"uuid":"1.209004e+06"},"geometry":{"type":"Point","coordinates":[105.37549814005956,17.20576422960325]}},{"type":"Feature","properties":{"name_en":"Nakadone","did":1209,"pid":12,"uuid":"1.209007e+06"},"geometry":{"type":"Point","coordinates":[105.37921208034885,17.235929610019305]}},{"type":"Feature","properties":{"name_en":"Nalouang","did":1209,"pid":12,"uuid":"1.209008e+06"},"geometry":{"type":"Point","coordinates":[105.41827820028547,17.26160866020858]}},{"type":"Feature","properties":{"name_en":"Torhuea","did":1209,"pid":12,"uuid":"1.209011e+06"},"geometry":{"type":"Point","coordinates":[105.43098693036227,17.237598029821925]}},{"type":"Feature","properties":{"name_en":"Sivilay","did":1209,"pid":12,"uuid":"1.209013e+06"},"geometry":{"type":"Point","coordinates":[105.42713343016497,17.187273839639857]}},{"type":"Feature","properties":{"name_en":"Phahoy","did":1209,"pid":12,"uuid":"1.209014e+06"},"geometry":{"type":"Point","coordinates":[105.42318538999561,17.16851320964863]}},{"type":"Feature","properties":{"name_en":"Nongthath","did":1209,"pid":12,"uuid":"1.209016e+06"},"geometry":{"type":"Point","coordinates":[105.4418475300356,17.180813649596654]}},{"type":"Feature","properties":{"name_en":"Phonhsavan","did":1209,"pid":12,"uuid":"1.209021e+06"},"geometry":{"type":"Point","coordinates":[105.47870560966093,17.11584912988021]}},{"type":"Feature","properties":{"name_en":"Nakhamphan","did":1209,"pid":12,"uuid":"1.209024e+06"},"geometry":{"type":"Point","coordinates":[105.42766090023996,17.143941240308337]}},{"type":"Feature","properties":{"name_en":"Napakha","did":1209,"pid":12,"uuid":"1.209025e+06"},"geometry":{"type":"Point","coordinates":[105.41164492992897,17.099562000345387]}},{"type":"Feature","properties":{"name_en":"Kangchone","did":1209,"pid":12,"uuid":"1.209027e+06"},"geometry":{"type":"Point","coordinates":[105.4022779896151,17.080798269575677]}},{"type":"Feature","properties":{"name_en":"Kasae","did":1209,"pid":12,"uuid":"1.209034e+06"},"geometry":{"type":"Point","coordinates":[105.525026940262,17.275187429714173]}},{"type":"Feature","properties":{"name_en":"Nakong","did":1209,"pid":12,"uuid":"1.209035e+06"},"geometry":{"type":"Point","coordinates":[105.50033786985966,17.263973279994932]}},{"type":"Feature","properties":{"name_en":"Nanok","did":1209,"pid":12,"uuid":"1.209039e+06"},"geometry":{"type":"Point","coordinates":[105.45854084046744,17.23694926996464]}},{"type":"Feature","properties":{"name_en":"Dongnakham","did":1209,"pid":12,"uuid":"1.209042e+06"},"geometry":{"type":"Point","coordinates":[105.54787206040491,17.19423978963775]}},{"type":"Feature","properties":{"name_en":"Phasava","did":1209,"pid":12,"uuid":"1.209043e+06"},"geometry":{"type":"Point","coordinates":[105.54071610027428,17.174670639993124]}},{"type":"Feature","properties":{"name_en":"Phonhnadi","did":1209,"pid":12,"uuid":"1.209046e+06"},"geometry":{"type":"Point","coordinates":[105.56403598043786,17.15745362001735]}},{"type":"Feature","properties":{"name_en":"Phakhad","did":1209,"pid":12,"uuid":"1.209048e+06"},"geometry":{"type":"Point","coordinates":[105.58012771989132,17.102097439987702]}},{"type":"Feature","properties":{"name_en":"Nongphue","did":1209,"pid":12,"uuid":"1.209051e+06"},"geometry":{"type":"Point","coordinates":[105.5408632004093,17.10023247006282]}},{"type":"Feature","properties":{"name_en":"Koodnumsay","did":1209,"pid":12,"uuid":"1.209052e+06"},"geometry":{"type":"Point","coordinates":[105.57232476011987,17.071924350081755]}},{"type":"Feature","properties":{"name_en":"Naphao","did":1209,"pid":12,"uuid":"1.209053e+06"},"geometry":{"type":"Point","coordinates":[105.55579631995725,17.118738199571258]}},{"type":"Feature","properties":{"name_en":"Nakathing","did":1209,"pid":12,"uuid":"1.209057e+06"},"geometry":{"type":"Point","coordinates":[105.63750571015991,17.18487376025631]}},{"type":"Feature","properties":{"name_en":"Nasiengkouan","did":1209,"pid":12,"uuid":"1.209058e+06"},"geometry":{"type":"Point","coordinates":[105.69958384002146,17.14965628034504]}},{"type":"Feature","properties":{"name_en":"Thakokkhand","did":1209,"pid":12,"uuid":"1.209059e+06"},"geometry":{"type":"Point","coordinates":[105.6412625600511,17.12178092004395]}},{"type":"Feature","properties":{"name_en":"Namkaphor","did":1209,"pid":12,"uuid":"1.209061e+06"},"geometry":{"type":"Point","coordinates":[105.64325409987504,17.108838500315613]}},{"type":"Feature","properties":{"name_en":"Phonhkham","did":1209,"pid":12,"uuid":"1.209064e+06"},"geometry":{"type":"Point","coordinates":[105.67097891971918,17.10812821992552]}},{"type":"Feature","properties":{"name_en":"Thongtiem","did":1209,"pid":12,"uuid":"1.209065e+06"},"geometry":{"type":"Point","coordinates":[105.61275352961887,17.053372599937155]}},{"type":"Feature","properties":{"name_en":"Kangmeun","did":1209,"pid":12,"uuid":"1.209066e+06"},"geometry":{"type":"Point","coordinates":[105.63979413009999,17.084925100347473]}},{"type":"Feature","properties":{"name_en":"Phakouaynongbone","did":1209,"pid":12,"uuid":"1.20907e+06"},"geometry":{"type":"Point","coordinates":[105.62313899982635,17.11341199968019]}},{"type":"Feature","properties":{"name_en":"Phakasa","did":1209,"pid":12,"uuid":"1.209071e+06"},"geometry":{"type":"Point","coordinates":[105.61272905037563,17.084709520170446]}},{"type":"Feature","properties":{"name_en":"Koksawang","did":1209,"pid":12,"uuid":"1.209072e+06"},"geometry":{"type":"Point","coordinates":[105.37892408045334,17.08704270026338]}},{"type":"Feature","properties":{"name_en":"Tha hae","did":1209,"pid":12,"uuid":"1.209073e+06"},"geometry":{"type":"Point","coordinates":[105.59144463022334,17.053304199804657]}},{"type":"Feature","properties":{"name_en":"Phakhong","did":1209,"pid":12,"uuid":"1.209074e+06"},"geometry":{"type":"Point","coordinates":[105.35378129999226,17.20839808032797]}},{"type":"Feature","properties":{"name_en":"Nakham","did":1209,"pid":12,"uuid":"1.209075e+06"},"geometry":{"type":"Point","coordinates":[105.39455976007372,17.19552522994836]}},{"type":"Feature","properties":{"name_en":"Namarkmee","did":1209,"pid":12,"uuid":"1.209076e+06"},"geometry":{"type":"Point","coordinates":[105.49523991986821,17.19604029998449]}},{"type":"Feature","properties":{"name_en":"Nanoy","did":1209,"pid":12,"uuid":"1.209077e+06"},"geometry":{"type":"Point","coordinates":[105.46658067989719,17.283154429566007]}},{"type":"Feature","properties":{"name_en":"Zorkkang","did":1209,"pid":12,"uuid":"1.209078e+06"},"geometry":{"type":"Point","coordinates":[105.4710789998119,17.257581410395147]}},{"type":"Feature","properties":{"name_en":"Nakhamchuang","did":1209,"pid":12,"uuid":"1.209079e+06"},"geometry":{"type":"Point","coordinates":[105.4601336542483,17.155433863139077]}},{"type":"Feature","properties":{"name_en":"Namo","did":1209,"pid":12,"uuid":"1.20908e+06"},"geometry":{"type":"Point","coordinates":[105.65322730988275,17.114931640161643]}}]}