{"type":"FeatureCollection","features":[{"type":"Feature","properties":{"name_en":"Or","did":1210,"pid":12,"uuid":"1.210004e+06"},"geometry":{"type":"Point","coordinates":[104.74217269029626,17.958296110236954]}},{"type":"Feature","properties":{"name_en":"Koub","did":1210,"pid":12,"uuid":"1.210006e+06"},"geometry":{"type":"Point","coordinates":[104.71377304035732,17.98477805985143]}},{"type":"Feature","properties":{"name_en":"Muangneua","did":1210,"pid":12,"uuid":"1.210007e+06"},"geometry":{"type":"Point","coordinates":[104.70005998981851,18.002889929598762]}},{"type":"Feature","properties":{"name_en":"Phoneyaeng","did":1210,"pid":12,"uuid":"1.210008e+06"},"geometry":{"type":"Point","coordinates":[104.66676103971398,18.021194829614707]}},{"type":"Feature","properties":{"name_en":"Namnone","did":1210,"pid":12,"uuid":"1.210009e+06"},"geometry":{"type":"Point","coordinates":[104.69413549969724,18.007088339832375]}},{"type":"Feature","properties":{"name_en":"Kaeng","did":1210,"pid":12,"uuid":"1.21001e+06"},"geometry":{"type":"Point","coordinates":[104.68610547009624,18.01944879964223]}},{"type":"Feature","properties":{"name_en":"Nakham","did":1210,"pid":12,"uuid":"1.210014e+06"},"geometry":{"type":"Point","coordinates":[104.63866992975329,18.041221460446312]}},{"type":"Feature","properties":{"name_en":"Nameuang","did":1210,"pid":12,"uuid":"1.210015e+06"},"geometry":{"type":"Point","coordinates":[104.61818866027875,18.06641344038967]}},{"type":"Feature","properties":{"name_en":"Nammahang","did":1210,"pid":12,"uuid":"1.210017e+06"},"geometry":{"type":"Point","coordinates":[104.61718837022897,18.07524645983259]}},{"type":"Feature","properties":{"name_en":"Naxangkham","did":1210,"pid":12,"uuid":"1.210018e+06"},"geometry":{"type":"Point","coordinates":[104.60430656002863,18.046146499845737]}},{"type":"Feature","properties":{"name_en":"Phakhong","did":1210,"pid":12,"uuid":"1.210019e+06"},"geometry":{"type":"Point","coordinates":[104.59069367021121,18.061807160359546]}},{"type":"Feature","properties":{"name_en":"Muangnamsang","did":1210,"pid":12,"uuid":"1.21002e+06"},"geometry":{"type":"Point","coordinates":[104.6035319801446,18.062930340277745]}},{"type":"Feature","properties":{"name_en":"Nonghang","did":1210,"pid":12,"uuid":"1.210021e+06"},"geometry":{"type":"Point","coordinates":[104.57083393000805,18.066902690408014]}},{"type":"Feature","properties":{"name_en":"Phonethong","did":1210,"pid":12,"uuid":"1.210022e+06"},"geometry":{"type":"Point","coordinates":[104.57976761014699,18.077221739959352]}},{"type":"Feature","properties":{"name_en":"Nakha","did":1210,"pid":12,"uuid":"1.210026e+06"},"geometry":{"type":"Point","coordinates":[104.37019664985307,18.008090149774862]}},{"type":"Feature","properties":{"name_en":"Khounkham","did":1210,"pid":12,"uuid":"1.210027e+06"},"geometry":{"type":"Point","coordinates":[104.5213513604065,18.199572799604912]}},{"type":"Feature","properties":{"name_en":"Khounngern","did":1210,"pid":12,"uuid":"1.210028e+06"},"geometry":{"type":"Point","coordinates":[104.46729102030027,18.145624179978007]}},{"type":"Feature","properties":{"name_en":"Khounkeo","did":1210,"pid":12,"uuid":"1.210029e+06"},"geometry":{"type":"Point","coordinates":[104.51525243954401,18.172975420023153]}},{"type":"Feature","properties":{"name_en":"Nakham","did":1210,"pid":12,"uuid":"1.21003e+06"},"geometry":{"type":"Point","coordinates":[104.54525974035417,18.16803312032179]}},{"type":"Feature","properties":{"name_en":"Kang","did":1210,"pid":12,"uuid":"1.210036e+06"},"geometry":{"type":"Point","coordinates":[104.54837700026262,18.133778999642274]}},{"type":"Feature","properties":{"name_en":"Thonglom","did":1210,"pid":12,"uuid":"1.210038e+06"},"geometry":{"type":"Point","coordinates":[104.41175253027714,18.00973584961154]}},{"type":"Feature","properties":{"name_en":"Nakhok","did":1210,"pid":12,"uuid":"1.210039e+06"},"geometry":{"type":"Point","coordinates":[104.42627619021076,17.999738669995807]}},{"type":"Feature","properties":{"name_en":"Fungdang","did":1210,"pid":12,"uuid":"1.21004e+06"},"geometry":{"type":"Point","coordinates":[104.39723624979563,17.98349370033942]}},{"type":"Feature","properties":{"name_en":"Houybeuak","did":1210,"pid":12,"uuid":"1.210044e+06"},"geometry":{"type":"Point","coordinates":[104.41711300965795,17.94370052990917]}},{"type":"Feature","properties":{"name_en":"Thana","did":1210,"pid":12,"uuid":"1.210045e+06"},"geometry":{"type":"Point","coordinates":[104.46035515962255,17.935914160069423]}},{"type":"Feature","properties":{"name_en":"Phachoua","did":1210,"pid":12,"uuid":"1.210047e+06"},"geometry":{"type":"Point","coordinates":[104.45154201017512,17.90719683967784]}},{"type":"Feature","properties":{"name_en":"Konglor","did":1210,"pid":12,"uuid":"1.210167e+06"},"geometry":{"type":"Point","coordinates":[104.75424925006416,17.959347790259926]}},{"type":"Feature","properties":{"name_en":"Nakang","did":1210,"pid":12,"uuid":"1.210168e+06"},"geometry":{"type":"Point","coordinates":[104.66482925997305,18.0269825399149]}},{"type":"Feature","properties":{"name_en":"Namsanam","did":1210,"pid":12,"uuid":"1.210171e+06"},"geometry":{"type":"Point","coordinates":[104.55130325962148,18.184400459748858]}},{"type":"Feature","properties":{"name_en":"Pousard","did":1210,"pid":12,"uuid":"1.210172e+06"},"geometry":{"type":"Point","coordinates":[104.55166519043892,18.12313871975279]}},{"type":"Feature","properties":{"name_en":"Phoumarknang","did":1210,"pid":12,"uuid":"1.210173e+06"},"geometry":{"type":"Point","coordinates":[104.48335954999888,18.11358897026261]}},{"type":"Feature","properties":{"name_en":"Phahang","did":1210,"pid":12,"uuid":"1.210174e+06"},"geometry":{"type":"Point","coordinates":[104.43690510974737,17.96534822007004]}}]}