{"type":"FeatureCollection","features":[{"type":"Feature","properties":{"name_en":"Tha hua xang","did":1301,"pid":13,"uuid":"1.301001e+06"},"geometry":{"type":"Point","coordinates":[104.77297056025728,16.729447749869987]}},{"type":"Feature","properties":{"name_en":"Nam bor","did":1301,"pid":13,"uuid":"1.301002e+06"},"geometry":{"type":"Point","coordinates":[104.81056080037277,16.690426720234463]}},{"type":"Feature","properties":{"name_en":"Beung tha lei","did":1301,"pid":13,"uuid":"1.301003e+06"},"geometry":{"type":"Point","coordinates":[104.77825811953383,16.694712469584346]}},{"type":"Feature","properties":{"name_en":"Tha xa no nhai","did":1301,"pid":13,"uuid":"1.301005e+06"},"geometry":{"type":"Point","coordinates":[104.75946900031444,16.66471188037904]}},{"type":"Feature","properties":{"name_en":"Pak bor","did":1301,"pid":13,"uuid":"1.301007e+06"},"geometry":{"type":"Point","coordinates":[104.75548096998979,16.635557019908852]}},{"type":"Feature","properties":{"name_en":"Tonh pheung","did":1301,"pid":13,"uuid":"1.301008e+06"},"geometry":{"type":"Point","coordinates":[104.88607579954365,16.724467470398878]}},{"type":"Feature","properties":{"name_en":"lao ngam","did":1301,"pid":13,"uuid":"1.301009e+06"},"geometry":{"type":"Point","coordinates":[104.87470902037184,16.727255880356502]}},{"type":"Feature","properties":{"name_en":"Khon kaen","did":1301,"pid":13,"uuid":"1.30101e+06"},"geometry":{"type":"Point","coordinates":[104.88624200990023,16.71694346043118]}},{"type":"Feature","properties":{"name_en":"Na cha lith","did":1301,"pid":13,"uuid":"1.301011e+06"},"geometry":{"type":"Point","coordinates":[104.90715116960523,16.675478770067002]}},{"type":"Feature","properties":{"name_en":"Dong dam duan","did":1301,"pid":13,"uuid":"1.301012e+06"},"geometry":{"type":"Point","coordinates":[104.87469879007966,16.69400645989787]}},{"type":"Feature","properties":{"name_en":"Nhang kham","did":1301,"pid":13,"uuid":"1.301013e+06"},"geometry":{"type":"Point","coordinates":[104.85980482031052,16.691093329951645]}},{"type":"Feature","properties":{"name_en":"Kheua khao kath","did":1301,"pid":13,"uuid":"1.301015e+06"},"geometry":{"type":"Point","coordinates":[104.87077600016178,16.672560000388426]}},{"type":"Feature","properties":{"name_en":"Nong kom","did":1301,"pid":13,"uuid":"1.301016e+06"},"geometry":{"type":"Point","coordinates":[104.8845162600284,16.664141239593942]}},{"type":"Feature","properties":{"name_en":"Dong bang","did":1301,"pid":13,"uuid":"1.301017e+06"},"geometry":{"type":"Point","coordinates":[104.85541462978766,16.66907884974661]}},{"type":"Feature","properties":{"name_en":"Na tuey","did":1301,"pid":13,"uuid":"1.301019e+06"},"geometry":{"type":"Point","coordinates":[104.82390840033602,16.663985500364337]}},{"type":"Feature","properties":{"name_en":"Mor mueng","did":1301,"pid":13,"uuid":"1.30102e+06"},"geometry":{"type":"Point","coordinates":[104.8260364798591,16.68684789984534]}},{"type":"Feature","properties":{"name_en":"Na kae","did":1301,"pid":13,"uuid":"1.301022e+06"},"geometry":{"type":"Point","coordinates":[104.74951916992941,16.60047296962285]}},{"type":"Feature","properties":{"name_en":"Hua moueng neua","did":1301,"pid":13,"uuid":"1.301024e+06"},"geometry":{"type":"Point","coordinates":[104.75434572000066,16.577290309807584]}},{"type":"Feature","properties":{"name_en":"Hua moueng tai","did":1301,"pid":13,"uuid":"1.301025e+06"},"geometry":{"type":"Point","coordinates":[104.74980029981148,16.580590429649337]}},{"type":"Feature","properties":{"name_en":"Pho xai tai","did":1301,"pid":13,"uuid":"1.301027e+06"},"geometry":{"type":"Point","coordinates":[104.74571579979451,16.575133390379204]}},{"type":"Feature","properties":{"name_en":"Chom keo","did":1301,"pid":13,"uuid":"1.301028e+06"},"geometry":{"type":"Point","coordinates":[104.74652373026109,16.56881344038977]}},{"type":"Feature","properties":{"name_en":"Vieng sa wanh","did":1301,"pid":13,"uuid":"1.301029e+06"},"geometry":{"type":"Point","coordinates":[104.74716579004398,16.571367489588212]}},{"type":"Feature","properties":{"name_en":"Nong dern","did":1301,"pid":13,"uuid":"1.30103e+06"},"geometry":{"type":"Point","coordinates":[104.77658233035196,16.618380320088214]}},{"type":"Feature","properties":{"name_en":"Phonh sa wang neua","did":1301,"pid":13,"uuid":"1.301031e+06"},"geometry":{"type":"Point","coordinates":[104.7709563900966,16.589453699685063]}},{"type":"Feature","properties":{"name_en":"Nong pheu","did":1301,"pid":13,"uuid":"1.301032e+06"},"geometry":{"type":"Point","coordinates":[104.79158325010484,16.586458599580546]}},{"type":"Feature","properties":{"name_en":"Phonh sa wang tai","did":1301,"pid":13,"uuid":"1.301034e+06"},"geometry":{"type":"Point","coordinates":[104.76027760005837,16.575061889558715]}},{"type":"Feature","properties":{"name_en":"Na lao","did":1301,"pid":13,"uuid":"1.301035e+06"},"geometry":{"type":"Point","coordinates":[104.76162071006972,16.570361149555488]}},{"type":"Feature","properties":{"name_en":"Sa  nam xai","did":1301,"pid":13,"uuid":"1.301036e+06"},"geometry":{"type":"Point","coordinates":[104.7752356901425,16.57272501970139]}},{"type":"Feature","properties":{"name_en":"Sou nanh tha","did":1301,"pid":13,"uuid":"1.301038e+06"},"geometry":{"type":"Point","coordinates":[104.7469253097932,16.56582603996671]}},{"type":"Feature","properties":{"name_en":"Tha mueng","did":1301,"pid":13,"uuid":"1.301039e+06"},"geometry":{"type":"Point","coordinates":[104.74695215466025,16.565826213591595]}},{"type":"Feature","properties":{"name_en":"Xai nha phoum","did":1301,"pid":13,"uuid":"1.30104e+06"},"geometry":{"type":"Point","coordinates":[104.74849045972417,16.55837101034168]}},{"type":"Feature","properties":{"name_en":"Lath ta na lang sy neua","did":1301,"pid":13,"uuid":"1.301041e+06"},"geometry":{"type":"Point","coordinates":[104.7470310900972,16.553658369873034]}},{"type":"Feature","properties":{"name_en":"Lath ta na lang sy tai","did":1301,"pid":13,"uuid":"1.301042e+06"},"geometry":{"type":"Point","coordinates":[104.74975236015739,16.557237519975917]}},{"type":"Feature","properties":{"name_en":"Lath xa vong xai","did":1301,"pid":13,"uuid":"1.301043e+06"},"geometry":{"type":"Point","coordinates":[104.75996511977814,16.560875860239225]}},{"type":"Feature","properties":{"name_en":"Nonh sa wath","did":1301,"pid":13,"uuid":"1.301044e+06"},"geometry":{"type":"Point","coordinates":[104.7742100001419,16.56082992002839]}},{"type":"Feature","properties":{"name_en":"Xai nha moung khoun","did":1301,"pid":13,"uuid":"1.301045e+06"},"geometry":{"type":"Point","coordinates":[104.75035509959142,16.55537733034055]}},{"type":"Feature","properties":{"name_en":"Tha hae","did":1301,"pid":13,"uuid":"1.301048e+06"},"geometry":{"type":"Point","coordinates":[104.74911792975286,16.551899170283452]}},{"type":"Feature","properties":{"name_en":"Sa phane neua","did":1301,"pid":13,"uuid":"1.301049e+06"},"geometry":{"type":"Point","coordinates":[104.75492516956989,16.547442850294328]}},{"type":"Feature","properties":{"name_en":"Sa phane tai","did":1301,"pid":13,"uuid":"1.30105e+06"},"geometry":{"type":"Point","coordinates":[104.75539363029006,16.544210789829982]}},{"type":"Feature","properties":{"name_en":"Phonh sa wanh","did":1301,"pid":13,"uuid":"1.301051e+06"},"geometry":{"type":"Point","coordinates":[104.75381573996471,16.542290750089578]}},{"type":"Feature","properties":{"name_en":"Dong dam duan","did":1301,"pid":13,"uuid":"1.301052e+06"},"geometry":{"type":"Point","coordinates":[104.7595386502887,16.54568373977709]}},{"type":"Feature","properties":{"name_en":"Phonh sa ath","did":1301,"pid":13,"uuid":"1.301053e+06"},"geometry":{"type":"Point","coordinates":[104.75588825006372,16.539817499885707]}},{"type":"Feature","properties":{"name_en":"Son xai","did":1301,"pid":13,"uuid":"1.301054e+06"},"geometry":{"type":"Point","coordinates":[104.7628435497418,16.53409466987805]}},{"type":"Feature","properties":{"name_en":"Phonh xay","did":1301,"pid":13,"uuid":"1.301055e+06"},"geometry":{"type":"Point","coordinates":[104.77089520962426,16.540001310417612]}},{"type":"Feature","properties":{"name_en":"Na xeng","did":1301,"pid":13,"uuid":"1.301057e+06"},"geometry":{"type":"Point","coordinates":[104.78441177965371,16.53598655027861]}},{"type":"Feature","properties":{"name_en":"Don xeng","did":1301,"pid":13,"uuid":"1.301058e+06"},"geometry":{"type":"Point","coordinates":[104.77151378956093,16.511531509809767]}},{"type":"Feature","properties":{"name_en":"Dong na kham","did":1301,"pid":13,"uuid":"1.30106e+06"},"geometry":{"type":"Point","coordinates":[104.8237499796789,16.625784140104088]}},{"type":"Feature","properties":{"name_en":"That ing hang","did":1301,"pid":13,"uuid":"1.301061e+06"},"geometry":{"type":"Point","coordinates":[104.85345879965887,16.60863024042905]}},{"type":"Feature","properties":{"name_en":"Phonh sim neua","did":1301,"pid":13,"uuid":"1.301062e+06"},"geometry":{"type":"Point","coordinates":[104.87487430981857,16.58679546981366]}},{"type":"Feature","properties":{"name_en":"Song","did":1301,"pid":13,"uuid":"1.301065e+06"},"geometry":{"type":"Point","coordinates":[104.89362831045264,16.587320510035646]}},{"type":"Feature","properties":{"name_en":"Som sa ath","did":1301,"pid":13,"uuid":"1.301067e+06"},"geometry":{"type":"Point","coordinates":[104.9163363998571,16.56046439003289]}},{"type":"Feature","properties":{"name_en":"Na koy","did":1301,"pid":13,"uuid":"1.301068e+06"},"geometry":{"type":"Point","coordinates":[104.96756189972452,16.55794990029472]}},{"type":"Feature","properties":{"name_en":"Beung va neua","did":1301,"pid":13,"uuid":"1.30107e+06"},"geometry":{"type":"Point","coordinates":[104.8092236400226,16.573810809733516]}},{"type":"Feature","properties":{"name_en":"Dong mark yang","did":1301,"pid":13,"uuid":"1.301071e+06"},"geometry":{"type":"Point","coordinates":[104.84105484046498,16.583709170165612]}},{"type":"Feature","properties":{"name_en":"Phonh soung","did":1301,"pid":13,"uuid":"1.301073e+06"},"geometry":{"type":"Point","coordinates":[104.84562616038866,16.571063139561545]}},{"type":"Feature","properties":{"name_en":"Zork","did":1301,"pid":13,"uuid":"1.301077e+06"},"geometry":{"type":"Point","coordinates":[104.80533744986934,16.538513530306048]}},{"type":"Feature","properties":{"name_en":"Nhang soung","did":1301,"pid":13,"uuid":"1.301078e+06"},"geometry":{"type":"Point","coordinates":[104.85786415954227,16.559966420435398]}},{"type":"Feature","properties":{"name_en":"Houy","did":1301,"pid":13,"uuid":"1.30108e+06"},"geometry":{"type":"Point","coordinates":[104.87304236026108,16.55739158032743]}},{"type":"Feature","properties":{"name_en":"Kaeng hin soung","did":1301,"pid":13,"uuid":"1.301081e+06"},"geometry":{"type":"Point","coordinates":[104.89116772043428,16.4971644201029]}},{"type":"Feature","properties":{"name_en":"Dong kham luang","did":1301,"pid":13,"uuid":"1.301082e+06"},"geometry":{"type":"Point","coordinates":[104.90130865015206,16.534663219778746]}},{"type":"Feature","properties":{"name_en":"Xok vang neua","did":1301,"pid":13,"uuid":"1.301083e+06"},"geometry":{"type":"Point","coordinates":[104.94121513973724,16.524626979923013]}},{"type":"Feature","properties":{"name_en":"Som poy","did":1301,"pid":13,"uuid":"1.301085e+06"},"geometry":{"type":"Point","coordinates":[104.78965223010327,16.48960805032203]}},{"type":"Feature","properties":{"name_en":"Na pho","did":1301,"pid":13,"uuid":"1.301086e+06"},"geometry":{"type":"Point","coordinates":[104.80712891995132,16.481101429864907]}},{"type":"Feature","properties":{"name_en":"Phukkha","did":1301,"pid":13,"uuid":"1.301088e+06"},"geometry":{"type":"Point","coordinates":[104.83977584037947,16.47341623017922]}},{"type":"Feature","properties":{"name_en":"Nonh ou dom","did":1301,"pid":13,"uuid":"1.301089e+06"},"geometry":{"type":"Point","coordinates":[104.84703021037149,16.47030679965742]}},{"type":"Feature","properties":{"name_en":"Huoi phai","did":1301,"pid":13,"uuid":"1.30109e+06"},"geometry":{"type":"Point","coordinates":[104.86278491997119,16.443325949623294]}},{"type":"Feature","properties":{"name_en":"Ou dom vi lai","did":1301,"pid":13,"uuid":"1.301093e+06"},"geometry":{"type":"Point","coordinates":[104.78496901035518,16.60253308004911]}}]}