{"type":"FeatureCollection","features":[{"type":"Feature","properties":{"name_en":"Ma ny vong xai","did":1302,"pid":13,"uuid":"1.302001e+06"},"geometry":{"type":"Point","coordinates":[104.99088998981561,16.67679993025788]}},{"type":"Feature","properties":{"name_en":"Phoxay","did":1302,"pid":13,"uuid":"1.302003e+06"},"geometry":{"type":"Point","coordinates":[104.98867256025211,16.67696019021267]}},{"type":"Feature","properties":{"name_en":"Chanthalangsee","did":1302,"pid":13,"uuid":"1.302004e+06"},"geometry":{"type":"Point","coordinates":[104.99073843972,16.67845182992525]}},{"type":"Feature","properties":{"name_en":"Vong phanh sy","did":1302,"pid":13,"uuid":"1.302005e+06"},"geometry":{"type":"Point","coordinates":[104.98237104043379,16.673846309850745]}},{"type":"Feature","properties":{"name_en":"Xai som boun","did":1302,"pid":13,"uuid":"1.302007e+06"},"geometry":{"type":"Point","coordinates":[104.99247039979446,16.672837209553602]}},{"type":"Feature","properties":{"name_en":"Nonh vi xai","did":1302,"pid":13,"uuid":"1.302009e+06"},"geometry":{"type":"Point","coordinates":[104.9775766801336,16.674854899862485]}},{"type":"Feature","properties":{"name_en":"Chom phet","did":1302,"pid":13,"uuid":"1.30201e+06"},"geometry":{"type":"Point","coordinates":[104.98492274005886,16.670793290172725]}},{"type":"Feature","properties":{"name_en":"Xai nha moung khoung","did":1302,"pid":13,"uuid":"1.302012e+06"},"geometry":{"type":"Point","coordinates":[104.95880163013537,16.673065869606784]}},{"type":"Feature","properties":{"name_en":"Na that","did":1302,"pid":13,"uuid":"1.302013e+06"},"geometry":{"type":"Point","coordinates":[104.93257624958487,16.659671170083513]}},{"type":"Feature","properties":{"name_en":"Xai ou dom","did":1302,"pid":13,"uuid":"1.302014e+06"},"geometry":{"type":"Point","coordinates":[104.97156090013111,16.678259380304528]}},{"type":"Feature","properties":{"name_en":"Nonh dok mai","did":1302,"pid":13,"uuid":"1.302016e+06"},"geometry":{"type":"Point","coordinates":[104.97258509032496,16.718096719857325]}},{"type":"Feature","properties":{"name_en":"Nong a hong noy","did":1302,"pid":13,"uuid":"1.302017e+06"},"geometry":{"type":"Point","coordinates":[104.9946165796259,16.72968880989964]}},{"type":"Feature","properties":{"name_en":"Xai sa ath","did":1302,"pid":13,"uuid":"1.302019e+06"},"geometry":{"type":"Point","coordinates":[105.04491270002775,16.686638440130388]}},{"type":"Feature","properties":{"name_en":"Sa nam xai","did":1302,"pid":13,"uuid":"1.30202e+06"},"geometry":{"type":"Point","coordinates":[105.0290788597601,16.684051699714406]}},{"type":"Feature","properties":{"name_en":"Nong kham haeth","did":1302,"pid":13,"uuid":"1.302021e+06"},"geometry":{"type":"Point","coordinates":[105.0297491603679,16.707900980233553]}},{"type":"Feature","properties":{"name_en":"Huoi mouth","did":1302,"pid":13,"uuid":"1.302023e+06"},"geometry":{"type":"Point","coordinates":[105.06690621998804,16.63971511995735]}},{"type":"Feature","properties":{"name_en":"Kang pho sy","did":1302,"pid":13,"uuid":"1.302024e+06"},"geometry":{"type":"Point","coordinates":[104.94145963957676,16.707695959575208]}},{"type":"Feature","properties":{"name_en":"Na xay kham","did":1302,"pid":13,"uuid":"1.302026e+06"},"geometry":{"type":"Point","coordinates":[104.90189899019467,16.751473460438433]}},{"type":"Feature","properties":{"name_en":"Som phath vi lai","did":1302,"pid":13,"uuid":"1.302028e+06"},"geometry":{"type":"Point","coordinates":[104.90806329039613,16.80545610043847]}},{"type":"Feature","properties":{"name_en":"Dong mark ngaew","did":1302,"pid":13,"uuid":"1.302029e+06"},"geometry":{"type":"Point","coordinates":[104.90641246974207,16.822196269632656]}},{"type":"Feature","properties":{"name_en":"phack kha nha","did":1302,"pid":13,"uuid":"1.30203e+06"},"geometry":{"type":"Point","coordinates":[104.93917457041124,16.77733976041198]}},{"type":"Feature","properties":{"name_en":"Som sa ath","did":1302,"pid":13,"uuid":"1.302031e+06"},"geometry":{"type":"Point","coordinates":[104.95308625989654,16.799556329931157]}},{"type":"Feature","properties":{"name_en":"Na sa nouth","did":1302,"pid":13,"uuid":"1.302032e+06"},"geometry":{"type":"Point","coordinates":[104.93445303992516,16.815693509785874]}},{"type":"Feature","properties":{"name_en":"Na khou","did":1302,"pid":13,"uuid":"1.302033e+06"},"geometry":{"type":"Point","coordinates":[104.9607861298212,16.823936610239183]}},{"type":"Feature","properties":{"name_en":"Nonh na khoun","did":1302,"pid":13,"uuid":"1.302034e+06"},"geometry":{"type":"Point","coordinates":[104.97898526029968,16.74106590001725]}},{"type":"Feature","properties":{"name_en":"Na hua khua","did":1302,"pid":13,"uuid":"1.302035e+06"},"geometry":{"type":"Point","coordinates":[104.98620785992844,16.75345845965142]}},{"type":"Feature","properties":{"name_en":"Na hong nhai","did":1302,"pid":13,"uuid":"1.302036e+06"},"geometry":{"type":"Point","coordinates":[104.99172884954982,16.78257242003699]}},{"type":"Feature","properties":{"name_en":"Phonh na nhang","did":1302,"pid":13,"uuid":"1.302037e+06"},"geometry":{"type":"Point","coordinates":[105.01998022002837,16.762729939825377]}},{"type":"Feature","properties":{"name_en":"Phonh toum","did":1302,"pid":13,"uuid":"1.302038e+06"},"geometry":{"type":"Point","coordinates":[105.0199627900075,16.80134906007855]}},{"type":"Feature","properties":{"name_en":"Phonh sa wang","did":1302,"pid":13,"uuid":"1.30204e+06"},"geometry":{"type":"Point","coordinates":[105.03369570027431,16.826982419878753]}},{"type":"Feature","properties":{"name_en":"Phonh deua","did":1302,"pid":13,"uuid":"1.302041e+06"},"geometry":{"type":"Point","coordinates":[104.99694114016157,16.799187110385237]}},{"type":"Feature","properties":{"name_en":"Phonh thanh","did":1302,"pid":13,"uuid":"1.302043e+06"},"geometry":{"type":"Point","coordinates":[105.00343568967926,16.812097000198094]}},{"type":"Feature","properties":{"name_en":"Nonh ou dom","did":1302,"pid":13,"uuid":"1.302044e+06"},"geometry":{"type":"Point","coordinates":[105.04615640017053,16.8431972200429]}},{"type":"Feature","properties":{"name_en":"Na pho xai","did":1302,"pid":13,"uuid":"1.302045e+06"},"geometry":{"type":"Point","coordinates":[105.05149089959913,16.83166195978793]}},{"type":"Feature","properties":{"name_en":"Ei","did":1302,"pid":13,"uuid":"1.302047e+06"},"geometry":{"type":"Point","coordinates":[105.04213861975155,16.835997160262075]}},{"type":"Feature","properties":{"name_en":"Na keing","did":1302,"pid":13,"uuid":"1.302048e+06"},"geometry":{"type":"Point","coordinates":[105.04317554983305,16.815013150001146]}},{"type":"Feature","properties":{"name_en":"Pa nam","did":1302,"pid":13,"uuid":"1.302049e+06"},"geometry":{"type":"Point","coordinates":[105.05513451002695,16.83097748960998]}},{"type":"Feature","properties":{"name_en":"Na pong","did":1302,"pid":13,"uuid":"1.30205e+06"},"geometry":{"type":"Point","coordinates":[105.0597208396348,16.830988140130614]}},{"type":"Feature","properties":{"name_en":"Nonh sa wang","did":1302,"pid":13,"uuid":"1.302051e+06"},"geometry":{"type":"Point","coordinates":[105.06062767032924,16.860871799677636]}},{"type":"Feature","properties":{"name_en":"Dong tha","did":1302,"pid":13,"uuid":"1.302052e+06"},"geometry":{"type":"Point","coordinates":[105.06666742036195,16.864517840157724]}},{"type":"Feature","properties":{"name_en":"Dong nai","did":1302,"pid":13,"uuid":"1.302053e+06"},"geometry":{"type":"Point","coordinates":[105.07313331003408,16.86860260002483]}},{"type":"Feature","properties":{"name_en":"Dongkhuang","did":1302,"pid":13,"uuid":"1.302054e+06"},"geometry":{"type":"Point","coordinates":[104.99276800002181,16.599521000117615]}},{"type":"Feature","properties":{"name_en":"Nong paen","did":1302,"pid":13,"uuid":"1.302055e+06"},"geometry":{"type":"Point","coordinates":[105.08550800985329,16.874508740011343]}},{"type":"Feature","properties":{"name_en":"Na kham","did":1302,"pid":13,"uuid":"1.302056e+06"},"geometry":{"type":"Point","coordinates":[105.10682612958519,16.880956519992562]}},{"type":"Feature","properties":{"name_en":"Na tai","did":1302,"pid":13,"uuid":"1.302071e+06"},"geometry":{"type":"Point","coordinates":[105.14877428012326,16.703104430038977]}},{"type":"Feature","properties":{"name_en":"Sa kouth","did":1302,"pid":13,"uuid":"1.302074e+06"},"geometry":{"type":"Point","coordinates":[105.14024117005212,16.71920967043039]}},{"type":"Feature","properties":{"name_en":"Phonh tad","did":1302,"pid":13,"uuid":"1.302075e+06"},"geometry":{"type":"Point","coordinates":[105.13023368034808,16.727708079943184]}},{"type":"Feature","properties":{"name_en":"Na khy lek nhai","did":1302,"pid":13,"uuid":"1.302077e+06"},"geometry":{"type":"Point","coordinates":[105.15278477019196,16.680940839992584]}},{"type":"Feature","properties":{"name_en":"Thong","did":1302,"pid":13,"uuid":"1.302078e+06"},"geometry":{"type":"Point","coordinates":[105.13898907955361,16.695398030147416]}},{"type":"Feature","properties":{"name_en":"Nonh vi lai","did":1302,"pid":13,"uuid":"1.302079e+06"},"geometry":{"type":"Point","coordinates":[105.11762746979393,16.694215010171344]}},{"type":"Feature","properties":{"name_en":"Kiew ma","did":1302,"pid":13,"uuid":"1.302082e+06"},"geometry":{"type":"Point","coordinates":[105.12527293958708,16.652696170180057]}},{"type":"Feature","properties":{"name_en":"Phonh ma ba","did":1302,"pid":13,"uuid":"1.302083e+06"},"geometry":{"type":"Point","coordinates":[105.10909384998384,16.668233279969865]}},{"type":"Feature","properties":{"name_en":"Laonhai","did":1302,"pid":13,"uuid":"1.302087e+06"},"geometry":{"type":"Point","coordinates":[105.10492796005441,16.71434841994016]}},{"type":"Feature","properties":{"name_en":"Maeth","did":1302,"pid":13,"uuid":"1.302088e+06"},"geometry":{"type":"Point","coordinates":[105.1016101499718,16.743609140396572]}},{"type":"Feature","properties":{"name_en":"Tham pha","did":1302,"pid":13,"uuid":"1.30209e+06"},"geometry":{"type":"Point","coordinates":[105.07161483995593,16.692842129644628]}},{"type":"Feature","properties":{"name_en":"Na ka xor","did":1302,"pid":13,"uuid":"1.302093e+06"},"geometry":{"type":"Point","coordinates":[105.11346525970862,16.625459680206127]}},{"type":"Feature","properties":{"name_en":"Dong noy neua","did":1302,"pid":13,"uuid":"1.302095e+06"},"geometry":{"type":"Point","coordinates":[105.09500999023616,16.61518429989354]}},{"type":"Feature","properties":{"name_en":"Kouth khae","did":1302,"pid":13,"uuid":"1.302096e+06"},"geometry":{"type":"Point","coordinates":[105.08638592962846,16.638498399709388]}},{"type":"Feature","properties":{"name_en":"hua kham","did":1302,"pid":13,"uuid":"1.302097e+06"},"geometry":{"type":"Point","coordinates":[105.09502382002512,16.61516066966212]}},{"type":"Feature","properties":{"name_en":"Khok neua","did":1302,"pid":13,"uuid":"1.302098e+06"},"geometry":{"type":"Point","coordinates":[104.98803150980741,16.60896635994434]}},{"type":"Feature","properties":{"name_en":"Khokpaway","did":1302,"pid":13,"uuid":"1.3021e+06"},"geometry":{"type":"Point","coordinates":[105.08691900017864,16.86177699968975]}},{"type":"Feature","properties":{"name_en":"Na chane","did":1302,"pid":13,"uuid":"1.302101e+06"},"geometry":{"type":"Point","coordinates":[105.0320650804305,16.59723227998649]}},{"type":"Feature","properties":{"name_en":"Nonh sa wang","did":1302,"pid":13,"uuid":"1.302103e+06"},"geometry":{"type":"Point","coordinates":[105.02526693990357,16.610138400361084]}},{"type":"Feature","properties":{"name_en":"Phyn tai","did":1302,"pid":13,"uuid":"1.302105e+06"},"geometry":{"type":"Point","coordinates":[105.0206768395627,16.62836609967668]}},{"type":"Feature","properties":{"name_en":"Phyn tai","did":1302,"pid":13,"uuid":"1.302106e+06"},"geometry":{"type":"Point","coordinates":[105.01425480009324,16.64286830027956]}},{"type":"Feature","properties":{"name_en":"Sy boun hueng","did":1302,"pid":13,"uuid":"1.302107e+06"},"geometry":{"type":"Point","coordinates":[105.00732305000939,16.661207149961683]}},{"type":"Feature","properties":{"name_en":"Xai nha pheth","did":1302,"pid":13,"uuid":"1.302108e+06"},"geometry":{"type":"Point","coordinates":[104.99815608976118,16.68284738017198]}},{"type":"Feature","properties":{"name_en":"Cha luern souk","did":1302,"pid":13,"uuid":"1.302111e+06"},"geometry":{"type":"Point","coordinates":[105.01235913963814,16.67940988039154]}},{"type":"Feature","properties":{"name_en":"Huoisangthong","did":1302,"pid":13,"uuid":"1.302114e+06"},"geometry":{"type":"Point","coordinates":[105.06107627042434,16.64658115008098]}},{"type":"Feature","properties":{"name_en":"Nong bua thong","did":1302,"pid":13,"uuid":"1.302117e+06"},"geometry":{"type":"Point","coordinates":[105.09880498035908,16.684399040244475]}}]}