{"type":"FeatureCollection","features":[{"type":"Feature","properties":{"name_en":"Na saen keo","did":1303,"pid":13,"uuid":"1.303002e+06"},"geometry":{"type":"Point","coordinates":[105.2274861400268,16.796586290298457]}},{"type":"Feature","properties":{"name_en":"Dong mark kor","did":1303,"pid":13,"uuid":"1.303003e+06"},"geometry":{"type":"Point","coordinates":[105.23709062023809,16.786213349820994]}},{"type":"Feature","properties":{"name_en":"Pho sy keo","did":1303,"pid":13,"uuid":"1.303005e+06"},"geometry":{"type":"Point","coordinates":[105.22032538955037,16.777586610101103]}},{"type":"Feature","properties":{"name_en":"Na phaek nhai","did":1303,"pid":13,"uuid":"1.303007e+06"},"geometry":{"type":"Point","coordinates":[105.25722344983366,16.782275280367013]}},{"type":"Feature","properties":{"name_en":"Na chane","did":1303,"pid":13,"uuid":"1.303009e+06"},"geometry":{"type":"Point","coordinates":[105.21797929974502,16.788247889789595]}},{"type":"Feature","properties":{"name_en":"Nakhamtai","did":1303,"pid":13,"uuid":"1.30301e+06"},"geometry":{"type":"Point","coordinates":[105.2896386203105,16.770372890118228]}},{"type":"Feature","properties":{"name_en":"Na lak","did":1303,"pid":13,"uuid":"1.303012e+06"},"geometry":{"type":"Point","coordinates":[105.29074746040531,16.791195639766116]}},{"type":"Feature","properties":{"name_en":"Dong na kham","did":1303,"pid":13,"uuid":"1.303013e+06"},"geometry":{"type":"Point","coordinates":[105.30678975024502,16.791508109900214]}},{"type":"Feature","properties":{"name_en":"Dong krim","did":1303,"pid":13,"uuid":"1.303014e+06"},"geometry":{"type":"Point","coordinates":[105.32408221022959,16.773158870436717]}},{"type":"Feature","properties":{"name_en":"Na lai khok","did":1303,"pid":13,"uuid":"1.303015e+06"},"geometry":{"type":"Point","coordinates":[105.34172007994493,16.73774223008985]}},{"type":"Feature","properties":{"name_en":"Na laidong","did":1303,"pid":13,"uuid":"1.303016e+06"},"geometry":{"type":"Point","coordinates":[105.36273200021289,16.752376949571342]}},{"type":"Feature","properties":{"name_en":"Nonh hang","did":1303,"pid":13,"uuid":"1.303017e+06"},"geometry":{"type":"Point","coordinates":[105.38114703985939,16.758332709805515]}},{"type":"Feature","properties":{"name_en":"Khork sa wang","did":1303,"pid":13,"uuid":"1.303018e+06"},"geometry":{"type":"Point","coordinates":[105.45192977965164,16.75783750961991]}},{"type":"Feature","properties":{"name_en":"Nong pak xong","did":1303,"pid":13,"uuid":"1.30302e+06"},"geometry":{"type":"Point","coordinates":[105.27282947023998,16.715073869782348]}},{"type":"Feature","properties":{"name_en":"Sa phang keo","did":1303,"pid":13,"uuid":"1.303021e+06"},"geometry":{"type":"Point","coordinates":[105.2257700304301,16.701934910353483]}},{"type":"Feature","properties":{"name_en":"Don pa lai","did":1303,"pid":13,"uuid":"1.303022e+06"},"geometry":{"type":"Point","coordinates":[105.26518801997203,16.71062752997275]}},{"type":"Feature","properties":{"name_en":"Ta bong pheth","did":1303,"pid":13,"uuid":"1.303023e+06"},"geometry":{"type":"Point","coordinates":[105.27894523986058,16.707141240369083]}},{"type":"Feature","properties":{"name_en":"Dong hen","did":1303,"pid":13,"uuid":"1.303024e+06"},"geometry":{"type":"Point","coordinates":[105.28181762978711,16.70230078034437]}},{"type":"Feature","properties":{"name_en":"Dong li lo","did":1303,"pid":13,"uuid":"1.303026e+06"},"geometry":{"type":"Point","coordinates":[105.29136848039465,16.698123649662318]}},{"type":"Feature","properties":{"name_en":"Na nam thieng","did":1303,"pid":13,"uuid":"1.303027e+06"},"geometry":{"type":"Point","coordinates":[105.30067179994298,16.738547899974787]}},{"type":"Feature","properties":{"name_en":"Phang ho","did":1303,"pid":13,"uuid":"1.303028e+06"},"geometry":{"type":"Point","coordinates":[105.32059122986564,16.738066780193094]}},{"type":"Feature","properties":{"name_en":"Sy vi lai","did":1303,"pid":13,"uuid":"1.303029e+06"},"geometry":{"type":"Point","coordinates":[105.31086730014813,16.732482750211414]}},{"type":"Feature","properties":{"name_en":"Hua mueng","did":1303,"pid":13,"uuid":"1.30303e+06"},"geometry":{"type":"Point","coordinates":[105.35814391042248,16.70254352006644]}},{"type":"Feature","properties":{"name_en":"Dong khuang","did":1303,"pid":13,"uuid":"1.303031e+06"},"geometry":{"type":"Point","coordinates":[105.30356456969547,16.674150149954336]}},{"type":"Feature","properties":{"name_en":"Pong dong","did":1303,"pid":13,"uuid":"1.303032e+06"},"geometry":{"type":"Point","coordinates":[105.29997795025567,16.664524209910947]}},{"type":"Feature","properties":{"name_en":"Pong na","did":1303,"pid":13,"uuid":"1.303033e+06"},"geometry":{"type":"Point","coordinates":[105.30779240030176,16.647750599577417]}},{"type":"Feature","properties":{"name_en":"Lai ka tha","did":1303,"pid":13,"uuid":"1.303034e+06"},"geometry":{"type":"Point","coordinates":[105.28882641027941,16.600661650342573]}},{"type":"Feature","properties":{"name_en":"Nonh wai","did":1303,"pid":13,"uuid":"1.303035e+06"},"geometry":{"type":"Point","coordinates":[105.2719640398538,16.653305279895903]}},{"type":"Feature","properties":{"name_en":"Chae la mong tai","did":1303,"pid":13,"uuid":"1.303039e+06"},"geometry":{"type":"Point","coordinates":[105.33479687976951,16.662564940296704]}},{"type":"Feature","properties":{"name_en":"Phonh bork","did":1303,"pid":13,"uuid":"1.303041e+06"},"geometry":{"type":"Point","coordinates":[105.35924017960944,16.667875630394963]}},{"type":"Feature","properties":{"name_en":"Lien xai","did":1303,"pid":13,"uuid":"1.303043e+06"},"geometry":{"type":"Point","coordinates":[105.41388206004123,16.69297104999867]}},{"type":"Feature","properties":{"name_en":"Bour khom","did":1303,"pid":13,"uuid":"1.303045e+06"},"geometry":{"type":"Point","coordinates":[105.44989985005274,16.69135518014142]}},{"type":"Feature","properties":{"name_en":"Phonh ngoy","did":1303,"pid":13,"uuid":"1.30305e+06"},"geometry":{"type":"Point","coordinates":[105.17123929010235,16.678533389788758]}},{"type":"Feature","properties":{"name_en":"Na phang khork","did":1303,"pid":13,"uuid":"1.303051e+06"},"geometry":{"type":"Point","coordinates":[105.19336349003306,16.795654390147156]}},{"type":"Feature","properties":{"name_en":"Houi","did":1303,"pid":13,"uuid":"1.303052e+06"},"geometry":{"type":"Point","coordinates":[105.20399945981885,16.805124260429615]}},{"type":"Feature","properties":{"name_en":"Nonghoy","did":1303,"pid":13,"uuid":"1.303053e+06"},"geometry":{"type":"Point","coordinates":[105.1858699001601,16.816542930283568]}},{"type":"Feature","properties":{"name_en":"Nong sai","did":1303,"pid":13,"uuid":"1.303055e+06"},"geometry":{"type":"Point","coordinates":[105.1927935204336,16.66887566979571]}},{"type":"Feature","properties":{"name_en":"Na koy houi","did":1303,"pid":13,"uuid":"1.303058e+06"},"geometry":{"type":"Point","coordinates":[105.18569136967349,16.693954660434116]}},{"type":"Feature","properties":{"name_en":"Phorn phang","did":1303,"pid":13,"uuid":"1.303061e+06"},"geometry":{"type":"Point","coordinates":[105.18178858966623,16.802808180333287]}},{"type":"Feature","properties":{"name_en":"Pa lai","did":1303,"pid":13,"uuid":"1.303062e+06"},"geometry":{"type":"Point","coordinates":[105.17043328959016,16.6656978401562]}}]}