{"type":"FeatureCollection","features":[{"type":"Feature","properties":{"name_en":"Vern hong kham","did":1304,"pid":13,"uuid":"1.304001e+06"},"geometry":{"type":"Point","coordinates":[106.02325672993956,16.53607941984465]}},{"type":"Feature","properties":{"name_en":"Pha som xai","did":1304,"pid":13,"uuid":"1.304002e+06"},"geometry":{"type":"Point","coordinates":[106.01732292963892,16.5344920598543]}},{"type":"Feature","properties":{"name_en":"Phine","did":1304,"pid":13,"uuid":"1.304003e+06"},"geometry":{"type":"Point","coordinates":[106.02160624964836,16.528559350097343]}},{"type":"Feature","properties":{"name_en":"Na phor","did":1304,"pid":13,"uuid":"1.304004e+06"},"geometry":{"type":"Point","coordinates":[106.00430039011633,16.529027640383816]}},{"type":"Feature","properties":{"name_en":"Na Chane","did":1304,"pid":13,"uuid":"1.304006e+06"},"geometry":{"type":"Point","coordinates":[105.98930625000762,16.52096374963477]}},{"type":"Feature","properties":{"name_en":"Phon","did":1304,"pid":13,"uuid":"1.304009e+06"},"geometry":{"type":"Point","coordinates":[106.00319531979909,16.51224891984012]}},{"type":"Feature","properties":{"name_en":"Na por","did":1304,"pid":13,"uuid":"1.30401e+06"},"geometry":{"type":"Point","coordinates":[105.98392682983473,16.539244510246508]}},{"type":"Feature","properties":{"name_en":"Na ka nor","did":1304,"pid":13,"uuid":"1.304011e+06"},"geometry":{"type":"Point","coordinates":[105.96958614976913,16.517538650283633]}},{"type":"Feature","properties":{"name_en":"Norn sa ad","did":1304,"pid":13,"uuid":"1.304013e+06"},"geometry":{"type":"Point","coordinates":[105.9674527896069,16.54067673036231]}},{"type":"Feature","properties":{"name_en":"Khok poun","did":1304,"pid":13,"uuid":"1.304014e+06"},"geometry":{"type":"Point","coordinates":[105.9839830697068,16.55067936039369]}},{"type":"Feature","properties":{"name_en":"Therm mai","did":1304,"pid":13,"uuid":"1.304015e+06"},"geometry":{"type":"Point","coordinates":[106.00167123993964,16.582996790157033]}},{"type":"Feature","properties":{"name_en":"Therm kao","did":1304,"pid":13,"uuid":"1.304016e+06"},"geometry":{"type":"Point","coordinates":[105.97392481908271,16.60431898864274]}},{"type":"Feature","properties":{"name_en":"Sa khouang","did":1304,"pid":13,"uuid":"1.304017e+06"},"geometry":{"type":"Point","coordinates":[106.03972943007402,16.53641193042933]}},{"type":"Feature","properties":{"name_en":"Kha nin","did":1304,"pid":13,"uuid":"1.304018e+06"},"geometry":{"type":"Point","coordinates":[106.07699716038971,16.638943428696955]}},{"type":"Feature","properties":{"name_en":"ar pork","did":1304,"pid":13,"uuid":"1.304019e+06"},"geometry":{"type":"Point","coordinates":[106.07581392670895,16.609999132141745]}},{"type":"Feature","properties":{"name_en":"Ma loua","did":1304,"pid":13,"uuid":"1.30402e+06"},"geometry":{"type":"Point","coordinates":[106.09769706441196,16.597501972599943]}},{"type":"Feature","properties":{"name_en":"Hin sa ngorm","did":1304,"pid":13,"uuid":"1.304022e+06"},"geometry":{"type":"Point","coordinates":[106.08420071006428,16.59038401041127]}},{"type":"Feature","properties":{"name_en":"Vang bouang","did":1304,"pid":13,"uuid":"1.304025e+06"},"geometry":{"type":"Point","coordinates":[106.1035518396778,16.602081799805273]}},{"type":"Feature","properties":{"name_en":"xa loy","did":1304,"pid":13,"uuid":"1.304027e+06"},"geometry":{"type":"Point","coordinates":[106.05006216802366,16.580466057604948]}},{"type":"Feature","properties":{"name_en":"Nonh nhang","did":1304,"pid":13,"uuid":"1.304028e+06"},"geometry":{"type":"Point","coordinates":[106.05812008001357,16.563355390115447]}},{"type":"Feature","properties":{"name_en":"Na tha lang","did":1304,"pid":13,"uuid":"1.304032e+06"},"geometry":{"type":"Point","coordinates":[106.05670470541484,16.5473058498919]}},{"type":"Feature","properties":{"name_en":"Na ka thane","did":1304,"pid":13,"uuid":"1.304033e+06"},"geometry":{"type":"Point","coordinates":[106.04719654005261,16.53432031036585]}},{"type":"Feature","properties":{"name_en":"La teub","did":1304,"pid":13,"uuid":"1.304034e+06"},"geometry":{"type":"Point","coordinates":[106.10984991968245,16.579099959627317]}},{"type":"Feature","properties":{"name_en":"kaeng la thaeng","did":1304,"pid":13,"uuid":"1.304035e+06"},"geometry":{"type":"Point","coordinates":[106.11511660959705,16.539799979835404]}},{"type":"Feature","properties":{"name_en":"Kang kao","did":1304,"pid":13,"uuid":"1.304036e+06"},"geometry":{"type":"Point","coordinates":[105.92027231022261,16.607109010162368]}},{"type":"Feature","properties":{"name_en":"Song puey","did":1304,"pid":13,"uuid":"1.304037e+06"},"geometry":{"type":"Point","coordinates":[105.93045405975818,16.590373370130713]}},{"type":"Feature","properties":{"name_en":"Pa lek","did":1304,"pid":13,"uuid":"1.304038e+06"},"geometry":{"type":"Point","coordinates":[105.9311491696665,16.57613084001217]}},{"type":"Feature","properties":{"name_en":"Kang mai","did":1304,"pid":13,"uuid":"1.304039e+06"},"geometry":{"type":"Point","coordinates":[105.9057266904384,16.607648220372592]}},{"type":"Feature","properties":{"name_en":"Ka yong","did":1304,"pid":13,"uuid":"1.30404e+06"},"geometry":{"type":"Point","coordinates":[105.91300193029724,16.575206230084508]}},{"type":"Feature","properties":{"name_en":"Mai lek 9","did":1304,"pid":13,"uuid":"1.304041e+06"},"geometry":{"type":"Point","coordinates":[105.92365650027808,16.569092389609136]}},{"type":"Feature","properties":{"name_en":"Ou dom xai","did":1304,"pid":13,"uuid":"1.304042e+06"},"geometry":{"type":"Point","coordinates":[105.90536785999187,16.581923990005453]}},{"type":"Feature","properties":{"name_en":"Xei sa wang","did":1304,"pid":13,"uuid":"1.304044e+06"},"geometry":{"type":"Point","coordinates":[105.91319673012852,16.574746229633906]}},{"type":"Feature","properties":{"name_en":"Xa na my xai","did":1304,"pid":13,"uuid":"1.304047e+06"},"geometry":{"type":"Point","coordinates":[105.9220932003877,16.573534209669372]}},{"type":"Feature","properties":{"name_en":"Xai som boun","did":1304,"pid":13,"uuid":"1.304048e+06"},"geometry":{"type":"Point","coordinates":[105.91904193012442,16.571643669719712]}},{"type":"Feature","properties":{"name_en":"Sy boun hueng","did":1304,"pid":13,"uuid":"1.30405e+06"},"geometry":{"type":"Point","coordinates":[105.92418951028876,16.572289329993897]}},{"type":"Feature","properties":{"name_en":"Nonh xai","did":1304,"pid":13,"uuid":"1.304052e+06"},"geometry":{"type":"Point","coordinates":[105.9477380501543,16.560208570405845]}},{"type":"Feature","properties":{"name_en":"Dong phou nguen","did":1304,"pid":13,"uuid":"1.304053e+06"},"geometry":{"type":"Point","coordinates":[105.94947201013746,16.54692702984422]}},{"type":"Feature","properties":{"name_en":"Koy","did":1304,"pid":13,"uuid":"1.304054e+06"},"geometry":{"type":"Point","coordinates":[105.93529854979722,16.538590299611496]}},{"type":"Feature","properties":{"name_en":"Ta moun","did":1304,"pid":13,"uuid":"1.304055e+06"},"geometry":{"type":"Point","coordinates":[105.9039914702654,16.526815410444566]}},{"type":"Feature","properties":{"name_en":"Na xaeng kao","did":1304,"pid":13,"uuid":"1.304056e+06"},"geometry":{"type":"Point","coordinates":[105.93131312023012,16.643757459814438]}},{"type":"Feature","properties":{"name_en":"Na kha nok","did":1304,"pid":13,"uuid":"1.304057e+06"},"geometry":{"type":"Point","coordinates":[105.93044777021245,16.653746589933167]}},{"type":"Feature","properties":{"name_en":"Kham sa ee","did":1304,"pid":13,"uuid":"1.304058e+06"},"geometry":{"type":"Point","coordinates":[105.92001037986034,16.644046380365257]}},{"type":"Feature","properties":{"name_en":"Na thom xei","did":1304,"pid":13,"uuid":"1.30406e+06"},"geometry":{"type":"Point","coordinates":[105.924516659913,16.629366650337577]}},{"type":"Feature","properties":{"name_en":"Na thom kao","did":1304,"pid":13,"uuid":"1.304063e+06"},"geometry":{"type":"Point","coordinates":[105.92223326035162,16.62378330011457]}},{"type":"Feature","properties":{"name_en":"Pha lou","did":1304,"pid":13,"uuid":"1.304064e+06"},"geometry":{"type":"Point","coordinates":[105.95946659032721,16.734349989946573]}},{"type":"Feature","properties":{"name_en":"Nong luang","did":1304,"pid":13,"uuid":"1.304065e+06"},"geometry":{"type":"Point","coordinates":[105.91294996016708,16.704983319906678]}},{"type":"Feature","properties":{"name_en":"Na thou","did":1304,"pid":13,"uuid":"1.304067e+06"},"geometry":{"type":"Point","coordinates":[105.88154993040868,16.700789939853863]}},{"type":"Feature","properties":{"name_en":"Huoi xay","did":1304,"pid":13,"uuid":"1.304068e+06"},"geometry":{"type":"Point","coordinates":[105.94111995040167,16.684649999886346]}},{"type":"Feature","properties":{"name_en":"Som sa ath","did":1304,"pid":13,"uuid":"1.304069e+06"},"geometry":{"type":"Point","coordinates":[105.94113327980683,16.701699960215436]}},{"type":"Feature","properties":{"name_en":"Pha long","did":1304,"pid":13,"uuid":"1.304071e+06"},"geometry":{"type":"Point","coordinates":[105.98659999041715,16.685416609706408]}},{"type":"Feature","properties":{"name_en":"Na thong","did":1304,"pid":13,"uuid":"1.304073e+06"},"geometry":{"type":"Point","coordinates":[105.7868999700186,16.60892997997822]}},{"type":"Feature","properties":{"name_en":"Ar louy nhai","did":1304,"pid":13,"uuid":"1.304074e+06"},"geometry":{"type":"Point","coordinates":[105.7738905000759,16.569911210337942]}},{"type":"Feature","properties":{"name_en":"Kham noy","did":1304,"pid":13,"uuid":"1.304078e+06"},"geometry":{"type":"Point","coordinates":[105.77920698025709,16.54220190037361]}},{"type":"Feature","properties":{"name_en":"Khon kaen","did":1304,"pid":13,"uuid":"1.30408e+06"},"geometry":{"type":"Point","coordinates":[105.79961145994292,16.53011620018637]}},{"type":"Feature","properties":{"name_en":"Phonh xai","did":1304,"pid":13,"uuid":"1.304082e+06"},"geometry":{"type":"Point","coordinates":[105.84758494965544,16.466232600069684]}},{"type":"Feature","properties":{"name_en":"Ar nou sanh nha","did":1304,"pid":13,"uuid":"1.304087e+06"},"geometry":{"type":"Point","coordinates":[105.86511401974201,16.573490370082407]}},{"type":"Feature","properties":{"name_en":"Na thom khok","did":1304,"pid":13,"uuid":"1.304088e+06"},"geometry":{"type":"Point","coordinates":[105.84508026994048,16.60252360956736]}},{"type":"Feature","properties":{"name_en":"Tad hai sei","did":1304,"pid":13,"uuid":"1.304091e+06"},"geometry":{"type":"Point","coordinates":[105.95562918998843,16.28864898988743]}},{"type":"Feature","properties":{"name_en":"Tad hai khok","did":1304,"pid":13,"uuid":"1.304093e+06"},"geometry":{"type":"Point","coordinates":[105.95371946016854,16.247607169557046]}},{"type":"Feature","properties":{"name_en":"Nonh xai","did":1304,"pid":13,"uuid":"1.304094e+06"},"geometry":{"type":"Point","coordinates":[105.90785888042119,16.254224099861325]}},{"type":"Feature","properties":{"name_en":"Kaeng kua","did":1304,"pid":13,"uuid":"1.304096e+06"},"geometry":{"type":"Point","coordinates":[105.93442532044102,16.345032710413946]}},{"type":"Feature","properties":{"name_en":"Ka maeb sei","did":1304,"pid":13,"uuid":"1.304097e+06"},"geometry":{"type":"Point","coordinates":[105.90124707035072,16.26519701034707]}},{"type":"Feature","properties":{"name_en":"Kae","did":1304,"pid":13,"uuid":"1.304099e+06"},"geometry":{"type":"Point","coordinates":[105.86631539994566,16.29897155997225]}},{"type":"Feature","properties":{"name_en":"Phor xai","did":1304,"pid":13,"uuid":"1.304102e+06"},"geometry":{"type":"Point","coordinates":[105.82365125991889,16.291556840112367]}},{"type":"Feature","properties":{"name_en":"Thong la vieng","did":1304,"pid":13,"uuid":"1.304104e+06"},"geometry":{"type":"Point","coordinates":[105.79842248963305,16.28199769996381]}},{"type":"Feature","properties":{"name_en":"Tang ar lai","did":1304,"pid":13,"uuid":"1.304106e+06"},"geometry":{"type":"Point","coordinates":[105.74320955041375,16.28058107980824]}},{"type":"Feature","properties":{"name_en":"Na phek","did":1304,"pid":13,"uuid":"1.304107e+06"},"geometry":{"type":"Point","coordinates":[105.8002394297915,16.31157148993455]}},{"type":"Feature","properties":{"name_en":"Bork","did":1304,"pid":13,"uuid":"1.304108e+06"},"geometry":{"type":"Point","coordinates":[105.87922940040826,16.342630709767437]}},{"type":"Feature","properties":{"name_en":"Nong bour","did":1304,"pid":13,"uuid":"1.304109e+06"},"geometry":{"type":"Point","coordinates":[105.87945076953262,16.40866384955855]}},{"type":"Feature","properties":{"name_en":"Vong sy keo","did":1304,"pid":13,"uuid":"1.30411e+06"},"geometry":{"type":"Point","coordinates":[106.04115997002447,16.389719990019]}},{"type":"Feature","properties":{"name_en":"Nhang","did":1304,"pid":13,"uuid":"1.304111e+06"},"geometry":{"type":"Point","coordinates":[106.03870993966835,16.342839919868933]}},{"type":"Feature","properties":{"name_en":"Pa sith","did":1304,"pid":13,"uuid":"1.304112e+06"},"geometry":{"type":"Point","coordinates":[106.05441998036243,16.33088992999811]}},{"type":"Feature","properties":{"name_en":"Phonh sei","did":1304,"pid":13,"uuid":"1.304114e+06"},"geometry":{"type":"Point","coordinates":[106.0631899600716,16.32914993032118]}},{"type":"Feature","properties":{"name_en":"Kaeng xai","did":1304,"pid":13,"uuid":"1.304116e+06"},"geometry":{"type":"Point","coordinates":[106.10670997995703,16.364609989750505]}},{"type":"Feature","properties":{"name_en":"Ar louth mai","did":1304,"pid":13,"uuid":"1.304117e+06"},"geometry":{"type":"Point","coordinates":[106.08233992993573,16.372469949827096]}},{"type":"Feature","properties":{"name_en":"Ar louth khok","did":1304,"pid":13,"uuid":"1.304118e+06"},"geometry":{"type":"Point","coordinates":[106.06861992981683,16.40676996017416]}},{"type":"Feature","properties":{"name_en":"Ar pear","did":1304,"pid":13,"uuid":"1.304119e+06"},"geometry":{"type":"Point","coordinates":[106.16580993979908,16.49621995009899]}},{"type":"Feature","properties":{"name_en":"Nonh soung","did":1304,"pid":13,"uuid":"1.30412e+06"},"geometry":{"type":"Point","coordinates":[106.09939994966027,16.503383290371776]}},{"type":"Feature","properties":{"name_en":"Xang thang","did":1304,"pid":13,"uuid":"1.304122e+06"},"geometry":{"type":"Point","coordinates":[106.18927993986622,16.480789960015304]}},{"type":"Feature","properties":{"name_en":"Pa thong","did":1304,"pid":13,"uuid":"1.304123e+06"},"geometry":{"type":"Point","coordinates":[106.14463992980362,16.459979960397444]}},{"type":"Feature","properties":{"name_en":"Sob bon","did":1304,"pid":13,"uuid":"1.304124e+06"},"geometry":{"type":"Point","coordinates":[106.15174997026601,16.4459999498742]}},{"type":"Feature","properties":{"name_en":"Pha long","did":1304,"pid":13,"uuid":"1.304125e+06"},"geometry":{"type":"Point","coordinates":[106.1188099301029,16.466119950321044]}},{"type":"Feature","properties":{"name_en":"Sa veu","did":1304,"pid":13,"uuid":"1.304126e+06"},"geometry":{"type":"Point","coordinates":[106.12904993017754,16.458289999849864]}},{"type":"Feature","properties":{"name_en":"Kaeng ar lerng","did":1304,"pid":13,"uuid":"1.304127e+06"},"geometry":{"type":"Point","coordinates":[106.18129994989336,16.467999930261726]}},{"type":"Feature","properties":{"name_en":"Huoi hoy neua","did":1304,"pid":13,"uuid":"1.304128e+06"},"geometry":{"type":"Point","coordinates":[106.14915996013404,16.418199940079248]}},{"type":"Feature","properties":{"name_en":"Ar larn","did":1304,"pid":13,"uuid":"1.304131e+06"},"geometry":{"type":"Point","coordinates":[106.20453332996199,16.33984992971754]}},{"type":"Feature","properties":{"name_en":"Huoi sing","did":1304,"pid":13,"uuid":"1.304132e+06"},"geometry":{"type":"Point","coordinates":[106.17044999009816,16.3679666098061]}},{"type":"Feature","properties":{"name_en":"Thoun kharm","did":1304,"pid":13,"uuid":"1.304133e+06"},"geometry":{"type":"Point","coordinates":[106.16932992045014,16.347009919661655]}},{"type":"Feature","properties":{"name_en":"La kai","did":1304,"pid":13,"uuid":"1.304134e+06"},"geometry":{"type":"Point","coordinates":[106.19208327040164,16.364283260153677]}},{"type":"Feature","properties":{"name_en":"Pa tong","did":1304,"pid":13,"uuid":"1.304135e+06"},"geometry":{"type":"Point","coordinates":[106.20528324966168,16.32654994967657]}},{"type":"Feature","properties":{"name_en":"Sa loun","did":1304,"pid":13,"uuid":"1.304136e+06"},"geometry":{"type":"Point","coordinates":[106.17121994977875,16.315049979997514]}},{"type":"Feature","properties":{"name_en":"Pa xear","did":1304,"pid":13,"uuid":"1.304137e+06"},"geometry":{"type":"Point","coordinates":[106.107829970191,16.32582993998712]}},{"type":"Feature","properties":{"name_en":"Pa ok","did":1304,"pid":13,"uuid":"1.304138e+06"},"geometry":{"type":"Point","coordinates":[106.19879993959154,16.296099919638472]}},{"type":"Feature","properties":{"name_en":"Kaeng sa lang","did":1304,"pid":13,"uuid":"1.304139e+06"},"geometry":{"type":"Point","coordinates":[106.19451661975538,16.277649919611804]}},{"type":"Feature","properties":{"name_en":"Ka pang","did":1304,"pid":13,"uuid":"1.30414e+06"},"geometry":{"type":"Point","coordinates":[106.09785994974239,16.279029920219944]}},{"type":"Feature","properties":{"name_en":"Na pang","did":1304,"pid":13,"uuid":"1.304141e+06"},"geometry":{"type":"Point","coordinates":[106.16513327045028,16.305799960121085]}},{"type":"Feature","properties":{"name_en":"Boy","did":1304,"pid":13,"uuid":"1.304142e+06"},"geometry":{"type":"Point","coordinates":[106.16885995042648,16.249979920393972]}},{"type":"Feature","properties":{"name_en":"Phai","did":1304,"pid":13,"uuid":"1.304143e+06"},"geometry":{"type":"Point","coordinates":[106.08251996987887,16.286159990451367]}},{"type":"Feature","properties":{"name_en":"Sa lae neua","did":1304,"pid":13,"uuid":"1.304144e+06"},"geometry":{"type":"Point","coordinates":[105.85975179044952,16.526349540109926]}},{"type":"Feature","properties":{"name_en":"Sa lae tai","did":1304,"pid":13,"uuid":"1.304145e+06"},"geometry":{"type":"Point","coordinates":[105.7978613998229,16.485350550287688]}}]}