{"type":"FeatureCollection","features":[{"type":"Feature","properties":{"name_en":"Lou sa lear","did":1305,"pid":13,"uuid":"1.305001e+06"},"geometry":{"type":"Point","coordinates":[106.48820835991614,16.932551659846133]}},{"type":"Feature","properties":{"name_en":"Ta pong","did":1305,"pid":13,"uuid":"1.305002e+06"},"geometry":{"type":"Point","coordinates":[106.51607065040918,16.915724730207273]}},{"type":"Feature","properties":{"name_en":"Sopsalou","did":1305,"pid":13,"uuid":"1.305003e+06"},"geometry":{"type":"Point","coordinates":[106.44759593971445,16.90258056974455]}},{"type":"Feature","properties":{"name_en":"Sob sa lou","did":1305,"pid":13,"uuid":"1.305006e+06"},"geometry":{"type":"Point","coordinates":[106.45975557012632,16.885316949598202]}},{"type":"Feature","properties":{"name_en":"Tha phing","did":1305,"pid":13,"uuid":"1.305009e+06"},"geometry":{"type":"Point","coordinates":[106.37227415039409,16.908209179686278]}},{"type":"Feature","properties":{"name_en":"Na","did":1305,"pid":13,"uuid":"1.30501e+06"},"geometry":{"type":"Point","coordinates":[106.42328985016452,16.902911910117552]}},{"type":"Feature","properties":{"name_en":"Phar bang","did":1305,"pid":13,"uuid":"1.305012e+06"},"geometry":{"type":"Point","coordinates":[106.35063074002274,16.893271540297533]}},{"type":"Feature","properties":{"name_en":"Mai","did":1305,"pid":13,"uuid":"1.305013e+06"},"geometry":{"type":"Point","coordinates":[106.30662993970145,16.867767419846814]}},{"type":"Feature","properties":{"name_en":"Nam thonh","did":1305,"pid":13,"uuid":"1.305015e+06"},"geometry":{"type":"Point","coordinates":[106.2595349595602,16.851295060039217]}},{"type":"Feature","properties":{"name_en":"Ta puey","did":1305,"pid":13,"uuid":"1.305017e+06"},"geometry":{"type":"Point","coordinates":[106.31572824004742,16.8549254296744]}},{"type":"Feature","properties":{"name_en":"Kork mark","did":1305,"pid":13,"uuid":"1.305019e+06"},"geometry":{"type":"Point","coordinates":[106.40058846977118,16.86365408995667]}},{"type":"Feature","properties":{"name_en":"La ant","did":1305,"pid":13,"uuid":"1.30502e+06"},"geometry":{"type":"Point","coordinates":[106.45736983018244,16.84640405011788]}},{"type":"Feature","properties":{"name_en":"Ka lark","did":1305,"pid":13,"uuid":"1.305021e+06"},"geometry":{"type":"Point","coordinates":[106.53709757039367,16.83326381997173]}},{"type":"Feature","properties":{"name_en":"Sa ting","did":1305,"pid":13,"uuid":"1.305022e+06"},"geometry":{"type":"Point","coordinates":[106.53824697996298,16.82084552990178]}},{"type":"Feature","properties":{"name_en":"Na torn","did":1305,"pid":13,"uuid":"1.305024e+06"},"geometry":{"type":"Point","coordinates":[106.2518433900778,16.79533637978164]}},{"type":"Feature","properties":{"name_en":"Vang hai","did":1305,"pid":13,"uuid":"1.305026e+06"},"geometry":{"type":"Point","coordinates":[106.28587088998181,16.79028939001678]}},{"type":"Feature","properties":{"name_en":"Lard thor","did":1305,"pid":13,"uuid":"1.305029e+06"},"geometry":{"type":"Point","coordinates":[106.20637709034673,16.80649102009383]}},{"type":"Feature","properties":{"name_en":"pa ngar","did":1305,"pid":13,"uuid":"1.305032e+06"},"geometry":{"type":"Point","coordinates":[106.15189858034135,16.809263919969844]}},{"type":"Feature","properties":{"name_en":"Sa veth tai","did":1305,"pid":13,"uuid":"1.305035e+06"},"geometry":{"type":"Point","coordinates":[106.13786358008852,16.7806035103802]}},{"type":"Feature","properties":{"name_en":"La go","did":1305,"pid":13,"uuid":"1.305036e+06"},"geometry":{"type":"Point","coordinates":[106.52820168992763,16.806986470277124]}},{"type":"Feature","properties":{"name_en":"Sa doun","did":1305,"pid":13,"uuid":"1.305037e+06"},"geometry":{"type":"Point","coordinates":[106.53153089990954,16.78190866017059]}},{"type":"Feature","properties":{"name_en":"Pa nhouy","did":1305,"pid":13,"uuid":"1.305038e+06"},"geometry":{"type":"Point","coordinates":[106.52971319986482,16.810054920059443]}},{"type":"Feature","properties":{"name_en":"Houana","did":1305,"pid":13,"uuid":"1.30504e+06"},"geometry":{"type":"Point","coordinates":[106.35113993969935,16.777139940452358]}},{"type":"Feature","properties":{"name_en":"Tai","did":1305,"pid":13,"uuid":"1.305041e+06"},"geometry":{"type":"Point","coordinates":[106.36208510988689,16.773836039640187]}},{"type":"Feature","properties":{"name_en":"Xieng hom","did":1305,"pid":13,"uuid":"1.305044e+06"},"geometry":{"type":"Point","coordinates":[106.33027998000674,16.775299940420126]}},{"type":"Feature","properties":{"name_en":"La tueng","did":1305,"pid":13,"uuid":"1.305046e+06"},"geometry":{"type":"Point","coordinates":[106.43930581979957,16.725230309839503]}},{"type":"Feature","properties":{"name_en":"Koun","did":1305,"pid":13,"uuid":"1.305048e+06"},"geometry":{"type":"Point","coordinates":[106.3187499997179,16.748139979755916]}},{"type":"Feature","properties":{"name_en":"Vang mor thoum","did":1305,"pid":13,"uuid":"1.305049e+06"},"geometry":{"type":"Point","coordinates":[106.07216999984183,16.833469930086338]}},{"type":"Feature","properties":{"name_en":"Sob my","did":1305,"pid":13,"uuid":"1.305054e+06"},"geometry":{"type":"Point","coordinates":[106.08859994999068,16.816229950340947]}},{"type":"Feature","properties":{"name_en":"Keng kerb","did":1305,"pid":13,"uuid":"1.305056e+06"},"geometry":{"type":"Point","coordinates":[106.09728998006719,16.799449969551073]}},{"type":"Feature","properties":{"name_en":"Vang lerk","did":1305,"pid":13,"uuid":"1.305057e+06"},"geometry":{"type":"Point","coordinates":[106.52027994957919,16.728039920020983]}},{"type":"Feature","properties":{"name_en":"Tor heua","did":1305,"pid":13,"uuid":"1.305059e+06"},"geometry":{"type":"Point","coordinates":[106.4530217198991,16.734314369777845]}},{"type":"Feature","properties":{"name_en":"Sa land","did":1305,"pid":13,"uuid":"1.30506e+06"},"geometry":{"type":"Point","coordinates":[106.49555686042706,16.733364360421376]}},{"type":"Feature","properties":{"name_en":"Vang nheng neua","did":1305,"pid":13,"uuid":"1.305062e+06"},"geometry":{"type":"Point","coordinates":[106.27543994957863,16.74712995957197]}},{"type":"Feature","properties":{"name_en":"Pha lors","did":1305,"pid":13,"uuid":"1.305064e+06"},"geometry":{"type":"Point","coordinates":[106.22100997001664,16.730379980198613]}},{"type":"Feature","properties":{"name_en":"KairVeng","did":1305,"pid":13,"uuid":"1.305066e+06"},"geometry":{"type":"Point","coordinates":[106.25576000030757,16.738239950441436]}},{"type":"Feature","properties":{"name_en":"Houi yerng","did":1305,"pid":13,"uuid":"1.305067e+06"},"geometry":{"type":"Point","coordinates":[106.21759996016098,16.718859980143037]}},{"type":"Feature","properties":{"name_en":"Sa kaeng","did":1305,"pid":13,"uuid":"1.305069e+06"},"geometry":{"type":"Point","coordinates":[106.18084991977526,16.73905995027887]}},{"type":"Feature","properties":{"name_en":"Houi torn","did":1305,"pid":13,"uuid":"1.305071e+06"},"geometry":{"type":"Point","coordinates":[106.24069998034119,16.709169999991037]}},{"type":"Feature","properties":{"name_en":"Phorn hai","did":1305,"pid":13,"uuid":"1.305073e+06"},"geometry":{"type":"Point","coordinates":[106.12866930965987,16.759503409708987]}},{"type":"Feature","properties":{"name_en":"Na bor","did":1305,"pid":13,"uuid":"1.305076e+06"},"geometry":{"type":"Point","coordinates":[106.1626549898406,16.71695117017586]}},{"type":"Feature","properties":{"name_en":"Phorn moung","did":1305,"pid":13,"uuid":"1.305077e+06"},"geometry":{"type":"Point","coordinates":[106.19534609028635,16.705797450405313]}},{"type":"Feature","properties":{"name_en":"Houi jaeng kao","did":1305,"pid":13,"uuid":"1.305082e+06"},"geometry":{"type":"Point","coordinates":[106.24369039020142,16.68772053995568]}},{"type":"Feature","properties":{"name_en":"Moung sand","did":1305,"pid":13,"uuid":"1.305083e+06"},"geometry":{"type":"Point","coordinates":[106.27030402011073,16.68067009965279]}},{"type":"Feature","properties":{"name_en":"Kaeng thong","did":1305,"pid":13,"uuid":"1.305085e+06"},"geometry":{"type":"Point","coordinates":[106.32488488038445,16.657425160050984]}},{"type":"Feature","properties":{"name_en":"Moung tiane","did":1305,"pid":13,"uuid":"1.305087e+06"},"geometry":{"type":"Point","coordinates":[106.28885912953722,16.665287300168448]}},{"type":"Feature","properties":{"name_en":"Say porn","did":1305,"pid":13,"uuid":"1.305088e+06"},"geometry":{"type":"Point","coordinates":[106.23685477965593,16.681670650434263]}},{"type":"Feature","properties":{"name_en":"Tha khong","did":1305,"pid":13,"uuid":"1.305091e+06"},"geometry":{"type":"Point","coordinates":[106.2081872502625,16.695562139749427]}},{"type":"Feature","properties":{"name_en":"Kaeng hua pa","did":1305,"pid":13,"uuid":"1.305092e+06"},"geometry":{"type":"Point","coordinates":[106.19727862023733,16.671940099978677]}},{"type":"Feature","properties":{"name_en":"Ka laeng kang","did":1305,"pid":13,"uuid":"1.305094e+06"},"geometry":{"type":"Point","coordinates":[106.31523245019781,16.684281530297017]}},{"type":"Feature","properties":{"name_en":"kaeng","did":1305,"pid":13,"uuid":"1.3051e+06"},"geometry":{"type":"Point","coordinates":[106.39554943963381,16.645132840104935]}},{"type":"Feature","properties":{"name_en":"Ar lang","did":1305,"pid":13,"uuid":"1.305104e+06"},"geometry":{"type":"Point","coordinates":[106.35372894020432,16.64759486027691]}},{"type":"Feature","properties":{"name_en":"Kaeng luang","did":1305,"pid":13,"uuid":"1.305105e+06"},"geometry":{"type":"Point","coordinates":[106.3862476202011,16.647412719605995]}},{"type":"Feature","properties":{"name_en":"La kheum","did":1305,"pid":13,"uuid":"1.305108e+06"},"geometry":{"type":"Point","coordinates":[106.41653059953153,16.56320199960362]}},{"type":"Feature","properties":{"name_en":"Pa lai","did":1305,"pid":13,"uuid":"1.305109e+06"},"geometry":{"type":"Point","coordinates":[106.3876418702746,16.567363950310835]}},{"type":"Feature","properties":{"name_en":"Ar hor","did":1305,"pid":13,"uuid":"1.305111e+06"},"geometry":{"type":"Point","coordinates":[106.4296478600749,16.690126730148677]}},{"type":"Feature","properties":{"name_en":"Vang ping","did":1305,"pid":13,"uuid":"1.305113e+06"},"geometry":{"type":"Point","coordinates":[106.49195004002584,16.63342852002873]}},{"type":"Feature","properties":{"name_en":"Sa moun","did":1305,"pid":13,"uuid":"1.305116e+06"},"geometry":{"type":"Point","coordinates":[106.49922368994842,16.62013960039345]}},{"type":"Feature","properties":{"name_en":"Dong sa wanh","did":1305,"pid":13,"uuid":"1.305118e+06"},"geometry":{"type":"Point","coordinates":[106.42808588964995,16.634895439806698]}},{"type":"Feature","properties":{"name_en":"Sa ki phyn","did":1305,"pid":13,"uuid":"1.305119e+06"},"geometry":{"type":"Point","coordinates":[106.46591810955891,16.601914660259638]}},{"type":"Feature","properties":{"name_en":"Dong nhai","did":1305,"pid":13,"uuid":"1.305121e+06"},"geometry":{"type":"Point","coordinates":[106.41669505041631,16.627422050441613]}},{"type":"Feature","properties":{"name_en":"Ma hath","did":1305,"pid":13,"uuid":"1.305124e+06"},"geometry":{"type":"Point","coordinates":[106.64107884954323,16.58971655956834]}},{"type":"Feature","properties":{"name_en":"Chieng","did":1305,"pid":13,"uuid":"1.305126e+06"},"geometry":{"type":"Point","coordinates":[106.65160266972768,16.516115660256318]}},{"type":"Feature","properties":{"name_en":"Ka laeng","did":1305,"pid":13,"uuid":"1.305127e+06"},"geometry":{"type":"Point","coordinates":[106.6467800002192,16.53435000019663]}},{"type":"Feature","properties":{"name_en":"ka toub neua","did":1305,"pid":13,"uuid":"1.305128e+06"},"geometry":{"type":"Point","coordinates":[106.62346395023806,16.59778179954866]}},{"type":"Feature","properties":{"name_en":"Katoupnoy","did":1305,"pid":13,"uuid":"1.305129e+06"},"geometry":{"type":"Point","coordinates":[106.59189862033793,16.59872366959217]}},{"type":"Feature","properties":{"name_en":"Ar sing","did":1305,"pid":13,"uuid":"1.305131e+06"},"geometry":{"type":"Point","coordinates":[106.54802665008687,16.58160387985755]}},{"type":"Feature","properties":{"name_en":"Fueng","did":1305,"pid":13,"uuid":"1.305132e+06"},"geometry":{"type":"Point","coordinates":[106.55766123017276,16.620938309781323]}},{"type":"Feature","properties":{"name_en":"Huoi sane","did":1305,"pid":13,"uuid":"1.305134e+06"},"geometry":{"type":"Point","coordinates":[106.53941717978076,16.600842029901226]}},{"type":"Feature","properties":{"name_en":"Kaeng kok","did":1305,"pid":13,"uuid":"1.305136e+06"},"geometry":{"type":"Point","coordinates":[106.51255243044396,16.57990236036597]}},{"type":"Feature","properties":{"name_en":"Kaeng yang","did":1305,"pid":13,"uuid":"1.305138e+06"},"geometry":{"type":"Point","coordinates":[106.47171327962948,16.60634683987142]}},{"type":"Feature","properties":{"name_en":"La bo kang","did":1305,"pid":13,"uuid":"1.305141e+06"},"geometry":{"type":"Point","coordinates":[106.12954370954624,16.684684029725897]}},{"type":"Feature","properties":{"name_en":"Phonh xai","did":1305,"pid":13,"uuid":"1.305142e+06"},"geometry":{"type":"Point","coordinates":[106.12959650973718,16.679669800414253]}},{"type":"Feature","properties":{"name_en":"La bo tham","did":1305,"pid":13,"uuid":"1.305143e+06"},"geometry":{"type":"Point","coordinates":[106.1099143004059,16.63984352991582]}},{"type":"Feature","properties":{"name_en":"Na luang nhai","did":1305,"pid":13,"uuid":"1.305144e+06"},"geometry":{"type":"Point","coordinates":[106.15424734953429,16.674450559603745]}},{"type":"Feature","properties":{"name_en":"Manh chy","did":1305,"pid":13,"uuid":"1.305147e+06"},"geometry":{"type":"Point","coordinates":[106.16554908998782,16.66422447029968]}},{"type":"Feature","properties":{"name_en":"Kaeng kha mae","did":1305,"pid":13,"uuid":"1.305148e+06"},"geometry":{"type":"Point","coordinates":[106.20177207972968,16.642706110112762]}},{"type":"Feature","properties":{"name_en":"Kaeng kiew","did":1305,"pid":13,"uuid":"1.305149e+06"},"geometry":{"type":"Point","coordinates":[106.1803307499717,16.638659329693592]}},{"type":"Feature","properties":{"name_en":"Na hua nam","did":1305,"pid":13,"uuid":"1.30515e+06"},"geometry":{"type":"Point","coordinates":[106.1815618802173,16.634558650180878]}},{"type":"Feature","properties":{"name_en":"La or kao","did":1305,"pid":13,"uuid":"1.305152e+06"},"geometry":{"type":"Point","coordinates":[106.15881112992886,16.611438430094616]}},{"type":"Feature","properties":{"name_en":"Huoi chung","did":1305,"pid":13,"uuid":"1.305155e+06"},"geometry":{"type":"Point","coordinates":[106.12670995035326,16.724984719580604]}},{"type":"Feature","properties":{"name_en":"Son my xai","did":1305,"pid":13,"uuid":"1.305156e+06"},"geometry":{"type":"Point","coordinates":[106.20831105039441,16.701661320163158]}},{"type":"Feature","properties":{"name_en":"Ou dom souk","did":1305,"pid":13,"uuid":"1.305157e+06"},"geometry":{"type":"Point","coordinates":[106.20820611015166,16.695528869634096]}},{"type":"Feature","properties":{"name_en":"Vong vi lai","did":1305,"pid":13,"uuid":"1.305159e+06"},"geometry":{"type":"Point","coordinates":[106.20569422026762,16.69765836967764]}},{"type":"Feature","properties":{"name_en":"Daen sa wanh","did":1305,"pid":13,"uuid":"1.30516e+06"},"geometry":{"type":"Point","coordinates":[106.58166055045513,16.62620869026255]}},{"type":"Feature","properties":{"name_en":"La vern","did":1305,"pid":13,"uuid":"1.305162e+06"},"geometry":{"type":"Point","coordinates":[106.44660234969407,16.9308454400657]}},{"type":"Feature","properties":{"name_en":"Ta ngy","did":1305,"pid":13,"uuid":"1.305163e+06"},"geometry":{"type":"Point","coordinates":[106.39510510961993,16.81338907009123]}},{"type":"Feature","properties":{"name_en":"Lath","did":1305,"pid":13,"uuid":"1.305164e+06"},"geometry":{"type":"Point","coordinates":[106.13437997963034,16.872479979786664]}}]}