{"type":"FeatureCollection","features":[{"type":"Feature","properties":{"name_en":"Palor","did":1306,"pid":13,"uuid":"1.306002e+06"},"geometry":{"type":"Point","coordinates":[106.69101315874572,16.448730317655723]}},{"type":"Feature","properties":{"name_en":"Ouy","did":1306,"pid":13,"uuid":"1.306004e+06"},"geometry":{"type":"Point","coordinates":[106.70868291976245,16.43154367997425]}},{"type":"Feature","properties":{"name_en":"La ou","did":1306,"pid":13,"uuid":"1.306008e+06"},"geometry":{"type":"Point","coordinates":[106.4029507401884,16.540979990251618]}},{"type":"Feature","properties":{"name_en":"Sang phou","did":1306,"pid":13,"uuid":"1.306009e+06"},"geometry":{"type":"Point","coordinates":[106.43142935014156,16.579679569634582]}},{"type":"Feature","properties":{"name_en":"Sa loy mai","did":1306,"pid":13,"uuid":"1.30601e+06"},"geometry":{"type":"Point","coordinates":[106.43552717984488,16.57531989031817]}},{"type":"Feature","properties":{"name_en":"Sa loy kao","did":1306,"pid":13,"uuid":"1.306011e+06"},"geometry":{"type":"Point","coordinates":[106.4396085796276,16.566686020121324]}},{"type":"Feature","properties":{"name_en":"Tam luang","did":1306,"pid":13,"uuid":"1.306012e+06"},"geometry":{"type":"Point","coordinates":[106.46780094030494,16.530167749871893]}},{"type":"Feature","properties":{"name_en":"Na kong","did":1306,"pid":13,"uuid":"1.306013e+06"},"geometry":{"type":"Point","coordinates":[106.47879012036738,16.520230329726676]}},{"type":"Feature","properties":{"name_en":"Houb","did":1306,"pid":13,"uuid":"1.306014e+06"},"geometry":{"type":"Point","coordinates":[106.49596052970497,16.550365120417645]}},{"type":"Feature","properties":{"name_en":"Na long kao","did":1306,"pid":13,"uuid":"1.306015e+06"},"geometry":{"type":"Point","coordinates":[106.48709483043777,16.49839221035187]}},{"type":"Feature","properties":{"name_en":"La der","did":1306,"pid":13,"uuid":"1.306016e+06"},"geometry":{"type":"Point","coordinates":[106.5376345196564,16.52276962976104]}},{"type":"Feature","properties":{"name_en":"Ar pork","did":1306,"pid":13,"uuid":"1.306017e+06"},"geometry":{"type":"Point","coordinates":[106.55438867996355,16.531393520378813]}},{"type":"Feature","properties":{"name_en":"Saen","did":1306,"pid":13,"uuid":"1.306018e+06"},"geometry":{"type":"Point","coordinates":[106.569265300003,16.52315779975846]}},{"type":"Feature","properties":{"name_en":"Ar sing la sy","did":1306,"pid":13,"uuid":"1.306019e+06"},"geometry":{"type":"Point","coordinates":[106.54692133032644,16.49366448029887]}},{"type":"Feature","properties":{"name_en":"Ar sing na","did":1306,"pid":13,"uuid":"1.306021e+06"},"geometry":{"type":"Point","coordinates":[106.60800075973877,16.49909586990816]}},{"type":"Feature","properties":{"name_en":"Ar sing sa nae","did":1306,"pid":13,"uuid":"1.306022e+06"},"geometry":{"type":"Point","coordinates":[106.57446762033186,16.50269480031294]}},{"type":"Feature","properties":{"name_en":"Pa lieng kao","did":1306,"pid":13,"uuid":"1.306023e+06"},"geometry":{"type":"Point","coordinates":[106.66094824000322,16.46899602981487]}},{"type":"Feature","properties":{"name_en":"Pa lieng lao","did":1306,"pid":13,"uuid":"1.306024e+06"},"geometry":{"type":"Point","coordinates":[106.62018225995709,16.435381579869613]}},{"type":"Feature","properties":{"name_en":"Pa lieng nay","did":1306,"pid":13,"uuid":"1.306026e+06"},"geometry":{"type":"Point","coordinates":[106.61383330995193,16.446681650069166]}},{"type":"Feature","properties":{"name_en":"Pa lieng nhai","did":1306,"pid":13,"uuid":"1.306027e+06"},"geometry":{"type":"Point","coordinates":[106.5271542896747,16.438329749992207]}},{"type":"Feature","properties":{"name_en":"Na long yai","did":1306,"pid":13,"uuid":"1.306028e+06"},"geometry":{"type":"Point","coordinates":[106.48915669003384,16.46946584034366]}},{"type":"Feature","properties":{"name_en":"Sa ly yai","did":1306,"pid":13,"uuid":"1.306031e+06"},"geometry":{"type":"Point","coordinates":[106.51187600979867,16.437699350054622]}},{"type":"Feature","properties":{"name_en":"Poun coui yer","did":1306,"pid":13,"uuid":"1.306034e+06"},"geometry":{"type":"Point","coordinates":[106.5285091400723,16.410394540258782]}},{"type":"Feature","properties":{"name_en":"Poun tong","did":1306,"pid":13,"uuid":"1.306035e+06"},"geometry":{"type":"Point","coordinates":[106.5255335600495,16.38779567968141]}},{"type":"Feature","properties":{"name_en":"Ngang","did":1306,"pid":13,"uuid":"1.306036e+06"},"geometry":{"type":"Point","coordinates":[106.52070516968526,16.392927749811932]}},{"type":"Feature","properties":{"name_en":"Tang ar lai kao","did":1306,"pid":13,"uuid":"1.306038e+06"},"geometry":{"type":"Point","coordinates":[106.54356395971743,16.340082610179493]}},{"type":"Feature","properties":{"name_en":"Tang ar lai nam","did":1306,"pid":13,"uuid":"1.30604e+06"},"geometry":{"type":"Point","coordinates":[106.51400752046408,16.330563539753264]}},{"type":"Feature","properties":{"name_en":"Tang ar lai neua","did":1306,"pid":13,"uuid":"1.306041e+06"},"geometry":{"type":"Point","coordinates":[106.51584525974509,16.322488919638364]}},{"type":"Feature","properties":{"name_en":"Sand mai","did":1306,"pid":13,"uuid":"1.306043e+06"},"geometry":{"type":"Point","coordinates":[106.51560745978496,16.285491190261247]}},{"type":"Feature","properties":{"name_en":"Pa toy noy","did":1306,"pid":13,"uuid":"1.306045e+06"},"geometry":{"type":"Point","coordinates":[106.50959796991333,16.282750650258347]}},{"type":"Feature","properties":{"name_en":"Ta loung","did":1306,"pid":13,"uuid":"1.306046e+06"},"geometry":{"type":"Point","coordinates":[106.5074683800392,16.240334610052532]}},{"type":"Feature","properties":{"name_en":"Pa toy nhai","did":1306,"pid":13,"uuid":"1.306049e+06"},"geometry":{"type":"Point","coordinates":[106.55058414020985,16.2973658401583]}},{"type":"Feature","properties":{"name_en":"la kai","did":1306,"pid":13,"uuid":"1.306051e+06"},"geometry":{"type":"Point","coordinates":[106.56335211984633,16.28020028997096]}},{"type":"Feature","properties":{"name_en":"La nhaeng khok","did":1306,"pid":13,"uuid":"1.306052e+06"},"geometry":{"type":"Point","coordinates":[106.57142422970004,16.332656079714557]}},{"type":"Feature","properties":{"name_en":"La baeng nam","did":1306,"pid":13,"uuid":"1.306053e+06"},"geometry":{"type":"Point","coordinates":[106.56039063038429,16.30206531968615]}},{"type":"Feature","properties":{"name_en":"Ta nhong","did":1306,"pid":13,"uuid":"1.306054e+06"},"geometry":{"type":"Point","coordinates":[106.57807225021571,16.26055242997437]}},{"type":"Feature","properties":{"name_en":"Pa nae","did":1306,"pid":13,"uuid":"1.306055e+06"},"geometry":{"type":"Point","coordinates":[106.6212163395379,16.216649450383702]}},{"type":"Feature","properties":{"name_en":"Xuang khanh khak","did":1306,"pid":13,"uuid":"1.306057e+06"},"geometry":{"type":"Point","coordinates":[106.45404372019176,16.451944809803713]}},{"type":"Feature","properties":{"name_en":"Pa loy","did":1306,"pid":13,"uuid":"1.306059e+06"},"geometry":{"type":"Point","coordinates":[106.43678621964256,16.48030632027064]}},{"type":"Feature","properties":{"name_en":"Sa lang","did":1306,"pid":13,"uuid":"1.30606e+06"},"geometry":{"type":"Point","coordinates":[106.41096048984765,16.480102469817925]}},{"type":"Feature","properties":{"name_en":"Xuang nhai","did":1306,"pid":13,"uuid":"1.306061e+06"},"geometry":{"type":"Point","coordinates":[106.44524716996857,16.447821169683955]}},{"type":"Feature","properties":{"name_en":"Pa sia","did":1306,"pid":13,"uuid":"1.306063e+06"},"geometry":{"type":"Point","coordinates":[106.41722520961996,16.441189069716216]}},{"type":"Feature","properties":{"name_en":"Xuang tai","did":1306,"pid":13,"uuid":"1.306064e+06"},"geometry":{"type":"Point","coordinates":[106.44800657028853,16.444846849803962]}},{"type":"Feature","properties":{"name_en":"Ar luoi","did":1306,"pid":13,"uuid":"1.306065e+06"},"geometry":{"type":"Point","coordinates":[106.27522940015393,16.568227119666098]}},{"type":"Feature","properties":{"name_en":"Ar lao nhai","did":1306,"pid":13,"uuid":"1.306068e+06"},"geometry":{"type":"Point","coordinates":[106.31761903038588,16.543777779803264]}},{"type":"Feature","properties":{"name_en":"La pith","did":1306,"pid":13,"uuid":"1.306069e+06"},"geometry":{"type":"Point","coordinates":[106.33645919977992,16.516074329994467]}},{"type":"Feature","properties":{"name_en":"Bang ya lang","did":1306,"pid":13,"uuid":"1.306071e+06"},"geometry":{"type":"Point","coordinates":[106.39674361017684,16.505187160046518]}},{"type":"Feature","properties":{"name_en":"Phoun mark my","did":1306,"pid":13,"uuid":"1.306072e+06"},"geometry":{"type":"Point","coordinates":[106.36893211987986,16.47623321968971]}},{"type":"Feature","properties":{"name_en":"Alaophor","did":1306,"pid":13,"uuid":"1.306073e+06"},"geometry":{"type":"Point","coordinates":[106.3516320402588,16.5046342104445]}},{"type":"Feature","properties":{"name_en":"Por nam","did":1306,"pid":13,"uuid":"1.306076e+06"},"geometry":{"type":"Point","coordinates":[106.33792401983216,16.47430077004442]}},{"type":"Feature","properties":{"name_en":"Por khok","did":1306,"pid":13,"uuid":"1.306077e+06"},"geometry":{"type":"Point","coordinates":[106.29333096002661,16.474689440389678]}},{"type":"Feature","properties":{"name_en":"La bao khok","did":1306,"pid":13,"uuid":"1.306078e+06"},"geometry":{"type":"Point","coordinates":[106.31975541000917,16.453981189841574]}},{"type":"Feature","properties":{"name_en":"La bao nam","did":1306,"pid":13,"uuid":"1.306079e+06"},"geometry":{"type":"Point","coordinates":[106.30623438961938,16.392796820161816]}},{"type":"Feature","properties":{"name_en":"Kai son","did":1306,"pid":13,"uuid":"1.306081e+06"},"geometry":{"type":"Point","coordinates":[106.40693751008872,16.418383750222585]}},{"type":"Feature","properties":{"name_en":"Phou thai","did":1306,"pid":13,"uuid":"1.306084e+06"},"geometry":{"type":"Point","coordinates":[106.3647558396515,16.450981649595366]}},{"type":"Feature","properties":{"name_en":"Pa cha tien","did":1306,"pid":13,"uuid":"1.306086e+06"},"geometry":{"type":"Point","coordinates":[106.3449821703516,16.439694489867975]}},{"type":"Feature","properties":{"name_en":"Kaeng lin","did":1306,"pid":13,"uuid":"1.306088e+06"},"geometry":{"type":"Point","coordinates":[106.38314404986332,16.427688169933333]}},{"type":"Feature","properties":{"name_en":"Tha thei","did":1306,"pid":13,"uuid":"1.306089e+06"},"geometry":{"type":"Point","coordinates":[106.41013218994034,16.41471113964696]}},{"type":"Feature","properties":{"name_en":"Ta kor","did":1306,"pid":13,"uuid":"1.306091e+06"},"geometry":{"type":"Point","coordinates":[106.45192335004533,16.371931499699336]}},{"type":"Feature","properties":{"name_en":"Loh","did":1306,"pid":13,"uuid":"1.306092e+06"},"geometry":{"type":"Point","coordinates":[106.43419789031707,16.384172509549366]}},{"type":"Feature","properties":{"name_en":"Khoun sy","did":1306,"pid":13,"uuid":"1.306093e+06"},"geometry":{"type":"Point","coordinates":[106.42222475999891,16.38432606989563]}},{"type":"Feature","properties":{"name_en":"Ta ling","did":1306,"pid":13,"uuid":"1.306094e+06"},"geometry":{"type":"Point","coordinates":[106.40057062016407,16.337176519567468]}},{"type":"Feature","properties":{"name_en":"Sa veu","did":1306,"pid":13,"uuid":"1.306095e+06"},"geometry":{"type":"Point","coordinates":[106.41752771025462,16.31074511038419]}},{"type":"Feature","properties":{"name_en":"Ar long","did":1306,"pid":13,"uuid":"1.306097e+06"},"geometry":{"type":"Point","coordinates":[106.47314005005163,16.354947080112826]}},{"type":"Feature","properties":{"name_en":"Por","did":1306,"pid":13,"uuid":"1.306098e+06"},"geometry":{"type":"Point","coordinates":[106.4749666429721,16.31018036790466]}},{"type":"Feature","properties":{"name_en":"Nong vi lai","did":1306,"pid":13,"uuid":"1.306099e+06"},"geometry":{"type":"Point","coordinates":[106.4977927304125,16.374633740183764]}},{"type":"Feature","properties":{"name_en":"Daen vi lai","did":1306,"pid":13,"uuid":"1.3061e+06"},"geometry":{"type":"Point","coordinates":[106.65765104958047,16.486544550008592]}},{"type":"Feature","properties":{"name_en":"Nonh sa wang","did":1306,"pid":13,"uuid":"1.306101e+06"},"geometry":{"type":"Point","coordinates":[106.49207551986603,16.408045770046233]}},{"type":"Feature","properties":{"name_en":"Dong na sane","did":1306,"pid":13,"uuid":"1.306102e+06"},"geometry":{"type":"Point","coordinates":[106.48760117968875,16.444834529841547]}},{"type":"Feature","properties":{"name_en":"Ka laeng phou nhai","did":1306,"pid":13,"uuid":"1.306103e+06"},"geometry":{"type":"Point","coordinates":[106.59445393015379,16.546788560202007]}}]}