{"type":"FeatureCollection","features":[{"type":"Feature","properties":{"name_en":"Sa teung","did":1307,"pid":13,"uuid":"1.307004e+06"},"geometry":{"type":"Point","coordinates":[106.112991290276,16.025057420131546]}},{"type":"Feature","properties":{"name_en":"Nieng","did":1307,"pid":13,"uuid":"1.307007e+06"},"geometry":{"type":"Point","coordinates":[106.08478426030221,16.01618290956106]}},{"type":"Feature","properties":{"name_en":"Xei keu","did":1307,"pid":13,"uuid":"1.307011e+06"},"geometry":{"type":"Point","coordinates":[106.05034024981218,16.01934062025933]}},{"type":"Feature","properties":{"name_en":"Ar thor","did":1307,"pid":13,"uuid":"1.307013e+06"},"geometry":{"type":"Point","coordinates":[106.02979151987006,16.017437090202048]}},{"type":"Feature","properties":{"name_en":"NA lao","did":1307,"pid":13,"uuid":"1.307015e+06"},"geometry":{"type":"Point","coordinates":[105.9976728197234,16.0085149798216]}},{"type":"Feature","properties":{"name_en":"Phou ma ly","did":1307,"pid":13,"uuid":"1.307017e+06"},"geometry":{"type":"Point","coordinates":[105.90287683984359,16.03230131000865]}},{"type":"Feature","properties":{"name_en":"Na pa xath","did":1307,"pid":13,"uuid":"1.307018e+06"},"geometry":{"type":"Point","coordinates":[105.95026954989109,15.9917174698779]}},{"type":"Feature","properties":{"name_en":"Huoi hang","did":1307,"pid":13,"uuid":"1.307019e+06"},"geometry":{"type":"Point","coordinates":[105.93824705011647,15.959200720093703]}},{"type":"Feature","properties":{"name_en":"Bouth ta phane","did":1307,"pid":13,"uuid":"1.307022e+06"},"geometry":{"type":"Point","coordinates":[105.84331026000196,15.969438289570974]}},{"type":"Feature","properties":{"name_en":"Huoi meun","did":1307,"pid":13,"uuid":"1.307024e+06"},"geometry":{"type":"Point","coordinates":[105.81370998996194,15.97388991963425]}},{"type":"Feature","properties":{"name_en":"Mai khok","did":1307,"pid":13,"uuid":"1.307027e+06"},"geometry":{"type":"Point","coordinates":[105.81369306016734,16.02827807976312]}},{"type":"Feature","properties":{"name_en":"Koud hy","did":1307,"pid":13,"uuid":"1.307031e+06"},"geometry":{"type":"Point","coordinates":[105.77418998987278,15.990809969784655]}},{"type":"Feature","properties":{"name_en":"Na hua khuoi","did":1307,"pid":13,"uuid":"1.307032e+06"},"geometry":{"type":"Point","coordinates":[105.77755993030057,16.011689960270477]}},{"type":"Feature","properties":{"name_en":"Nong kanh","did":1307,"pid":13,"uuid":"1.307033e+06"},"geometry":{"type":"Point","coordinates":[105.76147112042247,16.004634490111584]}},{"type":"Feature","properties":{"name_en":"Kaeng kaeb","did":1307,"pid":13,"uuid":"1.307035e+06"},"geometry":{"type":"Point","coordinates":[105.75259519038175,15.98046367991696]}},{"type":"Feature","properties":{"name_en":"Tha sa la kham","did":1307,"pid":13,"uuid":"1.307036e+06"},"geometry":{"type":"Point","coordinates":[105.7560157596861,15.993622510365347]}},{"type":"Feature","properties":{"name_en":"Nonh chane","did":1307,"pid":13,"uuid":"1.307037e+06"},"geometry":{"type":"Point","coordinates":[105.74183994969009,15.993329989696361]}},{"type":"Feature","properties":{"name_en":"Dong noy","did":1307,"pid":13,"uuid":"1.307038e+06"},"geometry":{"type":"Point","coordinates":[105.7086899395541,15.98979995021774]}},{"type":"Feature","properties":{"name_en":"Kaeng ping","did":1307,"pid":13,"uuid":"1.30704e+06"},"geometry":{"type":"Point","coordinates":[105.72001196012116,16.020535799636175]}},{"type":"Feature","properties":{"name_en":"Na xeuak","did":1307,"pid":13,"uuid":"1.307042e+06"},"geometry":{"type":"Point","coordinates":[105.669277899914,16.016532430307382]}},{"type":"Feature","properties":{"name_en":"Nong saeng","did":1307,"pid":13,"uuid":"1.307045e+06"},"geometry":{"type":"Point","coordinates":[105.78927992958266,16.030129979856824]}},{"type":"Feature","properties":{"name_en":"Pa dong","did":1307,"pid":13,"uuid":"1.307048e+06"},"geometry":{"type":"Point","coordinates":[106.02072824963352,16.188438809708998]}},{"type":"Feature","properties":{"name_en":"Houylai","did":1307,"pid":13,"uuid":"1.307049e+06"},"geometry":{"type":"Point","coordinates":[105.88109118970173,16.209305729949314]}},{"type":"Feature","properties":{"name_en":"La vang nhai","did":1307,"pid":13,"uuid":"1.30705e+06"},"geometry":{"type":"Point","coordinates":[105.83344175039043,16.226295679904727]}},{"type":"Feature","properties":{"name_en":"Xei pong","did":1307,"pid":13,"uuid":"1.307052e+06"},"geometry":{"type":"Point","coordinates":[105.82974885035323,16.213524680157644]}},{"type":"Feature","properties":{"name_en":"Na chanh thang","did":1307,"pid":13,"uuid":"1.307056e+06"},"geometry":{"type":"Point","coordinates":[105.82369467961364,16.16730703035722]}},{"type":"Feature","properties":{"name_en":"Na pheu","did":1307,"pid":13,"uuid":"1.307057e+06"},"geometry":{"type":"Point","coordinates":[105.81164762020649,16.144576569929864]}},{"type":"Feature","properties":{"name_en":"Hin tang khok","did":1307,"pid":13,"uuid":"1.307061e+06"},"geometry":{"type":"Point","coordinates":[105.76724356981427,16.182472580407396]}},{"type":"Feature","properties":{"name_en":"Hin tang kang","did":1307,"pid":13,"uuid":"1.307062e+06"},"geometry":{"type":"Point","coordinates":[105.79244636006433,16.193077950260665]}},{"type":"Feature","properties":{"name_en":"Pa toy neua","did":1307,"pid":13,"uuid":"1.307064e+06"},"geometry":{"type":"Point","coordinates":[105.76822449990385,16.235072959679762]}},{"type":"Feature","properties":{"name_en":"Nonh sa wang","did":1307,"pid":13,"uuid":"1.307065e+06"},"geometry":{"type":"Point","coordinates":[105.74052986026737,16.140179589836336]}},{"type":"Feature","properties":{"name_en":"Bark khoum kham","did":1307,"pid":13,"uuid":"1.307067e+06"},"geometry":{"type":"Point","coordinates":[105.69116456009854,16.166975780365448]}},{"type":"Feature","properties":{"name_en":"Na pa nieth","did":1307,"pid":13,"uuid":"1.307071e+06"},"geometry":{"type":"Point","coordinates":[105.74388412973069,16.258602640233757]}},{"type":"Feature","properties":{"name_en":"Kaeng sang kou","did":1307,"pid":13,"uuid":"1.307074e+06"},"geometry":{"type":"Point","coordinates":[105.70338554003558,16.26703382042787]}},{"type":"Feature","properties":{"name_en":"Na tha mane","did":1307,"pid":13,"uuid":"1.307075e+06"},"geometry":{"type":"Point","coordinates":[105.6749831200112,16.245685199817544]}},{"type":"Feature","properties":{"name_en":"Tha phy","did":1307,"pid":13,"uuid":"1.307078e+06"},"geometry":{"type":"Point","coordinates":[105.62056319998608,16.221908420111028]}},{"type":"Feature","properties":{"name_en":"Don khao","did":1307,"pid":13,"uuid":"1.30708e+06"},"geometry":{"type":"Point","coordinates":[105.54938969035443,16.231098259839378]}},{"type":"Feature","properties":{"name_en":"NA tang tai","did":1307,"pid":13,"uuid":"1.307082e+06"},"geometry":{"type":"Point","coordinates":[105.56414468982292,16.18002254993049]}},{"type":"Feature","properties":{"name_en":"Thong pho kham","did":1307,"pid":13,"uuid":"1.307084e+06"},"geometry":{"type":"Point","coordinates":[105.83598993030465,16.013239939737904]}},{"type":"Feature","properties":{"name_en":"Na tham nou","did":1307,"pid":13,"uuid":"1.307088e+06"},"geometry":{"type":"Point","coordinates":[105.59769467998572,16.170505230076127]}},{"type":"Feature","properties":{"name_en":"Na huoi lai","did":1307,"pid":13,"uuid":"1.30709e+06"},"geometry":{"type":"Point","coordinates":[105.6490418898733,16.01673461022104]}},{"type":"Feature","properties":{"name_en":"Na sa no","did":1307,"pid":13,"uuid":"1.307092e+06"},"geometry":{"type":"Point","coordinates":[105.72098100017254,16.03713196989844]}}]}