{"type":"FeatureCollection","features":[{"type":"Feature","properties":{"name_en":"N","did":1308,"pid":13,"uuid":"1.308001e+06"},"geometry":{"type":"Point","coordinates":[105.20062063038735,16.23827861990592]}},{"type":"Feature","properties":{"name_en":"Pak xong","did":1308,"pid":13,"uuid":"1.308003e+06"},"geometry":{"type":"Point","coordinates":[105.20416659020327,16.237004229918515]}},{"type":"Feature","properties":{"name_en":"Sa la kham","did":1308,"pid":13,"uuid":"1.308005e+06"},"geometry":{"type":"Point","coordinates":[105.1995340801921,16.23342339959537]}},{"type":"Feature","properties":{"name_en":"Na kham nonh","did":1308,"pid":13,"uuid":"1.308006e+06"},"geometry":{"type":"Point","coordinates":[105.18455788033567,16.24039010019123]}},{"type":"Feature","properties":{"name_en":"Muang khai","did":1308,"pid":13,"uuid":"1.308007e+06"},"geometry":{"type":"Point","coordinates":[105.1963425897137,16.292335939685874]}},{"type":"Feature","properties":{"name_en":"Koud hy","did":1308,"pid":13,"uuid":"1.308008e+06"},"geometry":{"type":"Point","coordinates":[105.22271716984613,16.294710870402785]}},{"type":"Feature","properties":{"name_en":"La ha khok","did":1308,"pid":13,"uuid":"1.308009e+06"},"geometry":{"type":"Point","coordinates":[105.21233827988108,16.284066939784868]}},{"type":"Feature","properties":{"name_en":"lak mueng","did":1308,"pid":13,"uuid":"1.30801e+06"},"geometry":{"type":"Point","coordinates":[105.19306988042963,16.237446040388125]}},{"type":"Feature","properties":{"name_en":"Thong sy mueng","did":1308,"pid":13,"uuid":"1.308011e+06"},"geometry":{"type":"Point","coordinates":[105.19825776961251,16.224575380005415]}},{"type":"Feature","properties":{"name_en":"Lat ta na sa ly","did":1308,"pid":13,"uuid":"1.308012e+06"},"geometry":{"type":"Point","coordinates":[105.20535406021209,16.234481189826628]}},{"type":"Feature","properties":{"name_en":"Nonh fay","did":1308,"pid":13,"uuid":"1.308013e+06"},"geometry":{"type":"Point","coordinates":[105.23747375977055,16.227489430370486]}},{"type":"Feature","properties":{"name_en":"Ma lai thong","did":1308,"pid":13,"uuid":"1.308014e+06"},"geometry":{"type":"Point","coordinates":[105.22210789007451,16.23197558995696]}},{"type":"Feature","properties":{"name_en":"Kheum muan","did":1308,"pid":13,"uuid":"1.308016e+06"},"geometry":{"type":"Point","coordinates":[105.254641989782,16.186941390313873]}},{"type":"Feature","properties":{"name_en":"Hin taek","did":1308,"pid":13,"uuid":"1.308017e+06"},"geometry":{"type":"Point","coordinates":[105.25148495013435,16.154887399611166]}},{"type":"Feature","properties":{"name_en":"Khok sa ath","did":1308,"pid":13,"uuid":"1.308019e+06"},"geometry":{"type":"Point","coordinates":[105.20721039984652,16.171219119624944]}},{"type":"Feature","properties":{"name_en":"Nong nhor","did":1308,"pid":13,"uuid":"1.30802e+06"},"geometry":{"type":"Point","coordinates":[105.19549986959159,16.199999640174]}},{"type":"Feature","properties":{"name_en":"Na ka la","did":1308,"pid":13,"uuid":"1.308022e+06"},"geometry":{"type":"Point","coordinates":[105.1762604695659,16.276181669934815]}},{"type":"Feature","properties":{"name_en":"Nong hai","did":1308,"pid":13,"uuid":"1.308024e+06"},"geometry":{"type":"Point","coordinates":[105.1858979803011,16.272864530123055]}},{"type":"Feature","properties":{"name_en":"Nonh som boun","did":1308,"pid":13,"uuid":"1.308025e+06"},"geometry":{"type":"Point","coordinates":[105.16997656004649,16.247846890230818]}},{"type":"Feature","properties":{"name_en":"Nonh xom phou","did":1308,"pid":13,"uuid":"1.308027e+06"},"geometry":{"type":"Point","coordinates":[105.14929722977497,16.268930900054524]}},{"type":"Feature","properties":{"name_en":"Nong nok khien","did":1308,"pid":13,"uuid":"1.308029e+06"},"geometry":{"type":"Point","coordinates":[105.13557706030569,16.27955270007456]}},{"type":"Feature","properties":{"name_en":"Oum nam khom","did":1308,"pid":13,"uuid":"1.30803e+06"},"geometry":{"type":"Point","coordinates":[105.12431614013514,16.32161862026298]}},{"type":"Feature","properties":{"name_en":"La ha nam thong","did":1308,"pid":13,"uuid":"1.308031e+06"},"geometry":{"type":"Point","coordinates":[105.26607834975428,16.272162960281566]}},{"type":"Feature","properties":{"name_en":"Tha kham lien","did":1308,"pid":13,"uuid":"1.308033e+06"},"geometry":{"type":"Point","coordinates":[105.27028404972357,16.265060809918705]}},{"type":"Feature","properties":{"name_en":"Baeng kham lai","did":1308,"pid":13,"uuid":"1.308034e+06"},"geometry":{"type":"Point","coordinates":[105.2364862900761,16.274633780153163]}},{"type":"Feature","properties":{"name_en":"Song khon tai","did":1308,"pid":13,"uuid":"1.308038e+06"},"geometry":{"type":"Point","coordinates":[105.29883231003683,16.259637969869413]}},{"type":"Feature","properties":{"name_en":"Dong sa wang","did":1308,"pid":13,"uuid":"1.308041e+06"},"geometry":{"type":"Point","coordinates":[105.30395701034278,16.254857429935925]}},{"type":"Feature","properties":{"name_en":"Sing tha","did":1308,"pid":13,"uuid":"1.308042e+06"},"geometry":{"type":"Point","coordinates":[105.29333956997345,16.256548569706716]}},{"type":"Feature","properties":{"name_en":"Nong dern","did":1308,"pid":13,"uuid":"1.308043e+06"},"geometry":{"type":"Point","coordinates":[105.3459089301527,16.23910456994418]}},{"type":"Feature","properties":{"name_en":"Vi xai song","did":1308,"pid":13,"uuid":"1.308044e+06"},"geometry":{"type":"Point","coordinates":[105.30804813041648,16.250242940407762]}},{"type":"Feature","properties":{"name_en":"Na thang","did":1308,"pid":13,"uuid":"1.308046e+06"},"geometry":{"type":"Point","coordinates":[105.50483467993114,16.26897096969114]}},{"type":"Feature","properties":{"name_en":"Pha laeng","did":1308,"pid":13,"uuid":"1.308047e+06"},"geometry":{"type":"Point","coordinates":[105.46256138982199,16.258557539816337]}},{"type":"Feature","properties":{"name_en":"Na xa no","did":1308,"pid":13,"uuid":"1.308048e+06"},"geometry":{"type":"Point","coordinates":[105.45641326003465,16.250327269552923]}},{"type":"Feature","properties":{"name_en":"Don muang","did":1308,"pid":13,"uuid":"1.308049e+06"},"geometry":{"type":"Point","coordinates":[105.3867959396857,16.221853350182403]}},{"type":"Feature","properties":{"name_en":"Don khiew","did":1308,"pid":13,"uuid":"1.30805e+06"},"geometry":{"type":"Point","coordinates":[105.36352316968659,16.184872980083963]}},{"type":"Feature","properties":{"name_en":"Huoi khor","did":1308,"pid":13,"uuid":"1.308053e+06"},"geometry":{"type":"Point","coordinates":[105.4420375497274,16.171569230158784]}},{"type":"Feature","properties":{"name_en":"Huoi khai","did":1308,"pid":13,"uuid":"1.308054e+06"},"geometry":{"type":"Point","coordinates":[105.47706678012392,16.166435649810566]}},{"type":"Feature","properties":{"name_en":"Na ka ling","did":1308,"pid":13,"uuid":"1.308055e+06"},"geometry":{"type":"Point","coordinates":[105.51441360019078,16.192986830063685]}},{"type":"Feature","properties":{"name_en":"Xa nhaek neua","did":1308,"pid":13,"uuid":"1.308063e+06"},"geometry":{"type":"Point","coordinates":[105.38643812001457,16.227038059764123]}},{"type":"Feature","properties":{"name_en":"Na phong tha","did":1308,"pid":13,"uuid":"1.308079e+06"},"geometry":{"type":"Point","coordinates":[105.04251841015822,16.16200472010658]}},{"type":"Feature","properties":{"name_en":"Na wa","did":1308,"pid":13,"uuid":"1.30808e+06"},"geometry":{"type":"Point","coordinates":[105.06850239023908,16.175358099798977]}},{"type":"Feature","properties":{"name_en":"Na phong tiew neua","did":1308,"pid":13,"uuid":"1.308081e+06"},"geometry":{"type":"Point","coordinates":[105.05678214015255,16.142544879988176]}},{"type":"Feature","properties":{"name_en":"Na hoy pang","did":1308,"pid":13,"uuid":"1.308084e+06"},"geometry":{"type":"Point","coordinates":[105.09513966025159,16.18759400018861]}},{"type":"Feature","properties":{"name_en":"Na phork","did":1308,"pid":13,"uuid":"1.308086e+06"},"geometry":{"type":"Point","coordinates":[105.10743231030271,16.179267340211602]}},{"type":"Feature","properties":{"name_en":"Na nong pheu","did":1308,"pid":13,"uuid":"1.308087e+06"},"geometry":{"type":"Point","coordinates":[105.08908699961464,16.17244564016103]}},{"type":"Feature","properties":{"name_en":"Nong bua tha","did":1308,"pid":13,"uuid":"1.308089e+06"},"geometry":{"type":"Point","coordinates":[105.11690603989732,16.10433278999208]}},{"type":"Feature","properties":{"name_en":"Na nhoung","did":1308,"pid":13,"uuid":"1.30809e+06"},"geometry":{"type":"Point","coordinates":[105.08699646968164,16.126745320104437]}},{"type":"Feature","properties":{"name_en":"Nong vath","did":1308,"pid":13,"uuid":"1.308091e+06"},"geometry":{"type":"Point","coordinates":[105.12708242038624,16.125101969941444]}},{"type":"Feature","properties":{"name_en":"Na pong","did":1308,"pid":13,"uuid":"1.308092e+06"},"geometry":{"type":"Point","coordinates":[105.1374510900137,16.109361839951163]}},{"type":"Feature","properties":{"name_en":"nong ee leua","did":1308,"pid":13,"uuid":"1.308093e+06"},"geometry":{"type":"Point","coordinates":[105.14186357000959,16.130223979576797]}},{"type":"Feature","properties":{"name_en":"Nong daeng","did":1308,"pid":13,"uuid":"1.308094e+06"},"geometry":{"type":"Point","coordinates":[105.11510165990542,16.12227257040116]}},{"type":"Feature","properties":{"name_en":"Kheum sa wang","did":1308,"pid":13,"uuid":"1.308095e+06"},"geometry":{"type":"Point","coordinates":[105.11301080018369,16.153840580008882]}},{"type":"Feature","properties":{"name_en":"Na khoun","did":1308,"pid":13,"uuid":"1.308097e+06"},"geometry":{"type":"Point","coordinates":[105.1404706702069,16.147470330174322]}},{"type":"Feature","properties":{"name_en":"Mai nong luang","did":1308,"pid":13,"uuid":"1.308098e+06"},"geometry":{"type":"Point","coordinates":[105.15578314971407,16.19439532983943]}},{"type":"Feature","properties":{"name_en":"Kaeng hin kae","did":1308,"pid":13,"uuid":"1.308099e+06"},"geometry":{"type":"Point","coordinates":[105.18342229986825,16.158406370392555]}},{"type":"Feature","properties":{"name_en":"Nong mek","did":1308,"pid":13,"uuid":"1.3081e+06"},"geometry":{"type":"Point","coordinates":[105.15992775041728,16.16665608964291]}},{"type":"Feature","properties":{"name_en":"Na pho","did":1308,"pid":13,"uuid":"1.308103e+06"},"geometry":{"type":"Point","coordinates":[105.14421502965796,16.093573359590117]}},{"type":"Feature","properties":{"name_en":"Sa bou xai hai","did":1308,"pid":13,"uuid":"1.308104e+06"},"geometry":{"type":"Point","coordinates":[105.16214492988634,16.078762029948447]}},{"type":"Feature","properties":{"name_en":"Tha deua nhai","did":1308,"pid":13,"uuid":"1.308106e+06"},"geometry":{"type":"Point","coordinates":[105.17427522033677,16.073175159550555]}},{"type":"Feature","properties":{"name_en":"Nong dern","did":1308,"pid":13,"uuid":"1.308108e+06"},"geometry":{"type":"Point","coordinates":[105.19265455036997,16.063614250412783]}},{"type":"Feature","properties":{"name_en":"Tha pa xoum","did":1308,"pid":13,"uuid":"1.308109e+06"},"geometry":{"type":"Point","coordinates":[105.2077284800946,16.056191329864397]}},{"type":"Feature","properties":{"name_en":"Lad bok","did":1308,"pid":13,"uuid":"1.308111e+06"},"geometry":{"type":"Point","coordinates":[105.18524093042099,16.127771770415514]}},{"type":"Feature","properties":{"name_en":"Puey khao","did":1308,"pid":13,"uuid":"1.308112e+06"},"geometry":{"type":"Point","coordinates":[105.27609136986027,16.103368619788007]}},{"type":"Feature","properties":{"name_en":"Na dong","did":1308,"pid":13,"uuid":"1.308113e+06"},"geometry":{"type":"Point","coordinates":[105.30058882039269,16.082668420124744]}},{"type":"Feature","properties":{"name_en":"Na kho","did":1308,"pid":13,"uuid":"1.308115e+06"},"geometry":{"type":"Point","coordinates":[105.30616924001058,16.043206750220207]}},{"type":"Feature","properties":{"name_en":"Tha phae","did":1308,"pid":13,"uuid":"1.308116e+06"},"geometry":{"type":"Point","coordinates":[105.26492760042365,16.05253203989586]}},{"type":"Feature","properties":{"name_en":"Na saen theb","did":1308,"pid":13,"uuid":"1.308117e+06"},"geometry":{"type":"Point","coordinates":[105.25148159988923,16.15492904999309]}},{"type":"Feature","properties":{"name_en":"Phak kha","did":1308,"pid":13,"uuid":"1.308119e+06"},"geometry":{"type":"Point","coordinates":[105.28378410983578,16.107133599969117]}},{"type":"Feature","properties":{"name_en":"Hin kong","did":1308,"pid":13,"uuid":"1.30812e+06"},"geometry":{"type":"Point","coordinates":[105.23314693966559,16.132787839851094]}},{"type":"Feature","properties":{"name_en":"Na larm","did":1308,"pid":13,"uuid":"1.308121e+06"},"geometry":{"type":"Point","coordinates":[105.27836119022183,16.13906462986535]}},{"type":"Feature","properties":{"name_en":"Nonh sam larn","did":1308,"pid":13,"uuid":"1.308122e+06"},"geometry":{"type":"Point","coordinates":[105.3100586099983,16.129098799659378]}},{"type":"Feature","properties":{"name_en":"Hua harth","did":1308,"pid":13,"uuid":"1.308125e+06"},"geometry":{"type":"Point","coordinates":[105.28080728046311,16.204585380280918]}},{"type":"Feature","properties":{"name_en":"Kaeng donh","did":1308,"pid":13,"uuid":"1.308126e+06"},"geometry":{"type":"Point","coordinates":[105.31625871022999,16.185841180148124]}},{"type":"Feature","properties":{"name_en":"Nonh sa wang","did":1308,"pid":13,"uuid":"1.308128e+06"},"geometry":{"type":"Point","coordinates":[105.30211852011266,16.182298320036068]}},{"type":"Feature","properties":{"name_en":"Sa va liew","did":1308,"pid":13,"uuid":"1.308129e+06"},"geometry":{"type":"Point","coordinates":[105.3276462799155,16.147451639689184]}},{"type":"Feature","properties":{"name_en":"Nong khanh nhou","did":1308,"pid":13,"uuid":"1.30813e+06"},"geometry":{"type":"Point","coordinates":[105.34225081986608,16.134892949907588]}},{"type":"Feature","properties":{"name_en":"Nonh kham soung","did":1308,"pid":13,"uuid":"1.308132e+06"},"geometry":{"type":"Point","coordinates":[105.33725688021647,16.159598700331234]}},{"type":"Feature","properties":{"name_en":"Nonh tao tharn","did":1308,"pid":13,"uuid":"1.308134e+06"},"geometry":{"type":"Point","coordinates":[105.36863738994394,16.108283090444527]}},{"type":"Feature","properties":{"name_en":"My yiem","did":1308,"pid":13,"uuid":"1.308136e+06"},"geometry":{"type":"Point","coordinates":[105.32935131962914,16.08481108033893]}},{"type":"Feature","properties":{"name_en":"Kaeng ta ngarn","did":1308,"pid":13,"uuid":"1.308137e+06"},"geometry":{"type":"Point","coordinates":[105.37437304017162,16.094399900284504]}},{"type":"Feature","properties":{"name_en":"Xei bang hieng tha","did":1308,"pid":13,"uuid":"1.308138e+06"},"geometry":{"type":"Point","coordinates":[105.38147050023133,16.09190678035059]}},{"type":"Feature","properties":{"name_en":"Na ou dom","did":1308,"pid":13,"uuid":"1.30814e+06"},"geometry":{"type":"Point","coordinates":[105.41420300031756,16.063210330444715]}},{"type":"Feature","properties":{"name_en":"nong khon","did":1308,"pid":13,"uuid":"1.308141e+06"},"geometry":{"type":"Point","coordinates":[105.44110295990974,16.09262268033874]}},{"type":"Feature","properties":{"name_en":"Khok kong","did":1308,"pid":13,"uuid":"1.308145e+06"},"geometry":{"type":"Point","coordinates":[105.3640798102589,16.047915789596903]}},{"type":"Feature","properties":{"name_en":"Hin khok","did":1308,"pid":13,"uuid":"1.308147e+06"},"geometry":{"type":"Point","coordinates":[105.37990560021177,16.02719589005814]}},{"type":"Feature","properties":{"name_en":"Don wai","did":1308,"pid":13,"uuid":"1.308148e+06"},"geometry":{"type":"Point","coordinates":[105.42791964996985,16.021722169641315]}},{"type":"Feature","properties":{"name_en":"Na kha nhom","did":1308,"pid":13,"uuid":"1.308149e+06"},"geometry":{"type":"Point","coordinates":[105.44137470037498,16.01831744017772]}},{"type":"Feature","properties":{"name_en":"Don xath","did":1308,"pid":13,"uuid":"1.308152e+06"},"geometry":{"type":"Point","coordinates":[105.44266936969106,16.028933209688827]}},{"type":"Feature","properties":{"name_en":"Na hang khae","did":1308,"pid":13,"uuid":"1.308153e+06"},"geometry":{"type":"Point","coordinates":[105.5152112204191,16.03045326985725]}},{"type":"Feature","properties":{"name_en":"Lak 11","did":1308,"pid":13,"uuid":"1.308154e+06"},"geometry":{"type":"Point","coordinates":[105.56318019014168,16.012996360222317]}},{"type":"Feature","properties":{"name_en":"Don nhai","did":1308,"pid":13,"uuid":"1.308155e+06"},"geometry":{"type":"Point","coordinates":[105.53033988967526,16.025155990016845]}},{"type":"Feature","properties":{"name_en":"Na kham","did":1308,"pid":13,"uuid":"1.308156e+06"},"geometry":{"type":"Point","coordinates":[105.481105090085,16.032377159650597]}},{"type":"Feature","properties":{"name_en":"Dane tae","did":1308,"pid":13,"uuid":"1.308157e+06"},"geometry":{"type":"Point","coordinates":[105.55971082976282,15.98191182009744]}},{"type":"Feature","properties":{"name_en":"Xei bang nuan neua","did":1308,"pid":13,"uuid":"1.308161e+06"},"geometry":{"type":"Point","coordinates":[105.46938148966765,16.016038910061823]}},{"type":"Feature","properties":{"name_en":"Xok xai","did":1308,"pid":13,"uuid":"1.308163e+06"},"geometry":{"type":"Point","coordinates":[105.22003327955002,16.259785659835384]}}]}