{"type":"FeatureCollection","features":[{"type":"Feature","properties":{"name_en":"Nonh soung","did":1309,"pid":13,"uuid":"1.309002e+06"},"geometry":{"type":"Point","coordinates":[105.2071321098152,16.650291069775758]}},{"type":"Feature","properties":{"name_en":"Phonh tard","did":1309,"pid":13,"uuid":"1.309003e+06"},"geometry":{"type":"Point","coordinates":[105.22010310978655,16.642381400310917]}},{"type":"Feature","properties":{"name_en":"Phang heng","did":1309,"pid":13,"uuid":"1.309006e+06"},"geometry":{"type":"Point","coordinates":[105.14716059975592,16.64692120958492]}},{"type":"Feature","properties":{"name_en":"nong hai","did":1309,"pid":13,"uuid":"1.309007e+06"},"geometry":{"type":"Point","coordinates":[105.13040937011908,16.631452489743047]}},{"type":"Feature","properties":{"name_en":"Koud bon neua","did":1309,"pid":13,"uuid":"1.309008e+06"},"geometry":{"type":"Point","coordinates":[105.19681675006986,16.621204940138632]}},{"type":"Feature","properties":{"name_en":"Na xeuak","did":1309,"pid":13,"uuid":"1.309009e+06"},"geometry":{"type":"Point","coordinates":[105.18332004966139,16.623769130312432]}},{"type":"Feature","properties":{"name_en":"Sy boun hueng","did":1309,"pid":13,"uuid":"1.309012e+06"},"geometry":{"type":"Point","coordinates":[105.24020608970858,16.62295743036084]}},{"type":"Feature","properties":{"name_en":"Rao sou ly nhar","did":1309,"pid":13,"uuid":"1.309013e+06"},"geometry":{"type":"Point","coordinates":[105.15851372046271,16.617883440217245]}},{"type":"Feature","properties":{"name_en":"Muangkhai","did":1309,"pid":13,"uuid":"1.309015e+06"},"geometry":{"type":"Point","coordinates":[105.20643155038319,16.62159763017468]}},{"type":"Feature","properties":{"name_en":"Norn hang","did":1309,"pid":13,"uuid":"1.309019e+06"},"geometry":{"type":"Point","coordinates":[105.1379349700224,16.61285237037]}},{"type":"Feature","properties":{"name_en":"Beung ta loung","did":1309,"pid":13,"uuid":"1.309021e+06"},"geometry":{"type":"Point","coordinates":[105.2306975002641,16.59481442991924]}},{"type":"Feature","properties":{"name_en":"Dong mark kor","did":1309,"pid":13,"uuid":"1.309023e+06"},"geometry":{"type":"Point","coordinates":[105.23437464005136,16.5910163397027]}},{"type":"Feature","properties":{"name_en":"Nonng nha mar","did":1309,"pid":13,"uuid":"1.309024e+06"},"geometry":{"type":"Point","coordinates":[105.22276134009861,16.605726159733635]}},{"type":"Feature","properties":{"name_en":"Norn koun","did":1309,"pid":13,"uuid":"1.309026e+06"},"geometry":{"type":"Point","coordinates":[105.1803357498119,16.601128770117658]}},{"type":"Feature","properties":{"name_en":"Phorn sa ard","did":1309,"pid":13,"uuid":"1.309028e+06"},"geometry":{"type":"Point","coordinates":[105.1579081296861,16.573604949585242]}},{"type":"Feature","properties":{"name_en":"Phai kong","did":1309,"pid":13,"uuid":"1.309029e+06"},"geometry":{"type":"Point","coordinates":[105.17119352980818,16.587730389990977]}},{"type":"Feature","properties":{"name_en":"Phorn dork","did":1309,"pid":13,"uuid":"1.309031e+06"},"geometry":{"type":"Point","coordinates":[105.19619003992781,16.587320259959704]}},{"type":"Feature","properties":{"name_en":"Nong pas yai","did":1309,"pid":13,"uuid":"1.309032e+06"},"geometry":{"type":"Point","coordinates":[105.03515833988695,16.576826700039554]}},{"type":"Feature","properties":{"name_en":"Nhang soung","did":1309,"pid":13,"uuid":"1.309035e+06"},"geometry":{"type":"Point","coordinates":[105.0983500096922,16.58069889015195]}},{"type":"Feature","properties":{"name_en":"Kham kand","did":1309,"pid":13,"uuid":"1.309036e+06"},"geometry":{"type":"Point","coordinates":[105.10490969046354,16.57004868024677]}},{"type":"Feature","properties":{"name_en":"Vad ta na","did":1309,"pid":13,"uuid":"1.309037e+06"},"geometry":{"type":"Point","coordinates":[105.12712801976852,16.566138520054153]}},{"type":"Feature","properties":{"name_en":"Phorn moung","did":1309,"pid":13,"uuid":"1.309038e+06"},"geometry":{"type":"Point","coordinates":[105.1976163900323,16.576488159817632]}},{"type":"Feature","properties":{"name_en":"Sand","did":1309,"pid":13,"uuid":"1.30904e+06"},"geometry":{"type":"Point","coordinates":[105.27909712038243,16.573392890058454]}},{"type":"Feature","properties":{"name_en":"Nong lam tiane kang","did":1309,"pid":13,"uuid":"1.309045e+06"},"geometry":{"type":"Point","coordinates":[105.27797696038746,16.54742148044989]}},{"type":"Feature","properties":{"name_en":"Xay","did":1309,"pid":13,"uuid":"1.309047e+06"},"geometry":{"type":"Point","coordinates":[105.26381237964732,16.54522031036676]}},{"type":"Feature","properties":{"name_en":"Tha moung","did":1309,"pid":13,"uuid":"1.30905e+06"},"geometry":{"type":"Point","coordinates":[105.25216908042437,16.531684789645677]}},{"type":"Feature","properties":{"name_en":"Dong mueng","did":1309,"pid":13,"uuid":"1.309051e+06"},"geometry":{"type":"Point","coordinates":[105.25161353010186,16.544599210435063]}},{"type":"Feature","properties":{"name_en":"Beuk dong","did":1309,"pid":13,"uuid":"1.309052e+06"},"geometry":{"type":"Point","coordinates":[105.14263956977032,16.545204049619784]}},{"type":"Feature","properties":{"name_en":"Kork laeng","did":1309,"pid":13,"uuid":"1.309053e+06"},"geometry":{"type":"Point","coordinates":[105.1284705496162,16.55267534006906]}},{"type":"Feature","properties":{"name_en":"phai lorm","did":1309,"pid":13,"uuid":"1.309054e+06"},"geometry":{"type":"Point","coordinates":[105.12865520012878,16.547461209676147]}},{"type":"Feature","properties":{"name_en":"Nong ka long","did":1309,"pid":13,"uuid":"1.309055e+06"},"geometry":{"type":"Point","coordinates":[105.10435372020036,16.557390659779774]}},{"type":"Feature","properties":{"name_en":"Na nork kaen","did":1309,"pid":13,"uuid":"1.309057e+06"},"geometry":{"type":"Point","coordinates":[105.09081677966229,16.55185902015962]}},{"type":"Feature","properties":{"name_en":"Korn tair","did":1309,"pid":13,"uuid":"1.309058e+06"},"geometry":{"type":"Point","coordinates":[105.02679312020096,16.561155480034166]}},{"type":"Feature","properties":{"name_en":"Houi nhang","did":1309,"pid":13,"uuid":"1.309059e+06"},"geometry":{"type":"Point","coordinates":[105.0228490122168,16.538247898538764]}},{"type":"Feature","properties":{"name_en":"Dong kan kou","did":1309,"pid":13,"uuid":"1.309061e+06"},"geometry":{"type":"Point","coordinates":[105.09664378993894,16.53732446994272]}},{"type":"Feature","properties":{"name_en":"Dong dork mai","did":1309,"pid":13,"uuid":"1.309064e+06"},"geometry":{"type":"Point","coordinates":[105.12758642039284,16.524123140277265]}},{"type":"Feature","properties":{"name_en":"Beuk thong","did":1309,"pid":13,"uuid":"1.309065e+06"},"geometry":{"type":"Point","coordinates":[105.15290698003248,16.524017110331453]}},{"type":"Feature","properties":{"name_en":"Don nhaeng","did":1309,"pid":13,"uuid":"1.309067e+06"},"geometry":{"type":"Point","coordinates":[105.17898584953365,16.515474780396943]}},{"type":"Feature","properties":{"name_en":"Houi mark bao","did":1309,"pid":13,"uuid":"1.309069e+06"},"geometry":{"type":"Point","coordinates":[105.3981026298522,16.539889249950704]}},{"type":"Feature","properties":{"name_en":"Tha mueng","did":1309,"pid":13,"uuid":"1.30907e+06"},"geometry":{"type":"Point","coordinates":[105.2589247299817,16.553629449909348]}},{"type":"Feature","properties":{"name_en":"Sa keun neua","did":1309,"pid":13,"uuid":"1.309073e+06"},"geometry":{"type":"Point","coordinates":[105.23605260967756,16.529846970321966]}},{"type":"Feature","properties":{"name_en":"Sakeun tai","did":1309,"pid":13,"uuid":"1.309074e+06"},"geometry":{"type":"Point","coordinates":[105.23998153963952,16.519565819969163]}},{"type":"Feature","properties":{"name_en":"Sy vy lai","did":1309,"pid":13,"uuid":"1.309075e+06"},"geometry":{"type":"Point","coordinates":[105.03024737998962,16.52372968972292]}},{"type":"Feature","properties":{"name_en":"Nong tong","did":1309,"pid":13,"uuid":"1.309076e+06"},"geometry":{"type":"Point","coordinates":[105.0778639700129,16.52186798955434]}},{"type":"Feature","properties":{"name_en":"Kor","did":1309,"pid":13,"uuid":"1.309077e+06"},"geometry":{"type":"Point","coordinates":[105.11582082987552,16.52037241009144]}},{"type":"Feature","properties":{"name_en":"Kam tao","did":1309,"pid":13,"uuid":"1.309079e+06"},"geometry":{"type":"Point","coordinates":[105.12640097000042,16.51666501002698]}},{"type":"Feature","properties":{"name_en":"Sy tong","did":1309,"pid":13,"uuid":"1.30908e+06"},"geometry":{"type":"Point","coordinates":[105.12902597478292,16.511993419000145]}},{"type":"Feature","properties":{"name_en":"Dong mon","did":1309,"pid":13,"uuid":"1.309081e+06"},"geometry":{"type":"Point","coordinates":[105.13778157976343,16.514481019569214]}},{"type":"Feature","properties":{"name_en":"Phorn tong","did":1309,"pid":13,"uuid":"1.309084e+06"},"geometry":{"type":"Point","coordinates":[105.16880652977373,16.52158853989778]}},{"type":"Feature","properties":{"name_en":"Lam tend","did":1309,"pid":13,"uuid":"1.309086e+06"},"geometry":{"type":"Point","coordinates":[105.27044088038271,16.511047040260152]}},{"type":"Feature","properties":{"name_en":"Nong ka dork","did":1309,"pid":13,"uuid":"1.309088e+06"},"geometry":{"type":"Point","coordinates":[105.27049871002026,16.511017869618435]}},{"type":"Feature","properties":{"name_en":"Tuad tai","did":1309,"pid":13,"uuid":"1.309091e+06"},"geometry":{"type":"Point","coordinates":[105.26394011985012,16.506505389594402]}},{"type":"Feature","properties":{"name_en":"Na hai diew","did":1309,"pid":13,"uuid":"1.309093e+06"},"geometry":{"type":"Point","coordinates":[105.29906298013604,16.498284080325774]}},{"type":"Feature","properties":{"name_en":"Na kam","did":1309,"pid":13,"uuid":"1.309094e+06"},"geometry":{"type":"Point","coordinates":[105.27683995984239,16.483719940197894]}},{"type":"Feature","properties":{"name_en":"Vungmao","did":1309,"pid":13,"uuid":"1.309096e+06"},"geometry":{"type":"Point","coordinates":[105.23500000984356,16.507295299659553]}},{"type":"Feature","properties":{"name_en":"Lam bong","did":1309,"pid":13,"uuid":"1.309098e+06"},"geometry":{"type":"Point","coordinates":[105.22770816975483,16.50315908005482]}},{"type":"Feature","properties":{"name_en":"Phia kao","did":1309,"pid":13,"uuid":"1.309099e+06"},"geometry":{"type":"Point","coordinates":[105.20675248961074,16.49896050032618]}},{"type":"Feature","properties":{"name_en":"Kaeng poun","did":1309,"pid":13,"uuid":"1.3091e+06"},"geometry":{"type":"Point","coordinates":[105.1974886503909,16.500445190402672]}},{"type":"Feature","properties":{"name_en":"Norn sy tan","did":1309,"pid":13,"uuid":"1.309101e+06"},"geometry":{"type":"Point","coordinates":[105.19079930003194,16.49471154000432]}},{"type":"Feature","properties":{"name_en":"Pha laeng","did":1309,"pid":13,"uuid":"1.309102e+06"},"geometry":{"type":"Point","coordinates":[105.15312273009316,16.493662630325474]}},{"type":"Feature","properties":{"name_en":"Nong vaeng","did":1309,"pid":13,"uuid":"1.309103e+06"},"geometry":{"type":"Point","coordinates":[105.09931963013527,16.5052918498863]}},{"type":"Feature","properties":{"name_en":"Kham noy","did":1309,"pid":13,"uuid":"1.309105e+06"},"geometry":{"type":"Point","coordinates":[105.08121957970903,16.500184170175938]}},{"type":"Feature","properties":{"name_en":"Rak 35","did":1309,"pid":13,"uuid":"1.309108e+06"},"geometry":{"type":"Point","coordinates":[105.03529857042064,16.4895187898945]}},{"type":"Feature","properties":{"name_en":"Na ternh neua","did":1309,"pid":13,"uuid":"1.30911e+06"},"geometry":{"type":"Point","coordinates":[105.09358649006865,16.465991040390016]}},{"type":"Feature","properties":{"name_en":"Phai","did":1309,"pid":13,"uuid":"1.309112e+06"},"geometry":{"type":"Point","coordinates":[105.11185744966528,16.456711519753373]}},{"type":"Feature","properties":{"name_en":"Khao kath","did":1309,"pid":13,"uuid":"1.309113e+06"},"geometry":{"type":"Point","coordinates":[105.13172817032108,16.450613510349918]}},{"type":"Feature","properties":{"name_en":"Bark","did":1309,"pid":13,"uuid":"1.309114e+06"},"geometry":{"type":"Point","coordinates":[105.14111725018991,16.441249340152577]}},{"type":"Feature","properties":{"name_en":"Dong kham meun","did":1309,"pid":13,"uuid":"1.309116e+06"},"geometry":{"type":"Point","coordinates":[105.18703992967397,16.43691999972203]}},{"type":"Feature","properties":{"name_en":"Na khou khou","did":1309,"pid":13,"uuid":"1.309117e+06"},"geometry":{"type":"Point","coordinates":[105.13872747980011,16.483617839936045]}},{"type":"Feature","properties":{"name_en":"Dong na khoy","did":1309,"pid":13,"uuid":"1.309119e+06"},"geometry":{"type":"Point","coordinates":[105.17774758961542,16.465445959933756]}},{"type":"Feature","properties":{"name_en":"Dong nong khoun","did":1309,"pid":13,"uuid":"1.30912e+06"},"geometry":{"type":"Point","coordinates":[105.1862808701689,16.460593010178133]}},{"type":"Feature","properties":{"name_en":"Kaeng kok thong","did":1309,"pid":13,"uuid":"1.309121e+06"},"geometry":{"type":"Point","coordinates":[105.18830232956579,16.45383904016942]}},{"type":"Feature","properties":{"name_en":"Hua mueng","did":1309,"pid":13,"uuid":"1.309122e+06"},"geometry":{"type":"Point","coordinates":[105.20139227019784,16.461405970428228]}},{"type":"Feature","properties":{"name_en":"Kaeng kok neua","did":1309,"pid":13,"uuid":"1.309124e+06"},"geometry":{"type":"Point","coordinates":[105.19427476998649,16.44745857007993]}},{"type":"Feature","properties":{"name_en":"Kae kok kang","did":1309,"pid":13,"uuid":"1.309125e+06"},"geometry":{"type":"Point","coordinates":[105.19653277011226,16.443365179627406]}},{"type":"Feature","properties":{"name_en":"Kaeng kok dong","did":1309,"pid":13,"uuid":"1.309126e+06"},"geometry":{"type":"Point","coordinates":[105.20199526033305,16.440152809794863]}},{"type":"Feature","properties":{"name_en":"Nonh vi lai vanh","did":1309,"pid":13,"uuid":"1.309127e+06"},"geometry":{"type":"Point","coordinates":[105.21472025033657,16.44743291986343]}},{"type":"Feature","properties":{"name_en":"Nok kok","did":1309,"pid":13,"uuid":"1.309128e+06"},"geometry":{"type":"Point","coordinates":[105.2446825299997,16.45186492979537]}},{"type":"Feature","properties":{"name_en":"Dong ta baeng","did":1309,"pid":13,"uuid":"1.309131e+06"},"geometry":{"type":"Point","coordinates":[105.24920037990593,16.484798689555408]}},{"type":"Feature","properties":{"name_en":"Ka lang neua","did":1309,"pid":13,"uuid":"1.309132e+06"},"geometry":{"type":"Point","coordinates":[105.32199544978492,16.44596105011413]}},{"type":"Feature","properties":{"name_en":"Ka lang tai","did":1309,"pid":13,"uuid":"1.309133e+06"},"geometry":{"type":"Point","coordinates":[105.3185729503957,16.44694374958266]}},{"type":"Feature","properties":{"name_en":"Sa li pa kua","did":1309,"pid":13,"uuid":"1.309134e+06"},"geometry":{"type":"Point","coordinates":[105.30150386987042,16.4357523200647]}},{"type":"Feature","properties":{"name_en":"Kham pa haen","did":1309,"pid":13,"uuid":"1.309135e+06"},"geometry":{"type":"Point","coordinates":[105.30550045000852,16.41412993981266]}},{"type":"Feature","properties":{"name_en":"Na ka thang","did":1309,"pid":13,"uuid":"1.309138e+06"},"geometry":{"type":"Point","coordinates":[105.25262598024557,16.436025309977328]}},{"type":"Feature","properties":{"name_en":"Ta laew mai","did":1309,"pid":13,"uuid":"1.30914e+06"},"geometry":{"type":"Point","coordinates":[105.25222717032732,16.41921423028054]}},{"type":"Feature","properties":{"name_en":"Ta laew noy","did":1309,"pid":13,"uuid":"1.309141e+06"},"geometry":{"type":"Point","coordinates":[105.2624612999829,16.411287219622952]}},{"type":"Feature","properties":{"name_en":"Na sane","did":1309,"pid":13,"uuid":"1.309144e+06"},"geometry":{"type":"Point","coordinates":[105.11818561975316,16.434070570157395]}},{"type":"Feature","properties":{"name_en":"Dongkhuangton","did":1309,"pid":13,"uuid":"1.309145e+06"},"geometry":{"type":"Point","coordinates":[105.13261531030737,16.405412009711323]}},{"type":"Feature","properties":{"name_en":"Ka dane","did":1309,"pid":13,"uuid":"1.309146e+06"},"geometry":{"type":"Point","coordinates":[105.17304400023417,16.40736289003893]}},{"type":"Feature","properties":{"name_en":"Kham sy da neua","did":1309,"pid":13,"uuid":"1.309147e+06"},"geometry":{"type":"Point","coordinates":[105.1589424495989,16.38969040022869]}},{"type":"Feature","properties":{"name_en":"Don daeng","did":1309,"pid":13,"uuid":"1.30915e+06"},"geometry":{"type":"Point","coordinates":[105.25685809018006,16.383822069708945]}},{"type":"Feature","properties":{"name_en":"Na tay","did":1309,"pid":13,"uuid":"1.309151e+06"},"geometry":{"type":"Point","coordinates":[105.25312663000906,16.394979220134086]}},{"type":"Feature","properties":{"name_en":"Laomarkkhay","did":1309,"pid":13,"uuid":"1.309152e+06"},"geometry":{"type":"Point","coordinates":[105.15022812044191,16.36899968025277]}},{"type":"Feature","properties":{"name_en":"Nong ing","did":1309,"pid":13,"uuid":"1.309154e+06"},"geometry":{"type":"Point","coordinates":[105.16403965997719,16.370494250004484]}},{"type":"Feature","properties":{"name_en":"Lao marth","did":1309,"pid":13,"uuid":"1.309155e+06"},"geometry":{"type":"Point","coordinates":[105.18169856961454,16.375898650350422]}},{"type":"Feature","properties":{"name_en":"Hua nam sang","did":1309,"pid":13,"uuid":"1.309158e+06"},"geometry":{"type":"Point","coordinates":[105.163553760275,16.359697609883]}},{"type":"Feature","properties":{"name_en":"Bok","did":1309,"pid":13,"uuid":"1.30916e+06"},"geometry":{"type":"Point","coordinates":[105.16571452984881,16.354412649902883]}},{"type":"Feature","properties":{"name_en":"Huoi xay","did":1309,"pid":13,"uuid":"1.309161e+06"},"geometry":{"type":"Point","coordinates":[105.17249606958379,16.349400689793036]}},{"type":"Feature","properties":{"name_en":"Tane soum","did":1309,"pid":13,"uuid":"1.309163e+06"},"geometry":{"type":"Point","coordinates":[105.18106438995079,16.348583460292307]}},{"type":"Feature","properties":{"name_en":"Don kheng","did":1309,"pid":13,"uuid":"1.309164e+06"},"geometry":{"type":"Point","coordinates":[105.18156210996649,16.34000173009633]}},{"type":"Feature","properties":{"name_en":"Lao hua kham","did":1309,"pid":13,"uuid":"1.309165e+06"},"geometry":{"type":"Point","coordinates":[105.1885676203098,16.324807349794742]}},{"type":"Feature","properties":{"name_en":"Kham tong long","did":1309,"pid":13,"uuid":"1.309172e+06"},"geometry":{"type":"Point","coordinates":[105.34908836001048,16.503858549957833]}}]}