{"type":"FeatureCollection","features":[{"type":"Feature","properties":{"name_en":"Nong pha","did":1310,"pid":13,"uuid":"1.310001e+06"},"geometry":{"type":"Point","coordinates":[105.28929428999882,16.368134160283475]}},{"type":"Feature","properties":{"name_en":"Toum nhae","did":1310,"pid":13,"uuid":"1.310003e+06"},"geometry":{"type":"Point","coordinates":[105.31687913030942,16.3736456800001]}},{"type":"Feature","properties":{"name_en":"Dong boun","did":1310,"pid":13,"uuid":"1.310004e+06"},"geometry":{"type":"Point","coordinates":[105.30399991992427,16.334310000264445]}},{"type":"Feature","properties":{"name_en":"Nonh khou tai","did":1310,"pid":13,"uuid":"1.310006e+06"},"geometry":{"type":"Point","coordinates":[105.32112456966591,16.378626959962702]}},{"type":"Feature","properties":{"name_en":"Na wa tai","did":1310,"pid":13,"uuid":"1.310009e+06"},"geometry":{"type":"Point","coordinates":[105.42257124981315,16.49026184015082]}},{"type":"Feature","properties":{"name_en":"Na wa neua","did":1310,"pid":13,"uuid":"1.31001e+06"},"geometry":{"type":"Point","coordinates":[105.45037150013496,16.485778529735686]}},{"type":"Feature","properties":{"name_en":"Kaeng pa nao","did":1310,"pid":13,"uuid":"1.310014e+06"},"geometry":{"type":"Point","coordinates":[105.48417399974234,16.478221999744793]}},{"type":"Feature","properties":{"name_en":"Ahor","did":1310,"pid":13,"uuid":"1.310016e+06"},"geometry":{"type":"Point","coordinates":[105.46094501976178,16.472806530394305]}},{"type":"Feature","properties":{"name_en":"Huoi muang","did":1310,"pid":13,"uuid":"1.310017e+06"},"geometry":{"type":"Point","coordinates":[105.51368220007994,16.46064397024895]}},{"type":"Feature","properties":{"name_en":"Na phaeng","did":1310,"pid":13,"uuid":"1.310018e+06"},"geometry":{"type":"Point","coordinates":[105.49570763001026,16.463819790304864]}},{"type":"Feature","properties":{"name_en":"Na bong","did":1310,"pid":13,"uuid":"1.310019e+06"},"geometry":{"type":"Point","coordinates":[105.40078902962027,16.46285041983087]}},{"type":"Feature","properties":{"name_en":"Nong beng","did":1310,"pid":13,"uuid":"1.31002e+06"},"geometry":{"type":"Point","coordinates":[105.41499141040252,16.48173216999898]}},{"type":"Feature","properties":{"name_en":"Kabao","did":1310,"pid":13,"uuid":"1.310021e+06"},"geometry":{"type":"Point","coordinates":[105.43068039977358,16.453242410008357]}},{"type":"Feature","properties":{"name_en":"vang khonh tai","did":1310,"pid":13,"uuid":"1.310027e+06"},"geometry":{"type":"Point","coordinates":[105.4107870003201,16.434552000437208]}},{"type":"Feature","properties":{"name_en":"Nonh sa wang","did":1310,"pid":13,"uuid":"1.310029e+06"},"geometry":{"type":"Point","coordinates":[105.33853772014179,16.391899460362378]}},{"type":"Feature","properties":{"name_en":"Kong yark neua","did":1310,"pid":13,"uuid":"1.310031e+06"},"geometry":{"type":"Point","coordinates":[105.35423467970826,16.372199549842083]}},{"type":"Feature","properties":{"name_en":"Lam phien","did":1310,"pid":13,"uuid":"1.310034e+06"},"geometry":{"type":"Point","coordinates":[105.35901805981172,16.355463659824128]}},{"type":"Feature","properties":{"name_en":"Pa torng yai","did":1310,"pid":13,"uuid":"1.310035e+06"},"geometry":{"type":"Point","coordinates":[105.47842832982874,16.496831910428284]}},{"type":"Feature","properties":{"name_en":"Xay van","did":1310,"pid":13,"uuid":"1.310037e+06"},"geometry":{"type":"Point","coordinates":[105.4672235696114,16.559929960098884]}},{"type":"Feature","properties":{"name_en":"Tam bong xay","did":1310,"pid":13,"uuid":"1.31004e+06"},"geometry":{"type":"Point","coordinates":[105.52022183966395,16.496906759775534]}},{"type":"Feature","properties":{"name_en":"Nong bour xay","did":1310,"pid":13,"uuid":"1.310041e+06"},"geometry":{"type":"Point","coordinates":[105.5276569304585,16.486508179956672]}},{"type":"Feature","properties":{"name_en":"Dorng mors","did":1310,"pid":13,"uuid":"1.310043e+06"},"geometry":{"type":"Point","coordinates":[105.61003921980542,16.4770114798845]}},{"type":"Feature","properties":{"name_en":"Na thong","did":1310,"pid":13,"uuid":"1.310045e+06"},"geometry":{"type":"Point","coordinates":[105.68149694979225,16.45128188977352]}},{"type":"Feature","properties":{"name_en":"Pa loung","did":1310,"pid":13,"uuid":"1.310046e+06"},"geometry":{"type":"Point","coordinates":[105.69361173988182,16.468090540008596]}},{"type":"Feature","properties":{"name_en":"Xay tha mok","did":1310,"pid":13,"uuid":"1.310047e+06"},"geometry":{"type":"Point","coordinates":[105.78023996001545,16.370239950364734]}},{"type":"Feature","properties":{"name_en":"Na sa nor","did":1310,"pid":13,"uuid":"1.310048e+06"},"geometry":{"type":"Point","coordinates":[105.78767981975994,16.41418534041339]}},{"type":"Feature","properties":{"name_en":"Na xai","did":1310,"pid":13,"uuid":"1.310049e+06"},"geometry":{"type":"Point","coordinates":[105.79837069003128,16.33664662010727]}},{"type":"Feature","properties":{"name_en":"Dorng na lang","did":1310,"pid":13,"uuid":"1.31005e+06"},"geometry":{"type":"Point","coordinates":[105.78203344002999,16.448064240305964]}},{"type":"Feature","properties":{"name_en":"Ar lang","did":1310,"pid":13,"uuid":"1.310051e+06"},"geometry":{"type":"Point","coordinates":[105.70640712975842,16.422711579933825]}},{"type":"Feature","properties":{"name_en":"Porng","did":1310,"pid":13,"uuid":"1.310052e+06"},"geometry":{"type":"Point","coordinates":[105.70251172022552,16.419973299603836]}},{"type":"Feature","properties":{"name_en":"Kaeng ry","did":1310,"pid":13,"uuid":"1.310053e+06"},"geometry":{"type":"Point","coordinates":[105.69108684993763,16.432345410378346]}},{"type":"Feature","properties":{"name_en":"Lam vai","did":1310,"pid":13,"uuid":"1.310054e+06"},"geometry":{"type":"Point","coordinates":[105.67654181958055,16.41112979969442]}},{"type":"Feature","properties":{"name_en":"Na la a","did":1310,"pid":13,"uuid":"1.310055e+06"},"geometry":{"type":"Point","coordinates":[105.74183643028582,16.3266518700197]}},{"type":"Feature","properties":{"name_en":"Tang vai kork","did":1310,"pid":13,"uuid":"1.310056e+06"},"geometry":{"type":"Point","coordinates":[105.65715740963277,16.407246470393357]}},{"type":"Feature","properties":{"name_en":"Lam bies","did":1310,"pid":13,"uuid":"1.310059e+06"},"geometry":{"type":"Point","coordinates":[105.64746994991349,16.37504998962449]}},{"type":"Feature","properties":{"name_en":"Nong kair","did":1310,"pid":13,"uuid":"1.310062e+06"},"geometry":{"type":"Point","coordinates":[105.63788900969618,16.346383039850426]}},{"type":"Feature","properties":{"name_en":"Na pang","did":1310,"pid":13,"uuid":"1.310064e+06"},"geometry":{"type":"Point","coordinates":[105.67123826018012,16.340861799586936]}},{"type":"Feature","properties":{"name_en":"Na chan yai","did":1310,"pid":13,"uuid":"1.310067e+06"},"geometry":{"type":"Point","coordinates":[105.68123845040529,16.30430781041829]}},{"type":"Feature","properties":{"name_en":"Tang vai neua","did":1310,"pid":13,"uuid":"1.310068e+06"},"geometry":{"type":"Point","coordinates":[105.61160453990576,16.280072710014924]}},{"type":"Feature","properties":{"name_en":"Nong sym","did":1310,"pid":13,"uuid":"1.310072e+06"},"geometry":{"type":"Point","coordinates":[105.6014046002782,16.262165199694316]}},{"type":"Feature","properties":{"name_en":"Dorng nong kand","did":1310,"pid":13,"uuid":"1.310073e+06"},"geometry":{"type":"Point","coordinates":[105.5785045701342,16.239335160067483]}},{"type":"Feature","properties":{"name_en":"Mueng honh vath","did":1310,"pid":13,"uuid":"1.310075e+06"},"geometry":{"type":"Point","coordinates":[105.56362241995978,16.23396395044024]}},{"type":"Feature","properties":{"name_en":"Mai sa nam xai","did":1310,"pid":13,"uuid":"1.310076e+06"},"geometry":{"type":"Point","coordinates":[105.53819667009626,16.392757509753515]}},{"type":"Feature","properties":{"name_en":"Thoh","did":1310,"pid":13,"uuid":"1.310078e+06"},"geometry":{"type":"Point","coordinates":[105.4438743602513,16.3892545504486]}},{"type":"Feature","properties":{"name_en":"Duang ma la","did":1310,"pid":13,"uuid":"1.310079e+06"},"geometry":{"type":"Point","coordinates":[105.44341511010842,16.38371109037051]}},{"type":"Feature","properties":{"name_en":"Lam bou","did":1310,"pid":13,"uuid":"1.31008e+06"},"geometry":{"type":"Point","coordinates":[105.42795016011397,16.379935040384687]}},{"type":"Feature","properties":{"name_en":"Na","did":1310,"pid":13,"uuid":"1.310081e+06"},"geometry":{"type":"Point","coordinates":[105.39698465020143,16.37258192985774]}},{"type":"Feature","properties":{"name_en":"Song hong","did":1310,"pid":13,"uuid":"1.310083e+06"},"geometry":{"type":"Point","coordinates":[105.51092345993659,16.297007679553918]}},{"type":"Feature","properties":{"name_en":"Mueng fong","did":1310,"pid":13,"uuid":"1.310084e+06"},"geometry":{"type":"Point","coordinates":[105.42362879000675,16.366194000369006]}},{"type":"Feature","properties":{"name_en":"Dong theb","did":1310,"pid":13,"uuid":"1.310085e+06"},"geometry":{"type":"Point","coordinates":[105.42082781031056,16.354384819788695]}},{"type":"Feature","properties":{"name_en":"Nong pheu","did":1310,"pid":13,"uuid":"1.310088e+06"},"geometry":{"type":"Point","coordinates":[105.38922225010023,16.337604499918765]}},{"type":"Feature","properties":{"name_en":"Dong wai","did":1310,"pid":13,"uuid":"1.310089e+06"},"geometry":{"type":"Point","coordinates":[105.38547712992249,16.360452150351637]}},{"type":"Feature","properties":{"name_en":"Kham boun hueng","did":1310,"pid":13,"uuid":"1.310091e+06"},"geometry":{"type":"Point","coordinates":[105.42002087961266,16.38992795020283]}},{"type":"Feature","properties":{"name_en":"Beung xang","did":1310,"pid":13,"uuid":"1.310094e+06"},"geometry":{"type":"Point","coordinates":[105.37454075971029,16.38838869981581]}},{"type":"Feature","properties":{"name_en":"Xieng home","did":1310,"pid":13,"uuid":"1.310095e+06"},"geometry":{"type":"Point","coordinates":[105.36462832014988,16.38714255987813]}},{"type":"Feature","properties":{"name_en":"Nong hua xang","did":1310,"pid":13,"uuid":"1.310096e+06"},"geometry":{"type":"Point","coordinates":[105.37342051996269,16.369720350233713]}},{"type":"Feature","properties":{"name_en":"Xai vong thi lath","did":1310,"pid":13,"uuid":"1.310099e+06"},"geometry":{"type":"Point","coordinates":[105.45966996953668,16.554479959779048]}},{"type":"Feature","properties":{"name_en":"Tane nonh","did":1310,"pid":13,"uuid":"1.310103e+06"},"geometry":{"type":"Point","coordinates":[105.39141805976276,16.310259379742337]}},{"type":"Feature","properties":{"name_en":"Don pong","did":1310,"pid":13,"uuid":"1.310104e+06"},"geometry":{"type":"Point","coordinates":[105.39893688026842,16.298808609648336]}},{"type":"Feature","properties":{"name_en":"Phonh tane","did":1310,"pid":13,"uuid":"1.310105e+06"},"geometry":{"type":"Point","coordinates":[105.39454862004966,16.28786101042616]}},{"type":"Feature","properties":{"name_en":"Don nha nong","did":1310,"pid":13,"uuid":"1.310107e+06"},"geometry":{"type":"Point","coordinates":[105.33753139036243,16.300462109838755]}},{"type":"Feature","properties":{"name_en":"Nong bua thong","did":1310,"pid":13,"uuid":"1.310108e+06"},"geometry":{"type":"Point","coordinates":[105.38925728977055,16.274998979746446]}}]}