{"type":"FeatureCollection","features":[{"type":"Feature","properties":{"name_en":"Kae ka bao neua","did":1311,"pid":13,"uuid":"1.311001e+06"},"geometry":{"type":"Point","coordinates":[104.7601085298444,16.81449246972054]}},{"type":"Feature","properties":{"name_en":"Kaeng ka bao tai","did":1311,"pid":13,"uuid":"1.311002e+06"},"geometry":{"type":"Point","coordinates":[104.75180021996644,16.812985819599163]}},{"type":"Feature","properties":{"name_en":"Nong vaeng","did":1311,"pid":13,"uuid":"1.311003e+06"},"geometry":{"type":"Point","coordinates":[105.15966220975913,17.062101930132073]}},{"type":"Feature","properties":{"name_en":"Phou koh","did":1311,"pid":13,"uuid":"1.311004e+06"},"geometry":{"type":"Point","coordinates":[105.13086350022085,17.0597115003559]}},{"type":"Feature","properties":{"name_en":"Xieng khai","did":1311,"pid":13,"uuid":"1.311007e+06"},"geometry":{"type":"Point","coordinates":[105.0967898899834,17.072289460395762]}},{"type":"Feature","properties":{"name_en":"Kaeng vaeng","did":1311,"pid":13,"uuid":"1.311008e+06"},"geometry":{"type":"Point","coordinates":[105.07120496999924,17.067434500330062]}},{"type":"Feature","properties":{"name_en":"Dong mark fai","did":1311,"pid":13,"uuid":"1.311009e+06"},"geometry":{"type":"Point","coordinates":[105.04458337000538,17.073666190095345]}},{"type":"Feature","properties":{"name_en":"Pa lai","did":1311,"pid":13,"uuid":"1.311011e+06"},"geometry":{"type":"Point","coordinates":[105.01230122986439,17.09437670023039]}},{"type":"Feature","properties":{"name_en":"Dang sa wanh","did":1311,"pid":13,"uuid":"1.311013e+06"},"geometry":{"type":"Point","coordinates":[104.94893067967863,17.095643959804608]}},{"type":"Feature","properties":{"name_en":"Sy khai","did":1311,"pid":13,"uuid":"1.311016e+06"},"geometry":{"type":"Point","coordinates":[104.93005563981191,17.02854313958823]}},{"type":"Feature","properties":{"name_en":"Hard xay soung kao","did":1311,"pid":13,"uuid":"1.311018e+06"},"geometry":{"type":"Point","coordinates":[104.83712137961541,17.08110630965463]}},{"type":"Feature","properties":{"name_en":"Beung xei","did":1311,"pid":13,"uuid":"1.31102e+06"},"geometry":{"type":"Point","coordinates":[104.87471111020983,17.076433899717053]}},{"type":"Feature","properties":{"name_en":"Tonh haen","did":1311,"pid":13,"uuid":"1.311021e+06"},"geometry":{"type":"Point","coordinates":[104.89391061019306,17.045742219961305]}},{"type":"Feature","properties":{"name_en":"Vern neua","did":1311,"pid":13,"uuid":"1.311022e+06"},"geometry":{"type":"Point","coordinates":[104.89149695982212,17.038825549642457]}},{"type":"Feature","properties":{"name_en":"Vern tai","did":1311,"pid":13,"uuid":"1.311025e+06"},"geometry":{"type":"Point","coordinates":[104.8876332397667,17.037278089922985]}},{"type":"Feature","properties":{"name_en":"Phonh thanh","did":1311,"pid":13,"uuid":"1.311026e+06"},"geometry":{"type":"Point","coordinates":[104.86435501957688,17.043577420336348]}},{"type":"Feature","properties":{"name_en":"Kang pa","did":1311,"pid":13,"uuid":"1.311027e+06"},"geometry":{"type":"Point","coordinates":[104.84367367987494,17.03785585032306]}},{"type":"Feature","properties":{"name_en":"Kaeng pho sy","did":1311,"pid":13,"uuid":"1.311029e+06"},"geometry":{"type":"Point","coordinates":[104.81115473976944,17.025944580450105]}},{"type":"Feature","properties":{"name_en":"Sa kong","did":1311,"pid":13,"uuid":"1.31103e+06"},"geometry":{"type":"Point","coordinates":[104.79561267985002,16.99420725989254]}},{"type":"Feature","properties":{"name_en":"Phak pheua neua","did":1311,"pid":13,"uuid":"1.311031e+06"},"geometry":{"type":"Point","coordinates":[104.81027137004429,16.99735675969901]}},{"type":"Feature","properties":{"name_en":"Ma ny lath","did":1311,"pid":13,"uuid":"1.311032e+06"},"geometry":{"type":"Point","coordinates":[104.98755173022587,17.07112698020664]}},{"type":"Feature","properties":{"name_en":"Kang my sai","did":1311,"pid":13,"uuid":"1.311035e+06"},"geometry":{"type":"Point","coordinates":[104.95486189005048,17.036324230387784]}},{"type":"Feature","properties":{"name_en":"Na daeng","did":1311,"pid":13,"uuid":"1.311038e+06"},"geometry":{"type":"Point","coordinates":[104.94949596015925,17.00356104008769]}},{"type":"Feature","properties":{"name_en":"Dong phai vanh","did":1311,"pid":13,"uuid":"1.311039e+06"},"geometry":{"type":"Point","coordinates":[105.01912342001759,16.99251821980349]}},{"type":"Feature","properties":{"name_en":"Na hueng","did":1311,"pid":13,"uuid":"1.31104e+06"},"geometry":{"type":"Point","coordinates":[105.05750884990415,16.992915779589314]}},{"type":"Feature","properties":{"name_en":"Nong khieth","did":1311,"pid":13,"uuid":"1.311041e+06"},"geometry":{"type":"Point","coordinates":[105.07616528978653,16.974293370211914]}},{"type":"Feature","properties":{"name_en":"Na muang","did":1311,"pid":13,"uuid":"1.311042e+06"},"geometry":{"type":"Point","coordinates":[104.96614794983991,17.009173819685827]}},{"type":"Feature","properties":{"name_en":"Ka chou","did":1311,"pid":13,"uuid":"1.311043e+06"},"geometry":{"type":"Point","coordinates":[104.95927713994534,16.96934544038418]}},{"type":"Feature","properties":{"name_en":"Dong nhang","did":1311,"pid":13,"uuid":"1.311044e+06"},"geometry":{"type":"Point","coordinates":[104.85988512008974,17.009998930435675]}},{"type":"Feature","properties":{"name_en":"Dong phou","did":1311,"pid":13,"uuid":"1.311045e+06"},"geometry":{"type":"Point","coordinates":[104.88364789957461,17.00346700034117]}},{"type":"Feature","properties":{"name_en":"Nao neua","did":1311,"pid":13,"uuid":"1.311046e+06"},"geometry":{"type":"Point","coordinates":[104.88893218038469,16.983166279576228]}},{"type":"Feature","properties":{"name_en":"Kheua khao kang","did":1311,"pid":13,"uuid":"1.311048e+06"},"geometry":{"type":"Point","coordinates":[104.92926069953744,16.981533650371862]}},{"type":"Feature","properties":{"name_en":"Som sa ath","did":1311,"pid":13,"uuid":"1.311049e+06"},"geometry":{"type":"Point","coordinates":[104.8296514195661,16.983560980205294]}},{"type":"Feature","properties":{"name_en":"Dong phao","did":1311,"pid":13,"uuid":"1.31105e+06"},"geometry":{"type":"Point","coordinates":[104.85794689011102,16.98080609977258]}},{"type":"Feature","properties":{"name_en":"Nao tai","did":1311,"pid":13,"uuid":"1.311051e+06"},"geometry":{"type":"Point","coordinates":[104.88004593979089,16.980363620436126]}},{"type":"Feature","properties":{"name_en":"Huoi hae","did":1311,"pid":13,"uuid":"1.311052e+06"},"geometry":{"type":"Point","coordinates":[104.82565811968715,16.955967340062276]}},{"type":"Feature","properties":{"name_en":"Nong heua thong","did":1311,"pid":13,"uuid":"1.311054e+06"},"geometry":{"type":"Point","coordinates":[104.85541790042255,16.934712339745612]}},{"type":"Feature","properties":{"name_en":"Na sorb","did":1311,"pid":13,"uuid":"1.311055e+06"},"geometry":{"type":"Point","coordinates":[104.8947013598123,16.966269120094623]}},{"type":"Feature","properties":{"name_en":"Nhang kham tai","did":1311,"pid":13,"uuid":"1.311057e+06"},"geometry":{"type":"Point","coordinates":[104.88002993035447,16.958879970302103]}},{"type":"Feature","properties":{"name_en":"Lao fay","did":1311,"pid":13,"uuid":"1.31106e+06"},"geometry":{"type":"Point","coordinates":[104.92300645976762,16.943272949822664]}},{"type":"Feature","properties":{"name_en":"Kaeng haeth","did":1311,"pid":13,"uuid":"1.311062e+06"},"geometry":{"type":"Point","coordinates":[104.91487827998509,16.878121170160572]}},{"type":"Feature","properties":{"name_en":"Pak xei bang fai","did":1311,"pid":13,"uuid":"1.311063e+06"},"geometry":{"type":"Point","coordinates":[104.7493004101232,16.93873984995561]}},{"type":"Feature","properties":{"name_en":"Bua khai","did":1311,"pid":13,"uuid":"1.311065e+06"},"geometry":{"type":"Point","coordinates":[104.75503722985242,16.922930910402222]}},{"type":"Feature","properties":{"name_en":"Na sang","did":1311,"pid":13,"uuid":"1.311066e+06"},"geometry":{"type":"Point","coordinates":[104.76633084003376,16.90410246969154]}},{"type":"Feature","properties":{"name_en":"Tha kharm","did":1311,"pid":13,"uuid":"1.311067e+06"},"geometry":{"type":"Point","coordinates":[104.78745457991788,16.899405420246083]}},{"type":"Feature","properties":{"name_en":"Tha khor","did":1311,"pid":13,"uuid":"1.31107e+06"},"geometry":{"type":"Point","coordinates":[104.75986905977912,16.882072569973758]}},{"type":"Feature","properties":{"name_en":"Sy vi lai","did":1311,"pid":13,"uuid":"1.311073e+06"},"geometry":{"type":"Point","coordinates":[104.76984755017263,16.837352599943955]}},{"type":"Feature","properties":{"name_en":"Kham nonh soung","did":1311,"pid":13,"uuid":"1.311074e+06"},"geometry":{"type":"Point","coordinates":[104.87864625015708,16.84126913040178]}},{"type":"Feature","properties":{"name_en":"Dong phoung","did":1311,"pid":13,"uuid":"1.311077e+06"},"geometry":{"type":"Point","coordinates":[104.82325301962234,16.801195750398268]}},{"type":"Feature","properties":{"name_en":"Nong sa phang","did":1311,"pid":13,"uuid":"1.311079e+06"},"geometry":{"type":"Point","coordinates":[104.8580892099247,16.766832460387285]}},{"type":"Feature","properties":{"name_en":"Sa wang","did":1311,"pid":13,"uuid":"1.31108e+06"},"geometry":{"type":"Point","coordinates":[104.75994835976152,16.769876679805005]}},{"type":"Feature","properties":{"name_en":"Na thueng","did":1311,"pid":13,"uuid":"1.311082e+06"},"geometry":{"type":"Point","coordinates":[104.79357906980988,16.747801520047737]}},{"type":"Feature","properties":{"name_en":"Phak ka nhar","did":1311,"pid":13,"uuid":"1.311084e+06"},"geometry":{"type":"Point","coordinates":[104.84038880967914,16.735519519968758]}}]}