{"type":"FeatureCollection","features":[{"type":"Feature","properties":{"name_en":"Ka lai","did":1312,"pid":13,"uuid":"1.312001e+06"},"geometry":{"type":"Point","coordinates":[106.22044000018418,17.012059959750676]}},{"type":"Feature","properties":{"name_en":"Pa kornh","did":1312,"pid":13,"uuid":"1.312005e+06"},"geometry":{"type":"Point","coordinates":[106.1649243901818,16.970525370340813]}},{"type":"Feature","properties":{"name_en":"Houi hong","did":1312,"pid":13,"uuid":"1.312007e+06"},"geometry":{"type":"Point","coordinates":[106.12824534989215,17.047948920237626]}},{"type":"Feature","properties":{"name_en":"Kaeng rak","did":1312,"pid":13,"uuid":"1.312008e+06"},"geometry":{"type":"Point","coordinates":[106.09594241957886,17.031478399631073]}},{"type":"Feature","properties":{"name_en":"Tong loung","did":1312,"pid":13,"uuid":"1.312009e+06"},"geometry":{"type":"Point","coordinates":[106.09881137040324,17.041289329790104]}},{"type":"Feature","properties":{"name_en":"Sob sa lung","did":1312,"pid":13,"uuid":"1.31201e+06"},"geometry":{"type":"Point","coordinates":[106.14523554963682,16.96793585961868]}},{"type":"Feature","properties":{"name_en":"Ang khom","did":1312,"pid":13,"uuid":"1.312011e+06"},"geometry":{"type":"Point","coordinates":[106.12115049040494,16.965874749955454]}},{"type":"Feature","properties":{"name_en":"Vang ma hang","did":1312,"pid":13,"uuid":"1.312013e+06"},"geometry":{"type":"Point","coordinates":[106.10820656960966,16.951260150126785]}},{"type":"Feature","properties":{"name_en":"Na ma hy","did":1312,"pid":13,"uuid":"1.312016e+06"},"geometry":{"type":"Point","coordinates":[106.0928519298601,16.926350300138896]}},{"type":"Feature","properties":{"name_en":"Nam pa kend","did":1312,"pid":13,"uuid":"1.312018e+06"},"geometry":{"type":"Point","coordinates":[106.01464173014017,17.031120320426044]}},{"type":"Feature","properties":{"name_en":"Vang tha Qoui","did":1312,"pid":13,"uuid":"1.312019e+06"},"geometry":{"type":"Point","coordinates":[106.04695774039405,17.003027790100024]}},{"type":"Feature","properties":{"name_en":"Na hornh","did":1312,"pid":13,"uuid":"1.31202e+06"},"geometry":{"type":"Point","coordinates":[106.02722329966143,17.002086669994274]}},{"type":"Feature","properties":{"name_en":"Kaeng kerk","did":1312,"pid":13,"uuid":"1.312022e+06"},"geometry":{"type":"Point","coordinates":[105.99944190012563,16.99516464044094]}},{"type":"Feature","properties":{"name_en":"Na ka xine","did":1312,"pid":13,"uuid":"1.312023e+06"},"geometry":{"type":"Point","coordinates":[105.99078993006678,16.991749939914712]}},{"type":"Feature","properties":{"name_en":"Mueng luang","did":1312,"pid":13,"uuid":"1.312024e+06"},"geometry":{"type":"Point","coordinates":[105.9957089402634,16.983786040069408]}},{"type":"Feature","properties":{"name_en":"Nam ja lor","did":1312,"pid":13,"uuid":"1.312026e+06"},"geometry":{"type":"Point","coordinates":[106.07196723984421,16.91746422966608]}},{"type":"Feature","properties":{"name_en":"Nam pa ken","did":1312,"pid":13,"uuid":"1.312029e+06"},"geometry":{"type":"Point","coordinates":[106.04238289000472,16.912123109575923]}},{"type":"Feature","properties":{"name_en":"Sob pha","did":1312,"pid":13,"uuid":"1.31203e+06"},"geometry":{"type":"Point","coordinates":[106.01796757960564,16.884761820088464]}},{"type":"Feature","properties":{"name_en":"Vang nhao","did":1312,"pid":13,"uuid":"1.312031e+06"},"geometry":{"type":"Point","coordinates":[105.98597839025041,16.935742809590792]}},{"type":"Feature","properties":{"name_en":"Sob kong","did":1312,"pid":13,"uuid":"1.312032e+06"},"geometry":{"type":"Point","coordinates":[106.0025128599462,16.925186310268515]}},{"type":"Feature","properties":{"name_en":"Phorn sa ard","did":1312,"pid":13,"uuid":"1.312033e+06"},"geometry":{"type":"Point","coordinates":[105.97911284972206,16.93811447020901]}},{"type":"Feature","properties":{"name_en":"Pha ka nhor","did":1312,"pid":13,"uuid":"1.312036e+06"},"geometry":{"type":"Point","coordinates":[106.05198604032407,16.831276560133144]}},{"type":"Feature","properties":{"name_en":"Tang baeng meua","did":1312,"pid":13,"uuid":"1.31204e+06"},"geometry":{"type":"Point","coordinates":[106.04417117017579,16.86259779965399]}},{"type":"Feature","properties":{"name_en":"Kaeng rak","did":1312,"pid":13,"uuid":"1.312042e+06"},"geometry":{"type":"Point","coordinates":[106.02770903031232,16.875203180353292]}},{"type":"Feature","properties":{"name_en":"Kork mark","did":1312,"pid":13,"uuid":"1.312046e+06"},"geometry":{"type":"Point","coordinates":[105.9627802098416,17.027320969549066]}},{"type":"Feature","properties":{"name_en":"Tor heua","did":1312,"pid":13,"uuid":"1.312047e+06"},"geometry":{"type":"Point","coordinates":[105.91408998961302,17.02134995992079]}},{"type":"Feature","properties":{"name_en":"Houi dang","did":1312,"pid":13,"uuid":"1.312048e+06"},"geometry":{"type":"Point","coordinates":[105.96506545015546,16.993210650127537]}},{"type":"Feature","properties":{"name_en":"Nam kine","did":1312,"pid":13,"uuid":"1.312049e+06"},"geometry":{"type":"Point","coordinates":[105.98354738040334,16.933640130440157]}},{"type":"Feature","properties":{"name_en":"Nonsomboun","did":1312,"pid":13,"uuid":"1.31205e+06"},"geometry":{"type":"Point","coordinates":[105.97281343030139,16.96277654982619]}},{"type":"Feature","properties":{"name_en":"pradok","did":1312,"pid":13,"uuid":"1.312051e+06"},"geometry":{"type":"Point","coordinates":[105.96275698976494,16.96412619964923]}},{"type":"Feature","properties":{"name_en":"Boung","did":1312,"pid":13,"uuid":"1.312052e+06"},"geometry":{"type":"Point","coordinates":[105.94365270964242,16.974755539961343]}},{"type":"Feature","properties":{"name_en":"Houi zaun","did":1312,"pid":13,"uuid":"1.312053e+06"},"geometry":{"type":"Point","coordinates":[105.92197341991847,16.985161760008655]}},{"type":"Feature","properties":{"name_en":"Pa py lang","did":1312,"pid":13,"uuid":"1.312057e+06"},"geometry":{"type":"Point","coordinates":[105.79409441036661,17.066897220070754]}},{"type":"Feature","properties":{"name_en":"Thad","did":1312,"pid":13,"uuid":"1.312058e+06"},"geometry":{"type":"Point","coordinates":[105.74813409005303,17.08418280043246]}},{"type":"Feature","properties":{"name_en":"Na ter","did":1312,"pid":13,"uuid":"1.312059e+06"},"geometry":{"type":"Point","coordinates":[105.75902888966836,17.069398299772413]}},{"type":"Feature","properties":{"name_en":"Hai","did":1312,"pid":13,"uuid":"1.31206e+06"},"geometry":{"type":"Point","coordinates":[105.77381414016864,17.027455419846895]}},{"type":"Feature","properties":{"name_en":"Dongbung","did":1312,"pid":13,"uuid":"1.312061e+06"},"geometry":{"type":"Point","coordinates":[105.79790800042561,17.01428999965367]}},{"type":"Feature","properties":{"name_en":"Nayom","did":1312,"pid":13,"uuid":"1.312064e+06"},"geometry":{"type":"Point","coordinates":[105.72952953012987,17.040863609731918]}},{"type":"Feature","properties":{"name_en":"Na air","did":1312,"pid":13,"uuid":"1.312065e+06"},"geometry":{"type":"Point","coordinates":[105.71675182008849,17.041397539781222]}},{"type":"Feature","properties":{"name_en":"Na zou","did":1312,"pid":13,"uuid":"1.312068e+06"},"geometry":{"type":"Point","coordinates":[105.67870158965472,17.057149150195876]}},{"type":"Feature","properties":{"name_en":"Lao luang","did":1312,"pid":13,"uuid":"1.312069e+06"},"geometry":{"type":"Point","coordinates":[105.65985529972956,17.047397640084178]}},{"type":"Feature","properties":{"name_en":"Ki kang","did":1312,"pid":13,"uuid":"1.31207e+06"},"geometry":{"type":"Point","coordinates":[105.68253212021207,17.029878960312885]}},{"type":"Feature","properties":{"name_en":"Noy","did":1312,"pid":13,"uuid":"1.312071e+06"},"geometry":{"type":"Point","coordinates":[105.71271107983324,17.032563689684828]}},{"type":"Feature","properties":{"name_en":"Pa park nao","did":1312,"pid":13,"uuid":"1.312072e+06"},"geometry":{"type":"Point","coordinates":[105.65217017962071,17.03420243040362]}},{"type":"Feature","properties":{"name_en":"Na sa lor","did":1312,"pid":13,"uuid":"1.312073e+06"},"geometry":{"type":"Point","coordinates":[105.66506918018248,17.030709109811532]}},{"type":"Feature","properties":{"name_en":"Xaiyalat","did":1312,"pid":13,"uuid":"1.312074e+06"},"geometry":{"type":"Point","coordinates":[105.71591957958925,17.005548900377452]}},{"type":"Feature","properties":{"name_en":"Nong ka phang","did":1312,"pid":13,"uuid":"1.312075e+06"},"geometry":{"type":"Point","coordinates":[105.69669460031622,16.991962749550616]}},{"type":"Feature","properties":{"name_en":"Namone","did":1312,"pid":13,"uuid":"1.312076e+06"},"geometry":{"type":"Point","coordinates":[105.70146013013938,16.98810004031942]}},{"type":"Feature","properties":{"name_en":"Dorng thong","did":1312,"pid":13,"uuid":"1.312077e+06"},"geometry":{"type":"Point","coordinates":[105.68662207010149,16.997204959983858]}},{"type":"Feature","properties":{"name_en":"Na ka tiane","did":1312,"pid":13,"uuid":"1.312078e+06"},"geometry":{"type":"Point","coordinates":[105.77249282031183,16.995571670363073]}},{"type":"Feature","properties":{"name_en":"Kour nga","did":1312,"pid":13,"uuid":"1.31208e+06"},"geometry":{"type":"Point","coordinates":[105.75956347995825,16.955420419747817]}},{"type":"Feature","properties":{"name_en":"Nathanhear","did":1312,"pid":13,"uuid":"1.312082e+06"},"geometry":{"type":"Point","coordinates":[105.79675944046032,16.986209330272168]}},{"type":"Feature","properties":{"name_en":"Nanamsang","did":1312,"pid":13,"uuid":"1.312083e+06"},"geometry":{"type":"Point","coordinates":[105.74123084013318,16.996739259831863]}},{"type":"Feature","properties":{"name_en":"Kork thong","did":1312,"pid":13,"uuid":"1.312084e+06"},"geometry":{"type":"Point","coordinates":[105.74166552045598,16.966359889613152]}},{"type":"Feature","properties":{"name_en":"Na kair","did":1312,"pid":13,"uuid":"1.312085e+06"},"geometry":{"type":"Point","coordinates":[105.74200674989402,16.97682997988701]}},{"type":"Feature","properties":{"name_en":"Lao","did":1312,"pid":13,"uuid":"1.312087e+06"},"geometry":{"type":"Point","coordinates":[105.73589332033885,16.970778920429726]}},{"type":"Feature","properties":{"name_en":"Nam maeng","did":1312,"pid":13,"uuid":"1.312088e+06"},"geometry":{"type":"Point","coordinates":[105.8429635898437,16.974026149960064]}},{"type":"Feature","properties":{"name_en":"Nam keun","did":1312,"pid":13,"uuid":"1.31209e+06"},"geometry":{"type":"Point","coordinates":[105.8659500295775,16.948268810290543]}},{"type":"Feature","properties":{"name_en":"Na por","did":1312,"pid":13,"uuid":"1.312092e+06"},"geometry":{"type":"Point","coordinates":[105.82621628985683,16.943150989723502]}},{"type":"Feature","properties":{"name_en":"Na xien lair","did":1312,"pid":13,"uuid":"1.312094e+06"},"geometry":{"type":"Point","coordinates":[105.80249684995772,16.94002932005436]}},{"type":"Feature","properties":{"name_en":"Na mueng sand","did":1312,"pid":13,"uuid":"1.312095e+06"},"geometry":{"type":"Point","coordinates":[105.78439084954348,16.93593576979053]}},{"type":"Feature","properties":{"name_en":"Poung por","did":1312,"pid":13,"uuid":"1.312097e+06"},"geometry":{"type":"Point","coordinates":[105.94000473980124,16.878621990215777]}},{"type":"Feature","properties":{"name_en":"Nam lab","did":1312,"pid":13,"uuid":"1.312099e+06"},"geometry":{"type":"Point","coordinates":[105.90644326019397,16.89151636959223]}},{"type":"Feature","properties":{"name_en":"Na ma lou","did":1312,"pid":13,"uuid":"1.3121e+06"},"geometry":{"type":"Point","coordinates":[105.89472804016447,16.91120696963605]}},{"type":"Feature","properties":{"name_en":"Nakang","did":1312,"pid":13,"uuid":"1.312101e+06"},"geometry":{"type":"Point","coordinates":[105.93986778046343,16.87840681998343]}},{"type":"Feature","properties":{"name_en":"Dorn nhang","did":1312,"pid":13,"uuid":"1.312103e+06"},"geometry":{"type":"Point","coordinates":[105.9079241798961,16.866980529657596]}},{"type":"Feature","properties":{"name_en":"Naphadang","did":1312,"pid":13,"uuid":"1.312104e+06"},"geometry":{"type":"Point","coordinates":[105.88152000010707,16.843714999795207]}},{"type":"Feature","properties":{"name_en":"Som sa nouk","did":1312,"pid":13,"uuid":"1.312106e+06"},"geometry":{"type":"Point","coordinates":[105.87942653975546,16.797766460132973]}},{"type":"Feature","properties":{"name_en":"Norn sam lane","did":1312,"pid":13,"uuid":"1.312107e+06"},"geometry":{"type":"Point","coordinates":[105.9062769603696,16.795747430012767]}},{"type":"Feature","properties":{"name_en":"Ka tab","did":1312,"pid":13,"uuid":"1.312108e+06"},"geometry":{"type":"Point","coordinates":[105.86833600020206,16.762625000111203]}},{"type":"Feature","properties":{"name_en":"Na ka phoung","did":1312,"pid":13,"uuid":"1.31211e+06"},"geometry":{"type":"Point","coordinates":[105.88826659995364,16.795133450043235]}},{"type":"Feature","properties":{"name_en":"Norn som phou","did":1312,"pid":13,"uuid":"1.312113e+06"},"geometry":{"type":"Point","coordinates":[105.80388992033951,16.98401997988494]}}]}