{"type":"FeatureCollection","features":[{"type":"Feature","properties":{"name_en":"Had dork keo","did":1313,"pid":13,"uuid":"1.313001e+06"},"geometry":{"type":"Point","coordinates":[105.32854834033277,16.847851939839238]}},{"type":"Feature","properties":{"name_en":"Phak ka nhar","did":1313,"pid":13,"uuid":"1.313002e+06"},"geometry":{"type":"Point","coordinates":[105.3396901497184,16.859103050271344]}},{"type":"Feature","properties":{"name_en":"Na koud chan","did":1313,"pid":13,"uuid":"1.313004e+06"},"geometry":{"type":"Point","coordinates":[105.32796538040799,16.8396865400552]}},{"type":"Feature","properties":{"name_en":"Dong tha da","did":1313,"pid":13,"uuid":"1.313006e+06"},"geometry":{"type":"Point","coordinates":[105.3454223603269,16.810193389870477]}},{"type":"Feature","properties":{"name_en":"Dong vai dine","did":1313,"pid":13,"uuid":"1.313008e+06"},"geometry":{"type":"Point","coordinates":[105.37057478015612,16.80564770983628]}},{"type":"Feature","properties":{"name_en":"vang hai","did":1313,"pid":13,"uuid":"1.313009e+06"},"geometry":{"type":"Point","coordinates":[105.37542772975827,16.823308380368758]}},{"type":"Feature","properties":{"name_en":"Namone","did":1313,"pid":13,"uuid":"1.31301e+06"},"geometry":{"type":"Point","coordinates":[105.3821680002756,16.844057000265707]}},{"type":"Feature","properties":{"name_en":"Na hang noy","did":1313,"pid":13,"uuid":"1.313011e+06"},"geometry":{"type":"Point","coordinates":[105.36448200015418,16.87262399962641]}},{"type":"Feature","properties":{"name_en":"Nong duen","did":1313,"pid":13,"uuid":"1.313013e+06"},"geometry":{"type":"Point","coordinates":[105.3415490003305,16.869606999845153]}},{"type":"Feature","properties":{"name_en":"Nongboua","did":1313,"pid":13,"uuid":"1.313014e+06"},"geometry":{"type":"Point","coordinates":[105.31941700002493,16.882697000318753]}},{"type":"Feature","properties":{"name_en":"Koud kant","did":1313,"pid":13,"uuid":"1.313015e+06"},"geometry":{"type":"Point","coordinates":[105.35474789985565,16.899997350448714]}},{"type":"Feature","properties":{"name_en":"Song hong","did":1313,"pid":13,"uuid":"1.313017e+06"},"geometry":{"type":"Point","coordinates":[105.34242139000418,16.936822570135025]}},{"type":"Feature","properties":{"name_en":"Som hong","did":1313,"pid":13,"uuid":"1.313019e+06"},"geometry":{"type":"Point","coordinates":[105.28145997967655,16.946920000249555]}},{"type":"Feature","properties":{"name_en":"Koud zoung","did":1313,"pid":13,"uuid":"1.31302e+06"},"geometry":{"type":"Point","coordinates":[105.30747456020524,16.90418469991155]}},{"type":"Feature","properties":{"name_en":"Na deua","did":1313,"pid":13,"uuid":"1.313021e+06"},"geometry":{"type":"Point","coordinates":[105.30645405998445,16.861357700333695]}},{"type":"Feature","properties":{"name_en":"Na kao m","did":1313,"pid":13,"uuid":"1.313023e+06"},"geometry":{"type":"Point","coordinates":[105.29160475963515,16.877616829564612]}},{"type":"Feature","properties":{"name_en":"Hin seu","did":1313,"pid":13,"uuid":"1.313025e+06"},"geometry":{"type":"Point","coordinates":[105.27211642037399,16.88446500987666]}},{"type":"Feature","properties":{"name_en":"Na mark keua","did":1313,"pid":13,"uuid":"1.313026e+06"},"geometry":{"type":"Point","coordinates":[105.27463668989549,16.897511950042798]}},{"type":"Feature","properties":{"name_en":"Dorn kong","did":1313,"pid":13,"uuid":"1.313028e+06"},"geometry":{"type":"Point","coordinates":[105.25453419967438,16.92236906993591]}},{"type":"Feature","properties":{"name_en":"Donekaphoung","did":1313,"pid":13,"uuid":"1.313029e+06"},"geometry":{"type":"Point","coordinates":[105.24846800034483,16.93067100017396]}},{"type":"Feature","properties":{"name_en":"Kork daeng","did":1313,"pid":13,"uuid":"1.31303e+06"},"geometry":{"type":"Point","coordinates":[105.24878791008246,16.919963970259847]}},{"type":"Feature","properties":{"name_en":"Phorn toum","did":1313,"pid":13,"uuid":"1.313031e+06"},"geometry":{"type":"Point","coordinates":[105.26437171042507,16.897913019708586]}},{"type":"Feature","properties":{"name_en":"Phor xai","did":1313,"pid":13,"uuid":"1.313033e+06"},"geometry":{"type":"Point","coordinates":[105.24909467980473,16.88869158996334]}},{"type":"Feature","properties":{"name_en":"Phorn Na dy","did":1313,"pid":13,"uuid":"1.313034e+06"},"geometry":{"type":"Point","coordinates":[105.24489988037594,16.8753687195597]}},{"type":"Feature","properties":{"name_en":"Peung","did":1313,"pid":13,"uuid":"1.313035e+06"},"geometry":{"type":"Point","coordinates":[105.2318534399587,16.881929069672598]}},{"type":"Feature","properties":{"name_en":"Phorn phaeng","did":1313,"pid":13,"uuid":"1.313036e+06"},"geometry":{"type":"Point","coordinates":[105.2188562095375,16.893536999880805]}},{"type":"Feature","properties":{"name_en":"Kathingyai","did":1313,"pid":13,"uuid":"1.313038e+06"},"geometry":{"type":"Point","coordinates":[105.21098669957956,16.88706206037235]}},{"type":"Feature","properties":{"name_en":"Phorn ngam","did":1313,"pid":13,"uuid":"1.31304e+06"},"geometry":{"type":"Point","coordinates":[105.21653107027909,16.876179840027948]}},{"type":"Feature","properties":{"name_en":"Park ka dar","did":1313,"pid":13,"uuid":"1.313041e+06"},"geometry":{"type":"Point","coordinates":[105.19747095992408,16.880499200443314]}},{"type":"Feature","properties":{"name_en":"Thankxadeng","did":1313,"pid":13,"uuid":"1.313042e+06"},"geometry":{"type":"Point","coordinates":[105.14929052040765,16.92718975031523]}},{"type":"Feature","properties":{"name_en":"Na noy","did":1313,"pid":13,"uuid":"1.313045e+06"},"geometry":{"type":"Point","coordinates":[105.19973331970036,17.05585011986938]}},{"type":"Feature","properties":{"name_en":"Na chair","did":1313,"pid":13,"uuid":"1.313046e+06"},"geometry":{"type":"Point","coordinates":[105.1801756603509,17.006255829708355]}},{"type":"Feature","properties":{"name_en":"Norn nhang","did":1313,"pid":13,"uuid":"1.313047e+06"},"geometry":{"type":"Point","coordinates":[105.16787027033531,17.035435580039188]}},{"type":"Feature","properties":{"name_en":"Bang bet say","did":1313,"pid":13,"uuid":"1.313051e+06"},"geometry":{"type":"Point","coordinates":[105.21836881034022,17.03793916981067]}},{"type":"Feature","properties":{"name_en":"Khom phou","did":1313,"pid":13,"uuid":"1.313052e+06"},"geometry":{"type":"Point","coordinates":[105.23552162007915,17.009843620087388]}},{"type":"Feature","properties":{"name_en":"Kang tous","did":1313,"pid":13,"uuid":"1.313055e+06"},"geometry":{"type":"Point","coordinates":[105.26892811038174,17.03752083029237]}},{"type":"Feature","properties":{"name_en":"Dong koung","did":1313,"pid":13,"uuid":"1.313057e+06"},"geometry":{"type":"Point","coordinates":[105.317935089564,17.048299699973292]}},{"type":"Feature","properties":{"name_en":"Kork ka tai","did":1313,"pid":13,"uuid":"1.31306e+06"},"geometry":{"type":"Point","coordinates":[105.36735486992801,17.06640176039693]}},{"type":"Feature","properties":{"name_en":"Keng deng","did":1313,"pid":13,"uuid":"1.313063e+06"},"geometry":{"type":"Point","coordinates":[105.44524873969489,17.080576569701964]}},{"type":"Feature","properties":{"name_en":"Huoi ngang","did":1313,"pid":13,"uuid":"1.313064e+06"},"geometry":{"type":"Point","coordinates":[105.46031562987048,17.099280199969808]}},{"type":"Feature","properties":{"name_en":"Keng meo","did":1313,"pid":13,"uuid":"1.313066e+06"},"geometry":{"type":"Point","coordinates":[105.48544767014798,17.085709479794385]}},{"type":"Feature","properties":{"name_en":"Keng moom","did":1313,"pid":13,"uuid":"1.313067e+06"},"geometry":{"type":"Point","coordinates":[105.508972409572,17.08266576041683]}},{"type":"Feature","properties":{"name_en":"Phon bork","did":1313,"pid":13,"uuid":"1.313068e+06"},"geometry":{"type":"Point","coordinates":[105.57851898016288,17.05038554032779]}},{"type":"Feature","properties":{"name_en":"Sob say","did":1313,"pid":13,"uuid":"1.313072e+06"},"geometry":{"type":"Point","coordinates":[105.6317144796527,17.03166724027498]}},{"type":"Feature","properties":{"name_en":"Houi ngour tai","did":1313,"pid":13,"uuid":"1.313074e+06"},"geometry":{"type":"Point","coordinates":[105.52548274006578,16.854023029815455]}},{"type":"Feature","properties":{"name_en":"Boung","did":1313,"pid":13,"uuid":"1.313075e+06"},"geometry":{"type":"Point","coordinates":[105.53919000960025,16.84765034968809]}},{"type":"Feature","properties":{"name_en":"Na ngone","did":1313,"pid":13,"uuid":"1.313076e+06"},"geometry":{"type":"Point","coordinates":[105.43294996967421,16.924829999555023]}},{"type":"Feature","properties":{"name_en":"Jom has","did":1313,"pid":13,"uuid":"1.313077e+06"},"geometry":{"type":"Point","coordinates":[105.46655998039644,16.880609919625808]}},{"type":"Feature","properties":{"name_en":"Beung pha nor","did":1313,"pid":13,"uuid":"1.313078e+06"},"geometry":{"type":"Point","coordinates":[105.45612996043984,16.894139989646728]}},{"type":"Feature","properties":{"name_en":"Vien yai","did":1313,"pid":13,"uuid":"1.31308e+06"},"geometry":{"type":"Point","coordinates":[105.4582529664201,16.88116796045878]}},{"type":"Feature","properties":{"name_en":"Na ka bong","did":1313,"pid":13,"uuid":"1.313081e+06"},"geometry":{"type":"Point","coordinates":[105.44405783995234,16.857689779886098]}},{"type":"Feature","properties":{"name_en":"Na kam","did":1313,"pid":13,"uuid":"1.313082e+06"},"geometry":{"type":"Point","coordinates":[105.4726926001612,16.85941905008568]}},{"type":"Feature","properties":{"name_en":"Na laor","did":1313,"pid":13,"uuid":"1.313083e+06"},"geometry":{"type":"Point","coordinates":[105.46754945999612,16.838333870421852]}},{"type":"Feature","properties":{"name_en":"Huoi duea","did":1313,"pid":13,"uuid":"1.313084e+06"},"geometry":{"type":"Point","coordinates":[105.48895121961017,16.829042949849555]}},{"type":"Feature","properties":{"name_en":"Singsavang","did":1313,"pid":13,"uuid":"1.313086e+06"},"geometry":{"type":"Point","coordinates":[105.43424027979337,16.81194806027393]}},{"type":"Feature","properties":{"name_en":"Nathom","did":1313,"pid":13,"uuid":"1.313088e+06"},"geometry":{"type":"Point","coordinates":[105.40938802018873,16.832823349930354]}},{"type":"Feature","properties":{"name_en":"Kuod hine","did":1313,"pid":13,"uuid":"1.313091e+06"},"geometry":{"type":"Point","coordinates":[105.36858450044572,16.87081910967818]}},{"type":"Feature","properties":{"name_en":"Tornphosy","did":1313,"pid":13,"uuid":"1.313092e+06"},"geometry":{"type":"Point","coordinates":[105.43040800024441,16.921100000091716]}},{"type":"Feature","properties":{"name_en":"Xaiphonesim","did":1313,"pid":13,"uuid":"1.313096e+06"},"geometry":{"type":"Point","coordinates":[105.3913269996612,16.93303799977074]}},{"type":"Feature","properties":{"name_en":"Na port","did":1313,"pid":13,"uuid":"1.313097e+06"},"geometry":{"type":"Point","coordinates":[105.38720992015215,16.926739980000818]}}]}