{"type":"FeatureCollection","features":[{"type":"Feature","properties":{"name_en":"Kham san","did":1314,"pid":13,"uuid":"1.314001e+06"},"geometry":{"type":"Point","coordinates":[104.96783857966889,16.509112069889138]}},{"type":"Feature","properties":{"name_en":"Kuor dam","did":1314,"pid":13,"uuid":"1.314002e+06"},"geometry":{"type":"Point","coordinates":[104.97367783028947,16.505762080294495]}},{"type":"Feature","properties":{"name_en":"Khom heng","did":1314,"pid":13,"uuid":"1.314005e+06"},"geometry":{"type":"Point","coordinates":[104.96607686959112,16.442709709773233]}},{"type":"Feature","properties":{"name_en":"Dong por sy","did":1314,"pid":13,"uuid":"1.314006e+06"},"geometry":{"type":"Point","coordinates":[105.01355826003186,16.44204553001873]}},{"type":"Feature","properties":{"name_en":"Nam phuo nuea","did":1314,"pid":13,"uuid":"1.314007e+06"},"geometry":{"type":"Point","coordinates":[105.0038986199417,16.426056549971392]}},{"type":"Feature","properties":{"name_en":"Na dorn","did":1314,"pid":13,"uuid":"1.31401e+06"},"geometry":{"type":"Point","coordinates":[104.97702732991542,16.410503340098337]}},{"type":"Feature","properties":{"name_en":"Mueng kai nuea","did":1314,"pid":13,"uuid":"1.314011e+06"},"geometry":{"type":"Point","coordinates":[105.00232893990741,16.39036422995559]}},{"type":"Feature","properties":{"name_en":"Don toum","did":1314,"pid":13,"uuid":"1.314013e+06"},"geometry":{"type":"Point","coordinates":[105.01857356968759,16.390067170337062]}},{"type":"Feature","properties":{"name_en":"Dong mak fine","did":1314,"pid":13,"uuid":"1.314014e+06"},"geometry":{"type":"Point","coordinates":[105.03134121953791,16.40363503980799]}},{"type":"Feature","properties":{"name_en":"Som sa aird","did":1314,"pid":13,"uuid":"1.314015e+06"},"geometry":{"type":"Point","coordinates":[104.90469326042486,16.401883980269552]}},{"type":"Feature","properties":{"name_en":"Tha phor","did":1314,"pid":13,"uuid":"1.314016e+06"},"geometry":{"type":"Point","coordinates":[104.89364474037474,16.400714950392207]}},{"type":"Feature","properties":{"name_en":"Hort had","did":1314,"pid":13,"uuid":"1.314017e+06"},"geometry":{"type":"Point","coordinates":[104.88881416981953,16.378976909561622]}},{"type":"Feature","properties":{"name_en":"Boung na dy","did":1314,"pid":13,"uuid":"1.314018e+06"},"geometry":{"type":"Point","coordinates":[104.90072167042594,16.363768779712174]}},{"type":"Feature","properties":{"name_en":"Na phan","did":1314,"pid":13,"uuid":"1.314019e+06"},"geometry":{"type":"Point","coordinates":[104.93883938020632,16.352183900316827]}},{"type":"Feature","properties":{"name_en":"Tha dan","did":1314,"pid":13,"uuid":"1.31402e+06"},"geometry":{"type":"Point","coordinates":[104.95462661036834,16.329327039828915]}},{"type":"Feature","properties":{"name_en":"Kan tha tiane","did":1314,"pid":13,"uuid":"1.314022e+06"},"geometry":{"type":"Point","coordinates":[104.98069676016405,16.301617559682242]}},{"type":"Feature","properties":{"name_en":"Don vai","did":1314,"pid":13,"uuid":"1.314023e+06"},"geometry":{"type":"Point","coordinates":[104.98399033959869,16.313765529898532]}},{"type":"Feature","properties":{"name_en":"Phoem ma ja di may","did":1314,"pid":13,"uuid":"1.314026e+06"},"geometry":{"type":"Point","coordinates":[105.00629978039156,16.365579110038983]}},{"type":"Feature","properties":{"name_en":"Na mak kuea","did":1314,"pid":13,"uuid":"1.314028e+06"},"geometry":{"type":"Point","coordinates":[105.0140063596777,16.348220690177197]}},{"type":"Feature","properties":{"name_en":"Phorn sam hong","did":1314,"pid":13,"uuid":"1.314029e+06"},"geometry":{"type":"Point","coordinates":[105.0217659900165,16.338524750361593]}},{"type":"Feature","properties":{"name_en":"tak dase","did":1314,"pid":13,"uuid":"1.314031e+06"},"geometry":{"type":"Point","coordinates":[105.02936392976764,16.35063183037793]}},{"type":"Feature","properties":{"name_en":"Phorn tad","did":1314,"pid":13,"uuid":"1.314032e+06"},"geometry":{"type":"Point","coordinates":[105.02685388999522,16.366726089595556]}},{"type":"Feature","properties":{"name_en":"Si sa vang kao","did":1314,"pid":13,"uuid":"1.314033e+06"},"geometry":{"type":"Point","coordinates":[105.06311727031355,16.396322329958167]}},{"type":"Feature","properties":{"name_en":"Phor si koe","did":1314,"pid":13,"uuid":"1.314035e+06"},"geometry":{"type":"Point","coordinates":[105.06710386955857,16.373387520345535]}},{"type":"Feature","properties":{"name_en":"Na kham tai","did":1314,"pid":13,"uuid":"1.314039e+06"},"geometry":{"type":"Point","coordinates":[105.05065102998118,16.34920036012858]}},{"type":"Feature","properties":{"name_en":"Na la ong","did":1314,"pid":13,"uuid":"1.31404e+06"},"geometry":{"type":"Point","coordinates":[105.06035401044284,16.361275749572812]}},{"type":"Feature","properties":{"name_en":"Khamsanxai","did":1314,"pid":13,"uuid":"1.314043e+06"},"geometry":{"type":"Point","coordinates":[105.09747971982756,16.351763969631104]}},{"type":"Feature","properties":{"name_en":"Phorn tan","did":1314,"pid":13,"uuid":"1.314045e+06"},"geometry":{"type":"Point","coordinates":[105.05796256012852,16.33937500983483]}},{"type":"Feature","properties":{"name_en":"Houi ka nhong","did":1314,"pid":13,"uuid":"1.314046e+06"},"geometry":{"type":"Point","coordinates":[105.05836381008777,16.267604970306557]}},{"type":"Feature","properties":{"name_en":"Vein koun","did":1314,"pid":13,"uuid":"1.314047e+06"},"geometry":{"type":"Point","coordinates":[105.00209792976766,16.264797030086427]}},{"type":"Feature","properties":{"name_en":"Lout mak","did":1314,"pid":13,"uuid":"1.314049e+06"},"geometry":{"type":"Point","coordinates":[105.02650259983207,16.238545829736697]}},{"type":"Feature","properties":{"name_en":"Na morng","did":1314,"pid":13,"uuid":"1.314051e+06"},"geometry":{"type":"Point","coordinates":[105.09082323024062,16.225043259985682]}},{"type":"Feature","properties":{"name_en":"Si sa vang tai","did":1314,"pid":13,"uuid":"1.314052e+06"},"geometry":{"type":"Point","coordinates":[105.08015716960615,16.226708320253724]}},{"type":"Feature","properties":{"name_en":"Don sa nort","did":1314,"pid":13,"uuid":"1.314054e+06"},"geometry":{"type":"Point","coordinates":[105.01829687975102,16.20192545994222]}},{"type":"Feature","properties":{"name_en":"Dorng dock mai","did":1314,"pid":13,"uuid":"1.314055e+06"},"geometry":{"type":"Point","coordinates":[105.04413686965971,16.215783849778813]}},{"type":"Feature","properties":{"name_en":"H hine","did":1314,"pid":13,"uuid":"1.314056e+06"},"geometry":{"type":"Point","coordinates":[105.03250881975065,16.214187689954016]}},{"type":"Feature","properties":{"name_en":"Houi moung","did":1314,"pid":13,"uuid":"1.314058e+06"},"geometry":{"type":"Point","coordinates":[105.11444092033771,16.271408759814673]}},{"type":"Feature","properties":{"name_en":"Na dou","did":1314,"pid":13,"uuid":"1.314059e+06"},"geometry":{"type":"Point","coordinates":[105.12965792962358,16.21262681036175]}},{"type":"Feature","properties":{"name_en":"Na bor","did":1314,"pid":13,"uuid":"1.31406e+06"},"geometry":{"type":"Point","coordinates":[105.10778408976789,16.22904435966171]}},{"type":"Feature","properties":{"name_en":"Na tiane","did":1314,"pid":13,"uuid":"1.314061e+06"},"geometry":{"type":"Point","coordinates":[105.13194812044762,16.225837019956554]}}]}