{"type":"FeatureCollection","features":[{"type":"Feature","properties":{"name_en":"Chang sang","did":1315,"pid":13,"uuid":"1.315001e+06"},"geometry":{"type":"Point","coordinates":[105.46884245004415,16.695419570173616]}},{"type":"Feature","properties":{"name_en":"Na tou may","did":1315,"pid":13,"uuid":"1.315003e+06"},"geometry":{"type":"Point","coordinates":[105.47528486989953,16.73347886044354]}},{"type":"Feature","properties":{"name_en":"Na tou nhai","did":1315,"pid":13,"uuid":"1.315004e+06"},"geometry":{"type":"Point","coordinates":[105.53777563981114,16.717457439764335]}},{"type":"Feature","properties":{"name_en":"Na torn","did":1315,"pid":13,"uuid":"1.315005e+06"},"geometry":{"type":"Point","coordinates":[105.54185830017367,16.731437280323195]}},{"type":"Feature","properties":{"name_en":"Kang","did":1315,"pid":13,"uuid":"1.315007e+06"},"geometry":{"type":"Point","coordinates":[105.49631272007252,16.690734919694496]}},{"type":"Feature","properties":{"name_en":"Chorb ou","did":1315,"pid":13,"uuid":"1.31501e+06"},"geometry":{"type":"Point","coordinates":[105.54777961032082,16.687777029793146]}},{"type":"Feature","properties":{"name_en":"Phorn","did":1315,"pid":13,"uuid":"1.315011e+06"},"geometry":{"type":"Point","coordinates":[105.57428671009401,16.722122889806425]}},{"type":"Feature","properties":{"name_en":"Na kan day","did":1315,"pid":13,"uuid":"1.315012e+06"},"geometry":{"type":"Point","coordinates":[105.5418654303538,16.73142386967789]}},{"type":"Feature","properties":{"name_en":"Na tiane tai","did":1315,"pid":13,"uuid":"1.315013e+06"},"geometry":{"type":"Point","coordinates":[105.56459244974153,16.743269759752497]}},{"type":"Feature","properties":{"name_en":"Na sa kou","did":1315,"pid":13,"uuid":"1.315014e+06"},"geometry":{"type":"Point","coordinates":[105.56147899040826,16.728895460373398]}},{"type":"Feature","properties":{"name_en":"Hin tack","did":1315,"pid":13,"uuid":"1.315015e+06"},"geometry":{"type":"Point","coordinates":[105.55840904003637,16.746698209756453]}},{"type":"Feature","properties":{"name_en":"Ka sork nuea","did":1315,"pid":13,"uuid":"1.315016e+06"},"geometry":{"type":"Point","coordinates":[105.61379991976742,16.7750500000726]}},{"type":"Feature","properties":{"name_en":"Phon bork","did":1315,"pid":13,"uuid":"1.315018e+06"},"geometry":{"type":"Point","coordinates":[105.58603997974419,16.863629950051465]}},{"type":"Feature","properties":{"name_en":"Ka sane","did":1315,"pid":13,"uuid":"1.315019e+06"},"geometry":{"type":"Point","coordinates":[105.59472992038096,16.83201994979547]}},{"type":"Feature","properties":{"name_en":"Pha lan tay","did":1315,"pid":13,"uuid":"1.31502e+06"},"geometry":{"type":"Point","coordinates":[105.5610504301316,16.658827700218602]}},{"type":"Feature","properties":{"name_en":"Ka long neua","did":1315,"pid":13,"uuid":"1.315023e+06"},"geometry":{"type":"Point","coordinates":[105.52006769959561,16.644813579784767]}},{"type":"Feature","properties":{"name_en":"Ka long tay","did":1315,"pid":13,"uuid":"1.315024e+06"},"geometry":{"type":"Point","coordinates":[105.53021374021125,16.6354187201993]}},{"type":"Feature","properties":{"name_en":"Na kang sair","did":1315,"pid":13,"uuid":"1.315028e+06"},"geometry":{"type":"Point","coordinates":[105.57039340032892,16.60536759019154]}},{"type":"Feature","properties":{"name_en":"Pha lan neua","did":1315,"pid":13,"uuid":"1.315032e+06"},"geometry":{"type":"Point","coordinates":[105.5641625402859,16.65758022007532]}},{"type":"Feature","properties":{"name_en":"Phor xay","did":1315,"pid":13,"uuid":"1.315033e+06"},"geometry":{"type":"Point","coordinates":[105.58869344037687,16.662973220020955]}},{"type":"Feature","properties":{"name_en":"Rampoy","did":1315,"pid":13,"uuid":"1.315034e+06"},"geometry":{"type":"Point","coordinates":[105.5824536195804,16.668829490105686]}},{"type":"Feature","properties":{"name_en":"Houi nhapee","did":1315,"pid":13,"uuid":"1.315036e+06"},"geometry":{"type":"Point","coordinates":[105.63063732015301,16.64327642044513]}},{"type":"Feature","properties":{"name_en":"Na kangtorng","did":1315,"pid":13,"uuid":"1.315037e+06"},"geometry":{"type":"Point","coordinates":[105.58410359990874,16.603695140041683]}},{"type":"Feature","properties":{"name_en":"Na mak me nhai","did":1315,"pid":13,"uuid":"1.315038e+06"},"geometry":{"type":"Point","coordinates":[105.56404931040368,16.65026542033647]}},{"type":"Feature","properties":{"name_en":"Nongveng","did":1315,"pid":13,"uuid":"1.31504e+06"},"geometry":{"type":"Point","coordinates":[105.57692356973783,16.63141484992921]}},{"type":"Feature","properties":{"name_en":"Porn tan","did":1315,"pid":13,"uuid":"1.315041e+06"},"geometry":{"type":"Point","coordinates":[105.57621874009706,16.649152970213862]}},{"type":"Feature","properties":{"name_en":"Na por kang","did":1315,"pid":13,"uuid":"1.315043e+06"},"geometry":{"type":"Point","coordinates":[105.58486223961722,16.622000630194574]}},{"type":"Feature","properties":{"name_en":"Na por vad","did":1315,"pid":13,"uuid":"1.315044e+06"},"geometry":{"type":"Point","coordinates":[105.60207339006682,16.621706849666253]}},{"type":"Feature","properties":{"name_en":"kangjeer","did":1315,"pid":13,"uuid":"1.315045e+06"},"geometry":{"type":"Point","coordinates":[105.57572629984477,16.7034609201547]}},{"type":"Feature","properties":{"name_en":"Haum nhai","did":1315,"pid":13,"uuid":"1.315047e+06"},"geometry":{"type":"Point","coordinates":[105.60774055996923,16.7030087999613]}},{"type":"Feature","properties":{"name_en":"Haum noy","did":1315,"pid":13,"uuid":"1.315048e+06"},"geometry":{"type":"Point","coordinates":[105.59575912989861,16.692891590112144]}},{"type":"Feature","properties":{"name_en":"Xieng rair nam","did":1315,"pid":13,"uuid":"1.315049e+06"},"geometry":{"type":"Point","coordinates":[105.60567568018237,16.759471139950865]}},{"type":"Feature","properties":{"name_en":"Na ka pong","did":1315,"pid":13,"uuid":"1.31505e+06"},"geometry":{"type":"Point","coordinates":[105.61899250970198,16.760341520444133]}},{"type":"Feature","properties":{"name_en":"Na bor tai","did":1315,"pid":13,"uuid":"1.315051e+06"},"geometry":{"type":"Point","coordinates":[105.63338994046714,16.74510991966689]}},{"type":"Feature","properties":{"name_en":"Nong pheu","did":1315,"pid":13,"uuid":"1.315054e+06"},"geometry":{"type":"Point","coordinates":[105.61802397988586,16.775189639815373]}},{"type":"Feature","properties":{"name_en":"Douen","did":1315,"pid":13,"uuid":"1.315055e+06"},"geometry":{"type":"Point","coordinates":[105.62679556021855,16.780083159798945]}},{"type":"Feature","properties":{"name_en":"Na lai","did":1315,"pid":13,"uuid":"1.315056e+06"},"geometry":{"type":"Point","coordinates":[105.67172994028827,16.72205993972304]}},{"type":"Feature","properties":{"name_en":"Xieng rair kock","did":1315,"pid":13,"uuid":"1.315058e+06"},"geometry":{"type":"Point","coordinates":[105.66132993010635,16.6796199300912]}},{"type":"Feature","properties":{"name_en":"Na moung","did":1315,"pid":13,"uuid":"1.315059e+06"},"geometry":{"type":"Point","coordinates":[105.63008797037227,16.80302711000206]}},{"type":"Feature","properties":{"name_en":"Porsee","did":1315,"pid":13,"uuid":"1.31506e+06"},"geometry":{"type":"Point","coordinates":[105.64939669027524,16.627550290277842]}},{"type":"Feature","properties":{"name_en":"Norn sa vang","did":1315,"pid":13,"uuid":"1.315062e+06"},"geometry":{"type":"Point","coordinates":[105.67505210990609,16.588608639927244]}},{"type":"Feature","properties":{"name_en":"Dong baeng","did":1315,"pid":13,"uuid":"1.315063e+06"},"geometry":{"type":"Point","coordinates":[105.69475360037003,16.58184067027749]}},{"type":"Feature","properties":{"name_en":"tore","did":1315,"pid":13,"uuid":"1.315066e+06"},"geometry":{"type":"Point","coordinates":[105.69708251016486,16.547976949730046]}},{"type":"Feature","properties":{"name_en":"Sa moun","did":1315,"pid":13,"uuid":"1.315069e+06"},"geometry":{"type":"Point","coordinates":[105.64887994986117,16.53301994008194]}},{"type":"Feature","properties":{"name_en":"Kang pram","did":1315,"pid":13,"uuid":"1.31507e+06"},"geometry":{"type":"Point","coordinates":[105.53732109041741,16.524736610448187]}},{"type":"Feature","properties":{"name_en":"Na hou","did":1315,"pid":13,"uuid":"1.315071e+06"},"geometry":{"type":"Point","coordinates":[105.57389997032173,16.533229990305404]}},{"type":"Feature","properties":{"name_en":"Don tuer","did":1315,"pid":13,"uuid":"1.315072e+06"},"geometry":{"type":"Point","coordinates":[105.56020997039822,16.53945992961208]}},{"type":"Feature","properties":{"name_en":"Kang xay nhai","did":1315,"pid":13,"uuid":"1.315073e+06"},"geometry":{"type":"Point","coordinates":[105.575649939804,16.547919950127543]}},{"type":"Feature","properties":{"name_en":"Kang xay noy","did":1315,"pid":13,"uuid":"1.315074e+06"},"geometry":{"type":"Point","coordinates":[105.56211366980538,16.55758704963175]}},{"type":"Feature","properties":{"name_en":"Na xai","did":1315,"pid":13,"uuid":"1.315075e+06"},"geometry":{"type":"Point","coordinates":[105.57491871035084,16.57686903001277]}},{"type":"Feature","properties":{"name_en":"Na  kang","did":1315,"pid":13,"uuid":"1.315076e+06"},"geometry":{"type":"Point","coordinates":[105.54518037953653,16.545307230117427]}},{"type":"Feature","properties":{"name_en":"Rack xay","did":1315,"pid":13,"uuid":"1.315077e+06"},"geometry":{"type":"Point","coordinates":[105.48536620019264,16.754224989641642]}},{"type":"Feature","properties":{"name_en":"Ou dom xay","did":1315,"pid":13,"uuid":"1.315078e+06"},"geometry":{"type":"Point","coordinates":[105.53774270034218,16.69372138996073]}},{"type":"Feature","properties":{"name_en":"Buang tha ra tai","did":1315,"pid":13,"uuid":"1.31508e+06"},"geometry":{"type":"Point","coordinates":[105.56409866982173,16.619969619901287]}}]}