{"type":"FeatureCollection","features":[{"type":"Feature","properties":{"name_en":"Nalak","did":1401,"pid":14,"uuid":"1.401001e+06"},"geometry":{"type":"Point","coordinates":[106.42323997967395,15.71433606991227]}},{"type":"Feature","properties":{"name_en":"Vatkang","did":1401,"pid":14,"uuid":"1.401002e+06"},"geometry":{"type":"Point","coordinates":[106.42618478998891,15.716777300315517]}},{"type":"Feature","properties":{"name_en":"Phonkeo","did":1401,"pid":14,"uuid":"1.401003e+06"},"geometry":{"type":"Point","coordinates":[106.42362914977674,15.719629669589446]}},{"type":"Feature","properties":{"name_en":"Nakokpho","did":1401,"pid":14,"uuid":"1.401004e+06"},"geometry":{"type":"Point","coordinates":[106.41648944033959,15.716261400131398]}},{"type":"Feature","properties":{"name_en":"Lak 2","did":1401,"pid":14,"uuid":"1.401005e+06"},"geometry":{"type":"Point","coordinates":[106.40542993990404,15.71487595021725]}},{"type":"Feature","properties":{"name_en":"Nathongluang","did":1401,"pid":14,"uuid":"1.401006e+06"},"geometry":{"type":"Point","coordinates":[106.42499673971808,15.730911959801368]}},{"type":"Feature","properties":{"name_en":"Nongsakerng","did":1401,"pid":14,"uuid":"1.401007e+06"},"geometry":{"type":"Point","coordinates":[106.41633261957942,15.739760570158843]}},{"type":"Feature","properties":{"name_en":"Nabak","did":1401,"pid":14,"uuid":"1.401008e+06"},"geometry":{"type":"Point","coordinates":[106.3947533304248,15.72777470020069]}},{"type":"Feature","properties":{"name_en":"Khanthalat","did":1401,"pid":14,"uuid":"1.401009e+06"},"geometry":{"type":"Point","coordinates":[106.39508360497318,15.722694604494555]}},{"type":"Feature","properties":{"name_en":"Nadone","did":1401,"pid":14,"uuid":"1.40101e+06"},"geometry":{"type":"Point","coordinates":[106.38831065981736,15.720853419739548]}},{"type":"Feature","properties":{"name_en":"Phonephai","did":1401,"pid":14,"uuid":"1.401011e+06"},"geometry":{"type":"Point","coordinates":[106.36319328032373,15.713469299559598]}},{"type":"Feature","properties":{"name_en":"Nathone","did":1401,"pid":14,"uuid":"1.401012e+06"},"geometry":{"type":"Point","coordinates":[106.34008436969577,15.704813230322747]}},{"type":"Feature","properties":{"name_en":"Nakhounyai","did":1401,"pid":14,"uuid":"1.401013e+06"},"geometry":{"type":"Point","coordinates":[106.38091513979899,15.681228649645936]}},{"type":"Feature","properties":{"name_en":"Thardnoy","did":1401,"pid":14,"uuid":"1.401014e+06"},"geometry":{"type":"Point","coordinates":[106.39929941989006,15.669114950358598]}},{"type":"Feature","properties":{"name_en":"Thardhouy","did":1401,"pid":14,"uuid":"1.401015e+06"},"geometry":{"type":"Point","coordinates":[106.40505485041807,15.680184010300497]}},{"type":"Feature","properties":{"name_en":"Nakhok","did":1401,"pid":14,"uuid":"1.401016e+06"},"geometry":{"type":"Point","coordinates":[106.42181464025295,15.685320440071804]}},{"type":"Feature","properties":{"name_en":"Phonetan","did":1401,"pid":14,"uuid":"1.401017e+06"},"geometry":{"type":"Point","coordinates":[106.43307908001017,15.698352960046595]}},{"type":"Feature","properties":{"name_en":"Phonebork","did":1401,"pid":14,"uuid":"1.401018e+06"},"geometry":{"type":"Point","coordinates":[106.42949329984343,15.709394189631846]}},{"type":"Feature","properties":{"name_en":"Taopoun","did":1401,"pid":14,"uuid":"1.401019e+06"},"geometry":{"type":"Point","coordinates":[106.43209361036918,15.720191250339887]}},{"type":"Feature","properties":{"name_en":"Naphagni","did":1401,"pid":14,"uuid":"1.40102e+06"},"geometry":{"type":"Point","coordinates":[106.43175816983906,15.62312102022714]}},{"type":"Feature","properties":{"name_en":"Nathonglouang","did":1401,"pid":14,"uuid":"1.401021e+06"},"geometry":{"type":"Point","coordinates":[106.44197965043601,15.604868249770336]}},{"type":"Feature","properties":{"name_en":"Nakhoysao","did":1401,"pid":14,"uuid":"1.401022e+06"},"geometry":{"type":"Point","coordinates":[106.38609583021534,15.663504110235401]}},{"type":"Feature","properties":{"name_en":"Nathounnoy","did":1401,"pid":14,"uuid":"1.401023e+06"},"geometry":{"type":"Point","coordinates":[106.36390221970372,15.672042499827661]}},{"type":"Feature","properties":{"name_en":"Dongnong","did":1401,"pid":14,"uuid":"1.401024e+06"},"geometry":{"type":"Point","coordinates":[106.3491562797075,15.676791180065958]}},{"type":"Feature","properties":{"name_en":"Nathankouai","did":1401,"pid":14,"uuid":"1.401025e+06"},"geometry":{"type":"Point","coordinates":[106.36123141004896,15.651531060349836]}},{"type":"Feature","properties":{"name_en":"Ko","did":1401,"pid":14,"uuid":"1.401026e+06"},"geometry":{"type":"Point","coordinates":[106.36782722027831,15.643619049646341]}},{"type":"Feature","properties":{"name_en":"Sung","did":1401,"pid":14,"uuid":"1.401027e+06"},"geometry":{"type":"Point","coordinates":[106.36223111982976,15.627508689895832]}},{"type":"Feature","properties":{"name_en":"Phaognai","did":1401,"pid":14,"uuid":"1.401028e+06"},"geometry":{"type":"Point","coordinates":[106.37810652988853,15.620458000285655]}},{"type":"Feature","properties":{"name_en":"Nalath","did":1401,"pid":14,"uuid":"1.401029e+06"},"geometry":{"type":"Point","coordinates":[106.38328428004654,15.645510839883507]}},{"type":"Feature","properties":{"name_en":"Viengkham","did":1401,"pid":14,"uuid":"1.40103e+06"},"geometry":{"type":"Point","coordinates":[106.39029273022172,15.580550510398702]}},{"type":"Feature","properties":{"name_en":"Haphougnai","did":1401,"pid":14,"uuid":"1.401031e+06"},"geometry":{"type":"Point","coordinates":[106.43772306985645,15.530601150303855]}},{"type":"Feature","properties":{"name_en":"Naxainoy","did":1401,"pid":14,"uuid":"1.401032e+06"},"geometry":{"type":"Point","coordinates":[106.43855430036021,15.58650584992966]}},{"type":"Feature","properties":{"name_en":"Thongpaborhnai","did":1401,"pid":14,"uuid":"1.401033e+06"},"geometry":{"type":"Point","coordinates":[106.34678353022248,15.634710839982109]}},{"type":"Feature","properties":{"name_en":"Naxaiyai","did":1401,"pid":14,"uuid":"1.401034e+06"},"geometry":{"type":"Point","coordinates":[106.32979893990927,15.623250939726969]}},{"type":"Feature","properties":{"name_en":"Nongsano","did":1401,"pid":14,"uuid":"1.401035e+06"},"geometry":{"type":"Point","coordinates":[106.31802446038064,15.62676898995097]}},{"type":"Feature","properties":{"name_en":"Naxainoy","did":1401,"pid":14,"uuid":"1.401037e+06"},"geometry":{"type":"Point","coordinates":[106.30821695971282,15.610516309602918]}},{"type":"Feature","properties":{"name_en":"Sapone","did":1401,"pid":14,"uuid":"1.401039e+06"},"geometry":{"type":"Point","coordinates":[106.30346802964965,15.615758439681686]}},{"type":"Feature","properties":{"name_en":"Donekhao","did":1401,"pid":14,"uuid":"1.401041e+06"},"geometry":{"type":"Point","coordinates":[106.31109179044238,15.598033310331925]}},{"type":"Feature","properties":{"name_en":"Lernthone","did":1401,"pid":14,"uuid":"1.401043e+06"},"geometry":{"type":"Point","coordinates":[106.26078000011903,15.635653999720612]}},{"type":"Feature","properties":{"name_en":"Songkalong","did":1401,"pid":14,"uuid":"1.401048e+06"},"geometry":{"type":"Point","coordinates":[106.27547733037585,15.625687729801049]}},{"type":"Feature","properties":{"name_en":"Khaengkavao","did":1401,"pid":14,"uuid":"1.401049e+06"},"geometry":{"type":"Point","coordinates":[106.26018471970886,15.642233940157942]}},{"type":"Feature","properties":{"name_en":"Chanvong","did":1401,"pid":14,"uuid":"1.40105e+06"},"geometry":{"type":"Point","coordinates":[106.28418545992093,15.602270199905078]}},{"type":"Feature","properties":{"name_en":"channeua","did":1401,"pid":14,"uuid":"1.401051e+06"},"geometry":{"type":"Point","coordinates":[106.2478287895621,15.63694990034536]}},{"type":"Feature","properties":{"name_en":"Dongkoneua","did":1401,"pid":14,"uuid":"1.401053e+06"},"geometry":{"type":"Point","coordinates":[106.29694138025178,15.592426570178239]}},{"type":"Feature","properties":{"name_en":"Bangoudom","did":1401,"pid":14,"uuid":"1.401054e+06"},"geometry":{"type":"Point","coordinates":[106.29209924013966,15.566280899940386]}},{"type":"Feature","properties":{"name_en":"Khiengkhong","did":1401,"pid":14,"uuid":"1.401055e+06"},"geometry":{"type":"Point","coordinates":[106.30938833987138,15.563638420279167]}},{"type":"Feature","properties":{"name_en":"Kadup","did":1401,"pid":14,"uuid":"1.401056e+06"},"geometry":{"type":"Point","coordinates":[106.33652750979051,15.543991580095692]}},{"type":"Feature","properties":{"name_en":"Lavang","did":1401,"pid":14,"uuid":"1.401057e+06"},"geometry":{"type":"Point","coordinates":[106.34337292981417,15.522043480241885]}},{"type":"Feature","properties":{"name_en":"Sanvungnoy","did":1401,"pid":14,"uuid":"1.401058e+06"},"geometry":{"type":"Point","coordinates":[106.28975850956321,15.559245639827523]}},{"type":"Feature","properties":{"name_en":"Sanvung","did":1401,"pid":14,"uuid":"1.40106e+06"},"geometry":{"type":"Point","coordinates":[106.27153910041648,15.536168160078367]}},{"type":"Feature","properties":{"name_en":"Nater","did":1401,"pid":14,"uuid":"1.401061e+06"},"geometry":{"type":"Point","coordinates":[106.30261986962661,15.530058589810661]}},{"type":"Feature","properties":{"name_en":"Houylanong","did":1401,"pid":14,"uuid":"1.401063e+06"},"geometry":{"type":"Point","coordinates":[106.2823520004258,15.50480903006766]}},{"type":"Feature","properties":{"name_en":"Khonelang","did":1401,"pid":14,"uuid":"1.401064e+06"},"geometry":{"type":"Point","coordinates":[106.25977690000026,15.555374899999983]}},{"type":"Feature","properties":{"name_en":"Natou","did":1401,"pid":14,"uuid":"1.401065e+06"},"geometry":{"type":"Point","coordinates":[106.24970349004182,15.56722202004439]}},{"type":"Feature","properties":{"name_en":"Soutavaly","did":1401,"pid":14,"uuid":"1.401066e+06"},"geometry":{"type":"Point","coordinates":[106.23180200020722,15.597403829998324]}},{"type":"Feature","properties":{"name_en":"Nateum","did":1401,"pid":14,"uuid":"1.401067e+06"},"geometry":{"type":"Point","coordinates":[106.20791240962761,15.602040030349212]}},{"type":"Feature","properties":{"name_en":"Phukpheoset","did":1401,"pid":14,"uuid":"1.401068e+06"},"geometry":{"type":"Point","coordinates":[106.24603221025387,15.688406739662845]}},{"type":"Feature","properties":{"name_en":"Vungngoua","did":1401,"pid":14,"uuid":"1.401069e+06"},"geometry":{"type":"Point","coordinates":[106.2580487603846,15.66234766018013]}},{"type":"Feature","properties":{"name_en":"Nongbouhin","did":1401,"pid":14,"uuid":"1.401072e+06"},"geometry":{"type":"Point","coordinates":[106.28104803026162,15.700627389830474]}},{"type":"Feature","properties":{"name_en":"Maisivilay","did":1401,"pid":14,"uuid":"1.401073e+06"},"geometry":{"type":"Point","coordinates":[106.30990810024691,15.703867660411348]}},{"type":"Feature","properties":{"name_en":"Tongnoy","did":1401,"pid":14,"uuid":"1.401074e+06"},"geometry":{"type":"Point","coordinates":[106.2467991798404,15.592750683822405]}},{"type":"Feature","properties":{"name_en":"Phukpheothong","did":1401,"pid":14,"uuid":"1.401076e+06"},"geometry":{"type":"Point","coordinates":[106.25176391993159,15.725493900361945]}},{"type":"Feature","properties":{"name_en":"Tongyai","did":1401,"pid":14,"uuid":"1.401077e+06"},"geometry":{"type":"Point","coordinates":[106.26623502967473,15.724826529714182]}},{"type":"Feature","properties":{"name_en":"Kaengkhoum","did":1401,"pid":14,"uuid":"1.401078e+06"},"geometry":{"type":"Point","coordinates":[106.26317362021199,15.737384460106082]}},{"type":"Feature","properties":{"name_en":"Kaengpr","did":1401,"pid":14,"uuid":"1.401079e+06"},"geometry":{"type":"Point","coordinates":[106.29623596043379,15.727382090103774]}},{"type":"Feature","properties":{"name_en":"Nahinlong","did":1401,"pid":14,"uuid":"1.40108e+06"},"geometry":{"type":"Point","coordinates":[106.22179686036505,15.773334609873938]}},{"type":"Feature","properties":{"name_en":"Khoksavath","did":1401,"pid":14,"uuid":"1.401081e+06"},"geometry":{"type":"Point","coordinates":[106.22979320018901,15.744850640399534]}},{"type":"Feature","properties":{"name_en":"Napholern","did":1401,"pid":14,"uuid":"1.401082e+06"},"geometry":{"type":"Point","coordinates":[106.24667175017561,15.766972159721341]}},{"type":"Feature","properties":{"name_en":"Nongmor","did":1401,"pid":14,"uuid":"1.401083e+06"},"geometry":{"type":"Point","coordinates":[106.25039248021922,15.751572850090408]}},{"type":"Feature","properties":{"name_en":"Beungxaineua","did":1401,"pid":14,"uuid":"1.401084e+06"},"geometry":{"type":"Point","coordinates":[106.2340548096061,15.706881879843646]}},{"type":"Feature","properties":{"name_en":"Thongnakham","did":1401,"pid":14,"uuid":"1.401087e+06"},"geometry":{"type":"Point","coordinates":[106.1967277600414,15.725463049789829]}},{"type":"Feature","properties":{"name_en":"Nomgsai","did":1401,"pid":14,"uuid":"1.401089e+06"},"geometry":{"type":"Point","coordinates":[106.18500323982032,15.7190191302044]}},{"type":"Feature","properties":{"name_en":"Beungkham","did":1401,"pid":14,"uuid":"1.40109e+06"},"geometry":{"type":"Point","coordinates":[106.145702169573,15.710675450376437]}},{"type":"Feature","properties":{"name_en":"Chantai","did":1401,"pid":14,"uuid":"1.401091e+06"},"geometry":{"type":"Point","coordinates":[106.1991526498663,15.694924680249823]}},{"type":"Feature","properties":{"name_en":"Naxaisouy","did":1401,"pid":14,"uuid":"1.401092e+06"},"geometry":{"type":"Point","coordinates":[106.19593784998128,15.635784729716578]}},{"type":"Feature","properties":{"name_en":"Phanuoen","did":1401,"pid":14,"uuid":"1.401093e+06"},"geometry":{"type":"Point","coordinates":[106.17339992023577,15.66877204972081]}},{"type":"Feature","properties":{"name_en":"Nongbouanoy","did":1401,"pid":14,"uuid":"1.401094e+06"},"geometry":{"type":"Point","coordinates":[106.12222320020061,15.673166850128032]}},{"type":"Feature","properties":{"name_en":"Nadonebong","did":1401,"pid":14,"uuid":"1.401095e+06"},"geometry":{"type":"Point","coordinates":[106.14701996970955,15.751009920328052]}},{"type":"Feature","properties":{"name_en":"Nadonekhuang","did":1401,"pid":14,"uuid":"1.401096e+06"},"geometry":{"type":"Point","coordinates":[106.3323710996071,15.71159821037497]}},{"type":"Feature","properties":{"name_en":"Thameuangkao","did":1401,"pid":14,"uuid":"1.401097e+06"},"geometry":{"type":"Point","coordinates":[106.34691025979922,15.726509030143324]}},{"type":"Feature","properties":{"name_en":"Naphangyai","did":1401,"pid":14,"uuid":"1.401098e+06"},"geometry":{"type":"Point","coordinates":[106.3203085301883,15.731397860362076]}},{"type":"Feature","properties":{"name_en":"Saokadee","did":1401,"pid":14,"uuid":"1.4011e+06"},"geometry":{"type":"Point","coordinates":[106.30353516958378,15.756734589821168]}},{"type":"Feature","properties":{"name_en":"Khonelard","did":1401,"pid":14,"uuid":"1.401101e+06"},"geometry":{"type":"Point","coordinates":[106.33097980000034,15.768751299999977]}},{"type":"Feature","properties":{"name_en":"Thameuangxe","did":1401,"pid":14,"uuid":"1.401102e+06"},"geometry":{"type":"Point","coordinates":[106.3432757801002,15.764567139561526]}},{"type":"Feature","properties":{"name_en":"Kaxakao","did":1401,"pid":14,"uuid":"1.401105e+06"},"geometry":{"type":"Point","coordinates":[106.37255779025213,15.758147189878361]}},{"type":"Feature","properties":{"name_en":"Songkhone","did":1401,"pid":14,"uuid":"1.401106e+06"},"geometry":{"type":"Point","coordinates":[106.37885628957243,15.768034909682134]}},{"type":"Feature","properties":{"name_en":"Kasanoy","did":1401,"pid":14,"uuid":"1.401107e+06"},"geometry":{"type":"Point","coordinates":[106.37874237967371,15.79621394020679]}},{"type":"Feature","properties":{"name_en":"Nongmarkyang","did":1401,"pid":14,"uuid":"1.401109e+06"},"geometry":{"type":"Point","coordinates":[106.34446509003622,15.785732539760753]}},{"type":"Feature","properties":{"name_en":"Kaengmeuanglao","did":1401,"pid":14,"uuid":"1.40111e+06"},"geometry":{"type":"Point","coordinates":[106.32511622001397,15.788443330296404]}},{"type":"Feature","properties":{"name_en":"Pakpong","did":1401,"pid":14,"uuid":"1.401111e+06"},"geometry":{"type":"Point","coordinates":[106.38573665970918,15.843999669618228]}},{"type":"Feature","properties":{"name_en":"Khamthong","did":1401,"pid":14,"uuid":"1.401113e+06"},"geometry":{"type":"Point","coordinates":[106.38098964977655,15.857112070019305]}},{"type":"Feature","properties":{"name_en":"Tongsouy","did":1401,"pid":14,"uuid":"1.401114e+06"},"geometry":{"type":"Point","coordinates":[106.34733028004057,15.836829119721841]}},{"type":"Feature","properties":{"name_en":"Nongphek","did":1401,"pid":14,"uuid":"1.401115e+06"},"geometry":{"type":"Point","coordinates":[106.33647965015432,15.862356960253864]}},{"type":"Feature","properties":{"name_en":"Nakhou","did":1401,"pid":14,"uuid":"1.401116e+06"},"geometry":{"type":"Point","coordinates":[106.33578563031843,15.839731859558379]}},{"type":"Feature","properties":{"name_en":"Nongphungyong","did":1401,"pid":14,"uuid":"1.401117e+06"},"geometry":{"type":"Point","coordinates":[106.31367308003719,15.841264489788538]}},{"type":"Feature","properties":{"name_en":"Kaesim","did":1401,"pid":14,"uuid":"1.401119e+06"},"geometry":{"type":"Point","coordinates":[106.30493612017548,15.8477180497274]}},{"type":"Feature","properties":{"name_en":"Nongpherng","did":1401,"pid":14,"uuid":"1.401121e+06"},"geometry":{"type":"Point","coordinates":[106.3189058197109,15.817492739971275]}},{"type":"Feature","properties":{"name_en":"Nabone","did":1401,"pid":14,"uuid":"1.401123e+06"},"geometry":{"type":"Point","coordinates":[106.26997360960169,15.876377210413397]}},{"type":"Feature","properties":{"name_en":"Nonesavanh","did":1401,"pid":14,"uuid":"1.401124e+06"},"geometry":{"type":"Point","coordinates":[106.29645523018145,15.81242714000339]}},{"type":"Feature","properties":{"name_en":"Navar","did":1401,"pid":14,"uuid":"1.401125e+06"},"geometry":{"type":"Point","coordinates":[106.29191122999629,15.797693259684046]}},{"type":"Feature","properties":{"name_en":"Khanmarkyod","did":1401,"pid":14,"uuid":"1.401126e+06"},"geometry":{"type":"Point","coordinates":[106.31742263977185,15.78615809007028]}},{"type":"Feature","properties":{"name_en":"Daneneua","did":1401,"pid":14,"uuid":"1.401127e+06"},"geometry":{"type":"Point","coordinates":[106.29013996997044,15.78352993982776]}},{"type":"Feature","properties":{"name_en":"Khanngoua","did":1401,"pid":14,"uuid":"1.401128e+06"},"geometry":{"type":"Point","coordinates":[106.27228365963721,15.80505467021302]}},{"type":"Feature","properties":{"name_en":"Lernpaoup","did":1401,"pid":14,"uuid":"1.401129e+06"},"geometry":{"type":"Point","coordinates":[106.2736299600081,15.780349930126244]}},{"type":"Feature","properties":{"name_en":"Nongkhar","did":1401,"pid":14,"uuid":"1.40113e+06"},"geometry":{"type":"Point","coordinates":[106.25934728003088,15.78956055021906]}},{"type":"Feature","properties":{"name_en":"Thongpiew","did":1401,"pid":14,"uuid":"1.401131e+06"},"geometry":{"type":"Point","coordinates":[106.4443395804138,15.737872960083596]}},{"type":"Feature","properties":{"name_en":"Khokkao","did":1401,"pid":14,"uuid":"1.401132e+06"},"geometry":{"type":"Point","coordinates":[106.45299899953775,15.727256110006872]}},{"type":"Feature","properties":{"name_en":"Khokmai","did":1401,"pid":14,"uuid":"1.401133e+06"},"geometry":{"type":"Point","coordinates":[106.46337857009136,15.733270460187809]}},{"type":"Feature","properties":{"name_en":"Pakpouy","did":1401,"pid":14,"uuid":"1.401134e+06"},"geometry":{"type":"Point","coordinates":[106.48880011965099,15.770090149689688]}},{"type":"Feature","properties":{"name_en":"Vungsone","did":1401,"pid":14,"uuid":"1.401135e+06"},"geometry":{"type":"Point","coordinates":[106.49551269035427,15.761665249600004]}},{"type":"Feature","properties":{"name_en":"Napaly","did":1401,"pid":14,"uuid":"1.401136e+06"},"geometry":{"type":"Point","coordinates":[106.50175544029364,15.72797075043325]}},{"type":"Feature","properties":{"name_en":"Phukkhayai","did":1401,"pid":14,"uuid":"1.401137e+06"},"geometry":{"type":"Point","coordinates":[106.47891141032538,15.723749619975006]}},{"type":"Feature","properties":{"name_en":"Marknaonoy","did":1401,"pid":14,"uuid":"1.401138e+06"},"geometry":{"type":"Point","coordinates":[106.44372786043225,15.697956829578034]}},{"type":"Feature","properties":{"name_en":"Marknaoyai","did":1401,"pid":14,"uuid":"1.401139e+06"},"geometry":{"type":"Point","coordinates":[106.4578382103389,15.697301699674854]}},{"type":"Feature","properties":{"name_en":"Boungsouy","did":1401,"pid":14,"uuid":"1.40114e+06"},"geometry":{"type":"Point","coordinates":[106.49433813038145,15.700175939993231]}},{"type":"Feature","properties":{"name_en":"Phonethan","did":1401,"pid":14,"uuid":"1.401141e+06"},"geometry":{"type":"Point","coordinates":[106.47123409036068,15.689613570218656]}},{"type":"Feature","properties":{"name_en":"Nongbouayai","did":1401,"pid":14,"uuid":"1.401143e+06"},"geometry":{"type":"Point","coordinates":[106.54097528990322,15.675361820405742]}},{"type":"Feature","properties":{"name_en":"Baenglakoup","did":1401,"pid":14,"uuid":"1.401144e+06"},"geometry":{"type":"Point","coordinates":[106.62649374962808,15.707638520175164]}},{"type":"Feature","properties":{"name_en":"Kathang","did":1401,"pid":14,"uuid":"1.401145e+06"},"geometry":{"type":"Point","coordinates":[106.63474339015544,15.686064840381167]}},{"type":"Feature","properties":{"name_en":"Buangyai","did":1401,"pid":14,"uuid":"1.401146e+06"},"geometry":{"type":"Point","coordinates":[106.65614774981825,15.664129150441232]}},{"type":"Feature","properties":{"name_en":"Harfkornam","did":1401,"pid":14,"uuid":"1.401147e+06"},"geometry":{"type":"Point","coordinates":[106.60319583040393,15.621419580191262]}},{"type":"Feature","properties":{"name_en":"Naphonoy","did":1401,"pid":14,"uuid":"1.401148e+06"},"geometry":{"type":"Point","coordinates":[106.59044569965369,15.590648189612303]}},{"type":"Feature","properties":{"name_en":"Naphoyai","did":1401,"pid":14,"uuid":"1.40115e+06"},"geometry":{"type":"Point","coordinates":[106.59696162976337,15.576877559632466]}},{"type":"Feature","properties":{"name_en":"Dongsavung","did":1401,"pid":14,"uuid":"1.401151e+06"},"geometry":{"type":"Point","coordinates":[106.40582900001733,15.541369220364702]}},{"type":"Feature","properties":{"name_en":"Houylard","did":1401,"pid":14,"uuid":"1.401152e+06"},"geometry":{"type":"Point","coordinates":[106.19137676005639,15.652198089681317]}},{"type":"Feature","properties":{"name_en":"Langmai","did":1401,"pid":14,"uuid":"1.401153e+06"},"geometry":{"type":"Point","coordinates":[106.27187780990846,15.583813749571641]}}]}