{"type":"FeatureCollection","features":[{"type":"Feature","properties":{"name_en":"Thetsabanmeuang","did":1402,"pid":14,"uuid":"1.402001e+06"},"geometry":{"type":"Point","coordinates":[106.62097870969916,16.078696319770113]}},{"type":"Feature","properties":{"name_en":"Talunglalao","did":1402,"pid":14,"uuid":"1.402002e+06"},"geometry":{"type":"Point","coordinates":[106.6177977003628,16.078766560323718]}},{"type":"Feature","properties":{"name_en":"Houkayo( talounghou )","did":1402,"pid":14,"uuid":"1.402003e+06"},"geometry":{"type":"Point","coordinates":[106.61374973976484,16.077203749730263]}},{"type":"Feature","properties":{"name_en":"Laxaeng","did":1402,"pid":14,"uuid":"1.402004e+06"},"geometry":{"type":"Point","coordinates":[106.6394759002,16.06224222033803]}},{"type":"Feature","properties":{"name_en":"Lakhab","did":1402,"pid":14,"uuid":"1.402005e+06"},"geometry":{"type":"Point","coordinates":[106.66044000001627,16.29956000014898]}},{"type":"Feature","properties":{"name_en":"Paseer","did":1402,"pid":14,"uuid":"1.402006e+06"},"geometry":{"type":"Point","coordinates":[106.67236999997583,16.259249999709763]}},{"type":"Feature","properties":{"name_en":"Pachoudone","did":1402,"pid":14,"uuid":"1.402007e+06"},"geometry":{"type":"Point","coordinates":[106.70790425003,16.26658087023329]}},{"type":"Feature","properties":{"name_en":"Pachoucheun","did":1402,"pid":14,"uuid":"1.402008e+06"},"geometry":{"type":"Point","coordinates":[106.72215339982772,16.270495129630394]}},{"type":"Feature","properties":{"name_en":"Chotai","did":1402,"pid":14,"uuid":"1.402009e+06"},"geometry":{"type":"Point","coordinates":[106.74217000029208,16.26630999959387]}},{"type":"Feature","properties":{"name_en":"Tahouak","did":1402,"pid":14,"uuid":"1.40201e+06"},"geometry":{"type":"Point","coordinates":[106.75695538996054,16.271356369646135]}},{"type":"Feature","properties":{"name_en":"Chohai","did":1402,"pid":14,"uuid":"1.402011e+06"},"geometry":{"type":"Point","coordinates":[106.76707000044952,16.258719999921446]}},{"type":"Feature","properties":{"name_en":"Tungkorng","did":1402,"pid":14,"uuid":"1.402012e+06"},"geometry":{"type":"Point","coordinates":[106.77863484973915,16.251934999787878]}},{"type":"Feature","properties":{"name_en":"Piko","did":1402,"pid":14,"uuid":"1.402013e+06"},"geometry":{"type":"Point","coordinates":[106.84185702983959,16.200616630185305]}},{"type":"Feature","properties":{"name_en":"Adone","did":1402,"pid":14,"uuid":"1.402014e+06"},"geometry":{"type":"Point","coordinates":[106.846900089851,16.237053520027985]}},{"type":"Feature","properties":{"name_en":"Tungdaeng","did":1402,"pid":14,"uuid":"1.402015e+06"},"geometry":{"type":"Point","coordinates":[106.84671760986936,16.23711922957808]}},{"type":"Feature","properties":{"name_en":"Axor","did":1402,"pid":14,"uuid":"1.402016e+06"},"geometry":{"type":"Point","coordinates":[106.82576378032445,16.215390989755253]}},{"type":"Feature","properties":{"name_en":"Adeu","did":1402,"pid":14,"uuid":"1.402017e+06"},"geometry":{"type":"Point","coordinates":[106.8137500002066,16.24302427981161]}},{"type":"Feature","properties":{"name_en":"Sanyayone","did":1402,"pid":14,"uuid":"1.402027e+06"},"geometry":{"type":"Point","coordinates":[106.65464998994996,15.862116659572726]}},{"type":"Feature","properties":{"name_en":"Leukdong","did":1402,"pid":14,"uuid":"1.402028e+06"},"geometry":{"type":"Point","coordinates":[106.6499999602704,15.887916659649136]}},{"type":"Feature","properties":{"name_en":"Toungkatai","did":1402,"pid":14,"uuid":"1.402029e+06"},"geometry":{"type":"Point","coordinates":[106.6910199996511,15.968079999929769]}},{"type":"Feature","properties":{"name_en":"Thongkahai","did":1402,"pid":14,"uuid":"1.40203e+06"},"geometry":{"type":"Point","coordinates":[106.68295000012715,15.955889999813866]}},{"type":"Feature","properties":{"name_en":"kamouan","did":1402,"pid":14,"uuid":"1.402031e+06"},"geometry":{"type":"Point","coordinates":[106.63136665961864,15.94991658965388]}},{"type":"Feature","properties":{"name_en":"pasom","did":1402,"pid":14,"uuid":"1.402032e+06"},"geometry":{"type":"Point","coordinates":[106.65483993037348,15.96936997961457]}},{"type":"Feature","properties":{"name_en":"Thoungxa","did":1402,"pid":14,"uuid":"1.402033e+06"},"geometry":{"type":"Point","coordinates":[106.7190900002667,15.977850000405708]}},{"type":"Feature","properties":{"name_en":"Pitian","did":1402,"pid":14,"uuid":"1.402034e+06"},"geometry":{"type":"Point","coordinates":[106.65567999964594,15.983710000053795]}},{"type":"Feature","properties":{"name_en":"Bongnam","did":1402,"pid":14,"uuid":"1.402035e+06"},"geometry":{"type":"Point","coordinates":[106.61556677001377,15.98290984968797]}},{"type":"Feature","properties":{"name_en":"Prouay","did":1402,"pid":14,"uuid":"1.402036e+06"},"geometry":{"type":"Point","coordinates":[106.55842825967105,15.978850749945126]}},{"type":"Feature","properties":{"name_en":"Kokbok","did":1402,"pid":14,"uuid":"1.402037e+06"},"geometry":{"type":"Point","coordinates":[106.53532773009479,15.961523680114146]}},{"type":"Feature","properties":{"name_en":"Pachu","did":1402,"pid":14,"uuid":"1.402038e+06"},"geometry":{"type":"Point","coordinates":[106.4955908096649,15.957438260355667]}},{"type":"Feature","properties":{"name_en":"Padu","did":1402,"pid":14,"uuid":"1.402039e+06"},"geometry":{"type":"Point","coordinates":[106.45113763014912,15.941854539777301]}},{"type":"Feature","properties":{"name_en":"Houayngoua","did":1402,"pid":14,"uuid":"1.40204e+06"},"geometry":{"type":"Point","coordinates":[106.4352353196288,15.942829019679705]}},{"type":"Feature","properties":{"name_en":"Xoyhong","did":1402,"pid":14,"uuid":"1.402041e+06"},"geometry":{"type":"Point","coordinates":[106.40071722022445,15.936216700260028]}},{"type":"Feature","properties":{"name_en":"Ka onkao","did":1402,"pid":14,"uuid":"1.402042e+06"},"geometry":{"type":"Point","coordinates":[106.51056875996662,16.040620769569998]}},{"type":"Feature","properties":{"name_en":"Soytam","did":1402,"pid":14,"uuid":"1.402043e+06"},"geometry":{"type":"Point","coordinates":[106.43483031006409,16.07092705030323]}},{"type":"Feature","properties":{"name_en":"Tapeunphou","did":1402,"pid":14,"uuid":"1.402044e+06"},"geometry":{"type":"Point","coordinates":[106.46636637969057,16.10371101955209]}},{"type":"Feature","properties":{"name_en":"Chorlavieng","did":1402,"pid":14,"uuid":"1.402045e+06"},"geometry":{"type":"Point","coordinates":[106.53015727032869,16.168620639915478]}},{"type":"Feature","properties":{"name_en":"Taen","did":1402,"pid":14,"uuid":"1.402046e+06"},"geometry":{"type":"Point","coordinates":[106.54445327956005,16.133635330109023]}},{"type":"Feature","properties":{"name_en":"Singtamong","did":1402,"pid":14,"uuid":"1.402047e+06"},"geometry":{"type":"Point","coordinates":[106.54077186000075,16.08938030975257]}},{"type":"Feature","properties":{"name_en":"Lapeung","did":1402,"pid":14,"uuid":"1.402048e+06"},"geometry":{"type":"Point","coordinates":[106.58233168966197,16.059091719950313]}},{"type":"Feature","properties":{"name_en":"Kang","did":1402,"pid":14,"uuid":"1.402049e+06"},"geometry":{"type":"Point","coordinates":[106.57326448016217,16.0847479700202]}},{"type":"Feature","properties":{"name_en":"Houngnai","did":1402,"pid":14,"uuid":"1.40205e+06"},"geometry":{"type":"Point","coordinates":[106.61099109029347,16.120955780237637]}},{"type":"Feature","properties":{"name_en":"Pasing","did":1402,"pid":14,"uuid":"1.402051e+06"},"geometry":{"type":"Point","coordinates":[106.61063166968127,16.146751250258557]}},{"type":"Feature","properties":{"name_en":"Tuomleuthong","did":1402,"pid":14,"uuid":"1.402052e+06"},"geometry":{"type":"Point","coordinates":[106.62894545965696,16.163142650137964]}},{"type":"Feature","properties":{"name_en":"Kape","did":1402,"pid":14,"uuid":"1.402053e+06"},"geometry":{"type":"Point","coordinates":[106.67006859021406,16.113766790075953]}},{"type":"Feature","properties":{"name_en":"Katen","did":1402,"pid":14,"uuid":"1.402054e+06"},"geometry":{"type":"Point","coordinates":[106.67471659977248,16.071083280167265]}},{"type":"Feature","properties":{"name_en":"Paten","did":1402,"pid":14,"uuid":"1.402055e+06"},"geometry":{"type":"Point","coordinates":[106.683290279935,16.059535030300857]}},{"type":"Feature","properties":{"name_en":"Toub","did":1402,"pid":14,"uuid":"1.402056e+06"},"geometry":{"type":"Point","coordinates":[106.69451314983937,16.145251899591745]}},{"type":"Feature","properties":{"name_en":"Portang","did":1402,"pid":14,"uuid":"1.402057e+06"},"geometry":{"type":"Point","coordinates":[106.69215000031288,16.16441000042591]}},{"type":"Feature","properties":{"name_en":"Porxen","did":1402,"pid":14,"uuid":"1.402058e+06"},"geometry":{"type":"Point","coordinates":[106.69636748003873,16.182933829556433]}},{"type":"Feature","properties":{"name_en":"Toumlykao","did":1402,"pid":14,"uuid":"1.402059e+06"},"geometry":{"type":"Point","coordinates":[106.63627501977331,16.19939840010454]}},{"type":"Feature","properties":{"name_en":"Toumlykhao","did":1402,"pid":14,"uuid":"1.40206e+06"},"geometry":{"type":"Point","coordinates":[106.65583284972077,16.19997775968142]}},{"type":"Feature","properties":{"name_en":"Dao","did":1402,"pid":14,"uuid":"1.402061e+06"},"geometry":{"type":"Point","coordinates":[106.68255000030885,16.210839999843238]}},{"type":"Feature","properties":{"name_en":"Sing","did":1402,"pid":14,"uuid":"1.402062e+06"},"geometry":{"type":"Point","coordinates":[106.6833162699292,16.22587590995876]}},{"type":"Feature","properties":{"name_en":"Sanang","did":1402,"pid":14,"uuid":"1.402063e+06"},"geometry":{"type":"Point","coordinates":[106.68380996034143,16.235750380286085]}},{"type":"Feature","properties":{"name_en":"Porbeui","did":1402,"pid":14,"uuid":"1.402064e+06"},"geometry":{"type":"Point","coordinates":[106.69264481956334,16.251969869627615]}},{"type":"Feature","properties":{"name_en":"Sabongkokhai","did":1402,"pid":14,"uuid":"1.402065e+06"},"geometry":{"type":"Point","coordinates":[106.59878259978336,16.002194100133117]}}]}