{"type":"FeatureCollection","features":[{"type":"Feature","properties":{"name_en":"Kanaennoy","did":1403,"pid":14,"uuid":"1.403002e+06"},"geometry":{"type":"Point","coordinates":[106.13909363034618,16.116212960079277]}},{"type":"Feature","properties":{"name_en":"Sanoboy","did":1403,"pid":14,"uuid":"1.403004e+06"},"geometry":{"type":"Point","coordinates":[106.17739155007284,16.11899257002761]}},{"type":"Feature","properties":{"name_en":"Vangsi","did":1403,"pid":14,"uuid":"1.403007e+06"},"geometry":{"type":"Point","coordinates":[106.24696998015388,16.134339999792566]}},{"type":"Feature","properties":{"name_en":"Boynam","did":1403,"pid":14,"uuid":"1.403008e+06"},"geometry":{"type":"Point","coordinates":[106.33079999006507,16.13668995033287]}},{"type":"Feature","properties":{"name_en":"Tayek","did":1403,"pid":14,"uuid":"1.403009e+06"},"geometry":{"type":"Point","coordinates":[106.32144998039884,16.12520993030222]}},{"type":"Feature","properties":{"name_en":"lameuk","did":1403,"pid":14,"uuid":"1.40301e+06"},"geometry":{"type":"Point","coordinates":[106.33015995006794,16.106449970057696]}},{"type":"Feature","properties":{"name_en":"Vangheuatai","did":1403,"pid":14,"uuid":"1.403014e+06"},"geometry":{"type":"Point","coordinates":[106.2500900003047,16.071809999790265]}},{"type":"Feature","properties":{"name_en":"Taveui","did":1403,"pid":14,"uuid":"1.403016e+06"},"geometry":{"type":"Point","coordinates":[106.21599994033602,16.085279969560244]}},{"type":"Feature","properties":{"name_en":"Arbear","did":1403,"pid":14,"uuid":"1.403018e+06"},"geometry":{"type":"Point","coordinates":[106.19870999959424,16.06589999962068]}},{"type":"Feature","properties":{"name_en":"Korphai","did":1403,"pid":14,"uuid":"1.403019e+06"},"geometry":{"type":"Point","coordinates":[106.20727998961162,16.045769939875527]}},{"type":"Feature","properties":{"name_en":"Kokmouang","did":1403,"pid":14,"uuid":"1.403021e+06"},"geometry":{"type":"Point","coordinates":[106.1719718103909,16.054801520059122]}},{"type":"Feature","properties":{"name_en":"Nahongnoy","did":1403,"pid":14,"uuid":"1.403023e+06"},"geometry":{"type":"Point","coordinates":[106.18524522993711,16.025953690057943]}},{"type":"Feature","properties":{"name_en":"Tabaeng","did":1403,"pid":14,"uuid":"1.403024e+06"},"geometry":{"type":"Point","coordinates":[106.14835840032539,16.022479389708696]}},{"type":"Feature","properties":{"name_en":"Nahonggnai","did":1403,"pid":14,"uuid":"1.403025e+06"},"geometry":{"type":"Point","coordinates":[106.1791487299894,16.032598869694493]}},{"type":"Feature","properties":{"name_en":"Nakanh","did":1403,"pid":14,"uuid":"1.403026e+06"},"geometry":{"type":"Point","coordinates":[106.17866887037746,15.991994659655465]}},{"type":"Feature","properties":{"name_en":"Kokmark","did":1403,"pid":14,"uuid":"1.403027e+06"},"geometry":{"type":"Point","coordinates":[106.22478995044767,16.089299929902744]}},{"type":"Feature","properties":{"name_en":"Kalaengnoy","did":1403,"pid":14,"uuid":"1.403029e+06"},"geometry":{"type":"Point","coordinates":[106.18754623035795,16.00175883000585]}},{"type":"Feature","properties":{"name_en":"Pathiabgnai","did":1403,"pid":14,"uuid":"1.40303e+06"},"geometry":{"type":"Point","coordinates":[106.19511432992854,15.992848189834762]}},{"type":"Feature","properties":{"name_en":"Kaenghang","did":1403,"pid":14,"uuid":"1.403034e+06"},"geometry":{"type":"Point","coordinates":[106.2119899495584,16.018240000142786]}},{"type":"Feature","properties":{"name_en":"Dinedak","did":1403,"pid":14,"uuid":"1.403035e+06"},"geometry":{"type":"Point","coordinates":[106.18754999997869,16.004049940280034]}},{"type":"Feature","properties":{"name_en":"Tukluk","did":1403,"pid":14,"uuid":"1.403037e+06"},"geometry":{"type":"Point","coordinates":[106.22925173012285,16.001773660439945]}},{"type":"Feature","properties":{"name_en":"Nongbar","did":1403,"pid":14,"uuid":"1.403038e+06"},"geometry":{"type":"Point","coordinates":[106.24402071960955,15.995750010318144]}},{"type":"Feature","properties":{"name_en":"Toumlanh","did":1403,"pid":14,"uuid":"1.403041e+06"},"geometry":{"type":"Point","coordinates":[106.23017280961957,15.986346020007826]}},{"type":"Feature","properties":{"name_en":"Donebong","did":1403,"pid":14,"uuid":"1.403043e+06"},"geometry":{"type":"Point","coordinates":[106.23440534040193,15.968284440193477]}},{"type":"Feature","properties":{"name_en":"Vangkoui","did":1403,"pid":14,"uuid":"1.403044e+06"},"geometry":{"type":"Point","coordinates":[106.21045858045495,15.955329370306588]}},{"type":"Feature","properties":{"name_en":"donexad","did":1403,"pid":14,"uuid":"1.403046e+06"},"geometry":{"type":"Point","coordinates":[106.245897010392,15.940178410342822]}},{"type":"Feature","properties":{"name_en":"Naphognai","did":1403,"pid":14,"uuid":"1.403047e+06"},"geometry":{"type":"Point","coordinates":[106.25192746019994,15.929465250134715]}},{"type":"Feature","properties":{"name_en":"Namatong","did":1403,"pid":14,"uuid":"1.403048e+06"},"geometry":{"type":"Point","coordinates":[106.27517944010098,15.928549610129073]}},{"type":"Feature","properties":{"name_en":"Nonsavang","did":1403,"pid":14,"uuid":"1.403051e+06"},"geometry":{"type":"Point","coordinates":[106.24036613037518,15.915100590006563]}},{"type":"Feature","properties":{"name_en":"Navienghong","did":1403,"pid":14,"uuid":"1.403054e+06"},"geometry":{"type":"Point","coordinates":[106.24252480039891,15.905306929968571]}},{"type":"Feature","properties":{"name_en":"Donemuang","did":1403,"pid":14,"uuid":"1.403057e+06"},"geometry":{"type":"Point","coordinates":[106.27678525000366,15.894915960202761]}},{"type":"Feature","properties":{"name_en":"Donekhayoung","did":1403,"pid":14,"uuid":"1.403059e+06"},"geometry":{"type":"Point","coordinates":[106.27991873998897,15.892567520317266]}},{"type":"Feature","properties":{"name_en":"Thongkaikhoua","did":1403,"pid":14,"uuid":"1.403062e+06"},"geometry":{"type":"Point","coordinates":[106.30827856974784,15.872570560085137]}},{"type":"Feature","properties":{"name_en":"Thammalinh","did":1403,"pid":14,"uuid":"1.403063e+06"},"geometry":{"type":"Point","coordinates":[106.30675550027061,15.89390686991875]}},{"type":"Feature","properties":{"name_en":"Houaylai","did":1403,"pid":14,"uuid":"1.403064e+06"},"geometry":{"type":"Point","coordinates":[106.28247203007034,15.97621489006587]}},{"type":"Feature","properties":{"name_en":"Nalachang","did":1403,"pid":14,"uuid":"1.403066e+06"},"geometry":{"type":"Point","coordinates":[106.3086808999603,15.961282870061114]}},{"type":"Feature","properties":{"name_en":"Katao","did":1403,"pid":14,"uuid":"1.403067e+06"},"geometry":{"type":"Point","coordinates":[106.34826846013054,15.951184019902373]}}]}