{"type":"FeatureCollection","features":[{"type":"Feature","properties":{"name_en":"Taphankang","did":1404,"pid":14,"uuid":"1.404003e+06"},"geometry":{"type":"Point","coordinates":[105.35443198987522,15.933652929998322]}},{"type":"Feature","properties":{"name_en":"Hongsaythong","did":1404,"pid":14,"uuid":"1.404004e+06"},"geometry":{"type":"Point","coordinates":[105.35925727970239,15.93836121037885]}},{"type":"Feature","properties":{"name_en":"Pakxanom","did":1404,"pid":14,"uuid":"1.404005e+06"},"geometry":{"type":"Point","coordinates":[105.3674664302087,15.952706339717059]}},{"type":"Feature","properties":{"name_en":"Nonggnao","did":1404,"pid":14,"uuid":"1.404006e+06"},"geometry":{"type":"Point","coordinates":[105.4091907096484,15.953856920098357]}},{"type":"Feature","properties":{"name_en":"Nongxano2","did":1404,"pid":14,"uuid":"1.404007e+06"},"geometry":{"type":"Point","coordinates":[105.41878816000167,15.954694940032505]}},{"type":"Feature","properties":{"name_en":"Lerngnoktha","did":1404,"pid":14,"uuid":"1.404008e+06"},"geometry":{"type":"Point","coordinates":[105.44684339016476,15.958105459548248]}},{"type":"Feature","properties":{"name_en":"Phouangsavanh","did":1404,"pid":14,"uuid":"1.404009e+06"},"geometry":{"type":"Point","coordinates":[105.48866331031938,15.958568300374974]}},{"type":"Feature","properties":{"name_en":"Phouangmalai","did":1404,"pid":14,"uuid":"1.40401e+06"},"geometry":{"type":"Point","coordinates":[105.48902150000002,15.9531324]}},{"type":"Feature","properties":{"name_en":"Nalan","did":1404,"pid":14,"uuid":"1.404011e+06"},"geometry":{"type":"Point","coordinates":[105.45728708028086,15.934198590141506]}},{"type":"Feature","properties":{"name_en":"Natheunneua","did":1404,"pid":14,"uuid":"1.404012e+06"},"geometry":{"type":"Point","coordinates":[105.46799345030983,15.921420629592259]}},{"type":"Feature","properties":{"name_en":"Natheuntai","did":1404,"pid":14,"uuid":"1.404013e+06"},"geometry":{"type":"Point","coordinates":[105.46047153041958,15.922760559732561]}},{"type":"Feature","properties":{"name_en":"Nonsaenphan","did":1404,"pid":14,"uuid":"1.404014e+06"},"geometry":{"type":"Point","coordinates":[105.43412562024714,15.932492960363593]}},{"type":"Feature","properties":{"name_en":"Kaengthan","did":1404,"pid":14,"uuid":"1.404015e+06"},"geometry":{"type":"Point","coordinates":[105.41292006986323,15.935702810058624]}},{"type":"Feature","properties":{"name_en":"Pakkhonekaen","did":1404,"pid":14,"uuid":"1.404017e+06"},"geometry":{"type":"Point","coordinates":[105.37795738968839,15.893893539986873]}},{"type":"Feature","properties":{"name_en":"Nameuang","did":1404,"pid":14,"uuid":"1.404018e+06"},"geometry":{"type":"Point","coordinates":[105.43489590993308,15.920176589565202]}},{"type":"Feature","properties":{"name_en":"Nongsaeng","did":1404,"pid":14,"uuid":"1.404019e+06"},"geometry":{"type":"Point","coordinates":[105.42477879001815,15.89447783973913]}},{"type":"Feature","properties":{"name_en":"Donedaeng","did":1404,"pid":14,"uuid":"1.40402e+06"},"geometry":{"type":"Point","coordinates":[105.42361136027006,15.886655100254565]}},{"type":"Feature","properties":{"name_en":"Nonsing","did":1404,"pid":14,"uuid":"1.404021e+06"},"geometry":{"type":"Point","coordinates":[105.42464022967994,15.888799100021616]}},{"type":"Feature","properties":{"name_en":"Doneheua","did":1404,"pid":14,"uuid":"1.404022e+06"},"geometry":{"type":"Point","coordinates":[105.43363325995306,15.88212324960307]}},{"type":"Feature","properties":{"name_en":"Nakala","did":1404,"pid":14,"uuid":"1.404023e+06"},"geometry":{"type":"Point","coordinates":[105.45468348990124,15.877514209843122]}},{"type":"Feature","properties":{"name_en":"Phonsavanh","did":1404,"pid":14,"uuid":"1.404025e+06"},"geometry":{"type":"Point","coordinates":[105.4733592100992,15.885252890244834]}},{"type":"Feature","properties":{"name_en":"Donemarkkeua","did":1404,"pid":14,"uuid":"1.404026e+06"},"geometry":{"type":"Point","coordinates":[105.40518993976653,15.835419960276678]}},{"type":"Feature","properties":{"name_en":"Nonsavang","did":1404,"pid":14,"uuid":"1.404027e+06"},"geometry":{"type":"Point","coordinates":[105.50704741987242,15.93054215005408]}},{"type":"Feature","properties":{"name_en":"Navieng","did":1404,"pid":14,"uuid":"1.404028e+06"},"geometry":{"type":"Point","coordinates":[105.52520337973941,15.922352869695734]}},{"type":"Feature","properties":{"name_en":"Okat","did":1404,"pid":14,"uuid":"1.404029e+06"},"geometry":{"type":"Point","coordinates":[105.4895828902992,15.909257070400374]}},{"type":"Feature","properties":{"name_en":"Naphabanggnai","did":1404,"pid":14,"uuid":"1.40403e+06"},"geometry":{"type":"Point","coordinates":[105.50785225031069,15.907364180006383]}},{"type":"Feature","properties":{"name_en":"Nathom","did":1404,"pid":14,"uuid":"1.404031e+06"},"geometry":{"type":"Point","coordinates":[105.51560877991255,15.891079739997112]}},{"type":"Feature","properties":{"name_en":"Naphabangnoy","did":1404,"pid":14,"uuid":"1.404032e+06"},"geometry":{"type":"Point","coordinates":[105.49109790987589,15.88883724019669]}},{"type":"Feature","properties":{"name_en":"Vangtalaew","did":1404,"pid":14,"uuid":"1.404033e+06"},"geometry":{"type":"Point","coordinates":[105.42516771027516,15.784275350368043]}},{"type":"Feature","properties":{"name_en":"Thakhanxoumxon","did":1404,"pid":14,"uuid":"1.404034e+06"},"geometry":{"type":"Point","coordinates":[105.48222423963307,15.791696770401263]}},{"type":"Feature","properties":{"name_en":"Phoukasi","did":1404,"pid":14,"uuid":"1.404035e+06"},"geometry":{"type":"Point","coordinates":[105.53836841034538,15.914959359630725]}},{"type":"Feature","properties":{"name_en":"Doneway","did":1404,"pid":14,"uuid":"1.404036e+06"},"geometry":{"type":"Point","coordinates":[105.53971540000002,15.9086936]}},{"type":"Feature","properties":{"name_en":"Kaengsaphangthong","did":1404,"pid":14,"uuid":"1.404037e+06"},"geometry":{"type":"Point","coordinates":[105.54708960990725,15.906423479862282]}},{"type":"Feature","properties":{"name_en":"Lakhonesay","did":1404,"pid":14,"uuid":"1.404039e+06"},"geometry":{"type":"Point","coordinates":[105.55370775429603,15.90320014438009]}},{"type":"Feature","properties":{"name_en":"Nongpho","did":1404,"pid":14,"uuid":"1.40404e+06"},"geometry":{"type":"Point","coordinates":[105.53177194000632,15.858047490300493]}},{"type":"Feature","properties":{"name_en":"Santisouk","did":1404,"pid":14,"uuid":"1.404041e+06"},"geometry":{"type":"Point","coordinates":[105.5570017203005,15.861519439592822]}},{"type":"Feature","properties":{"name_en":"Phousikeo","did":1404,"pid":14,"uuid":"1.404042e+06"},"geometry":{"type":"Point","coordinates":[105.58722953994047,15.90981152985828]}},{"type":"Feature","properties":{"name_en":"Navasouk","did":1404,"pid":14,"uuid":"1.404043e+06"},"geometry":{"type":"Point","coordinates":[105.5969989900757,15.906054930391342]}},{"type":"Feature","properties":{"name_en":"Nakadao","did":1404,"pid":14,"uuid":"1.404044e+06"},"geometry":{"type":"Point","coordinates":[105.58515863030615,15.902325730194459]}},{"type":"Feature","properties":{"name_en":"Rakhonephengnoy","did":1404,"pid":14,"uuid":"1.404047e+06"},"geometry":{"type":"Point","coordinates":[105.57157450000001,15.9044324]}},{"type":"Feature","properties":{"name_en":"Rakhonephenggnai","did":1404,"pid":14,"uuid":"1.404048e+06"},"geometry":{"type":"Point","coordinates":[105.56962259977621,15.898755300247563]}},{"type":"Feature","properties":{"name_en":"Lakhonesikang","did":1404,"pid":14,"uuid":"1.404049e+06"},"geometry":{"type":"Point","coordinates":[105.58106717004553,15.872655219658203]}},{"type":"Feature","properties":{"name_en":"Sakhonesitai","did":1404,"pid":14,"uuid":"1.40405e+06"},"geometry":{"type":"Point","coordinates":[105.60665468973542,15.858711759576412]}},{"type":"Feature","properties":{"name_en":"Houaytapho","did":1404,"pid":14,"uuid":"1.404051e+06"},"geometry":{"type":"Point","coordinates":[105.61995023003925,15.848194149605586]}},{"type":"Feature","properties":{"name_en":"Xokphang","did":1404,"pid":14,"uuid":"1.404052e+06"},"geometry":{"type":"Point","coordinates":[105.63208629985918,15.864437600168037]}},{"type":"Feature","properties":{"name_en":"Nongvang","did":1404,"pid":14,"uuid":"1.404053e+06"},"geometry":{"type":"Point","coordinates":[105.65336644995348,15.858046909614778]}},{"type":"Feature","properties":{"name_en":"Nadoukao","did":1404,"pid":14,"uuid":"1.404054e+06"},"geometry":{"type":"Point","coordinates":[105.64768778955666,15.838167209890123]}},{"type":"Feature","properties":{"name_en":"Nadoumai","did":1404,"pid":14,"uuid":"1.404055e+06"},"geometry":{"type":"Point","coordinates":[105.67205775966099,15.833969549925387]}},{"type":"Feature","properties":{"name_en":"Nong aen","did":1404,"pid":14,"uuid":"1.404056e+06"},"geometry":{"type":"Point","coordinates":[105.67735017006567,15.831782969794546]}},{"type":"Feature","properties":{"name_en":"Nondinxay","did":1404,"pid":14,"uuid":"1.404057e+06"},"geometry":{"type":"Point","coordinates":[105.67991184953796,15.813482510398115]}},{"type":"Feature","properties":{"name_en":"Luck 90","did":1404,"pid":14,"uuid":"1.404058e+06"},"geometry":{"type":"Point","coordinates":[105.70482999007812,15.795526630088483]}},{"type":"Feature","properties":{"name_en":"Na","did":1404,"pid":14,"uuid":"1.404059e+06"},"geometry":{"type":"Point","coordinates":[105.71093427979918,15.811671930386074]}},{"type":"Feature","properties":{"name_en":"Vangkaed","did":1404,"pid":14,"uuid":"1.40406e+06"},"geometry":{"type":"Point","coordinates":[105.73205792959531,15.807441580307625]}},{"type":"Feature","properties":{"name_en":"Lak 94","did":1404,"pid":14,"uuid":"1.404061e+06"},"geometry":{"type":"Point","coordinates":[105.7220348497478,15.792821280076456]}},{"type":"Feature","properties":{"name_en":"Lak 90","did":1404,"pid":14,"uuid":"1.404062e+06"},"geometry":{"type":"Point","coordinates":[105.73220286036286,15.760009900269806]}},{"type":"Feature","properties":{"name_en":"Nasomhong","did":1404,"pid":14,"uuid":"1.404063e+06"},"geometry":{"type":"Point","coordinates":[105.72346237016059,15.773060949639456]}},{"type":"Feature","properties":{"name_en":"Dongtaloung","did":1404,"pid":14,"uuid":"1.404064e+06"},"geometry":{"type":"Point","coordinates":[105.73664241021024,15.75375558029626]}},{"type":"Feature","properties":{"name_en":"Nakhandai","did":1404,"pid":14,"uuid":"1.404065e+06"},"geometry":{"type":"Point","coordinates":[105.76694978008776,15.767026390036483]}},{"type":"Feature","properties":{"name_en":"Poudaochaenggnai","did":1404,"pid":14,"uuid":"1.404066e+06"},"geometry":{"type":"Point","coordinates":[105.75551493980495,15.771244839841026]}},{"type":"Feature","properties":{"name_en":"DaneKhoum","did":1404,"pid":14,"uuid":"1.404071e+06"},"geometry":{"type":"Point","coordinates":[105.76335620987876,15.752959630161914]}},{"type":"Feature","properties":{"name_en":"Danesam","did":1404,"pid":14,"uuid":"1.404072e+06"},"geometry":{"type":"Point","coordinates":[105.74665954003798,15.738693799877542]}},{"type":"Feature","properties":{"name_en":"Nonsamlandane6khoum","did":1404,"pid":14,"uuid":"1.404074e+06"},"geometry":{"type":"Point","coordinates":[105.79184989958547,15.73426203973395]}},{"type":"Feature","properties":{"name_en":"Dane1","did":1404,"pid":14,"uuid":"1.404075e+06"},"geometry":{"type":"Point","coordinates":[105.77526849001944,15.734240829806238]}},{"type":"Feature","properties":{"name_en":"Baengdane","did":1404,"pid":14,"uuid":"1.404076e+06"},"geometry":{"type":"Point","coordinates":[105.80279121993732,15.728542060354762]}},{"type":"Feature","properties":{"name_en":"Phonsoung","did":1404,"pid":14,"uuid":"1.404078e+06"},"geometry":{"type":"Point","coordinates":[105.80310503970115,15.748760639611742]}},{"type":"Feature","properties":{"name_en":"Phonphang","did":1404,"pid":14,"uuid":"1.404079e+06"},"geometry":{"type":"Point","coordinates":[105.79870798028155,15.755418130251412]}},{"type":"Feature","properties":{"name_en":"Phonngam","did":1404,"pid":14,"uuid":"1.40408e+06"},"geometry":{"type":"Point","coordinates":[105.83024689992496,15.747475859798998]}},{"type":"Feature","properties":{"name_en":"Phonngam2","did":1404,"pid":14,"uuid":"1.404081e+06"},"geometry":{"type":"Point","coordinates":[105.81840762966358,15.735182960018786]}},{"type":"Feature","properties":{"name_en":"Nonghian","did":1404,"pid":14,"uuid":"1.404082e+06"},"geometry":{"type":"Point","coordinates":[105.83414222028115,15.72309490955652]}},{"type":"Feature","properties":{"name_en":"Nongtae","did":1404,"pid":14,"uuid":"1.404083e+06"},"geometry":{"type":"Point","coordinates":[105.83093638965632,15.705213300002601]}},{"type":"Feature","properties":{"name_en":"Nongthao","did":1404,"pid":14,"uuid":"1.404084e+06"},"geometry":{"type":"Point","coordinates":[105.83106974989194,15.706398999717342]}},{"type":"Feature","properties":{"name_en":"Saovaen","did":1404,"pid":14,"uuid":"1.404085e+06"},"geometry":{"type":"Point","coordinates":[105.785869080278,15.714196769726211]}},{"type":"Feature","properties":{"name_en":"Nongsichae","did":1404,"pid":14,"uuid":"1.404087e+06"},"geometry":{"type":"Point","coordinates":[105.77241293956341,15.698110809909739]}},{"type":"Feature","properties":{"name_en":"donelai","did":1404,"pid":14,"uuid":"1.404088e+06"},"geometry":{"type":"Point","coordinates":[105.77778690983399,15.689984969888537]}},{"type":"Feature","properties":{"name_en":"Nanglao","did":1404,"pid":14,"uuid":"1.404089e+06"},"geometry":{"type":"Point","coordinates":[105.80278007002939,15.699311929997448]}},{"type":"Feature","properties":{"name_en":"Nongtabaeng","did":1404,"pid":14,"uuid":"1.40409e+06"},"geometry":{"type":"Point","coordinates":[105.80768877038675,15.688061490260592]}},{"type":"Feature","properties":{"name_en":"Koudlamphong","did":1404,"pid":14,"uuid":"1.404091e+06"},"geometry":{"type":"Point","coordinates":[105.82562000036387,15.6795660101204]}},{"type":"Feature","properties":{"name_en":"Boudtaphanh","did":1404,"pid":14,"uuid":"1.404092e+06"},"geometry":{"type":"Point","coordinates":[105.63975901027445,15.645926670174754]}}]}