{"type":"FeatureCollection","features":[{"type":"Feature","properties":{"name_en":"Nonsavanh","did":1405,"pid":14,"uuid":"1.405001e+06"},"geometry":{"type":"Point","coordinates":[106.05557576007445,15.691986399855699]}},{"type":"Feature","properties":{"name_en":"Kongleugnai","did":1405,"pid":14,"uuid":"1.405005e+06"},"geometry":{"type":"Point","coordinates":[105.97432000038721,15.923129949548445]}},{"type":"Feature","properties":{"name_en":"Nalanh","did":1405,"pid":14,"uuid":"1.405007e+06"},"geometry":{"type":"Point","coordinates":[106.04083778080695,15.863370703653626]}},{"type":"Feature","properties":{"name_en":"Naxanh","did":1405,"pid":14,"uuid":"1.405008e+06"},"geometry":{"type":"Point","coordinates":[106.06987427970533,15.759858019638838]}},{"type":"Feature","properties":{"name_en":"Nahongkham","did":1405,"pid":14,"uuid":"1.405009e+06"},"geometry":{"type":"Point","coordinates":[106.10142167027126,15.733518230351088]}},{"type":"Feature","properties":{"name_en":"Kaengnoy","did":1405,"pid":14,"uuid":"1.40501e+06"},"geometry":{"type":"Point","coordinates":[106.07055590025047,15.71611839973769]}},{"type":"Feature","properties":{"name_en":"Nongpho","did":1405,"pid":14,"uuid":"1.405012e+06"},"geometry":{"type":"Point","coordinates":[106.08791908986234,15.680948780395337]}},{"type":"Feature","properties":{"name_en":"Dongmone","did":1405,"pid":14,"uuid":"1.405013e+06"},"geometry":{"type":"Point","coordinates":[106.10650754985996,15.630381089632802]}},{"type":"Feature","properties":{"name_en":"Sameer","did":1405,"pid":14,"uuid":"1.405014e+06"},"geometry":{"type":"Point","coordinates":[106.04017476962264,15.697232719660363]}},{"type":"Feature","properties":{"name_en":"Kaengku","did":1405,"pid":14,"uuid":"1.405015e+06"},"geometry":{"type":"Point","coordinates":[106.04995929965567,15.69985582990507]}},{"type":"Feature","properties":{"name_en":"Chong","did":1405,"pid":14,"uuid":"1.405016e+06"},"geometry":{"type":"Point","coordinates":[106.05881108996729,15.65093486032001]}},{"type":"Feature","properties":{"name_en":"Dongla ou","did":1405,"pid":14,"uuid":"1.405017e+06"},"geometry":{"type":"Point","coordinates":[106.02686774013287,15.670722689731704]}},{"type":"Feature","properties":{"name_en":"Lao","did":1405,"pid":14,"uuid":"1.405018e+06"},"geometry":{"type":"Point","coordinates":[106.02790408010966,15.700977329771218]}},{"type":"Feature","properties":{"name_en":"Had","did":1405,"pid":14,"uuid":"1.405019e+06"},"geometry":{"type":"Point","coordinates":[106.0216099397094,15.691638220085903]}},{"type":"Feature","properties":{"name_en":"Maed","did":1405,"pid":14,"uuid":"1.40502e+06"},"geometry":{"type":"Point","coordinates":[106.01866101992277,15.689865280075388]}},{"type":"Feature","properties":{"name_en":"Kaengsuthi","did":1405,"pid":14,"uuid":"1.405021e+06"},"geometry":{"type":"Point","coordinates":[106.00801508013927,15.69604885954983]}},{"type":"Feature","properties":{"name_en":"Mouangvernkham","did":1405,"pid":14,"uuid":"1.405022e+06"},"geometry":{"type":"Point","coordinates":[105.98646177022783,15.695431360371307]}},{"type":"Feature","properties":{"name_en":"saphath","did":1405,"pid":14,"uuid":"1.405023e+06"},"geometry":{"type":"Point","coordinates":[105.96664107975738,15.696107950402963]}},{"type":"Feature","properties":{"name_en":"Naphontanh","did":1405,"pid":14,"uuid":"1.405024e+06"},"geometry":{"type":"Point","coordinates":[105.9688644695614,15.725127860057269]}},{"type":"Feature","properties":{"name_en":"Nahouahaed","did":1405,"pid":14,"uuid":"1.405025e+06"},"geometry":{"type":"Point","coordinates":[106.00071116962116,15.739668029624111]}},{"type":"Feature","properties":{"name_en":"Napho","did":1405,"pid":14,"uuid":"1.405026e+06"},"geometry":{"type":"Point","coordinates":[105.98489107981712,15.760905090163124]}},{"type":"Feature","properties":{"name_en":"Namouang","did":1405,"pid":14,"uuid":"1.405027e+06"},"geometry":{"type":"Point","coordinates":[105.97708812024612,15.744349239611818]}},{"type":"Feature","properties":{"name_en":"Navar","did":1405,"pid":14,"uuid":"1.405028e+06"},"geometry":{"type":"Point","coordinates":[105.95608071998541,15.722595689975854]}},{"type":"Feature","properties":{"name_en":"Phakkha","did":1405,"pid":14,"uuid":"1.405029e+06"},"geometry":{"type":"Point","coordinates":[105.95229318988122,15.680187200191703]}},{"type":"Feature","properties":{"name_en":"Lanh","did":1405,"pid":14,"uuid":"1.40503e+06"},"geometry":{"type":"Point","coordinates":[105.97820064977431,15.696469209633985]}},{"type":"Feature","properties":{"name_en":"Noyxe","did":1405,"pid":14,"uuid":"1.405031e+06"},"geometry":{"type":"Point","coordinates":[105.96283644978713,15.679822250120916]}},{"type":"Feature","properties":{"name_en":"Phonphang","did":1405,"pid":14,"uuid":"1.405032e+06"},"geometry":{"type":"Point","coordinates":[105.96260017040255,15.63231101978827]}},{"type":"Feature","properties":{"name_en":"Sim","did":1405,"pid":14,"uuid":"1.405033e+06"},"geometry":{"type":"Point","coordinates":[105.98794251973848,15.65655383031901]}},{"type":"Feature","properties":{"name_en":"Khanao","did":1405,"pid":14,"uuid":"1.405034e+06"},"geometry":{"type":"Point","coordinates":[106.00430508019049,15.637513249819131]}},{"type":"Feature","properties":{"name_en":"Nasiad","did":1405,"pid":14,"uuid":"1.405036e+06"},"geometry":{"type":"Point","coordinates":[105.95787679964958,15.614605589692756]}},{"type":"Feature","properties":{"name_en":"Donekham","did":1405,"pid":14,"uuid":"1.405037e+06"},"geometry":{"type":"Point","coordinates":[105.92323983989608,15.586395459755096]}},{"type":"Feature","properties":{"name_en":"Thongkhian","did":1405,"pid":14,"uuid":"1.405038e+06"},"geometry":{"type":"Point","coordinates":[105.93894936978735,15.597918820431028]}},{"type":"Feature","properties":{"name_en":"Hindanh","did":1405,"pid":14,"uuid":"1.40504e+06"},"geometry":{"type":"Point","coordinates":[105.93227587016933,15.667604949690642]}},{"type":"Feature","properties":{"name_en":"Bangkhannam","did":1405,"pid":14,"uuid":"1.405041e+06"},"geometry":{"type":"Point","coordinates":[105.93423588956283,15.672639209976866]}},{"type":"Feature","properties":{"name_en":"Vapineua","did":1405,"pid":14,"uuid":"1.405042e+06"},"geometry":{"type":"Point","coordinates":[105.90971965997791,15.667836629966525]}},{"type":"Feature","properties":{"name_en":"Houaykhon","did":1405,"pid":14,"uuid":"1.405044e+06"},"geometry":{"type":"Point","coordinates":[105.9044422496316,15.657606349771918]}},{"type":"Feature","properties":{"name_en":"Khorxong","did":1405,"pid":14,"uuid":"1.405045e+06"},"geometry":{"type":"Point","coordinates":[105.89292325003846,15.63321425990414]}},{"type":"Feature","properties":{"name_en":"Tansoum","did":1405,"pid":14,"uuid":"1.405046e+06"},"geometry":{"type":"Point","coordinates":[105.87717785000436,15.62806701005119]}},{"type":"Feature","properties":{"name_en":"Nalaong","did":1405,"pid":14,"uuid":"1.405048e+06"},"geometry":{"type":"Point","coordinates":[105.8865082502033,15.643175810378697]}},{"type":"Feature","properties":{"name_en":"Nongngong","did":1405,"pid":14,"uuid":"1.40505e+06"},"geometry":{"type":"Point","coordinates":[105.86150963964904,15.657499400428087]}},{"type":"Feature","properties":{"name_en":"Nakoktan","did":1405,"pid":14,"uuid":"1.405051e+06"},"geometry":{"type":"Point","coordinates":[105.87775159042097,15.66260128981401]}},{"type":"Feature","properties":{"name_en":"Donekha","did":1405,"pid":14,"uuid":"1.405052e+06"},"geometry":{"type":"Point","coordinates":[105.88616107009263,15.686682839759236]}},{"type":"Feature","properties":{"name_en":"Khonesay","did":1405,"pid":14,"uuid":"1.405053e+06"},"geometry":{"type":"Point","coordinates":[105.90578217981779,15.694855779619417]}},{"type":"Feature","properties":{"name_en":"Nakang","did":1405,"pid":14,"uuid":"1.405054e+06"},"geometry":{"type":"Point","coordinates":[105.91574850993136,15.6975136804016]}},{"type":"Feature","properties":{"name_en":"Bangkhakhok","did":1405,"pid":14,"uuid":"1.405055e+06"},"geometry":{"type":"Point","coordinates":[105.90956401032822,15.704366719565227]}},{"type":"Feature","properties":{"name_en":"Donekhaomin","did":1405,"pid":14,"uuid":"1.405056e+06"},"geometry":{"type":"Point","coordinates":[105.90945126973263,15.714094510297663]}},{"type":"Feature","properties":{"name_en":"Napheemanh","did":1405,"pid":14,"uuid":"1.405057e+06"},"geometry":{"type":"Point","coordinates":[105.94397574970574,15.74100099980254]}},{"type":"Feature","properties":{"name_en":"Kongleunoy","did":1405,"pid":14,"uuid":"1.405058e+06"},"geometry":{"type":"Point","coordinates":[105.93686696983062,15.764641489605808]}},{"type":"Feature","properties":{"name_en":"Nongboua","did":1405,"pid":14,"uuid":"1.405059e+06"},"geometry":{"type":"Point","coordinates":[105.92761838020755,15.758091119921016]}},{"type":"Feature","properties":{"name_en":"Nongvanh","did":1405,"pid":14,"uuid":"1.40506e+06"},"geometry":{"type":"Point","coordinates":[105.91128849997948,15.753396669847817]}},{"type":"Feature","properties":{"name_en":"Naxad","did":1405,"pid":14,"uuid":"1.405061e+06"},"geometry":{"type":"Point","coordinates":[105.90135251008074,15.710089050440816]}},{"type":"Feature","properties":{"name_en":"Nongpherng","did":1405,"pid":14,"uuid":"1.405062e+06"},"geometry":{"type":"Point","coordinates":[105.85121037035525,15.7026006599935]}},{"type":"Feature","properties":{"name_en":"Phailorm","did":1405,"pid":14,"uuid":"1.405063e+06"},"geometry":{"type":"Point","coordinates":[105.86280086957379,15.687198490041776]}},{"type":"Feature","properties":{"name_en":"Nonkhor","did":1405,"pid":14,"uuid":"1.405064e+06"},"geometry":{"type":"Point","coordinates":[105.84187334967493,15.683165369849062]}},{"type":"Feature","properties":{"name_en":"Natapieng","did":1405,"pid":14,"uuid":"1.405065e+06"},"geometry":{"type":"Point","coordinates":[106.05203993956277,15.892069969912823]}}]}