{"type":"FeatureCollection","features":[{"type":"Feature","properties":{"name_en":"Khongyai","did":1406,"pid":14,"uuid":"1.406001e+06"},"geometry":{"type":"Point","coordinates":[105.80075015251701,15.577693885766942]}},{"type":"Feature","properties":{"name_en":"Thongchalern","did":1406,"pid":14,"uuid":"1.406002e+06"},"geometry":{"type":"Point","coordinates":[105.80775497965712,15.57875326043055]}},{"type":"Feature","properties":{"name_en":"Khongkhoum5","did":1406,"pid":14,"uuid":"1.406003e+06"},"geometry":{"type":"Point","coordinates":[105.79703470225523,15.581322278990744]}},{"type":"Feature","properties":{"name_en":"Khongkhoum6","did":1406,"pid":14,"uuid":"1.406004e+06"},"geometry":{"type":"Point","coordinates":[105.80237999910861,15.577004689139054]}},{"type":"Feature","properties":{"name_en":"Vungkanhoung","did":1406,"pid":14,"uuid":"1.406005e+06"},"geometry":{"type":"Point","coordinates":[105.80750923001278,15.60211034995479]}},{"type":"Feature","properties":{"name_en":"Naphangyai","did":1406,"pid":14,"uuid":"1.406006e+06"},"geometry":{"type":"Point","coordinates":[105.79827581036777,15.60432786973749]}},{"type":"Feature","properties":{"name_en":"Boualapha","did":1406,"pid":14,"uuid":"1.406007e+06"},"geometry":{"type":"Point","coordinates":[105.81411442044681,15.578970100158882]}},{"type":"Feature","properties":{"name_en":"Nonekhor","did":1406,"pid":14,"uuid":"1.406008e+06"},"geometry":{"type":"Point","coordinates":[105.80879031960326,15.573238299906475]}},{"type":"Feature","properties":{"name_en":"Khongnoy","did":1406,"pid":14,"uuid":"1.406009e+06"},"geometry":{"type":"Point","coordinates":[105.80030398046578,15.570884240319412]}},{"type":"Feature","properties":{"name_en":"Beungkang","did":1406,"pid":14,"uuid":"1.40601e+06"},"geometry":{"type":"Point","coordinates":[105.80530780019517,15.561715110043199]}},{"type":"Feature","properties":{"name_en":"Kaengtavang","did":1406,"pid":14,"uuid":"1.406011e+06"},"geometry":{"type":"Point","coordinates":[105.81961093005728,15.542436650054082]}},{"type":"Feature","properties":{"name_en":"Nongsaphang","did":1406,"pid":14,"uuid":"1.406012e+06"},"geometry":{"type":"Point","coordinates":[105.76414888961816,15.567691489690148]}},{"type":"Feature","properties":{"name_en":"Nongkorxong","did":1406,"pid":14,"uuid":"1.406013e+06"},"geometry":{"type":"Point","coordinates":[105.79261517020389,15.547798139798168]}},{"type":"Feature","properties":{"name_en":"Thakhor","did":1406,"pid":14,"uuid":"1.406014e+06"},"geometry":{"type":"Point","coordinates":[105.78230310000004,15.5578019]}},{"type":"Feature","properties":{"name_en":"Hongleuaymixai","did":1406,"pid":14,"uuid":"1.406015e+06"},"geometry":{"type":"Point","coordinates":[105.80867581996085,15.621871610172507]}},{"type":"Feature","properties":{"name_en":"Nonbok","did":1406,"pid":14,"uuid":"1.406016e+06"},"geometry":{"type":"Point","coordinates":[105.78607299553147,15.684892328216577]}},{"type":"Feature","properties":{"name_en":"Nongno","did":1406,"pid":14,"uuid":"1.406017e+06"},"geometry":{"type":"Point","coordinates":[105.81586985414226,15.675259618035579]}},{"type":"Feature","properties":{"name_en":"somsaat","did":1406,"pid":14,"uuid":"1.406018e+06"},"geometry":{"type":"Point","coordinates":[105.79774117891485,15.668980498280545]}},{"type":"Feature","properties":{"name_en":"Napho","did":1406,"pid":14,"uuid":"1.406019e+06"},"geometry":{"type":"Point","coordinates":[105.8016734100494,15.652203119602015]}},{"type":"Feature","properties":{"name_en":"Napong","did":1406,"pid":14,"uuid":"1.40602e+06"},"geometry":{"type":"Point","coordinates":[105.80639108026415,15.633514159896963]}},{"type":"Feature","properties":{"name_en":"Dinkok","did":1406,"pid":14,"uuid":"1.406021e+06"},"geometry":{"type":"Point","coordinates":[105.832502639621,15.643568760042076]}},{"type":"Feature","properties":{"name_en":"Koudmixai","did":1406,"pid":14,"uuid":"1.406022e+06"},"geometry":{"type":"Point","coordinates":[105.84153740999089,15.652878370246407]}},{"type":"Feature","properties":{"name_en":"Donephaiban","did":1406,"pid":14,"uuid":"1.406023e+06"},"geometry":{"type":"Point","coordinates":[105.85657513025077,15.624995719896772]}},{"type":"Feature","properties":{"name_en":"Chanlanxe","did":1406,"pid":14,"uuid":"1.406024e+06"},"geometry":{"type":"Point","coordinates":[105.85438391715846,15.60744831849112]}},{"type":"Feature","properties":{"name_en":"Khamkhor","did":1406,"pid":14,"uuid":"1.406025e+06"},"geometry":{"type":"Point","coordinates":[105.86917035958717,15.614762500248295]}},{"type":"Feature","properties":{"name_en":"Nakham","did":1406,"pid":14,"uuid":"1.406026e+06"},"geometry":{"type":"Point","coordinates":[105.854066760115,15.597966090422945]}},{"type":"Feature","properties":{"name_en":"Tanpiew","did":1406,"pid":14,"uuid":"1.406027e+06"},"geometry":{"type":"Point","coordinates":[105.85128506014865,15.599824020167008]}},{"type":"Feature","properties":{"name_en":"Meunpou","did":1406,"pid":14,"uuid":"1.406028e+06"},"geometry":{"type":"Point","coordinates":[105.83685301012054,15.594935360314752]}},{"type":"Feature","properties":{"name_en":"Pakzeuak","did":1406,"pid":14,"uuid":"1.406029e+06"},"geometry":{"type":"Point","coordinates":[105.82151405017532,15.598293989925933]}},{"type":"Feature","properties":{"name_en":"Nahod","did":1406,"pid":14,"uuid":"1.40603e+06"},"geometry":{"type":"Point","coordinates":[105.93506956006894,15.550195610450416]}},{"type":"Feature","properties":{"name_en":"Tanpiaw","did":1406,"pid":14,"uuid":"1.406031e+06"},"geometry":{"type":"Point","coordinates":[105.92233366966565,15.527035240310461]}},{"type":"Feature","properties":{"name_en":"Talang","did":1406,"pid":14,"uuid":"1.406032e+06"},"geometry":{"type":"Point","coordinates":[105.90894198978323,15.562192040305728]}},{"type":"Feature","properties":{"name_en":"Lao","did":1406,"pid":14,"uuid":"1.406033e+06"},"geometry":{"type":"Point","coordinates":[105.84422255016656,15.570956750131376]}},{"type":"Feature","properties":{"name_en":"None","did":1406,"pid":14,"uuid":"1.406035e+06"},"geometry":{"type":"Point","coordinates":[105.837630179708,15.565211709738678]}},{"type":"Feature","properties":{"name_en":"Namek","did":1406,"pid":14,"uuid":"1.406036e+06"},"geometry":{"type":"Point","coordinates":[105.85962815042612,15.540924050039873]}},{"type":"Feature","properties":{"name_en":"Nateuy","did":1406,"pid":14,"uuid":"1.406037e+06"},"geometry":{"type":"Point","coordinates":[105.87511984017812,15.530618170372005]}},{"type":"Feature","properties":{"name_en":"Satherm","did":1406,"pid":14,"uuid":"1.406038e+06"},"geometry":{"type":"Point","coordinates":[105.93160397004867,15.481761649822944]}},{"type":"Feature","properties":{"name_en":"Pong","did":1406,"pid":14,"uuid":"1.406039e+06"},"geometry":{"type":"Point","coordinates":[105.90784110989553,15.46574550965789]}},{"type":"Feature","properties":{"name_en":"Padxoum","did":1406,"pid":14,"uuid":"1.40604e+06"},"geometry":{"type":"Point","coordinates":[105.87824066965592,15.463443669993207]}},{"type":"Feature","properties":{"name_en":"Khamhai","did":1406,"pid":14,"uuid":"1.406041e+06"},"geometry":{"type":"Point","coordinates":[105.85551003970653,15.51874863991639]}},{"type":"Feature","properties":{"name_en":"Nongsaenglao","did":1406,"pid":14,"uuid":"1.406042e+06"},"geometry":{"type":"Point","coordinates":[105.83947218975509,15.515398730039488]}},{"type":"Feature","properties":{"name_en":"Nakhok","did":1406,"pid":14,"uuid":"1.406043e+06"},"geometry":{"type":"Point","coordinates":[105.82091959969736,15.50768862986131]}},{"type":"Feature","properties":{"name_en":"Fungtanyai","did":1406,"pid":14,"uuid":"1.406044e+06"},"geometry":{"type":"Point","coordinates":[105.79464350996585,15.543317089552257]}},{"type":"Feature","properties":{"name_en":"Fungtannoy","did":1406,"pid":14,"uuid":"1.406045e+06"},"geometry":{"type":"Point","coordinates":[105.80556394973908,15.543276019887461]}},{"type":"Feature","properties":{"name_en":"Beungmanh","did":1406,"pid":14,"uuid":"1.406046e+06"},"geometry":{"type":"Point","coordinates":[105.78865464033058,15.546707400283308]}},{"type":"Feature","properties":{"name_en":"Elerng","did":1406,"pid":14,"uuid":"1.406047e+06"},"geometry":{"type":"Point","coordinates":[105.74761608970577,15.56083676971177]}},{"type":"Feature","properties":{"name_en":"Hinsiew","did":1406,"pid":14,"uuid":"1.406048e+06"},"geometry":{"type":"Point","coordinates":[105.76420287003246,15.541691499930835]}},{"type":"Feature","properties":{"name_en":"Khokhouaxang","did":1406,"pid":14,"uuid":"1.406049e+06"},"geometry":{"type":"Point","coordinates":[105.7454056896721,15.547479960446552]}},{"type":"Feature","properties":{"name_en":"Namuangyai","did":1406,"pid":14,"uuid":"1.40605e+06"},"geometry":{"type":"Point","coordinates":[105.73212548977385,15.557646290323328]}},{"type":"Feature","properties":{"name_en":"Donekongkhao","did":1406,"pid":14,"uuid":"1.406052e+06"},"geometry":{"type":"Point","coordinates":[105.78862701319308,15.546725410841683]}},{"type":"Feature","properties":{"name_en":"Kham e","did":1406,"pid":14,"uuid":"1.406053e+06"},"geometry":{"type":"Point","coordinates":[105.69911017957168,15.559800270402668]}},{"type":"Feature","properties":{"name_en":"Khoksaat","did":1406,"pid":14,"uuid":"1.406054e+06"},"geometry":{"type":"Point","coordinates":[105.68950100016909,15.560076030357816]}},{"type":"Feature","properties":{"name_en":"Donemeuang","did":1406,"pid":14,"uuid":"1.406055e+06"},"geometry":{"type":"Point","coordinates":[105.76505127979253,15.534481890223452]}},{"type":"Feature","properties":{"name_en":"Nongboua","did":1406,"pid":14,"uuid":"1.406056e+06"},"geometry":{"type":"Point","coordinates":[105.76941724963565,15.534823369951816]}},{"type":"Feature","properties":{"name_en":"Khokhinkhong","did":1406,"pid":14,"uuid":"1.406057e+06"},"geometry":{"type":"Point","coordinates":[105.75149220958535,15.532627060299452]}},{"type":"Feature","properties":{"name_en":"Koudhin","did":1406,"pid":14,"uuid":"1.406058e+06"},"geometry":{"type":"Point","coordinates":[105.7419269502791,15.52937932020498]}},{"type":"Feature","properties":{"name_en":"Naphoxai","did":1406,"pid":14,"uuid":"1.40606e+06"},"geometry":{"type":"Point","coordinates":[105.73003714007199,15.524602390341405]}},{"type":"Feature","properties":{"name_en":"Nasadong","did":1406,"pid":14,"uuid":"1.406061e+06"},"geometry":{"type":"Point","coordinates":[105.71580064029212,15.537756360241525]}},{"type":"Feature","properties":{"name_en":"Khanthoungxai","did":1406,"pid":14,"uuid":"1.406062e+06"},"geometry":{"type":"Point","coordinates":[105.62257905006598,15.552966250151647]}},{"type":"Feature","properties":{"name_en":"Khamthong","did":1406,"pid":14,"uuid":"1.406064e+06"},"geometry":{"type":"Point","coordinates":[105.77078056992538,15.53128100966638]}},{"type":"Feature","properties":{"name_en":"Nonesamlan","did":1406,"pid":14,"uuid":"1.406065e+06"},"geometry":{"type":"Point","coordinates":[105.77347518037996,15.524646230007658]}},{"type":"Feature","properties":{"name_en":"Meuangkao","did":1406,"pid":14,"uuid":"1.406066e+06"},"geometry":{"type":"Point","coordinates":[105.78234297978479,15.524692080061856]}},{"type":"Feature","properties":{"name_en":"Okadyai","did":1406,"pid":14,"uuid":"1.406067e+06"},"geometry":{"type":"Point","coordinates":[105.78000995987163,15.516720550044665]}},{"type":"Feature","properties":{"name_en":"Nongkulu","did":1406,"pid":14,"uuid":"1.406068e+06"},"geometry":{"type":"Point","coordinates":[105.77736714977064,15.518497599560765]}},{"type":"Feature","properties":{"name_en":"Nonehintang","did":1406,"pid":14,"uuid":"1.406069e+06"},"geometry":{"type":"Point","coordinates":[105.72883702046269,15.509326370363764]}},{"type":"Feature","properties":{"name_en":"Nakok","did":1406,"pid":14,"uuid":"1.40607e+06"},"geometry":{"type":"Point","coordinates":[105.7254268395645,15.510135059713052]}},{"type":"Feature","properties":{"name_en":"Nanong","did":1406,"pid":14,"uuid":"1.406071e+06"},"geometry":{"type":"Point","coordinates":[105.72959994030379,15.499279240287972]}},{"type":"Feature","properties":{"name_en":"Saymone","did":1406,"pid":14,"uuid":"1.406073e+06"},"geometry":{"type":"Point","coordinates":[105.74203272970463,15.491078469901593]}},{"type":"Feature","properties":{"name_en":"Nongtang","did":1406,"pid":14,"uuid":"1.406074e+06"},"geometry":{"type":"Point","coordinates":[105.76982587019673,15.49935568012447]}},{"type":"Feature","properties":{"name_en":"Okadnoy","did":1406,"pid":14,"uuid":"1.406075e+06"},"geometry":{"type":"Point","coordinates":[105.77052834964798,15.495448710032624]}},{"type":"Feature","properties":{"name_en":"Houysao","did":1406,"pid":14,"uuid":"1.406076e+06"},"geometry":{"type":"Point","coordinates":[105.76432808956343,15.488799010370727]}},{"type":"Feature","properties":{"name_en":"Saykham","did":1406,"pid":14,"uuid":"1.406077e+06"},"geometry":{"type":"Point","coordinates":[105.73455205040639,15.48301926998062]}},{"type":"Feature","properties":{"name_en":"Khamteu","did":1406,"pid":14,"uuid":"1.406078e+06"},"geometry":{"type":"Point","coordinates":[105.60086630973996,15.442182639655561]}},{"type":"Feature","properties":{"name_en":"Harddou","did":1406,"pid":14,"uuid":"1.406079e+06"},"geometry":{"type":"Point","coordinates":[105.76220999045134,15.472039979671436]}},{"type":"Feature","properties":{"name_en":"Tandiew","did":1406,"pid":14,"uuid":"1.40608e+06"},"geometry":{"type":"Point","coordinates":[105.77360970964264,15.476224230419511]}},{"type":"Feature","properties":{"name_en":"Thuangxe","did":1406,"pid":14,"uuid":"1.406081e+06"},"geometry":{"type":"Point","coordinates":[105.79756375560514,15.476495454211136]}},{"type":"Feature","properties":{"name_en":"Hardsaykham","did":1406,"pid":14,"uuid":"1.406082e+06"},"geometry":{"type":"Point","coordinates":[105.79721440955667,15.469526250405103]}},{"type":"Feature","properties":{"name_en":"Nonghoy","did":1406,"pid":14,"uuid":"1.406083e+06"},"geometry":{"type":"Point","coordinates":[105.80156369003069,15.466814869955439]}},{"type":"Feature","properties":{"name_en":"Namthang","did":1406,"pid":14,"uuid":"1.406084e+06"},"geometry":{"type":"Point","coordinates":[105.81532736023064,15.451464000136331]}},{"type":"Feature","properties":{"name_en":"Moungzoum","did":1406,"pid":14,"uuid":"1.406085e+06"},"geometry":{"type":"Point","coordinates":[105.7523099495848,15.457939939680163]}},{"type":"Feature","properties":{"name_en":"Naphoulao","did":1406,"pid":14,"uuid":"1.406086e+06"},"geometry":{"type":"Point","coordinates":[105.76447000040096,15.456739989766689]}},{"type":"Feature","properties":{"name_en":"Kaenghod","did":1406,"pid":14,"uuid":"1.406087e+06"},"geometry":{"type":"Point","coordinates":[105.77262994975398,15.465939970409876]}},{"type":"Feature","properties":{"name_en":"Nateun","did":1406,"pid":14,"uuid":"1.406089e+06"},"geometry":{"type":"Point","coordinates":[105.78617174965296,15.459198650378513]}},{"type":"Feature","properties":{"name_en":"Kaengkhone","did":1406,"pid":14,"uuid":"1.40609e+06"},"geometry":{"type":"Point","coordinates":[105.79999996029628,15.457489920447191]}},{"type":"Feature","properties":{"name_en":"Sa-o","did":1406,"pid":14,"uuid":"1.406091e+06"},"geometry":{"type":"Point","coordinates":[105.7948631997921,15.45014510996417]}},{"type":"Feature","properties":{"name_en":"Hangheng","did":1406,"pid":14,"uuid":"1.406095e+06"},"geometry":{"type":"Point","coordinates":[105.80019048033401,15.436656779817433]}},{"type":"Feature","properties":{"name_en":"Donekeo","did":1406,"pid":14,"uuid":"1.406096e+06"},"geometry":{"type":"Point","coordinates":[105.78280993987578,15.440809929736325]}}]}