{"type":"FeatureCollection","features":[{"type":"Feature","properties":{"name_en":"Pakleng","did":1407,"pid":14,"uuid":"1.401046e+06"},"geometry":{"type":"Point","coordinates":[106.11037336998218,15.470165279603368]}},{"type":"Feature","properties":{"name_en":"Laongam","did":1407,"pid":14,"uuid":"1.407001e+06"},"geometry":{"type":"Point","coordinates":[106.16779553043246,15.46831942033687]}},{"type":"Feature","properties":{"name_en":"Nonkham","did":1407,"pid":14,"uuid":"1.407002e+06"},"geometry":{"type":"Point","coordinates":[106.16693646987586,15.464434239887558]}},{"type":"Feature","properties":{"name_en":"Nondeua","did":1407,"pid":14,"uuid":"1.407003e+06"},"geometry":{"type":"Point","coordinates":[106.16965638964483,15.460802869783224]}},{"type":"Feature","properties":{"name_en":"Houaynamsan","did":1407,"pid":14,"uuid":"1.407004e+06"},"geometry":{"type":"Point","coordinates":[106.15841000026963,15.459059999740816]}},{"type":"Feature","properties":{"name_en":"Nachanh","did":1407,"pid":14,"uuid":"1.407005e+06"},"geometry":{"type":"Point","coordinates":[105.98770523013836,15.588184240229577]}},{"type":"Feature","properties":{"name_en":"Naxae","did":1407,"pid":14,"uuid":"1.407006e+06"},"geometry":{"type":"Point","coordinates":[105.98089592978322,15.5278436700222]}},{"type":"Feature","properties":{"name_en":"Na on","did":1407,"pid":14,"uuid":"1.407007e+06"},"geometry":{"type":"Point","coordinates":[105.95989465990074,15.50157680013293]}},{"type":"Feature","properties":{"name_en":"Vangkhananh","did":1407,"pid":14,"uuid":"1.407008e+06"},"geometry":{"type":"Point","coordinates":[105.9937399398614,15.51058399001654]}},{"type":"Feature","properties":{"name_en":"Songhongnoy","did":1407,"pid":14,"uuid":"1.407009e+06"},"geometry":{"type":"Point","coordinates":[106.00573143045123,15.499725659830826]}},{"type":"Feature","properties":{"name_en":"Songhonggnai","did":1407,"pid":14,"uuid":"1.40701e+06"},"geometry":{"type":"Point","coordinates":[106.02229885004706,15.490255950406436]}},{"type":"Feature","properties":{"name_en":"Vangkhae","did":1407,"pid":14,"uuid":"1.407012e+06"},"geometry":{"type":"Point","coordinates":[105.98695822999802,15.469393140263813]}},{"type":"Feature","properties":{"name_en":"Kouangxinoy","did":1407,"pid":14,"uuid":"1.407013e+06"},"geometry":{"type":"Point","coordinates":[105.99740258003884,15.444056080332034]}},{"type":"Feature","properties":{"name_en":"Nonglaotherng","did":1407,"pid":14,"uuid":"1.407014e+06"},"geometry":{"type":"Point","coordinates":[106.03605396985196,15.483844129844453]}},{"type":"Feature","properties":{"name_en":"Gnan","did":1407,"pid":14,"uuid":"1.407015e+06"},"geometry":{"type":"Point","coordinates":[106.04121612999015,15.522069470085707]}},{"type":"Feature","properties":{"name_en":"Nathan","did":1407,"pid":14,"uuid":"1.407016e+06"},"geometry":{"type":"Point","coordinates":[106.06527470979847,15.546470439725484]}},{"type":"Feature","properties":{"name_en":"Tabaeng","did":1407,"pid":14,"uuid":"1.407017e+06"},"geometry":{"type":"Point","coordinates":[106.04077733994644,15.571726210080934]}},{"type":"Feature","properties":{"name_en":"Katord","did":1407,"pid":14,"uuid":"1.407018e+06"},"geometry":{"type":"Point","coordinates":[106.02826509042757,15.59269605029515]}},{"type":"Feature","properties":{"name_en":"Kaxa","did":1407,"pid":14,"uuid":"1.407019e+06"},"geometry":{"type":"Point","coordinates":[106.04909537000813,15.611093659922979]}},{"type":"Feature","properties":{"name_en":"Phanay","did":1407,"pid":14,"uuid":"1.40702e+06"},"geometry":{"type":"Point","coordinates":[106.10738665001858,15.613243780048554]}},{"type":"Feature","properties":{"name_en":"Nameeneua","did":1407,"pid":14,"uuid":"1.407021e+06"},"geometry":{"type":"Point","coordinates":[106.15724916974231,15.619239949995137]}},{"type":"Feature","properties":{"name_en":"Kang","did":1407,"pid":14,"uuid":"1.407023e+06"},"geometry":{"type":"Point","coordinates":[106.1353614203122,15.588030010270451]}},{"type":"Feature","properties":{"name_en":"Kedpherng","did":1407,"pid":14,"uuid":"1.407024e+06"},"geometry":{"type":"Point","coordinates":[106.12368952969048,15.565518569581554]}},{"type":"Feature","properties":{"name_en":"Dongxouang","did":1407,"pid":14,"uuid":"1.407025e+06"},"geometry":{"type":"Point","coordinates":[106.11454587972332,15.531607400216187]}},{"type":"Feature","properties":{"name_en":"Donglouang","did":1407,"pid":14,"uuid":"1.407026e+06"},"geometry":{"type":"Point","coordinates":[106.10252221033112,15.51483027018035]}},{"type":"Feature","properties":{"name_en":"Nongkae","did":1407,"pid":14,"uuid":"1.407027e+06"},"geometry":{"type":"Point","coordinates":[106.08003122040061,15.484656090201423]}},{"type":"Feature","properties":{"name_en":"Nongdern","did":1407,"pid":14,"uuid":"1.407029e+06"},"geometry":{"type":"Point","coordinates":[106.13135268993379,15.500198060337151]}},{"type":"Feature","properties":{"name_en":"Naborn","did":1407,"pid":14,"uuid":"1.40703e+06"},"geometry":{"type":"Point","coordinates":[106.13494835990893,15.509497449962556]}},{"type":"Feature","properties":{"name_en":"Khamthong","did":1407,"pid":14,"uuid":"1.407031e+06"},"geometry":{"type":"Point","coordinates":[106.19401998968526,15.549819940131348]}},{"type":"Feature","properties":{"name_en":"Houaypao","did":1407,"pid":14,"uuid":"1.407032e+06"},"geometry":{"type":"Point","coordinates":[106.20327997978893,15.55763999969927]}},{"type":"Feature","properties":{"name_en":"Nakalonh","did":1407,"pid":14,"uuid":"1.407033e+06"},"geometry":{"type":"Point","coordinates":[106.23500993012422,15.579089959683133]}},{"type":"Feature","properties":{"name_en":"Santhong","did":1407,"pid":14,"uuid":"1.407034e+06"},"geometry":{"type":"Point","coordinates":[106.24500996011531,15.542869999788792]}},{"type":"Feature","properties":{"name_en":"Khouaseth","did":1407,"pid":14,"uuid":"1.407035e+06"},"geometry":{"type":"Point","coordinates":[106.2627599800151,15.537669949559165]}},{"type":"Feature","properties":{"name_en":"Khiengtanglae","did":1407,"pid":14,"uuid":"1.407036e+06"},"geometry":{"type":"Point","coordinates":[106.27191000040536,15.523929999653845]}},{"type":"Feature","properties":{"name_en":"Saneumna","did":1407,"pid":14,"uuid":"1.407037e+06"},"geometry":{"type":"Point","coordinates":[106.24996995033008,15.515299990065326]}},{"type":"Feature","properties":{"name_en":"Khanorn","did":1407,"pid":14,"uuid":"1.407038e+06"},"geometry":{"type":"Point","coordinates":[106.20675997990301,15.525149980179453]}},{"type":"Feature","properties":{"name_en":"Thongkham","did":1407,"pid":14,"uuid":"1.407039e+06"},"geometry":{"type":"Point","coordinates":[106.20212512001314,15.510587350047295]}},{"type":"Feature","properties":{"name_en":"Phangham","did":1407,"pid":14,"uuid":"1.40704e+06"},"geometry":{"type":"Point","coordinates":[106.1643899603402,15.541389920084038]}},{"type":"Feature","properties":{"name_en":"Lavad","did":1407,"pid":14,"uuid":"1.407041e+06"},"geometry":{"type":"Point","coordinates":[106.19314298957,15.494771790024107]}},{"type":"Feature","properties":{"name_en":"Dongbang","did":1407,"pid":14,"uuid":"1.407042e+06"},"geometry":{"type":"Point","coordinates":[106.14913179968256,15.49591700999857]}},{"type":"Feature","properties":{"name_en":"Porhong","did":1407,"pid":14,"uuid":"1.407043e+06"},"geometry":{"type":"Point","coordinates":[106.14413484040047,15.486999159611935]}},{"type":"Feature","properties":{"name_en":"Savang","did":1407,"pid":14,"uuid":"1.407045e+06"},"geometry":{"type":"Point","coordinates":[106.07937994009995,15.46413995036189]}},{"type":"Feature","properties":{"name_en":"Nongtoua","did":1407,"pid":14,"uuid":"1.407046e+06"},"geometry":{"type":"Point","coordinates":[106.093469919982,15.454559939602682]}},{"type":"Feature","properties":{"name_en":"Dongtonggnai","did":1407,"pid":14,"uuid":"1.407048e+06"},"geometry":{"type":"Point","coordinates":[106.1191822498299,15.45876681963921]}},{"type":"Feature","properties":{"name_en":"Nongtakai","did":1407,"pid":14,"uuid":"1.407049e+06"},"geometry":{"type":"Point","coordinates":[106.14195957032724,15.466823589830662]}},{"type":"Feature","properties":{"name_en":"Laen","did":1407,"pid":14,"uuid":"1.40705e+06"},"geometry":{"type":"Point","coordinates":[106.16217051960055,15.484766639569623]}},{"type":"Feature","properties":{"name_en":"Ngiew","did":1407,"pid":14,"uuid":"1.407051e+06"},"geometry":{"type":"Point","coordinates":[106.17659351020453,15.482576200017364]}},{"type":"Feature","properties":{"name_en":"Phornonh","did":1407,"pid":14,"uuid":"1.407052e+06"},"geometry":{"type":"Point","coordinates":[106.23441991986913,15.488879979921393]}},{"type":"Feature","properties":{"name_en":"Sandong","did":1407,"pid":14,"uuid":"1.407053e+06"},"geometry":{"type":"Point","coordinates":[106.2487999197843,15.50103994044362]}},{"type":"Feature","properties":{"name_en":"Sanamnork","did":1407,"pid":14,"uuid":"1.407055e+06"},"geometry":{"type":"Point","coordinates":[106.25705995001884,15.499859939732172]}},{"type":"Feature","properties":{"name_en":"Khiengtadsung","did":1407,"pid":14,"uuid":"1.407056e+06"},"geometry":{"type":"Point","coordinates":[106.27242992962626,15.506869969900116]}},{"type":"Feature","properties":{"name_en":"Sanimnai","did":1407,"pid":14,"uuid":"1.407057e+06"},"geometry":{"type":"Point","coordinates":[106.26935000046161,15.497869989927993]}},{"type":"Feature","properties":{"name_en":"Phortork","did":1407,"pid":14,"uuid":"1.407058e+06"},"geometry":{"type":"Point","coordinates":[106.27581999031824,15.485939939817845]}},{"type":"Feature","properties":{"name_en":"Bakgnai","did":1407,"pid":14,"uuid":"1.40706e+06"},"geometry":{"type":"Point","coordinates":[106.25717997976432,15.485259919966383]}},{"type":"Feature","properties":{"name_en":"Vangpeuay","did":1407,"pid":14,"uuid":"1.407061e+06"},"geometry":{"type":"Point","coordinates":[106.22362997981053,15.47984998982844]}},{"type":"Feature","properties":{"name_en":"Temesangthong","did":1407,"pid":14,"uuid":"1.407063e+06"},"geometry":{"type":"Point","coordinates":[106.19035290980617,15.468248179781144]}},{"type":"Feature","properties":{"name_en":"Phorpoum","did":1407,"pid":14,"uuid":"1.407064e+06"},"geometry":{"type":"Point","coordinates":[106.22121910033628,15.472728640376845]}},{"type":"Feature","properties":{"name_en":"Elerng","did":1407,"pid":14,"uuid":"1.407066e+06"},"geometry":{"type":"Point","coordinates":[106.23548996035049,15.466319919942292]}},{"type":"Feature","properties":{"name_en":"Inpaeng","did":1407,"pid":14,"uuid":"1.407067e+06"},"geometry":{"type":"Point","coordinates":[106.25201998969462,15.469889939815069]}},{"type":"Feature","properties":{"name_en":"Mouantae","did":1407,"pid":14,"uuid":"1.407068e+06"},"geometry":{"type":"Point","coordinates":[106.2508820599945,15.456263059873793]}},{"type":"Feature","properties":{"name_en":"Daxeergnai","did":1407,"pid":14,"uuid":"1.407069e+06"},"geometry":{"type":"Point","coordinates":[106.25092427000355,15.430626558932113]}},{"type":"Feature","properties":{"name_en":"Donedou","did":1407,"pid":14,"uuid":"1.407071e+06"},"geometry":{"type":"Point","coordinates":[106.23829998959809,15.44461993044971]}},{"type":"Feature","properties":{"name_en":"Takidgnai","did":1407,"pid":14,"uuid":"1.407072e+06"},"geometry":{"type":"Point","coordinates":[106.19566996972937,15.446209970076454]}},{"type":"Feature","properties":{"name_en":"Meunpakdee","did":1407,"pid":14,"uuid":"1.407074e+06"},"geometry":{"type":"Point","coordinates":[106.18814721021592,15.43033531989309]}},{"type":"Feature","properties":{"name_en":"Khoua","did":1407,"pid":14,"uuid":"1.407075e+06"},"geometry":{"type":"Point","coordinates":[106.1901657397761,15.420974239965073]}},{"type":"Feature","properties":{"name_en":"Laononggnai","did":1407,"pid":14,"uuid":"1.407076e+06"},"geometry":{"type":"Point","coordinates":[106.16873437969662,15.414029249874037]}},{"type":"Feature","properties":{"name_en":"Thongko","did":1407,"pid":14,"uuid":"1.407077e+06"},"geometry":{"type":"Point","coordinates":[106.16304190012615,15.441567990119742]}},{"type":"Feature","properties":{"name_en":"Ten","did":1407,"pid":14,"uuid":"1.407078e+06"},"geometry":{"type":"Point","coordinates":[106.13851803954145,15.435488430142254]}},{"type":"Feature","properties":{"name_en":"Phao","did":1407,"pid":14,"uuid":"1.407079e+06"},"geometry":{"type":"Point","coordinates":[106.14144995004541,15.45341992011448]}},{"type":"Feature","properties":{"name_en":"Pheerladmai","did":1407,"pid":14,"uuid":"1.40708e+06"},"geometry":{"type":"Point","coordinates":[106.10390011033535,15.441244780198273]}},{"type":"Feature","properties":{"name_en":"Horkongbeng","did":1407,"pid":14,"uuid":"1.407081e+06"},"geometry":{"type":"Point","coordinates":[106.13174496009403,15.42498405977885]}},{"type":"Feature","properties":{"name_en":"Sok","did":1407,"pid":14,"uuid":"1.407082e+06"},"geometry":{"type":"Point","coordinates":[106.12286174000425,15.431378870012455]}},{"type":"Feature","properties":{"name_en":"Louangsena","did":1407,"pid":14,"uuid":"1.407085e+06"},"geometry":{"type":"Point","coordinates":[106.18128259988065,15.401619000345875]}},{"type":"Feature","properties":{"name_en":"Khagnongkheknork","did":1407,"pid":14,"uuid":"1.407086e+06"},"geometry":{"type":"Point","coordinates":[106.19534105987935,15.400432380154585]}},{"type":"Feature","properties":{"name_en":"Khagnongkheknai","did":1407,"pid":14,"uuid":"1.407087e+06"},"geometry":{"type":"Point","coordinates":[106.20470021009594,15.410056650262051]}},{"type":"Feature","properties":{"name_en":"Mouangxoum","did":1407,"pid":14,"uuid":"1.407088e+06"},"geometry":{"type":"Point","coordinates":[106.19565450000019,15.420645599999979]}},{"type":"Feature","properties":{"name_en":"Pakthor","did":1407,"pid":14,"uuid":"1.407089e+06"},"geometry":{"type":"Point","coordinates":[106.15202967012647,15.449184960004482]}},{"type":"Feature","properties":{"name_en":"Daxeernoy","did":1407,"pid":14,"uuid":"1.40709e+06"},"geometry":{"type":"Point","coordinates":[106.24307993974115,15.400289970345037]}},{"type":"Feature","properties":{"name_en":"Phorkhem","did":1407,"pid":14,"uuid":"1.407091e+06"},"geometry":{"type":"Point","coordinates":[106.27520073009815,15.375148950052225]}},{"type":"Feature","properties":{"name_en":"Thongsui","did":1407,"pid":14,"uuid":"1.407092e+06"},"geometry":{"type":"Point","coordinates":[106.30054995018594,15.394329929824629]}},{"type":"Feature","properties":{"name_en":"Nongtom","did":1407,"pid":14,"uuid":"1.407093e+06"},"geometry":{"type":"Point","coordinates":[106.23732852975671,15.372011350320403]}},{"type":"Feature","properties":{"name_en":"Donggnai","did":1407,"pid":14,"uuid":"1.407094e+06"},"geometry":{"type":"Point","coordinates":[106.19719916046155,15.385689360448625]}},{"type":"Feature","properties":{"name_en":"Phouakgnai","did":1407,"pid":14,"uuid":"1.407096e+06"},"geometry":{"type":"Point","coordinates":[106.16387347019275,15.388747080243366]}},{"type":"Feature","properties":{"name_en":"Vanggnao","did":1407,"pid":14,"uuid":"1.407097e+06"},"geometry":{"type":"Point","coordinates":[106.20262460007193,15.349831830070357]}},{"type":"Feature","properties":{"name_en":"Houayseng","did":1407,"pid":14,"uuid":"1.407098e+06"},"geometry":{"type":"Point","coordinates":[106.22114172999062,15.346231470429826]}},{"type":"Feature","properties":{"name_en":"Phakkoudgnai","did":1407,"pid":14,"uuid":"1.407099e+06"},"geometry":{"type":"Point","coordinates":[106.19820021022434,15.331070790249841]}},{"type":"Feature","properties":{"name_en":"Nongchoua","did":1407,"pid":14,"uuid":"1.4071e+06"},"geometry":{"type":"Point","coordinates":[106.17620585019677,15.331219059817219]}},{"type":"Feature","properties":{"name_en":"Pouaknoy","did":1407,"pid":14,"uuid":"1.407102e+06"},"geometry":{"type":"Point","coordinates":[106.14008596023154,15.381879449833063]}},{"type":"Feature","properties":{"name_en":"On noy","did":1407,"pid":14,"uuid":"1.407103e+06"},"geometry":{"type":"Point","coordinates":[106.12800496038494,15.384625029986944]}},{"type":"Feature","properties":{"name_en":"Houayhounneua","did":1407,"pid":14,"uuid":"1.407104e+06"},"geometry":{"type":"Point","coordinates":[106.11198453970431,15.418201680111354]}},{"type":"Feature","properties":{"name_en":"On gnai","did":1407,"pid":14,"uuid":"1.407105e+06"},"geometry":{"type":"Point","coordinates":[106.12193218042339,15.393460810369868]}},{"type":"Feature","properties":{"name_en":"On beng","did":1407,"pid":14,"uuid":"1.407106e+06"},"geometry":{"type":"Point","coordinates":[106.12050575026622,15.410403739908785]}},{"type":"Feature","properties":{"name_en":"Houayhountai","did":1407,"pid":14,"uuid":"1.407107e+06"},"geometry":{"type":"Point","coordinates":[106.15115066042691,15.399084149696998]}},{"type":"Feature","properties":{"name_en":"Touklouk","did":1407,"pid":14,"uuid":"1.407108e+06"},"geometry":{"type":"Point","coordinates":[106.09571903962065,15.398947099559605]}},{"type":"Feature","properties":{"name_en":"Nambeng","did":1407,"pid":14,"uuid":"1.407109e+06"},"geometry":{"type":"Point","coordinates":[106.12381240974152,15.332848170324088]}},{"type":"Feature","properties":{"name_en":"Laognar","did":1407,"pid":14,"uuid":"1.40711e+06"},"geometry":{"type":"Point","coordinates":[106.15492470018927,15.314017049920299]}},{"type":"Feature","properties":{"name_en":"Nonsung","did":1407,"pid":14,"uuid":"1.407112e+06"},"geometry":{"type":"Point","coordinates":[106.17436803020684,15.46622034017802]}},{"type":"Feature","properties":{"name_en":"Nondou","did":1407,"pid":14,"uuid":"1.407113e+06"},"geometry":{"type":"Point","coordinates":[106.16352218012017,15.466033680321807]}}]}