{"type":"FeatureCollection","features":[{"type":"Feature","properties":{"name_en":"Thedsabanh","did":1408,"pid":14,"uuid":"1.408001e+06"},"geometry":{"type":"Point","coordinates":[106.89000059007601,16.29487540986264]}},{"type":"Feature","properties":{"name_en":"Asokgnai","did":1408,"pid":14,"uuid":"1.408002e+06"},"geometry":{"type":"Point","coordinates":[106.84151128009141,16.528211660029474]}},{"type":"Feature","properties":{"name_en":"Taloung","did":1408,"pid":14,"uuid":"1.408004e+06"},"geometry":{"type":"Point","coordinates":[106.82279054994144,16.405610570146916]}},{"type":"Feature","properties":{"name_en":"Taliab","did":1408,"pid":14,"uuid":"1.408005e+06"},"geometry":{"type":"Point","coordinates":[106.85708326018543,16.513178720044117]}},{"type":"Feature","properties":{"name_en":"Ho","did":1408,"pid":14,"uuid":"1.408006e+06"},"geometry":{"type":"Point","coordinates":[106.85763294982264,16.511208969640847]}},{"type":"Feature","properties":{"name_en":"Paluatieng","did":1408,"pid":14,"uuid":"1.408007e+06"},"geometry":{"type":"Point","coordinates":[106.83237156955842,16.50117750978772]}},{"type":"Feature","properties":{"name_en":"Agnong","did":1408,"pid":14,"uuid":"1.408008e+06"},"geometry":{"type":"Point","coordinates":[106.82115506961416,16.47924459028102]}},{"type":"Feature","properties":{"name_en":"Amen","did":1408,"pid":14,"uuid":"1.408009e+06"},"geometry":{"type":"Point","coordinates":[106.82444714980382,16.464641379940584]}},{"type":"Feature","properties":{"name_en":"Ala","did":1408,"pid":14,"uuid":"1.40801e+06"},"geometry":{"type":"Point","coordinates":[106.83239000979223,16.512533570210415]}},{"type":"Feature","properties":{"name_en":"Latoua","did":1408,"pid":14,"uuid":"1.408011e+06"},"geometry":{"type":"Point","coordinates":[106.81568470997534,16.44237083007664]}},{"type":"Feature","properties":{"name_en":"Lasen","did":1408,"pid":14,"uuid":"1.408012e+06"},"geometry":{"type":"Point","coordinates":[106.80482695983346,16.434922259954284]}},{"type":"Feature","properties":{"name_en":"Ajahongtun","did":1408,"pid":14,"uuid":"1.408013e+06"},"geometry":{"type":"Point","coordinates":[106.7978262199393,16.438702999847877]}},{"type":"Feature","properties":{"name_en":"Xe","did":1408,"pid":14,"uuid":"1.408014e+06"},"geometry":{"type":"Point","coordinates":[106.79099010970786,16.45037488033747]}},{"type":"Feature","properties":{"name_en":"Tanyu","did":1408,"pid":14,"uuid":"1.408016e+06"},"geometry":{"type":"Point","coordinates":[106.78482933006703,16.46806731960873]}},{"type":"Feature","properties":{"name_en":"Samouay","did":1408,"pid":14,"uuid":"1.408017e+06"},"geometry":{"type":"Point","coordinates":[106.8175925103735,16.427120379732337]}},{"type":"Feature","properties":{"name_en":"Kinae","did":1408,"pid":14,"uuid":"1.408018e+06"},"geometry":{"type":"Point","coordinates":[106.82031738963954,16.4123716696592]}},{"type":"Feature","properties":{"name_en":"Avong","did":1408,"pid":14,"uuid":"1.408019e+06"},"geometry":{"type":"Point","coordinates":[106.85327770966357,16.419743719689688]}},{"type":"Feature","properties":{"name_en":"Tandy","did":1408,"pid":14,"uuid":"1.40802e+06"},"geometry":{"type":"Point","coordinates":[106.87658677969742,16.401556250371637]}},{"type":"Feature","properties":{"name_en":"Asao","did":1408,"pid":14,"uuid":"1.408021e+06"},"geometry":{"type":"Point","coordinates":[106.87697394008634,16.409236839766137]}},{"type":"Feature","properties":{"name_en":"Pheenxe","did":1408,"pid":14,"uuid":"1.408023e+06"},"geometry":{"type":"Point","coordinates":[106.87223967018882,16.38053753043005]}},{"type":"Feature","properties":{"name_en":"Tangkouan","did":1408,"pid":14,"uuid":"1.408024e+06"},"geometry":{"type":"Point","coordinates":[106.84492154011713,16.394919119905]}},{"type":"Feature","properties":{"name_en":"Teuneua","did":1408,"pid":14,"uuid":"1.408025e+06"},"geometry":{"type":"Point","coordinates":[106.8243624895387,16.395666449621046]}},{"type":"Feature","properties":{"name_en":"Taloeui","did":1408,"pid":14,"uuid":"1.408028e+06"},"geometry":{"type":"Point","coordinates":[106.81514751008046,16.419506180180672]}},{"type":"Feature","properties":{"name_en":"Kilignai","did":1408,"pid":14,"uuid":"1.408029e+06"},"geometry":{"type":"Point","coordinates":[106.81868098961058,16.404541209622515]}},{"type":"Feature","properties":{"name_en":"Amai","did":1408,"pid":14,"uuid":"1.40803e+06"},"geometry":{"type":"Point","coordinates":[106.81541849955086,16.371718259756562]}},{"type":"Feature","properties":{"name_en":"Amonleuk","did":1408,"pid":14,"uuid":"1.408031e+06"},"geometry":{"type":"Point","coordinates":[106.89512611960131,16.274965370191392]}},{"type":"Feature","properties":{"name_en":"Axingtai","did":1408,"pid":14,"uuid":"1.408034e+06"},"geometry":{"type":"Point","coordinates":[106.92588502987329,16.27438977968617]}},{"type":"Feature","properties":{"name_en":"Lavatai","did":1408,"pid":14,"uuid":"1.408036e+06"},"geometry":{"type":"Point","coordinates":[106.86794026018617,16.30329225989398]}},{"type":"Feature","properties":{"name_en":"Lavaneua","did":1408,"pid":14,"uuid":"1.408037e+06"},"geometry":{"type":"Point","coordinates":[106.88918159027716,16.311921179805097]}},{"type":"Feature","properties":{"name_en":"Pin B","did":1408,"pid":14,"uuid":"1.408038e+06"},"geometry":{"type":"Point","coordinates":[106.88987964018415,16.326559329725043]}},{"type":"Feature","properties":{"name_en":"Pantai","did":1408,"pid":14,"uuid":"1.408039e+06"},"geometry":{"type":"Point","coordinates":[106.90204261988846,16.346122860388775]}},{"type":"Feature","properties":{"name_en":"Avaw","did":1408,"pid":14,"uuid":"1.40804e+06"},"geometry":{"type":"Point","coordinates":[106.90270386956968,16.349782240241787]}},{"type":"Feature","properties":{"name_en":"Lalor","did":1408,"pid":14,"uuid":"1.408041e+06"},"geometry":{"type":"Point","coordinates":[106.94673215990052,16.34856073970593]}},{"type":"Feature","properties":{"name_en":"Asoy","did":1408,"pid":14,"uuid":"1.408043e+06"},"geometry":{"type":"Point","coordinates":[106.95210805968715,16.31024462956362]}},{"type":"Feature","properties":{"name_en":"Lahang","did":1408,"pid":14,"uuid":"1.408044e+06"},"geometry":{"type":"Point","coordinates":[106.93449256961678,16.299694160038335]}},{"type":"Feature","properties":{"name_en":"Tangko","did":1408,"pid":14,"uuid":"1.408045e+06"},"geometry":{"type":"Point","coordinates":[106.91211222021086,16.304681900055378]}},{"type":"Feature","properties":{"name_en":"PinA","did":1408,"pid":14,"uuid":"1.408046e+06"},"geometry":{"type":"Point","coordinates":[106.89138545026303,16.300630090376096]}},{"type":"Feature","properties":{"name_en":"Lalaikong","did":1408,"pid":14,"uuid":"1.408047e+06"},"geometry":{"type":"Point","coordinates":[106.94611249046066,16.312710340360088]}},{"type":"Feature","properties":{"name_en":"Acheungleng","did":1408,"pid":14,"uuid":"1.408053e+06"},"geometry":{"type":"Point","coordinates":[106.88841440046315,16.269589970301233]}},{"type":"Feature","properties":{"name_en":"Maew","did":1408,"pid":14,"uuid":"1.408055e+06"},"geometry":{"type":"Point","coordinates":[106.8476789396923,16.287049219734165]}},{"type":"Feature","properties":{"name_en":"Atouk","did":1408,"pid":14,"uuid":"1.408056e+06"},"geometry":{"type":"Point","coordinates":[106.94743296963625,16.290316909952544]}},{"type":"Feature","properties":{"name_en":"Adengkoutab","did":1408,"pid":14,"uuid":"1.408057e+06"},"geometry":{"type":"Point","coordinates":[107.02219603029995,16.29735166988496]}},{"type":"Feature","properties":{"name_en":"Aho","did":1408,"pid":14,"uuid":"1.408058e+06"},"geometry":{"type":"Point","coordinates":[106.88512936001962,16.192091479630108]}},{"type":"Feature","properties":{"name_en":"Avay","did":1408,"pid":14,"uuid":"1.408059e+06"},"geometry":{"type":"Point","coordinates":[106.9060626598244,16.250234979915167]}},{"type":"Feature","properties":{"name_en":"Pihai","did":1408,"pid":14,"uuid":"1.40806e+06"},"geometry":{"type":"Point","coordinates":[106.92680091986337,16.21071371976279]}},{"type":"Feature","properties":{"name_en":"Kaleng","did":1408,"pid":14,"uuid":"1.408061e+06"},"geometry":{"type":"Point","coordinates":[106.93126780023923,16.230801200167505]}},{"type":"Feature","properties":{"name_en":"Talortai","did":1408,"pid":14,"uuid":"1.408062e+06"},"geometry":{"type":"Point","coordinates":[106.94655538979738,16.22000966957158]}},{"type":"Feature","properties":{"name_en":"Talorneua","did":1408,"pid":14,"uuid":"1.408063e+06"},"geometry":{"type":"Point","coordinates":[106.96207950965866,16.20611541015032]}},{"type":"Feature","properties":{"name_en":"Kaboeui","did":1408,"pid":14,"uuid":"1.408064e+06"},"geometry":{"type":"Point","coordinates":[106.99594012981085,16.200939670367116]}},{"type":"Feature","properties":{"name_en":"Tavay","did":1408,"pid":14,"uuid":"1.408066e+06"},"geometry":{"type":"Point","coordinates":[106.9454406800538,16.261217039830594]}},{"type":"Feature","properties":{"name_en":"Axingneua","did":1408,"pid":14,"uuid":"1.408067e+06"},"geometry":{"type":"Point","coordinates":[106.92302487011086,16.281183400447436]}}]}