{"type":"FeatureCollection","features":[{"type":"Feature","properties":{"name_en":"Vatlouang","did":1501,"pid":15,"uuid":"1.501001e+06"},"geometry":{"type":"Point","coordinates":[106.73185259977507,15.349675170428416]}},{"type":"Feature","properties":{"name_en":"Thalouang","did":1501,"pid":15,"uuid":"1.501002e+06"},"geometry":{"type":"Point","coordinates":[106.73097827970577,15.34788136016874]}},{"type":"Feature","properties":{"name_en":"Phonkham","did":1501,"pid":15,"uuid":"1.501003e+06"},"geometry":{"type":"Point","coordinates":[106.7341268595738,15.34643363962119]}},{"type":"Feature","properties":{"name_en":"Maihouameuang","did":1501,"pid":15,"uuid":"1.501004e+06"},"geometry":{"type":"Point","coordinates":[106.73585102023897,15.358278019589207]}},{"type":"Feature","properties":{"name_en":"Nonmixay","did":1501,"pid":15,"uuid":"1.501005e+06"},"geometry":{"type":"Point","coordinates":[106.72715629972443,15.353518530409575]}},{"type":"Feature","properties":{"name_en":"Phiamay","did":1501,"pid":15,"uuid":"1.501006e+06"},"geometry":{"type":"Point","coordinates":[106.71514947965733,15.340874679571433]}},{"type":"Feature","properties":{"name_en":"Mo","did":1501,"pid":15,"uuid":"1.501007e+06"},"geometry":{"type":"Point","coordinates":[106.70047872008762,15.333386370070535]}},{"type":"Feature","properties":{"name_en":"Pakthontai","did":1501,"pid":15,"uuid":"1.501008e+06"},"geometry":{"type":"Point","coordinates":[106.71121106990786,15.312384340125844]}},{"type":"Feature","properties":{"name_en":"Lavisamphan","did":1501,"pid":15,"uuid":"1.501009e+06"},"geometry":{"type":"Point","coordinates":[106.65540763036898,15.314552910191765]}},{"type":"Feature","properties":{"name_en":"Lavifangdaeng","did":1501,"pid":15,"uuid":"1.50101e+06"},"geometry":{"type":"Point","coordinates":[106.70677361010337,15.294503810410244]}},{"type":"Feature","properties":{"name_en":"Lavinoy","did":1501,"pid":15,"uuid":"1.501011e+06"},"geometry":{"type":"Point","coordinates":[106.69719443969065,15.272781099901616]}},{"type":"Feature","properties":{"name_en":"Donechanh","did":1501,"pid":15,"uuid":"1.501012e+06"},"geometry":{"type":"Point","coordinates":[106.72777371004382,15.26451026019328]}},{"type":"Feature","properties":{"name_en":"Dane","did":1501,"pid":15,"uuid":"1.501013e+06"},"geometry":{"type":"Point","coordinates":[106.73944803002288,15.23638243995384]}},{"type":"Feature","properties":{"name_en":"Xeinoy","did":1501,"pid":15,"uuid":"1.501014e+06"},"geometry":{"type":"Point","coordinates":[106.74312382994714,15.22637059026668]}},{"type":"Feature","properties":{"name_en":"Touydane","did":1501,"pid":15,"uuid":"1.501015e+06"},"geometry":{"type":"Point","coordinates":[106.75385324957028,15.262747300384534]}},{"type":"Feature","properties":{"name_en":"Kasangkang","did":1501,"pid":15,"uuid":"1.501016e+06"},"geometry":{"type":"Point","coordinates":[106.9116252295361,15.29393157960648]}},{"type":"Feature","properties":{"name_en":"Pa or","did":1501,"pid":15,"uuid":"1.501017e+06"},"geometry":{"type":"Point","coordinates":[106.96671160030029,15.320951149732826]}},{"type":"Feature","properties":{"name_en":"Naver + kai ngeng","did":1501,"pid":15,"uuid":"1.501018e+06"},"geometry":{"type":"Point","coordinates":[106.97138258030816,15.456937550027925]}},{"type":"Feature","properties":{"name_en":"Ta oune","did":1501,"pid":15,"uuid":"1.501019e+06"},"geometry":{"type":"Point","coordinates":[106.94716559021744,15.46520579994919]}},{"type":"Feature","properties":{"name_en":"Tork ongkeo","did":1501,"pid":15,"uuid":"1.50102e+06"},"geometry":{"type":"Point","coordinates":[106.90067964012762,15.446457319742175]}},{"type":"Feature","properties":{"name_en":"Cha week + Nalai","did":1501,"pid":15,"uuid":"1.501022e+06"},"geometry":{"type":"Point","coordinates":[106.81933870975962,15.413353580381566]}},{"type":"Feature","properties":{"name_en":"Navasaen","did":1501,"pid":15,"uuid":"1.501023e+06"},"geometry":{"type":"Point","coordinates":[106.74922970987276,15.35510362985786]}},{"type":"Feature","properties":{"name_en":"Navaneua","did":1501,"pid":15,"uuid":"1.501025e+06"},"geometry":{"type":"Point","coordinates":[106.72110348038994,15.435957979743296]}},{"type":"Feature","properties":{"name_en":"Nang yong","did":1501,"pid":15,"uuid":"1.501026e+06"},"geometry":{"type":"Point","coordinates":[106.72022447034216,15.47235330035554]}},{"type":"Feature","properties":{"name_en":"Songkhone","did":1501,"pid":15,"uuid":"1.501027e+06"},"geometry":{"type":"Point","coordinates":[106.74759566045482,15.504403349875673]}},{"type":"Feature","properties":{"name_en":"Pakkayong","did":1501,"pid":15,"uuid":"1.501028e+06"},"geometry":{"type":"Point","coordinates":[106.73809535997624,15.495508469912767]}},{"type":"Feature","properties":{"name_en":"Patheung","did":1501,"pid":15,"uuid":"1.501029e+06"},"geometry":{"type":"Point","coordinates":[106.89720357982348,15.523067499855577]}},{"type":"Feature","properties":{"name_en":"Chanamtai","did":1501,"pid":15,"uuid":"1.50103e+06"},"geometry":{"type":"Point","coordinates":[106.92148946996512,15.5503748203327]}},{"type":"Feature","properties":{"name_en":"Heung","did":1501,"pid":15,"uuid":"1.501032e+06"},"geometry":{"type":"Point","coordinates":[106.70288524958727,15.599973390135322]}},{"type":"Feature","properties":{"name_en":"Honglai","did":1501,"pid":15,"uuid":"1.501033e+06"},"geometry":{"type":"Point","coordinates":[106.70687108967027,15.386747909787095]}},{"type":"Feature","properties":{"name_en":"Nonnongwa","did":1501,"pid":15,"uuid":"1.501034e+06"},"geometry":{"type":"Point","coordinates":[106.69624937981747,15.403685390181485]}},{"type":"Feature","properties":{"name_en":"Phon","did":1501,"pid":15,"uuid":"1.501036e+06"},"geometry":{"type":"Point","coordinates":[106.69372894018831,15.414040060145819]}},{"type":"Feature","properties":{"name_en":"Nongbong+Houaykiaw","did":1501,"pid":15,"uuid":"1.501037e+06"},"geometry":{"type":"Point","coordinates":[106.67164622999165,15.412524530352094]}},{"type":"Feature","properties":{"name_en":"Torksaming","did":1501,"pid":15,"uuid":"1.501038e+06"},"geometry":{"type":"Point","coordinates":[106.6307177297498,15.366116280021437]}},{"type":"Feature","properties":{"name_en":"Tiew","did":1501,"pid":15,"uuid":"1.501039e+06"},"geometry":{"type":"Point","coordinates":[106.610150469678,15.418409130062036]}},{"type":"Feature","properties":{"name_en":"Baeng","did":1501,"pid":15,"uuid":"1.50104e+06"},"geometry":{"type":"Point","coordinates":[106.58471835024496,15.433764859792424]}},{"type":"Feature","properties":{"name_en":"Pakpoune","did":1501,"pid":15,"uuid":"1.501041e+06"},"geometry":{"type":"Point","coordinates":[106.72390387011937,15.492841349864765]}},{"type":"Feature","properties":{"name_en":"Kadonmai","did":1501,"pid":15,"uuid":"1.501042e+06"},"geometry":{"type":"Point","coordinates":[106.71426887964242,15.27659109974848]}},{"type":"Feature","properties":{"name_en":"Vatxang","did":1501,"pid":15,"uuid":"1.501043e+06"},"geometry":{"type":"Point","coordinates":[106.77700842978,15.29251017981903]}},{"type":"Feature","properties":{"name_en":"Namthiengmai","did":1501,"pid":15,"uuid":"1.501044e+06"},"geometry":{"type":"Point","coordinates":[106.84369358955516,15.286192400168002]}},{"type":"Feature","properties":{"name_en":"Taneum","did":1501,"pid":15,"uuid":"1.501045e+06"},"geometry":{"type":"Point","coordinates":[106.70049975976335,15.605786490152811]}},{"type":"Feature","properties":{"name_en":"Ponephai","did":1501,"pid":15,"uuid":"1.501046e+06"},"geometry":{"type":"Point","coordinates":[106.92546000044194,15.548409999850595]}},{"type":"Feature","properties":{"name_en":"Kaingeng","did":1501,"pid":15,"uuid":"1.501047e+06"},"geometry":{"type":"Point","coordinates":[107.00424999956351,15.412060000226482]}}]}