{"type":"FeatureCollection","features":[{"type":"Feature","properties":{"name_en":"Kaengkien","did":1502,"pid":15,"uuid":"1.502001e+06"},"geometry":{"type":"Point","coordinates":[106.75204800000125,15.732386]}},{"type":"Feature","properties":{"name_en":"Kaengkhouy","did":1502,"pid":15,"uuid":"1.502002e+06"},"geometry":{"type":"Point","coordinates":[106.74840680000123,15.731694299999909]}},{"type":"Feature","properties":{"name_en":"Thongkai","did":1502,"pid":15,"uuid":"1.502003e+06"},"geometry":{"type":"Point","coordinates":[106.71407180000112,15.749783599999917]}},{"type":"Feature","properties":{"name_en":"Parkxai","did":1502,"pid":15,"uuid":"1.502004e+06"},"geometry":{"type":"Point","coordinates":[106.69000460000103,15.75053]}},{"type":"Feature","properties":{"name_en":"Klung","did":1502,"pid":15,"uuid":"1.502005e+06"},"geometry":{"type":"Point","coordinates":[106.75545880971286,15.827467209680139]}},{"type":"Feature","properties":{"name_en":"Bark","did":1502,"pid":15,"uuid":"1.502006e+06"},"geometry":{"type":"Point","coordinates":[106.77214449013636,15.842618089992248]}},{"type":"Feature","properties":{"name_en":"ploy+talangmai","did":1502,"pid":15,"uuid":"1.502007e+06"},"geometry":{"type":"Point","coordinates":[106.79498081979384,15.841524749692423]}},{"type":"Feature","properties":{"name_en":"Kador","did":1502,"pid":15,"uuid":"1.502008e+06"},"geometry":{"type":"Point","coordinates":[106.86522116970848,15.844729240411555]}},{"type":"Feature","properties":{"name_en":"Hanong neua","did":1502,"pid":15,"uuid":"1.502013e+06"},"geometry":{"type":"Point","coordinates":[106.84727640000165,15.659965899999893]}},{"type":"Feature","properties":{"name_en":"Ching","did":1502,"pid":15,"uuid":"1.502015e+06"},"geometry":{"type":"Point","coordinates":[106.82376360976997,15.756968449967683]}},{"type":"Feature","properties":{"name_en":"Songkhone","did":1502,"pid":15,"uuid":"1.502016e+06"},"geometry":{"type":"Point","coordinates":[106.82276121043222,15.777629080275307]}},{"type":"Feature","properties":{"name_en":"Chalork","did":1502,"pid":15,"uuid":"1.502017e+06"},"geometry":{"type":"Point","coordinates":[106.88197752036365,15.78126347969801]}},{"type":"Feature","properties":{"name_en":"Loeui","did":1502,"pid":15,"uuid":"1.502018e+06"},"geometry":{"type":"Point","coordinates":[106.85516623977361,15.713942039812299]}},{"type":"Feature","properties":{"name_en":"Chale","did":1502,"pid":15,"uuid":"1.50202e+06"},"geometry":{"type":"Point","coordinates":[106.89677141027936,15.677460140060326]}},{"type":"Feature","properties":{"name_en":"Teenteum","did":1502,"pid":15,"uuid":"1.502021e+06"},"geometry":{"type":"Point","coordinates":[106.91736625039302,15.69227456966193]}},{"type":"Feature","properties":{"name_en":"Wakneua","did":1502,"pid":15,"uuid":"1.502022e+06"},"geometry":{"type":"Point","coordinates":[106.9245147501096,15.762583230349863]}},{"type":"Feature","properties":{"name_en":"Waktai","did":1502,"pid":15,"uuid":"1.502023e+06"},"geometry":{"type":"Point","coordinates":[106.91922341992955,15.758783879594155]}},{"type":"Feature","properties":{"name_en":"Tangpa","did":1502,"pid":15,"uuid":"1.502025e+06"},"geometry":{"type":"Point","coordinates":[106.972038800233,15.622584410317904]}},{"type":"Feature","properties":{"name_en":"Tangpang","did":1502,"pid":15,"uuid":"1.502026e+06"},"geometry":{"type":"Point","coordinates":[106.87097961971938,15.617699020232958]}},{"type":"Feature","properties":{"name_en":"Ahang+kandone","did":1502,"pid":15,"uuid":"1.502029e+06"},"geometry":{"type":"Point","coordinates":[107.05378993011153,15.7460899900984]}},{"type":"Feature","properties":{"name_en":"Patlang","did":1502,"pid":15,"uuid":"1.50203e+06"},"geometry":{"type":"Point","coordinates":[107.06688120980341,15.737165450312641]}},{"type":"Feature","properties":{"name_en":"Kandone","did":1502,"pid":15,"uuid":"1.502032e+06"},"geometry":{"type":"Point","coordinates":[107.03132550983483,15.733414289789756]}},{"type":"Feature","properties":{"name_en":"Tamor","did":1502,"pid":15,"uuid":"1.502033e+06"},"geometry":{"type":"Point","coordinates":[107.05868999026741,15.82747994958863]}},{"type":"Feature","properties":{"name_en":"Taneung+Vang","did":1502,"pid":15,"uuid":"1.502035e+06"},"geometry":{"type":"Point","coordinates":[107.03382349014691,15.820646270059637]}},{"type":"Feature","properties":{"name_en":"Don","did":1502,"pid":15,"uuid":"1.502036e+06"},"geometry":{"type":"Point","coordinates":[106.8798457499095,15.86132766989888]}},{"type":"Feature","properties":{"name_en":"Laipor","did":1502,"pid":15,"uuid":"1.502037e+06"},"geometry":{"type":"Point","coordinates":[106.89801905004896,15.88142620970004]}},{"type":"Feature","properties":{"name_en":"Pom","did":1502,"pid":15,"uuid":"1.502038e+06"},"geometry":{"type":"Point","coordinates":[106.91680533008704,15.894081210049613]}},{"type":"Feature","properties":{"name_en":"Lonoi","did":1502,"pid":15,"uuid":"1.502039e+06"},"geometry":{"type":"Point","coordinates":[106.98819726965432,15.881299230444359]}},{"type":"Feature","properties":{"name_en":"Lo gnai","did":1502,"pid":15,"uuid":"1.50204e+06"},"geometry":{"type":"Point","coordinates":[106.99631170023699,15.870184149692152]}},{"type":"Feature","properties":{"name_en":"Talui","did":1502,"pid":15,"uuid":"1.502043e+06"},"geometry":{"type":"Point","coordinates":[106.95606820000218,15.998268299999857]}},{"type":"Feature","properties":{"name_en":"Po+Lam+Sa ang","did":1502,"pid":15,"uuid":"1.502045e+06"},"geometry":{"type":"Point","coordinates":[106.82088894979674,15.957570439554505]}},{"type":"Feature","properties":{"name_en":"Arong+Ape","did":1502,"pid":15,"uuid":"1.502046e+06"},"geometry":{"type":"Point","coordinates":[106.9174499799317,15.928299999950854]}},{"type":"Feature","properties":{"name_en":"Oung","did":1502,"pid":15,"uuid":"1.502047e+06"},"geometry":{"type":"Point","coordinates":[106.8198596497959,15.969303430204814]}},{"type":"Feature","properties":{"name_en":"Agneuang,Avern,Alarn","did":1502,"pid":15,"uuid":"1.502048e+06"},"geometry":{"type":"Point","coordinates":[107.06062521024421,15.881097560247749]}},{"type":"Feature","properties":{"name_en":"Bobing+talong","did":1502,"pid":15,"uuid":"1.502049e+06"},"geometry":{"type":"Point","coordinates":[107.08071100982457,15.845846539908793]}},{"type":"Feature","properties":{"name_en":"Paley","did":1502,"pid":15,"uuid":"1.50205e+06"},"geometry":{"type":"Point","coordinates":[107.2748081497587,15.89965090025279]}},{"type":"Feature","properties":{"name_en":"Alod","did":1502,"pid":15,"uuid":"1.502054e+06"},"geometry":{"type":"Point","coordinates":[107.05637918975468,15.911427060433939]}},{"type":"Feature","properties":{"name_en":"Klo","did":1502,"pid":15,"uuid":"1.502062e+06"},"geometry":{"type":"Point","coordinates":[107.16501996995746,15.948939929549935]}},{"type":"Feature","properties":{"name_en":"Ka ouang+Ataeng","did":1502,"pid":15,"uuid":"1.502064e+06"},"geometry":{"type":"Point","coordinates":[107.19820995984954,15.90554991981618]}},{"type":"Feature","properties":{"name_en":"Aching+Akeo","did":1502,"pid":15,"uuid":"1.502066e+06"},"geometry":{"type":"Point","coordinates":[107.25716918995992,15.874606700377207]}},{"type":"Feature","properties":{"name_en":"Chater+oung+pale","did":1502,"pid":15,"uuid":"1.502067e+06"},"geometry":{"type":"Point","coordinates":[107.3028153598722,15.902860580051572]}},{"type":"Feature","properties":{"name_en":"Tavang+bon","did":1502,"pid":15,"uuid":"1.502068e+06"},"geometry":{"type":"Point","coordinates":[107.24563140957036,15.861879109945363]}},{"type":"Feature","properties":{"name_en":"Panorn+karieng","did":1502,"pid":15,"uuid":"1.50207e+06"},"geometry":{"type":"Point","coordinates":[107.17957237966186,15.816272590440324]}},{"type":"Feature","properties":{"name_en":"Ling","did":1502,"pid":15,"uuid":"1.502071e+06"},"geometry":{"type":"Point","coordinates":[106.9323441201814,15.642711200191705]}},{"type":"Feature","properties":{"name_en":"Tangkard","did":1502,"pid":15,"uuid":"1.502072e+06"},"geometry":{"type":"Point","coordinates":[106.86603219964155,15.614038220204396]}},{"type":"Feature","properties":{"name_en":"Thamdeng","did":1502,"pid":15,"uuid":"1.502073e+06"},"geometry":{"type":"Point","coordinates":[106.65690816035881,15.787777889810828]}},{"type":"Feature","properties":{"name_en":"Yeub+Chanoi","did":1502,"pid":15,"uuid":"1.502075e+06"},"geometry":{"type":"Point","coordinates":[107.04846792992784,15.787535740115166]}},{"type":"Feature","properties":{"name_en":"Tanang","did":1502,"pid":15,"uuid":"1.502076e+06"},"geometry":{"type":"Point","coordinates":[107.01482163033282,15.922592510294873]}},{"type":"Feature","properties":{"name_en":"Tamplin+Apiad","did":1502,"pid":15,"uuid":"1.50208e+06"},"geometry":{"type":"Point","coordinates":[106.97288444965865,15.934241929962974]}},{"type":"Feature","properties":{"name_en":"Arock+Aroung+laba","did":1502,"pid":15,"uuid":"1.502081e+06"},"geometry":{"type":"Point","coordinates":[107.02958994985191,15.995039979853063]}},{"type":"Feature","properties":{"name_en":"Chakeuiphou","did":1502,"pid":15,"uuid":"1.502082e+06"},"geometry":{"type":"Point","coordinates":[106.657128189723,15.73573147021168]}},{"type":"Feature","properties":{"name_en":"Aror gnai+Aror noi","did":1502,"pid":15,"uuid":"1.502083e+06"},"geometry":{"type":"Point","coordinates":[107.03072998006476,16.02531993986318]}},{"type":"Feature","properties":{"name_en":"Abeun","did":1502,"pid":15,"uuid":"1.502084e+06"},"geometry":{"type":"Point","coordinates":[107.20982015016666,15.795940439790158]}}]}