{"type":"FeatureCollection","features":[{"type":"Feature","properties":{"name_en":"Brong gnai","did":1503,"pid":15,"uuid":"1.503001e+06"},"geometry":{"type":"Point","coordinates":[107.58137433025144,15.135940419863788]}},{"type":"Feature","properties":{"name_en":"Brong noy","did":1503,"pid":15,"uuid":"1.503002e+06"},"geometry":{"type":"Point","coordinates":[107.61105992965408,15.286540000032513]}},{"type":"Feature","properties":{"name_en":"Dark pa ner","did":1503,"pid":15,"uuid":"1.503003e+06"},"geometry":{"type":"Point","coordinates":[107.37414996015339,15.355149979690719]}},{"type":"Feature","properties":{"name_en":"Darkmeu","did":1503,"pid":15,"uuid":"1.503007e+06"},"geometry":{"type":"Point","coordinates":[107.33960126957413,15.324598109731575]}},{"type":"Feature","properties":{"name_en":"Dark kei","did":1503,"pid":15,"uuid":"1.503008e+06"},"geometry":{"type":"Point","coordinates":[107.35982014777481,15.205119599225775]}},{"type":"Feature","properties":{"name_en":"Dark trerb","did":1503,"pid":15,"uuid":"1.503017e+06"},"geometry":{"type":"Point","coordinates":[107.13856786023703,15.3225681004447]}},{"type":"Feature","properties":{"name_en":"Dark yoi","did":1503,"pid":15,"uuid":"1.50302e+06"},"geometry":{"type":"Point","coordinates":[107.20430550000401,15.344972199999717]}},{"type":"Feature","properties":{"name_en":"Lienglouang","did":1503,"pid":15,"uuid":"1.503021e+06"},"geometry":{"type":"Point","coordinates":[107.09728773998988,15.332321789862227]}},{"type":"Feature","properties":{"name_en":"Darkta orknoy","did":1503,"pid":15,"uuid":"1.503022e+06"},"geometry":{"type":"Point","coordinates":[107.3328539998367,15.520982079665872]}},{"type":"Feature","properties":{"name_en":"Darkdom","did":1503,"pid":15,"uuid":"1.503023e+06"},"geometry":{"type":"Point","coordinates":[107.33306136975683,15.541431160402848]}},{"type":"Feature","properties":{"name_en":"Darkmouan","did":1503,"pid":15,"uuid":"1.503026e+06"},"geometry":{"type":"Point","coordinates":[107.31418204977113,15.484404040061037]}},{"type":"Feature","properties":{"name_en":"Darkman","did":1503,"pid":15,"uuid":"1.503027e+06"},"geometry":{"type":"Point","coordinates":[107.36706825987496,15.45090483988491]}},{"type":"Feature","properties":{"name_en":"Darkta ork yai","did":1503,"pid":15,"uuid":"1.503028e+06"},"geometry":{"type":"Point","coordinates":[107.36610292012159,15.463675010418894]}},{"type":"Feature","properties":{"name_en":"Dark yang noy","did":1503,"pid":15,"uuid":"1.503033e+06"},"geometry":{"type":"Point","coordinates":[107.40499260027468,15.358707930162785]}},{"type":"Feature","properties":{"name_en":"Darkplarn","did":1503,"pid":15,"uuid":"1.503034e+06"},"geometry":{"type":"Point","coordinates":[107.61953604028353,15.318064499931419]}},{"type":"Feature","properties":{"name_en":"Tangbrong","did":1503,"pid":15,"uuid":"1.503036e+06"},"geometry":{"type":"Point","coordinates":[107.0190700001826,15.560159930287597]}},{"type":"Feature","properties":{"name_en":"Tanglou+Dark leu","did":1503,"pid":15,"uuid":"1.503038e+06"},"geometry":{"type":"Point","coordinates":[107.10110560977613,15.520925079846434]}},{"type":"Feature","properties":{"name_en":"Kailo","did":1503,"pid":15,"uuid":"1.503041e+06"},"geometry":{"type":"Point","coordinates":[107.01428552032503,15.497768480034958]}},{"type":"Feature","properties":{"name_en":"Darkpong","did":1503,"pid":15,"uuid":"1.503044e+06"},"geometry":{"type":"Point","coordinates":[107.18337994022403,15.599989980210017]}},{"type":"Feature","properties":{"name_en":"Darkchang","did":1503,"pid":15,"uuid":"1.503045e+06"},"geometry":{"type":"Point","coordinates":[107.1621099397871,15.585169940034275]}},{"type":"Feature","properties":{"name_en":"Tangmii","did":1503,"pid":15,"uuid":"1.503049e+06"},"geometry":{"type":"Point","coordinates":[107.22648479969976,15.589073479689358]}},{"type":"Feature","properties":{"name_en":"Kone gnong","did":1503,"pid":15,"uuid":"1.50305e+06"},"geometry":{"type":"Point","coordinates":[107.24000505987249,15.61524446036417]}},{"type":"Feature","properties":{"name_en":"Darkdieng","did":1503,"pid":15,"uuid":"1.503051e+06"},"geometry":{"type":"Point","coordinates":[107.33308442035427,15.541616649655444]}},{"type":"Feature","properties":{"name_en":"Dark larn","did":1503,"pid":15,"uuid":"1.503058e+06"},"geometry":{"type":"Point","coordinates":[107.03782526029181,15.352374570048653]}},{"type":"Feature","properties":{"name_en":"Darkxeng","did":1503,"pid":15,"uuid":"1.50306e+06"},"geometry":{"type":"Point","coordinates":[107.08797662009523,15.340963700211786]}},{"type":"Feature","properties":{"name_en":"Darkcheung","did":1503,"pid":15,"uuid":"1.503061e+06"},"geometry":{"type":"Point","coordinates":[107.25922341955133,15.478259770238887]}},{"type":"Feature","properties":{"name_en":"Darkbong","did":1503,"pid":15,"uuid":"1.503062e+06"},"geometry":{"type":"Point","coordinates":[107.27856139971358,15.4506046002498]}},{"type":"Feature","properties":{"name_en":"Ngonedone","did":1503,"pid":15,"uuid":"1.503063e+06"},"geometry":{"type":"Point","coordinates":[107.27690061023718,15.471507809973566]}},{"type":"Feature","properties":{"name_en":"nonsavanh","did":1503,"pid":15,"uuid":"1.503067e+06"},"geometry":{"type":"Point","coordinates":[107.26829105046079,15.467174450286285]}},{"type":"Feature","properties":{"name_en":"Tangtalang","did":1503,"pid":15,"uuid":"1.503068e+06"},"geometry":{"type":"Point","coordinates":[107.23269126044843,15.69963362964818]}},{"type":"Feature","properties":{"name_en":"Tang yeui","did":1503,"pid":15,"uuid":"1.50307e+06"},"geometry":{"type":"Point","coordinates":[107.2090667897143,15.657959560330472]}},{"type":"Feature","properties":{"name_en":"Tang nong","did":1503,"pid":15,"uuid":"1.503071e+06"},"geometry":{"type":"Point","coordinates":[107.24341749997996,15.676540309615309]}},{"type":"Feature","properties":{"name_en":"dark ngork","did":1503,"pid":15,"uuid":"1.503084e+06"},"geometry":{"type":"Point","coordinates":[107.21719371038083,15.36822071966964]}},{"type":"Feature","properties":{"name_en":"darkden","did":1503,"pid":15,"uuid":"1.503086e+06"},"geometry":{"type":"Point","coordinates":[107.24544131045302,15.356577249913563]}},{"type":"Feature","properties":{"name_en":"Darksieng","did":1503,"pid":15,"uuid":"1.503089e+06"},"geometry":{"type":"Point","coordinates":[107.10472232019954,15.394616260190013]}},{"type":"Feature","properties":{"name_en":"Tongxieng","did":1503,"pid":15,"uuid":"1.50309e+06"},"geometry":{"type":"Point","coordinates":[107.22924839960666,15.487210890292065]}},{"type":"Feature","properties":{"name_en":"Darkdin","did":1503,"pid":15,"uuid":"1.503091e+06"},"geometry":{"type":"Point","coordinates":[107.1862976801153,15.528135779676353]}},{"type":"Feature","properties":{"name_en":"Darksa","did":1503,"pid":15,"uuid":"1.503092e+06"},"geometry":{"type":"Point","coordinates":[107.14991997005873,15.509109949746966]}},{"type":"Feature","properties":{"name_en":"Darkpar","did":1503,"pid":15,"uuid":"1.503096e+06"},"geometry":{"type":"Point","coordinates":[107.25359229040116,15.504057760266837]}},{"type":"Feature","properties":{"name_en":"Dark eui","did":1503,"pid":15,"uuid":"1.503098e+06"},"geometry":{"type":"Point","coordinates":[107.22284043036517,15.536320039937014]}},{"type":"Feature","properties":{"name_en":"Mangtha gnai","did":1503,"pid":15,"uuid":"1.5031e+06"},"geometry":{"type":"Point","coordinates":[107.37636068956458,15.392369910134237]}},{"type":"Feature","properties":{"name_en":"A youn","did":1503,"pid":15,"uuid":"1.503102e+06"},"geometry":{"type":"Point","coordinates":[107.21189618032294,15.646332690285004]}},{"type":"Feature","properties":{"name_en":"Dakouang","did":1503,"pid":15,"uuid":"1.503105e+06"},"geometry":{"type":"Point","coordinates":[107.30445744978053,15.421100050285158]}},{"type":"Feature","properties":{"name_en":"Darkdoung","did":1503,"pid":15,"uuid":"1.503111e+06"},"geometry":{"type":"Point","coordinates":[107.0679337298164,15.386567699709772]}},{"type":"Feature","properties":{"name_en":"Darkkang","did":1503,"pid":15,"uuid":"1.503112e+06"},"geometry":{"type":"Point","coordinates":[107.0146331199017,15.40384993004281]}},{"type":"Feature","properties":{"name_en":"Chaling","did":1503,"pid":15,"uuid":"1.503113e+06"},"geometry":{"type":"Point","coordinates":[107.03442162012472,15.407538640093785]}},{"type":"Feature","properties":{"name_en":"Dark le","did":1503,"pid":15,"uuid":"1.503114e+06"},"geometry":{"type":"Point","coordinates":[107.32817907957151,15.348471530056909]}},{"type":"Feature","properties":{"name_en":"Darkdan-rark deui","did":1503,"pid":15,"uuid":"1.50312e+06"},"geometry":{"type":"Point","coordinates":[107.21777591994228,15.57038225026146]}},{"type":"Feature","properties":{"name_en":"Dark yang","did":1503,"pid":15,"uuid":"1.503121e+06"},"geometry":{"type":"Point","coordinates":[107.1420245500399,15.361921469900425]}},{"type":"Feature","properties":{"name_en":"Dark rern","did":1503,"pid":15,"uuid":"1.503124e+06"},"geometry":{"type":"Point","coordinates":[107.20419288005483,15.47218045988306]}},{"type":"Feature","properties":{"name_en":"Darkwor+Dark ark","did":1503,"pid":15,"uuid":"1.503127e+06"},"geometry":{"type":"Point","coordinates":[107.3021362497006,15.394750699980069]}},{"type":"Feature","properties":{"name_en":"Dark wai","did":1503,"pid":15,"uuid":"1.50313e+06"},"geometry":{"type":"Point","coordinates":[107.13234512975187,15.358917560148805]}},{"type":"Feature","properties":{"name_en":"Dark ran","did":1503,"pid":15,"uuid":"1.503131e+06"},"geometry":{"type":"Point","coordinates":[107.25211976044233,15.408761389566772]}},{"type":"Feature","properties":{"name_en":"Darkdenh","did":1503,"pid":15,"uuid":"1.503132e+06"},"geometry":{"type":"Point","coordinates":[107.5250378797976,15.392236299658672]}}]}