{"type":"FeatureCollection","features":[{"type":"Feature","properties":{"name_en":"Ta teng nuea","did":1504,"pid":15,"uuid":"1.504001e+06"},"geometry":{"type":"Point","coordinates":[106.37899743995946,15.428059050037053]}},{"type":"Feature","properties":{"name_en":"San nuea","did":1504,"pid":15,"uuid":"1.504002e+06"},"geometry":{"type":"Point","coordinates":[106.42740544966895,15.47260425041976]}},{"type":"Feature","properties":{"name_en":"Houai say","did":1504,"pid":15,"uuid":"1.504003e+06"},"geometry":{"type":"Point","coordinates":[106.38011266038444,15.423809339847763]}},{"type":"Feature","properties":{"name_en":"Houa sa","did":1504,"pid":15,"uuid":"1.504004e+06"},"geometry":{"type":"Point","coordinates":[106.40503892984273,15.435496980257419]}},{"type":"Feature","properties":{"name_en":"Nong nouk","did":1504,"pid":15,"uuid":"1.504006e+06"},"geometry":{"type":"Point","coordinates":[106.4389964497492,15.463317600304565]}},{"type":"Feature","properties":{"name_en":"Kar peu","did":1504,"pid":15,"uuid":"1.504007e+06"},"geometry":{"type":"Point","coordinates":[106.4574320200955,15.445850139843547]}},{"type":"Feature","properties":{"name_en":"San tay","did":1504,"pid":15,"uuid":"1.504009e+06"},"geometry":{"type":"Point","coordinates":[106.42520679040793,15.476771820134882]}},{"type":"Feature","properties":{"name_en":"Kow lar kang","did":1504,"pid":15,"uuid":"1.50401e+06"},"geometry":{"type":"Point","coordinates":[106.45101818984914,15.484573190445067]}},{"type":"Feature","properties":{"name_en":"Kow houa phou","did":1504,"pid":15,"uuid":"1.504011e+06"},"geometry":{"type":"Point","coordinates":[106.46389011027341,15.504310220234876]}},{"type":"Feature","properties":{"name_en":"Leek","did":1504,"pid":15,"uuid":"1.504012e+06"},"geometry":{"type":"Point","coordinates":[106.47736753972434,15.461662180204446]}},{"type":"Feature","properties":{"name_en":"Cha lam nhay","did":1504,"pid":15,"uuid":"1.504013e+06"},"geometry":{"type":"Point","coordinates":[106.48648294992472,15.458877119953693]}},{"type":"Feature","properties":{"name_en":"Cha lam kow","did":1504,"pid":15,"uuid":"1.504014e+06"},"geometry":{"type":"Point","coordinates":[106.50483328007702,15.465101689642529]}},{"type":"Feature","properties":{"name_en":"Kam kok","did":1504,"pid":15,"uuid":"1.504015e+06"},"geometry":{"type":"Point","coordinates":[106.48260983997993,15.441987759806922]}},{"type":"Feature","properties":{"name_en":"Chakammay","did":1504,"pid":15,"uuid":"1.504016e+06"},"geometry":{"type":"Point","coordinates":[106.49540530997399,15.44098896985743]}},{"type":"Feature","properties":{"name_en":"Char kam nhay","did":1504,"pid":15,"uuid":"1.504018e+06"},"geometry":{"type":"Point","coordinates":[106.5175782997133,15.442523109664563]}},{"type":"Feature","properties":{"name_en":"Choon la","did":1504,"pid":15,"uuid":"1.504019e+06"},"geometry":{"type":"Point","coordinates":[106.53580148005214,15.438329309897364]}},{"type":"Feature","properties":{"name_en":"Par lay","did":1504,"pid":15,"uuid":"1.50402e+06"},"geometry":{"type":"Point","coordinates":[106.5447430401105,15.460661800131167]}},{"type":"Feature","properties":{"name_en":"Nhouck thong","did":1504,"pid":15,"uuid":"1.504021e+06"},"geometry":{"type":"Point","coordinates":[106.57258957009351,15.472713470085948]}},{"type":"Feature","properties":{"name_en":"cafee","did":1504,"pid":15,"uuid":"1.504023e+06"},"geometry":{"type":"Point","coordinates":[106.56682851992646,15.429027240197978]}},{"type":"Feature","properties":{"name_en":"Koc hi","did":1504,"pid":15,"uuid":"1.504024e+06"},"geometry":{"type":"Point","coordinates":[106.57601232045684,15.433990499869187]}},{"type":"Feature","properties":{"name_en":"Thoun noi tay","did":1504,"pid":15,"uuid":"1.504026e+06"},"geometry":{"type":"Point","coordinates":[106.5587901898674,15.409972829841044]}},{"type":"Feature","properties":{"name_en":"Noun sam phanh","did":1504,"pid":15,"uuid":"1.504028e+06"},"geometry":{"type":"Point","coordinates":[106.4908637497868,15.441100620118846]}},{"type":"Feature","properties":{"name_en":"Sar thoua say sam phanh","did":1504,"pid":15,"uuid":"1.504029e+06"},"geometry":{"type":"Point","coordinates":[106.56337667983804,15.385345450229963]}},{"type":"Feature","properties":{"name_en":"Sar thoua tay","did":1504,"pid":15,"uuid":"1.50403e+06"},"geometry":{"type":"Point","coordinates":[106.58373314036263,15.372978039596038]}},{"type":"Feature","properties":{"name_en":"Toldnhaimai","did":1504,"pid":15,"uuid":"1.504032e+06"},"geometry":{"type":"Point","coordinates":[106.59002710989681,15.393827770164801]}},{"type":"Feature","properties":{"name_en":"Choung nuea","did":1504,"pid":15,"uuid":"1.504033e+06"},"geometry":{"type":"Point","coordinates":[106.6063005799286,15.391323680370304]}},{"type":"Feature","properties":{"name_en":"Choung houng tay","did":1504,"pid":15,"uuid":"1.504034e+06"},"geometry":{"type":"Point","coordinates":[106.6238780103051,15.37140945021619]}},{"type":"Feature","properties":{"name_en":"Thong nhao","did":1504,"pid":15,"uuid":"1.504035e+06"},"geometry":{"type":"Point","coordinates":[106.4010800003237,15.358749999630597]}},{"type":"Feature","properties":{"name_en":"Thong kong","did":1504,"pid":15,"uuid":"1.504036e+06"},"geometry":{"type":"Point","coordinates":[106.49843920000059,15.344947799999966]}},{"type":"Feature","properties":{"name_en":"Thong khouai","did":1504,"pid":15,"uuid":"1.504037e+06"},"geometry":{"type":"Point","coordinates":[106.4832601002825,15.36333674962112]}},{"type":"Feature","properties":{"name_en":"Don sa","did":1504,"pid":15,"uuid":"1.504038e+06"},"geometry":{"type":"Point","coordinates":[106.45181237980006,15.3780302298975]}},{"type":"Feature","properties":{"name_en":"Par luang nuea","did":1504,"pid":15,"uuid":"1.504039e+06"},"geometry":{"type":"Point","coordinates":[106.36683772998619,15.449351679743014]}},{"type":"Feature","properties":{"name_en":"Par luang tay","did":1504,"pid":15,"uuid":"1.50404e+06"},"geometry":{"type":"Point","coordinates":[106.35693049045076,15.462158720348953]}},{"type":"Feature","properties":{"name_en":"Pong nuea","did":1504,"pid":15,"uuid":"1.504042e+06"},"geometry":{"type":"Point","coordinates":[106.36311122028862,15.469042190448054]}},{"type":"Feature","properties":{"name_en":"Kok phoung nuea","did":1504,"pid":15,"uuid":"1.504043e+06"},"geometry":{"type":"Point","coordinates":[106.35470257961839,15.486718199559911]}},{"type":"Feature","properties":{"name_en":"Kok phoung kow","did":1504,"pid":15,"uuid":"1.504044e+06"},"geometry":{"type":"Point","coordinates":[106.34533455008385,15.504562440297057]}},{"type":"Feature","properties":{"name_en":"Toum nhor","did":1504,"pid":15,"uuid":"1.504046e+06"},"geometry":{"type":"Point","coordinates":[106.35911422965229,15.518805640185475]}},{"type":"Feature","properties":{"name_en":"Tar koew","did":1504,"pid":15,"uuid":"1.504047e+06"},"geometry":{"type":"Point","coordinates":[106.37154928029739,15.501160300244091]}},{"type":"Feature","properties":{"name_en":"Meunkang","did":1504,"pid":15,"uuid":"1.504048e+06"},"geometry":{"type":"Point","coordinates":[106.37560680014563,15.481631060247937]}},{"type":"Feature","properties":{"name_en":"Meunmai","did":1504,"pid":15,"uuid":"1.504049e+06"},"geometry":{"type":"Point","coordinates":[106.40345222958571,15.458977870013102]}},{"type":"Feature","properties":{"name_en":"Nongbouasai","did":1504,"pid":15,"uuid":"1.50405e+06"},"geometry":{"type":"Point","coordinates":[106.39589208959141,15.451025460424994]}},{"type":"Feature","properties":{"name_en":"Park lai","did":1504,"pid":15,"uuid":"1.504051e+06"},"geometry":{"type":"Point","coordinates":[106.58245212954598,15.41404869045476]}},{"type":"Feature","properties":{"name_en":"Kandone","did":1504,"pid":15,"uuid":"1.504054e+06"},"geometry":{"type":"Point","coordinates":[106.5336320698783,15.469248469732872]}},{"type":"Feature","properties":{"name_en":"Chakamlid","did":1504,"pid":15,"uuid":"1.504056e+06"},"geometry":{"type":"Point","coordinates":[106.4940761996088,15.431614649928255]}},{"type":"Feature","properties":{"name_en":"Thataengtai","did":1504,"pid":15,"uuid":"1.504057e+06"},"geometry":{"type":"Point","coordinates":[106.38316669020841,15.435354149945136]}},{"type":"Feature","properties":{"name_en":"Vangmai","did":1504,"pid":15,"uuid":"1.504058e+06"},"geometry":{"type":"Point","coordinates":[106.49325871041512,15.418660499625188]}},{"type":"Feature","properties":{"name_en":"Satii","did":1504,"pid":15,"uuid":"1.504059e+06"},"geometry":{"type":"Point","coordinates":[106.59180290037312,15.45365385994707]}},{"type":"Feature","properties":{"name_en":"Yeubmai","did":1504,"pid":15,"uuid":"1.50406e+06"},"geometry":{"type":"Point","coordinates":[106.57447515993574,15.452125249802824]}},{"type":"Feature","properties":{"name_en":"Kongtayoon","did":1504,"pid":15,"uuid":"1.504061e+06"},"geometry":{"type":"Point","coordinates":[106.38643605021171,15.394798480274014]}},{"type":"Feature","properties":{"name_en":"Luckkhao","did":1504,"pid":15,"uuid":"1.504062e+06"},"geometry":{"type":"Point","coordinates":[106.36336201003012,15.370967890357564]}},{"type":"Feature","properties":{"name_en":"Nongkan","did":1504,"pid":15,"uuid":"1.504063e+06"},"geometry":{"type":"Point","coordinates":[106.4249125904557,15.363361730158097]}}]}