{"type":"FeatureCollection","features":[{"type":"Feature","properties":{"name_en":"Thalouang","did":1601,"pid":16,"uuid":"1.601001e+06"},"geometry":{"type":"Point","coordinates":[105.79872054960713,15.123221300177967]}},{"type":"Feature","properties":{"name_en":"Phabath","did":1601,"pid":16,"uuid":"1.601002e+06"},"geometry":{"type":"Point","coordinates":[105.80267069013071,15.122712260404791]}},{"type":"Feature","properties":{"name_en":"Phonh","did":1601,"pid":16,"uuid":"1.601003e+06"},"geometry":{"type":"Point","coordinates":[105.80314652993732,15.120866400362333]}},{"type":"Feature","properties":{"name_en":"Luckmueang","did":1601,"pid":16,"uuid":"1.601005e+06"},"geometry":{"type":"Point","coordinates":[105.79982838987823,15.119230340347276]}},{"type":"Feature","properties":{"name_en":"Phaksae","did":1601,"pid":16,"uuid":"1.601008e+06"},"geometry":{"type":"Point","coordinates":[105.80259365979703,15.11500678017234]}},{"type":"Feature","properties":{"name_en":"Thong","did":1601,"pid":16,"uuid":"1.60101e+06"},"geometry":{"type":"Point","coordinates":[105.80449374989117,15.117072580072968]}},{"type":"Feature","properties":{"name_en":"Hongkanhom","did":1601,"pid":16,"uuid":"1.601011e+06"},"geometry":{"type":"Point","coordinates":[105.80762330039637,15.116980719912322]}},{"type":"Feature","properties":{"name_en":"Sangnammunh","did":1601,"pid":16,"uuid":"1.601012e+06"},"geometry":{"type":"Point","coordinates":[105.80651428963768,15.118965219997223]}},{"type":"Feature","properties":{"name_en":"Phonhkouang","did":1601,"pid":16,"uuid":"1.601014e+06"},"geometry":{"type":"Point","coordinates":[105.8117772097027,15.114999240350377]}},{"type":"Feature","properties":{"name_en":"Phonhsavanh","did":1601,"pid":16,"uuid":"1.601015e+06"},"geometry":{"type":"Point","coordinates":[105.81917206005761,15.114524650350097]}},{"type":"Feature","properties":{"name_en":"Thahinnuea","did":1601,"pid":16,"uuid":"1.601016e+06"},"geometry":{"type":"Point","coordinates":[105.79293343014119,15.123710459745247]}},{"type":"Feature","properties":{"name_en":"Huoaiphoon","did":1601,"pid":16,"uuid":"1.601017e+06"},"geometry":{"type":"Point","coordinates":[105.8014481897623,15.127435300419892]}},{"type":"Feature","properties":{"name_en":"Kokduea","did":1601,"pid":16,"uuid":"1.601019e+06"},"geometry":{"type":"Point","coordinates":[105.79283813020857,15.149969289761874]}},{"type":"Feature","properties":{"name_en":"Phonhnham","did":1601,"pid":16,"uuid":"1.60102e+06"},"geometry":{"type":"Point","coordinates":[105.77995758023626,15.140112170389594]}},{"type":"Feature","properties":{"name_en":"Thahai","did":1601,"pid":16,"uuid":"1.601023e+06"},"geometry":{"type":"Point","coordinates":[105.78922686976662,15.119347680082182]}},{"type":"Feature","properties":{"name_en":"Kankern","did":1601,"pid":16,"uuid":"1.601026e+06"},"geometry":{"type":"Point","coordinates":[105.78510783981513,15.12188370961297]}},{"type":"Feature","properties":{"name_en":"Kangkeuag","did":1601,"pid":16,"uuid":"1.601027e+06"},"geometry":{"type":"Point","coordinates":[105.77952046009264,15.128029579805277]}},{"type":"Feature","properties":{"name_en":"Huoailao","did":1601,"pid":16,"uuid":"1.601029e+06"},"geometry":{"type":"Point","coordinates":[105.77031754981367,15.14222030972293]}},{"type":"Feature","properties":{"name_en":"Phonesikay","did":1601,"pid":16,"uuid":"1.60103e+06"},"geometry":{"type":"Point","coordinates":[105.76899437999141,15.151052819564324]}},{"type":"Feature","properties":{"name_en":"Dongkalong","did":1601,"pid":16,"uuid":"1.601031e+06"},"geometry":{"type":"Point","coordinates":[105.76322754958308,15.16535066960402]}},{"type":"Feature","properties":{"name_en":"Doneckong","did":1601,"pid":16,"uuid":"1.601032e+06"},"geometry":{"type":"Point","coordinates":[105.7466918103822,15.157173199916592]}},{"type":"Feature","properties":{"name_en":"Kangsun","did":1601,"pid":16,"uuid":"1.601033e+06"},"geometry":{"type":"Point","coordinates":[105.78052293977926,15.175736520213077]}},{"type":"Feature","properties":{"name_en":"Nathaek","did":1601,"pid":16,"uuid":"1.601036e+06"},"geometry":{"type":"Point","coordinates":[105.83115750998074,15.129537979787298]}},{"type":"Feature","properties":{"name_en":"Sokamnouay","did":1601,"pid":16,"uuid":"1.601037e+06"},"geometry":{"type":"Point","coordinates":[105.83164936016925,15.121276360290008]}},{"type":"Feature","properties":{"name_en":"Huoainhangkam","did":1601,"pid":16,"uuid":"1.601039e+06"},"geometry":{"type":"Point","coordinates":[105.84593380020813,15.122401710369383]}},{"type":"Feature","properties":{"name_en":"Kang","did":1601,"pid":16,"uuid":"1.601041e+06"},"geometry":{"type":"Point","coordinates":[105.84649605999232,15.11725975005882]}},{"type":"Feature","properties":{"name_en":"Phoumouang","did":1601,"pid":16,"uuid":"1.601042e+06"},"geometry":{"type":"Point","coordinates":[105.83634934004657,15.114502109925724]}},{"type":"Feature","properties":{"name_en":"Souansavanh","did":1601,"pid":16,"uuid":"1.601043e+06"},"geometry":{"type":"Point","coordinates":[105.83375305025534,15.113173069651486]}},{"type":"Feature","properties":{"name_en":"SaNamxay","did":1601,"pid":16,"uuid":"1.601044e+06"},"geometry":{"type":"Point","coordinates":[105.8269122398008,15.112462619910627]}},{"type":"Feature","properties":{"name_en":"Nonsavang","did":1601,"pid":16,"uuid":"1.601047e+06"},"geometry":{"type":"Point","coordinates":[105.83226878008236,15.092492989770111]}},{"type":"Feature","properties":{"name_en":"Konevai","did":1601,"pid":16,"uuid":"1.601048e+06"},"geometry":{"type":"Point","coordinates":[105.83231068999042,15.078039070210535]}},{"type":"Feature","properties":{"name_en":"Phonesaath","did":1601,"pid":16,"uuid":"1.601049e+06"},"geometry":{"type":"Point","coordinates":[105.81129306978251,15.120173890176002]}},{"type":"Feature","properties":{"name_en":"Kae","did":1601,"pid":16,"uuid":"1.60105e+06"},"geometry":{"type":"Point","coordinates":[105.813078500022,15.127377460134403]}},{"type":"Feature","properties":{"name_en":"Photak","did":1601,"pid":16,"uuid":"1.601051e+06"},"geometry":{"type":"Point","coordinates":[105.80796218002973,15.135975790082991]}},{"type":"Feature","properties":{"name_en":"Hae","did":1601,"pid":16,"uuid":"1.601052e+06"},"geometry":{"type":"Point","coordinates":[105.80218092994589,15.143286569850403]}},{"type":"Feature","properties":{"name_en":"Songnhay","did":1601,"pid":16,"uuid":"1.601053e+06"},"geometry":{"type":"Point","coordinates":[105.8009623702395,15.166869720208823]}},{"type":"Feature","properties":{"name_en":"Nachieng","did":1601,"pid":16,"uuid":"1.601054e+06"},"geometry":{"type":"Point","coordinates":[105.81418826008827,15.162725290219074]}},{"type":"Feature","properties":{"name_en":"Saphansay","did":1601,"pid":16,"uuid":"1.601055e+06"},"geometry":{"type":"Point","coordinates":[105.78886392961982,15.129787180417605]}},{"type":"Feature","properties":{"name_en":"Phatthana","did":1601,"pid":16,"uuid":"1.601058e+06"},"geometry":{"type":"Point","coordinates":[105.86124694953651,15.107500370196595]}},{"type":"Feature","properties":{"name_en":"Keosumphanh","did":1601,"pid":16,"uuid":"1.601059e+06"},"geometry":{"type":"Point","coordinates":[105.81860418006907,15.121266549843961]}},{"type":"Feature","properties":{"name_en":"Nondou","did":1601,"pid":16,"uuid":"1.601063e+06"},"geometry":{"type":"Point","coordinates":[105.82314457955555,15.118813589935012]}},{"type":"Feature","properties":{"name_en":"Chatsun","did":1601,"pid":16,"uuid":"1.601067e+06"},"geometry":{"type":"Point","coordinates":[105.86446233019294,15.102765350040777]}}]}