{"type":"FeatureCollection","features":[{"type":"Feature","properties":{"name_en":"Nadan","did":1602,"pid":16,"uuid":"1.602001e+06"},"geometry":{"type":"Point","coordinates":[105.77893968009138,15.439464720257465]}},{"type":"Feature","properties":{"name_en":"Nonsavanh","did":1602,"pid":16,"uuid":"1.602003e+06"},"geometry":{"type":"Point","coordinates":[105.80311333984096,15.398866970237423]}},{"type":"Feature","properties":{"name_en":"Nackam","did":1602,"pid":16,"uuid":"1.602004e+06"},"geometry":{"type":"Point","coordinates":[105.80840239965457,15.424802260433923]}},{"type":"Feature","properties":{"name_en":"Kambone","did":1602,"pid":16,"uuid":"1.602006e+06"},"geometry":{"type":"Point","coordinates":[105.82003027960722,15.444154900298585]}},{"type":"Feature","properties":{"name_en":"Na","did":1602,"pid":16,"uuid":"1.602008e+06"},"geometry":{"type":"Point","coordinates":[105.84293005953614,15.416381629883684]}},{"type":"Feature","properties":{"name_en":"Souvanhnakili","did":1602,"pid":16,"uuid":"1.60201e+06"},"geometry":{"type":"Point","coordinates":[105.82267392954523,15.396027769650674]}},{"type":"Feature","properties":{"name_en":"Kangmaiheertheuag","did":1602,"pid":16,"uuid":"1.602015e+06"},"geometry":{"type":"Point","coordinates":[105.86406503003448,15.38786152973201]}},{"type":"Feature","properties":{"name_en":"Thonghinoy","did":1602,"pid":16,"uuid":"1.602018e+06"},"geometry":{"type":"Point","coordinates":[105.85556602954698,15.351632179858136]}},{"type":"Feature","properties":{"name_en":"Saelabam","did":1602,"pid":16,"uuid":"1.602019e+06"},"geometry":{"type":"Point","coordinates":[105.83490798986458,15.360845819627094]}},{"type":"Feature","properties":{"name_en":"Nongdou","did":1602,"pid":16,"uuid":"1.602021e+06"},"geometry":{"type":"Point","coordinates":[105.80943236967092,15.362799560363873]}},{"type":"Feature","properties":{"name_en":"Phongkerm","did":1602,"pid":16,"uuid":"1.602022e+06"},"geometry":{"type":"Point","coordinates":[105.90965152023,15.43998623955886]}},{"type":"Feature","properties":{"name_en":"Hinlad","did":1602,"pid":16,"uuid":"1.602023e+06"},"geometry":{"type":"Point","coordinates":[105.96118797984091,15.463700660099011]}},{"type":"Feature","properties":{"name_en":"Phakphakang","did":1602,"pid":16,"uuid":"1.602024e+06"},"geometry":{"type":"Point","coordinates":[105.98470366999813,15.438371299875955]}},{"type":"Feature","properties":{"name_en":"Sali","did":1602,"pid":16,"uuid":"1.602025e+06"},"geometry":{"type":"Point","coordinates":[105.93914986966985,15.427792579976831]}},{"type":"Feature","properties":{"name_en":"Vangvernnhay","did":1602,"pid":16,"uuid":"1.602026e+06"},"geometry":{"type":"Point","coordinates":[105.93886446036839,15.403662510188026]}},{"type":"Feature","properties":{"name_en":"Nongno","did":1602,"pid":16,"uuid":"1.602028e+06"},"geometry":{"type":"Point","coordinates":[105.89138374975786,15.389993809635763]}},{"type":"Feature","properties":{"name_en":"Donsae","did":1602,"pid":16,"uuid":"1.60203e+06"},"geometry":{"type":"Point","coordinates":[105.81526031008072,15.335156210026565]}},{"type":"Feature","properties":{"name_en":"Kamphang","did":1602,"pid":16,"uuid":"1.602033e+06"},"geometry":{"type":"Point","coordinates":[105.78143447035346,15.347213749921663]}},{"type":"Feature","properties":{"name_en":"Nongkand","did":1602,"pid":16,"uuid":"1.602036e+06"},"geometry":{"type":"Point","coordinates":[105.776028389636,15.336353479719596]}},{"type":"Feature","properties":{"name_en":"Khamluang","did":1602,"pid":16,"uuid":"1.602039e+06"},"geometry":{"type":"Point","coordinates":[105.75048303033954,15.32200232037734]}},{"type":"Feature","properties":{"name_en":"Sonephak","did":1602,"pid":16,"uuid":"1.602041e+06"},"geometry":{"type":"Point","coordinates":[105.74271040963121,15.301417880182553]}},{"type":"Feature","properties":{"name_en":"Sithouan","did":1602,"pid":16,"uuid":"1.602043e+06"},"geometry":{"type":"Point","coordinates":[105.70795032025083,15.306279549902548]}},{"type":"Feature","properties":{"name_en":"Donglankham","did":1602,"pid":16,"uuid":"1.602045e+06"},"geometry":{"type":"Point","coordinates":[105.72350286020855,15.26687656035373]}},{"type":"Feature","properties":{"name_en":"Soula","did":1602,"pid":16,"uuid":"1.602046e+06"},"geometry":{"type":"Point","coordinates":[105.49907915985521,15.38372564956397]}},{"type":"Feature","properties":{"name_en":"Singckamphun","did":1602,"pid":16,"uuid":"1.602047e+06"},"geometry":{"type":"Point","coordinates":[105.51121330991351,15.327193569746807]}},{"type":"Feature","properties":{"name_en":"Nongmek","did":1602,"pid":16,"uuid":"1.602048e+06"},"geometry":{"type":"Point","coordinates":[105.63276112961066,15.313093199672373]}},{"type":"Feature","properties":{"name_en":"Boungka","did":1602,"pid":16,"uuid":"1.60205e+06"},"geometry":{"type":"Point","coordinates":[105.64560119953576,15.306452629768216]}},{"type":"Feature","properties":{"name_en":"Orkmeuang","did":1602,"pid":16,"uuid":"1.602051e+06"},"geometry":{"type":"Point","coordinates":[105.66047699990273,15.292374000381598]}},{"type":"Feature","properties":{"name_en":"Nakeo","did":1602,"pid":16,"uuid":"1.602053e+06"},"geometry":{"type":"Point","coordinates":[105.66904420994867,15.271546450238962]}},{"type":"Feature","properties":{"name_en":"Houainhangnhay","did":1602,"pid":16,"uuid":"1.602055e+06"},"geometry":{"type":"Point","coordinates":[105.66758199030585,15.232327939960733]}},{"type":"Feature","properties":{"name_en":"Nhiew","did":1602,"pid":16,"uuid":"1.602056e+06"},"geometry":{"type":"Point","coordinates":[105.67541873002311,15.222374100328917]}},{"type":"Feature","properties":{"name_en":"Kangkok","did":1602,"pid":16,"uuid":"1.602059e+06"},"geometry":{"type":"Point","coordinates":[105.8355115700035,15.316670759627282]}},{"type":"Feature","properties":{"name_en":"Solonhay","did":1602,"pid":16,"uuid":"1.60206e+06"},"geometry":{"type":"Point","coordinates":[105.81400227032037,15.299204629886734]}},{"type":"Feature","properties":{"name_en":"Solonoy","did":1602,"pid":16,"uuid":"1.602061e+06"},"geometry":{"type":"Point","coordinates":[105.81530356008972,15.284338740034734]}},{"type":"Feature","properties":{"name_en":"Champhi","did":1602,"pid":16,"uuid":"1.602062e+06"},"geometry":{"type":"Point","coordinates":[105.81746641985265,15.266669690409818]}},{"type":"Feature","properties":{"name_en":"Phouthongloom","did":1602,"pid":16,"uuid":"1.602063e+06"},"geometry":{"type":"Point","coordinates":[105.80834799987912,15.246759149977935]}},{"type":"Feature","properties":{"name_en":"Dueanuea","did":1602,"pid":16,"uuid":"1.602065e+06"},"geometry":{"type":"Point","coordinates":[105.79643204036412,15.247733210060323]}},{"type":"Feature","properties":{"name_en":"Nalong","did":1602,"pid":16,"uuid":"1.602067e+06"},"geometry":{"type":"Point","coordinates":[105.75210492973663,15.25822206967626]}},{"type":"Feature","properties":{"name_en":"Nhoua","did":1602,"pid":16,"uuid":"1.602069e+06"},"geometry":{"type":"Point","coordinates":[105.79045063026133,15.209954050355064]}},{"type":"Feature","properties":{"name_en":"Nasone","did":1602,"pid":16,"uuid":"1.60207e+06"},"geometry":{"type":"Point","coordinates":[105.75073264969353,15.233813969744826]}},{"type":"Feature","properties":{"name_en":"Phaksone","did":1602,"pid":16,"uuid":"1.602072e+06"},"geometry":{"type":"Point","coordinates":[105.77767468031043,15.190267049675423]}},{"type":"Feature","properties":{"name_en":"Nhongkang","did":1602,"pid":16,"uuid":"1.602075e+06"},"geometry":{"type":"Point","coordinates":[105.70382802026786,15.200938299627031]}},{"type":"Feature","properties":{"name_en":"Saphaikang","did":1602,"pid":16,"uuid":"1.602079e+06"},"geometry":{"type":"Point","coordinates":[105.71807516040134,15.192445169887472]}},{"type":"Feature","properties":{"name_en":"Thangbangvilay","did":1602,"pid":16,"uuid":"1.602081e+06"},"geometry":{"type":"Point","coordinates":[105.73349543044533,15.21837324997502]}},{"type":"Feature","properties":{"name_en":"Doneko","did":1602,"pid":16,"uuid":"1.602082e+06"},"geometry":{"type":"Point","coordinates":[105.70687667968491,15.191672360156883]}},{"type":"Feature","properties":{"name_en":"Nakouang","did":1602,"pid":16,"uuid":"1.602083e+06"},"geometry":{"type":"Point","coordinates":[105.72229142024189,15.188429740247287]}},{"type":"Feature","properties":{"name_en":"Nonghoy","did":1602,"pid":16,"uuid":"1.602085e+06"},"geometry":{"type":"Point","coordinates":[105.72806144045292,15.168076210046323]}}]}