{"type":"FeatureCollection","features":[{"type":"Feature","properties":{"name_en":"Namchid","did":1603,"pid":16,"uuid":"1.603002e+06"},"geometry":{"type":"Point","coordinates":[106.0599593299524,15.464289070365618]}},{"type":"Feature","properties":{"name_en":"Nongkoung","did":1603,"pid":16,"uuid":"1.603005e+06"},"geometry":{"type":"Point","coordinates":[106.08448250973234,15.45375318018283]}},{"type":"Feature","properties":{"name_en":"Nongboua","did":1603,"pid":16,"uuid":"1.603006e+06"},"geometry":{"type":"Point","coordinates":[106.10609399035935,15.434915780426364]}},{"type":"Feature","properties":{"name_en":"Kangnhay","did":1603,"pid":16,"uuid":"1.603008e+06"},"geometry":{"type":"Point","coordinates":[106.08760678025972,15.406333069614355]}},{"type":"Feature","properties":{"name_en":"Meuag","did":1603,"pid":16,"uuid":"1.603009e+06"},"geometry":{"type":"Point","coordinates":[106.09310783000203,15.38277580965123]}},{"type":"Feature","properties":{"name_en":"Nonoudom","did":1603,"pid":16,"uuid":"1.603011e+06"},"geometry":{"type":"Point","coordinates":[106.07563004957505,15.398922290401012]}},{"type":"Feature","properties":{"name_en":"Ckanlainay","did":1603,"pid":16,"uuid":"1.603013e+06"},"geometry":{"type":"Point","coordinates":[106.0602987898012,15.410396109913933]}},{"type":"Feature","properties":{"name_en":"Lathbok","did":1603,"pid":16,"uuid":"1.603015e+06"},"geometry":{"type":"Point","coordinates":[106.0371921497348,15.365015649874994]}},{"type":"Feature","properties":{"name_en":"Kouangsi","did":1603,"pid":16,"uuid":"1.603018e+06"},"geometry":{"type":"Point","coordinates":[106.01374600039193,15.401440999827178]}},{"type":"Feature","properties":{"name_en":"Phonthong","did":1603,"pid":16,"uuid":"1.603019e+06"},"geometry":{"type":"Point","coordinates":[106.00111899958529,15.415276999651242]}},{"type":"Feature","properties":{"name_en":"Kangnhao","did":1603,"pid":16,"uuid":"1.60302e+06"},"geometry":{"type":"Point","coordinates":[105.98201943956005,15.335367270288506]}},{"type":"Feature","properties":{"name_en":"Nongboknhay","did":1603,"pid":16,"uuid":"1.603021e+06"},"geometry":{"type":"Point","coordinates":[105.96334581992431,15.331103809859163]}},{"type":"Feature","properties":{"name_en":"Songckone","did":1603,"pid":16,"uuid":"1.603022e+06"},"geometry":{"type":"Point","coordinates":[105.90820187031427,15.33590345962333]}},{"type":"Feature","properties":{"name_en":"Thongthing","did":1603,"pid":16,"uuid":"1.603023e+06"},"geometry":{"type":"Point","coordinates":[105.87600831983605,15.342563630339315]}},{"type":"Feature","properties":{"name_en":"Makngeo","did":1603,"pid":16,"uuid":"1.603027e+06"},"geometry":{"type":"Point","coordinates":[105.94349999959553,15.274873000385593]}},{"type":"Feature","properties":{"name_en":"Kangtin","did":1603,"pid":16,"uuid":"1.603028e+06"},"geometry":{"type":"Point","coordinates":[105.92102274017441,15.286061310355253]}},{"type":"Feature","properties":{"name_en":"Nongkang","did":1603,"pid":16,"uuid":"1.603029e+06"},"geometry":{"type":"Point","coordinates":[105.88164867005341,15.297245699649439]}},{"type":"Feature","properties":{"name_en":"Nonghouakouamay","did":1603,"pid":16,"uuid":"1.603031e+06"},"geometry":{"type":"Point","coordinates":[105.90424494028574,15.268031329630663]}},{"type":"Feature","properties":{"name_en":"Nongkok","did":1603,"pid":16,"uuid":"1.603034e+06"},"geometry":{"type":"Point","coordinates":[105.93029908005215,15.254756660140842]}},{"type":"Feature","properties":{"name_en":"Nongsay","did":1603,"pid":16,"uuid":"1.603037e+06"},"geometry":{"type":"Point","coordinates":[105.88208997992112,15.242829969901763]}},{"type":"Feature","properties":{"name_en":"Nosone","did":1603,"pid":16,"uuid":"1.603038e+06"},"geometry":{"type":"Point","coordinates":[105.86270892005378,15.256424739656966]}},{"type":"Feature","properties":{"name_en":"Phouthong","did":1603,"pid":16,"uuid":"1.603039e+06"},"geometry":{"type":"Point","coordinates":[105.84628994959947,15.268249930130267]}},{"type":"Feature","properties":{"name_en":"Nakae","did":1603,"pid":16,"uuid":"1.60304e+06"},"geometry":{"type":"Point","coordinates":[105.83026551007754,15.286188959575627]}},{"type":"Feature","properties":{"name_en":"Phalai","did":1603,"pid":16,"uuid":"1.603041e+06"},"geometry":{"type":"Point","coordinates":[105.85173994034665,15.23119999014938]}},{"type":"Feature","properties":{"name_en":"Nonxay","did":1603,"pid":16,"uuid":"1.603042e+06"},"geometry":{"type":"Point","coordinates":[105.89782992995629,15.2337699699304]}},{"type":"Feature","properties":{"name_en":"Thee10","did":1603,"pid":16,"uuid":"1.603043e+06"},"geometry":{"type":"Point","coordinates":[105.90128997976615,15.215149989914629]}},{"type":"Feature","properties":{"name_en":"Teehok(kang)","did":1603,"pid":16,"uuid":"1.603047e+06"},"geometry":{"type":"Point","coordinates":[105.8972499899194,15.192379959574703]}},{"type":"Feature","properties":{"name_en":"Tee 1 phaksong","did":1603,"pid":16,"uuid":"1.603048e+06"},"geometry":{"type":"Point","coordinates":[105.89210995023672,15.167959959963111]}},{"type":"Feature","properties":{"name_en":"Thongoudom","did":1603,"pid":16,"uuid":"1.603051e+06"},"geometry":{"type":"Point","coordinates":[105.87162995025915,15.181169919711289]}},{"type":"Feature","properties":{"name_en":"Huoaipheun","did":1603,"pid":16,"uuid":"1.603053e+06"},"geometry":{"type":"Point","coordinates":[105.93263998014659,15.21829999032808]}},{"type":"Feature","properties":{"name_en":"Oudomsook","did":1603,"pid":16,"uuid":"1.603057e+06"},"geometry":{"type":"Point","coordinates":[105.95037993963061,15.207449949985696]}},{"type":"Feature","properties":{"name_en":"Donglai","did":1603,"pid":16,"uuid":"1.603059e+06"},"geometry":{"type":"Point","coordinates":[105.953752999907,15.195248000181556]}},{"type":"Feature","properties":{"name_en":"Phinthong","did":1603,"pid":16,"uuid":"1.603062e+06"},"geometry":{"type":"Point","coordinates":[105.96658894963947,15.174921039877573]}},{"type":"Feature","properties":{"name_en":"Huoaihae 21","did":1603,"pid":16,"uuid":"1.603063e+06"},"geometry":{"type":"Point","coordinates":[105.97618747983995,15.166368650132615]}},{"type":"Feature","properties":{"name_en":"Luck 23","did":1603,"pid":16,"uuid":"1.603065e+06"},"geometry":{"type":"Point","coordinates":[105.99968808042647,15.173496620123514]}},{"type":"Feature","properties":{"name_en":"Tatkid 25","did":1603,"pid":16,"uuid":"1.603066e+06"},"geometry":{"type":"Point","coordinates":[106.01627510981507,15.169762479650108]}},{"type":"Feature","properties":{"name_en":"Houaitun","did":1603,"pid":16,"uuid":"1.603068e+06"},"geometry":{"type":"Point","coordinates":[105.95793698006088,15.161007669816872]}},{"type":"Feature","properties":{"name_en":"Sisiengmay","did":1603,"pid":16,"uuid":"1.603071e+06"},"geometry":{"type":"Point","coordinates":[105.93117683040848,15.151049379861504]}},{"type":"Feature","properties":{"name_en":"Phonhsay","did":1603,"pid":16,"uuid":"1.603076e+06"},"geometry":{"type":"Point","coordinates":[105.91625620981452,15.14142293018527]}},{"type":"Feature","properties":{"name_en":"Muenlouang","did":1603,"pid":16,"uuid":"1.603079e+06"},"geometry":{"type":"Point","coordinates":[105.9064416697847,15.131113529968399]}},{"type":"Feature","properties":{"name_en":"Namkaonhay","did":1603,"pid":16,"uuid":"1.603081e+06"},"geometry":{"type":"Point","coordinates":[105.89774677955653,15.119752950275014]}},{"type":"Feature","properties":{"name_en":"Houachae","did":1603,"pid":16,"uuid":"1.603086e+06"},"geometry":{"type":"Point","coordinates":[105.87374671020999,15.11275926017918]}},{"type":"Feature","properties":{"name_en":"Lomsucknuea","did":1603,"pid":16,"uuid":"1.603088e+06"},"geometry":{"type":"Point","coordinates":[105.88969202971748,15.083427619924189]}},{"type":"Feature","properties":{"name_en":"Huoailuesi","did":1603,"pid":16,"uuid":"1.603089e+06"},"geometry":{"type":"Point","coordinates":[105.89304588019532,15.073478309656421]}},{"type":"Feature","properties":{"name_en":"Lomsucktay","did":1603,"pid":16,"uuid":"1.603093e+06"},"geometry":{"type":"Point","coordinates":[105.89897700015949,15.064826170110457]}},{"type":"Feature","properties":{"name_en":"Pakhouaiduean","did":1603,"pid":16,"uuid":"1.603094e+06"},"geometry":{"type":"Point","coordinates":[105.87041357018984,15.060634969630286]}},{"type":"Feature","properties":{"name_en":"Xaysavang","did":1603,"pid":16,"uuid":"1.603095e+06"},"geometry":{"type":"Point","coordinates":[105.88465600041481,15.135119000299051]}}]}