{"type":"FeatureCollection","features":[{"type":"Feature","properties":{"name_en":"Vatlouang","did":1604,"pid":16,"uuid":"1.604001e+06"},"geometry":{"type":"Point","coordinates":[106.23220039994031,15.182184299835589]}},{"type":"Feature","properties":{"name_en":"Phaksong","did":1604,"pid":16,"uuid":"1.604004e+06"},"geometry":{"type":"Point","coordinates":[106.2216241097365,15.179805179758846]}},{"type":"Feature","properties":{"name_en":"Phouoeui","did":1604,"pid":16,"uuid":"1.604006e+06"},"geometry":{"type":"Point","coordinates":[106.24923846029512,15.151027759962352]}},{"type":"Feature","properties":{"name_en":"PhouMakkor","did":1604,"pid":16,"uuid":"1.604008e+06"},"geometry":{"type":"Point","coordinates":[106.22494695006571,15.110699150115533]}},{"type":"Feature","properties":{"name_en":"NongLOung","did":1604,"pid":16,"uuid":"1.604009e+06"},"geometry":{"type":"Point","coordinates":[106.2123996603374,15.096142130212337]}},{"type":"Feature","properties":{"name_en":"Nonglae","did":1604,"pid":16,"uuid":"1.60401e+06"},"geometry":{"type":"Point","coordinates":[106.2411213399423,15.217623320101842]}},{"type":"Feature","properties":{"name_en":"Nongkali","did":1604,"pid":16,"uuid":"1.604012e+06"},"geometry":{"type":"Point","coordinates":[106.24218684961943,15.240908000431428]}},{"type":"Feature","properties":{"name_en":"Phoudindaeng","did":1604,"pid":16,"uuid":"1.604013e+06"},"geometry":{"type":"Point","coordinates":[106.20014171011633,15.22954113017519]}},{"type":"Feature","properties":{"name_en":"Luck 48","did":1604,"pid":16,"uuid":"1.604014e+06"},"geometry":{"type":"Point","coordinates":[106.20849033989427,15.18768299038952]}},{"type":"Feature","properties":{"name_en":"Banglieng","did":1604,"pid":16,"uuid":"1.604015e+06"},"geometry":{"type":"Point","coordinates":[106.23754024957185,15.17652341030704]}},{"type":"Feature","properties":{"name_en":"Lark 28","did":1604,"pid":16,"uuid":"1.604016e+06"},"geometry":{"type":"Point","coordinates":[106.04253125042133,15.16918136960092]}},{"type":"Feature","properties":{"name_en":"Luck 30","did":1604,"pid":16,"uuid":"1.604017e+06"},"geometry":{"type":"Point","coordinates":[106.05742237968555,15.169430059846746]}},{"type":"Feature","properties":{"name_en":"Luck 33","did":1604,"pid":16,"uuid":"1.604018e+06"},"geometry":{"type":"Point","coordinates":[106.08018711966655,15.177055659859823]}},{"type":"Feature","properties":{"name_en":"Luck 35","did":1604,"pid":16,"uuid":"1.604019e+06"},"geometry":{"type":"Point","coordinates":[106.09949156972101,15.18587291979639]}},{"type":"Feature","properties":{"name_en":"Luck 36","did":1604,"pid":16,"uuid":"1.60402e+06"},"geometry":{"type":"Point","coordinates":[106.11572127997805,15.18883684959144]}},{"type":"Feature","properties":{"name_en":"Luck 38","did":1604,"pid":16,"uuid":"1.604021e+06"},"geometry":{"type":"Point","coordinates":[106.12710658005199,15.190479359983176]}},{"type":"Feature","properties":{"name_en":"Luck 40","did":1604,"pid":16,"uuid":"1.604022e+06"},"geometry":{"type":"Point","coordinates":[106.14348164031212,15.19057517026595]}},{"type":"Feature","properties":{"name_en":"Luck 43","did":1604,"pid":16,"uuid":"1.604024e+06"},"geometry":{"type":"Point","coordinates":[106.17158959961625,15.189247059957589]}},{"type":"Feature","properties":{"name_en":"Luck 45","did":1604,"pid":16,"uuid":"1.604025e+06"},"geometry":{"type":"Point","coordinates":[106.18718094021632,15.192622870293885]}},{"type":"Feature","properties":{"name_en":"Huoaichieng","did":1604,"pid":16,"uuid":"1.604026e+06"},"geometry":{"type":"Point","coordinates":[106.10294104999929,15.204511510017696]}},{"type":"Feature","properties":{"name_en":"Kaudnoy","did":1604,"pid":16,"uuid":"1.604027e+06"},"geometry":{"type":"Point","coordinates":[106.13914216034645,15.234005750231999]}},{"type":"Feature","properties":{"name_en":"Phoulangkeo","did":1604,"pid":16,"uuid":"1.604028e+06"},"geometry":{"type":"Point","coordinates":[106.22205283988167,15.262917110393907]}},{"type":"Feature","properties":{"name_en":"Houaisun","did":1604,"pid":16,"uuid":"1.604029e+06"},"geometry":{"type":"Point","coordinates":[106.23785825998729,15.254918600337763]}},{"type":"Feature","properties":{"name_en":"Saytaphoung","did":1604,"pid":16,"uuid":"1.60403e+06"},"geometry":{"type":"Point","coordinates":[106.23962616977886,15.263908100132003]}},{"type":"Feature","properties":{"name_en":"nongyatheuag","did":1604,"pid":16,"uuid":"1.604031e+06"},"geometry":{"type":"Point","coordinates":[106.23369589028275,15.29516295991451]}},{"type":"Feature","properties":{"name_en":"Nongyaloom","did":1604,"pid":16,"uuid":"1.604032e+06"},"geometry":{"type":"Point","coordinates":[106.22731483957293,15.32089665994073]}},{"type":"Feature","properties":{"name_en":"Phoudamckouan","did":1604,"pid":16,"uuid":"1.604033e+06"},"geometry":{"type":"Point","coordinates":[106.2273228000904,15.320892979746858]}},{"type":"Feature","properties":{"name_en":"Phoumone","did":1604,"pid":16,"uuid":"1.604034e+06"},"geometry":{"type":"Point","coordinates":[106.27591612994327,15.344313610382049]}},{"type":"Feature","properties":{"name_en":"Dansavang","did":1604,"pid":16,"uuid":"1.604035e+06"},"geometry":{"type":"Point","coordinates":[106.27909336967302,15.354863820361603]}},{"type":"Feature","properties":{"name_en":"Nongsamphanh","did":1604,"pid":16,"uuid":"1.604036e+06"},"geometry":{"type":"Point","coordinates":[106.27576123009325,15.32857801035981]}},{"type":"Feature","properties":{"name_en":"Huoaivai","did":1604,"pid":16,"uuid":"1.604037e+06"},"geometry":{"type":"Point","coordinates":[106.27354597998792,15.317659829548814]}},{"type":"Feature","properties":{"name_en":"Setkod","did":1604,"pid":16,"uuid":"1.604038e+06"},"geometry":{"type":"Point","coordinates":[106.30873202977297,15.338161369721371]}},{"type":"Feature","properties":{"name_en":"Huoaihinkao","did":1604,"pid":16,"uuid":"1.604039e+06"},"geometry":{"type":"Point","coordinates":[106.30936746037966,15.321353649794151]}},{"type":"Feature","properties":{"name_en":"Kaphi","did":1604,"pid":16,"uuid":"1.60404e+06"},"geometry":{"type":"Point","coordinates":[106.20160778977161,15.281600630046809]}},{"type":"Feature","properties":{"name_en":"Phuckkoognoy","did":1604,"pid":16,"uuid":"1.604041e+06"},"geometry":{"type":"Point","coordinates":[106.15782501796838,15.269336383386625]}},{"type":"Feature","properties":{"name_en":"Phoudindang","did":1604,"pid":16,"uuid":"1.604042e+06"},"geometry":{"type":"Point","coordinates":[106.12414492002588,15.310324649892122]}},{"type":"Feature","properties":{"name_en":"Maixaysomboun","did":1604,"pid":16,"uuid":"1.604043e+06"},"geometry":{"type":"Point","coordinates":[106.1240838201749,15.310363880204983]}},{"type":"Feature","properties":{"name_en":"Nongka","did":1604,"pid":16,"uuid":"1.604044e+06"},"geometry":{"type":"Point","coordinates":[106.10078229961518,15.29371927007013]}},{"type":"Feature","properties":{"name_en":"Nongbone","did":1604,"pid":16,"uuid":"1.604045e+06"},"geometry":{"type":"Point","coordinates":[106.08763620041024,15.272858639940845]}},{"type":"Feature","properties":{"name_en":"Huoaitao","did":1604,"pid":16,"uuid":"1.604046e+06"},"geometry":{"type":"Point","coordinates":[106.06284026983958,15.270164359717619]}},{"type":"Feature","properties":{"name_en":"Kodnhay","did":1604,"pid":16,"uuid":"1.604047e+06"},"geometry":{"type":"Point","coordinates":[106.0717214004113,15.22557816001894]}},{"type":"Feature","properties":{"name_en":"Somsanook","did":1604,"pid":16,"uuid":"1.604048e+06"},"geometry":{"type":"Point","coordinates":[106.10824109954604,15.242511370383848]}},{"type":"Feature","properties":{"name_en":"Huoaiset","did":1604,"pid":16,"uuid":"1.60405e+06"},"geometry":{"type":"Point","coordinates":[106.30225800022345,15.211544999655311]}},{"type":"Feature","properties":{"name_en":"Katouad","did":1604,"pid":16,"uuid":"1.604051e+06"},"geometry":{"type":"Point","coordinates":[106.3103464702166,15.239144270042145]}},{"type":"Feature","properties":{"name_en":"Kongtoon","did":1604,"pid":16,"uuid":"1.604053e+06"},"geometry":{"type":"Point","coordinates":[106.3287342698382,15.27622027955601]}},{"type":"Feature","properties":{"name_en":"Nongsoung","did":1604,"pid":16,"uuid":"1.604054e+06"},"geometry":{"type":"Point","coordinates":[106.34870357025287,15.353933850376901]}},{"type":"Feature","properties":{"name_en":"Lichueang","did":1604,"pid":16,"uuid":"1.604055e+06"},"geometry":{"type":"Point","coordinates":[106.3357199203605,15.330626039696082]}},{"type":"Feature","properties":{"name_en":"Thonngkatai","did":1604,"pid":16,"uuid":"1.604059e+06"},"geometry":{"type":"Point","coordinates":[106.27242983967358,15.132708939575261]}},{"type":"Feature","properties":{"name_en":"Huoaiteui","did":1604,"pid":16,"uuid":"1.604061e+06"},"geometry":{"type":"Point","coordinates":[106.29722821018157,15.070029069718856]}},{"type":"Feature","properties":{"name_en":"Hinlub","did":1604,"pid":16,"uuid":"1.604062e+06"},"geometry":{"type":"Point","coordinates":[106.33782084004567,15.043026600354635]}},{"type":"Feature","properties":{"name_en":"Huoaisoy","did":1604,"pid":16,"uuid":"1.604063e+06"},"geometry":{"type":"Point","coordinates":[106.3253862896058,15.031328229762304]}},{"type":"Feature","properties":{"name_en":"Sayphian","did":1604,"pid":16,"uuid":"1.604065e+06"},"geometry":{"type":"Point","coordinates":[106.29929425953553,15.11205400014601]}},{"type":"Feature","properties":{"name_en":"Houasang","did":1604,"pid":16,"uuid":"1.604066e+06"},"geometry":{"type":"Point","coordinates":[106.38308839987646,15.082052240331814]}},{"type":"Feature","properties":{"name_en":"Phanouandong","did":1604,"pid":16,"uuid":"1.604067e+06"},"geometry":{"type":"Point","coordinates":[106.38394637024574,15.057289079720896]}},{"type":"Feature","properties":{"name_en":"Phakphong","did":1604,"pid":16,"uuid":"1.604068e+06"},"geometry":{"type":"Point","coordinates":[106.33440823029692,15.089461590158631]}},{"type":"Feature","properties":{"name_en":"Nonchanh","did":1604,"pid":16,"uuid":"1.604069e+06"},"geometry":{"type":"Point","coordinates":[106.32158207985151,15.178093509819556]}},{"type":"Feature","properties":{"name_en":"Thongkalong","did":1604,"pid":16,"uuid":"1.60407e+06"},"geometry":{"type":"Point","coordinates":[106.42033816017201,15.217862540027058]}},{"type":"Feature","properties":{"name_en":"Luck 11","did":1604,"pid":16,"uuid":"1.604071e+06"},"geometry":{"type":"Point","coordinates":[106.33742262000818,15.182657120262876]}},{"type":"Feature","properties":{"name_en":"Luck 12","did":1604,"pid":16,"uuid":"1.604072e+06"},"geometry":{"type":"Point","coordinates":[106.35713828019803,15.186645229819925]}},{"type":"Feature","properties":{"name_en":"Nongkuang","did":1604,"pid":16,"uuid":"1.604073e+06"},"geometry":{"type":"Point","coordinates":[106.4343780996932,15.16412539979695]}},{"type":"Feature","properties":{"name_en":"Namphod","did":1604,"pid":16,"uuid":"1.604074e+06"},"geometry":{"type":"Point","coordinates":[106.4527271797071,15.16097490022306]}},{"type":"Feature","properties":{"name_en":"Luck 15","did":1604,"pid":16,"uuid":"1.604075e+06"},"geometry":{"type":"Point","coordinates":[106.38469202022507,15.183231699621059]}},{"type":"Feature","properties":{"name_en":"Chanhsavang","did":1604,"pid":16,"uuid":"1.604076e+06"},"geometry":{"type":"Point","coordinates":[106.3965596299985,15.178767080345004]}},{"type":"Feature","properties":{"name_en":"Nongkueangnoy","did":1604,"pid":16,"uuid":"1.604077e+06"},"geometry":{"type":"Point","coordinates":[106.41036881000554,15.207283239902248]}},{"type":"Feature","properties":{"name_en":"Nongkin","did":1604,"pid":16,"uuid":"1.604078e+06"},"geometry":{"type":"Point","coordinates":[106.46267909981681,15.147940279781322]}},{"type":"Feature","properties":{"name_en":"Huoaisath","did":1604,"pid":16,"uuid":"1.604079e+06"},"geometry":{"type":"Point","coordinates":[106.32499619030798,15.174336320223235]}},{"type":"Feature","properties":{"name_en":"Nongmek","did":1604,"pid":16,"uuid":"1.60408e+06"},"geometry":{"type":"Point","coordinates":[106.54342330954334,15.165769849647337]}},{"type":"Feature","properties":{"name_en":"NamHoung","did":1604,"pid":16,"uuid":"1.604081e+06"},"geometry":{"type":"Point","coordinates":[106.55491875014609,15.165646800402316]}},{"type":"Feature","properties":{"name_en":"Nonghin","did":1604,"pid":16,"uuid":"1.604082e+06"},"geometry":{"type":"Point","coordinates":[106.55149785006523,15.161500360287606]}},{"type":"Feature","properties":{"name_en":"Nongtheuan","did":1604,"pid":16,"uuid":"1.604083e+06"},"geometry":{"type":"Point","coordinates":[106.56250362045138,15.14569443979952]}},{"type":"Feature","properties":{"name_en":"Nongtouang","did":1604,"pid":16,"uuid":"1.604084e+06"},"geometry":{"type":"Point","coordinates":[106.53692000024748,15.145286999549288]}},{"type":"Feature","properties":{"name_en":"Namtuad","did":1604,"pid":16,"uuid":"1.604085e+06"},"geometry":{"type":"Point","coordinates":[106.59729731955956,15.10869478994111]}},{"type":"Feature","properties":{"name_en":"Huoaivai","did":1604,"pid":16,"uuid":"1.604086e+06"},"geometry":{"type":"Point","coordinates":[106.51433072980255,15.195456040083826]}},{"type":"Feature","properties":{"name_en":"Haythongvai","did":1604,"pid":16,"uuid":"1.604087e+06"},"geometry":{"type":"Point","coordinates":[106.5227473295666,15.208875039964045]}},{"type":"Feature","properties":{"name_en":"Huoaikong","did":1604,"pid":16,"uuid":"1.604088e+06"},"geometry":{"type":"Point","coordinates":[106.52145862005179,15.126648989811358]}},{"type":"Feature","properties":{"name_en":"Namtang","did":1604,"pid":16,"uuid":"1.604089e+06"},"geometry":{"type":"Point","coordinates":[106.52656127005216,15.134991419900343]}},{"type":"Feature","properties":{"name_en":"Nong e eua","did":1604,"pid":16,"uuid":"1.60409e+06"},"geometry":{"type":"Point","coordinates":[106.53325673045389,15.12022400978282]}},{"type":"Feature","properties":{"name_en":"oupasa","did":1604,"pid":16,"uuid":"1.604091e+06"},"geometry":{"type":"Point","coordinates":[106.53683772957201,15.10298888989107]}},{"type":"Feature","properties":{"name_en":"Taoeui","did":1604,"pid":16,"uuid":"1.604092e+06"},"geometry":{"type":"Point","coordinates":[106.52664961024806,15.1346128904084]}},{"type":"Feature","properties":{"name_en":"Tayikseua","did":1604,"pid":16,"uuid":"1.604093e+06"},"geometry":{"type":"Point","coordinates":[106.58173296972994,15.09270437979887]}},{"type":"Feature","properties":{"name_en":"Lasasin","did":1604,"pid":16,"uuid":"1.604094e+06"},"geometry":{"type":"Point","coordinates":[106.52252949027893,15.150213199794909]}},{"type":"Feature","properties":{"name_en":"Namkong","did":1604,"pid":16,"uuid":"1.604096e+06"},"geometry":{"type":"Point","coordinates":[106.49519971024237,15.199250609942856]}},{"type":"Feature","properties":{"name_en":"Huoaichord","did":1604,"pid":16,"uuid":"1.604098e+06"},"geometry":{"type":"Point","coordinates":[106.52873393984636,15.030593720212208]}},{"type":"Feature","properties":{"name_en":"HuoaisoyNongphand","did":1604,"pid":16,"uuid":"1.604102e+06"},"geometry":{"type":"Point","coordinates":[106.48421655985484,15.195509849626221]}},{"type":"Feature","properties":{"name_en":"Saynamnoy","did":1604,"pid":16,"uuid":"1.604103e+06"},"geometry":{"type":"Point","coordinates":[106.51413492971533,15.16103364958275]}},{"type":"Feature","properties":{"name_en":"Nongphamouan","did":1604,"pid":16,"uuid":"1.604105e+06"},"geometry":{"type":"Point","coordinates":[106.52942385974092,15.043555670248264]}},{"type":"Feature","properties":{"name_en":"Nonsoung","did":1604,"pid":16,"uuid":"1.604106e+06"},"geometry":{"type":"Point","coordinates":[106.16880160968516,15.236828609966127]}},{"type":"Feature","properties":{"name_en":"Souansavang","did":1604,"pid":16,"uuid":"1.604108e+06"},"geometry":{"type":"Point","coordinates":[106.37549891993729,15.077061489993307]}}]}