{"type":"FeatureCollection","features":[{"type":"Feature","properties":{"name_en":"Luck 19","did":1605,"pid":16,"uuid":"1.605001e+06"},"geometry":{"type":"Point","coordinates":[105.90482739994883,15.028329769878287]}},{"type":"Feature","properties":{"name_en":"Luck 16","did":1605,"pid":16,"uuid":"1.605003e+06"},"geometry":{"type":"Point","coordinates":[105.90413898969992,15.052588679850555]}},{"type":"Feature","properties":{"name_en":"Vern","did":1605,"pid":16,"uuid":"1.605005e+06"},"geometry":{"type":"Point","coordinates":[105.87076619013273,15.029212050333468]}},{"type":"Feature","properties":{"name_en":"Phuckpheo","did":1605,"pid":16,"uuid":"1.605006e+06"},"geometry":{"type":"Point","coordinates":[105.880889270076,15.010373219929598]}},{"type":"Feature","properties":{"name_en":"Morphou","did":1605,"pid":16,"uuid":"1.605009e+06"},"geometry":{"type":"Point","coordinates":[105.90030384997377,14.986794590099814]}},{"type":"Feature","properties":{"name_en":"Bangliengnay","did":1605,"pid":16,"uuid":"1.60501e+06"},"geometry":{"type":"Point","coordinates":[105.91199743963014,14.980874290077104]}},{"type":"Feature","properties":{"name_en":"Mouang","did":1605,"pid":16,"uuid":"1.605011e+06"},"geometry":{"type":"Point","coordinates":[105.90142233037605,14.917567529829434]}},{"type":"Feature","properties":{"name_en":"Namsayrha","did":1605,"pid":16,"uuid":"1.605012e+06"},"geometry":{"type":"Point","coordinates":[105.90634074978698,14.94851879960944]}},{"type":"Feature","properties":{"name_en":"Pkakhouailieng","did":1605,"pid":16,"uuid":"1.605013e+06"},"geometry":{"type":"Point","coordinates":[105.90416816019281,14.960506430198727]}},{"type":"Feature","properties":{"name_en":"Namphgak","did":1605,"pid":16,"uuid":"1.605015e+06"},"geometry":{"type":"Point","coordinates":[105.94491301015778,15.002454999603575]}},{"type":"Feature","properties":{"name_en":"Luck29","did":1605,"pid":16,"uuid":"1.605016e+06"},"geometry":{"type":"Point","coordinates":[105.93786315969713,14.9414897304312]}},{"type":"Feature","properties":{"name_en":"Namsaytheuag","did":1605,"pid":16,"uuid":"1.605018e+06"},"geometry":{"type":"Point","coordinates":[105.94287462025802,14.932106359590392]}},{"type":"Feature","properties":{"name_en":"Luck 30","did":1605,"pid":16,"uuid":"1.605019e+06"},"geometry":{"type":"Point","coordinates":[105.93703267961754,14.928892319939411]}},{"type":"Feature","properties":{"name_en":"Luck 34","did":1605,"pid":16,"uuid":"1.605021e+06"},"geometry":{"type":"Point","coordinates":[105.93342712032182,14.898420750157419]}},{"type":"Feature","properties":{"name_en":"Phaosamphanlak","did":1605,"pid":16,"uuid":"1.605022e+06"},"geometry":{"type":"Point","coordinates":[105.93415618039073,14.876237460031822]}},{"type":"Feature","properties":{"name_en":"Houadondang","did":1605,"pid":16,"uuid":"1.605024e+06"},"geometry":{"type":"Point","coordinates":[105.89818398013392,14.899363710315626]}},{"type":"Feature","properties":{"name_en":"Simoungckoon","did":1605,"pid":16,"uuid":"1.605026e+06"},"geometry":{"type":"Point","coordinates":[105.89134258993658,14.867740469559282]}},{"type":"Feature","properties":{"name_en":"Boungckam","did":1605,"pid":16,"uuid":"1.605028e+06"},"geometry":{"type":"Point","coordinates":[105.89029484956556,14.851381589971945]}},{"type":"Feature","properties":{"name_en":"Pheuidao","did":1605,"pid":16,"uuid":"1.60503e+06"},"geometry":{"type":"Point","coordinates":[105.91672140002916,14.862030719747754]}},{"type":"Feature","properties":{"name_en":"Sichantho","did":1605,"pid":16,"uuid":"1.605031e+06"},"geometry":{"type":"Point","coordinates":[105.91173744028619,14.891242070420413]}},{"type":"Feature","properties":{"name_en":"Luck 40","did":1605,"pid":16,"uuid":"1.605033e+06"},"geometry":{"type":"Point","coordinates":[105.94735457979297,14.842571119962683]}},{"type":"Feature","properties":{"name_en":"Konenoy","did":1605,"pid":16,"uuid":"1.605034e+06"},"geometry":{"type":"Point","coordinates":[105.91079053022547,14.836192999665721]}},{"type":"Feature","properties":{"name_en":"Phaktouay","did":1605,"pid":16,"uuid":"1.605035e+06"},"geometry":{"type":"Point","coordinates":[105.92120413040378,14.854287849930413]}},{"type":"Feature","properties":{"name_en":"Nackam","did":1605,"pid":16,"uuid":"1.605037e+06"},"geometry":{"type":"Point","coordinates":[105.98038077967246,14.823418810330919]}},{"type":"Feature","properties":{"name_en":"Nalan","did":1605,"pid":16,"uuid":"1.605038e+06"},"geometry":{"type":"Point","coordinates":[106.01002212993367,14.822038810375034]}},{"type":"Feature","properties":{"name_en":"Nongbeung","did":1605,"pid":16,"uuid":"1.605039e+06"},"geometry":{"type":"Point","coordinates":[105.96782460983279,14.842735910019293]}},{"type":"Feature","properties":{"name_en":"Nakork","did":1605,"pid":16,"uuid":"1.60504e+06"},"geometry":{"type":"Point","coordinates":[106.0083123895606,14.83652164990755]}},{"type":"Feature","properties":{"name_en":"Thangbeng","did":1605,"pid":16,"uuid":"1.605041e+06"},"geometry":{"type":"Point","coordinates":[105.97087670972384,14.785235129660226]}},{"type":"Feature","properties":{"name_en":"Nongkae","did":1605,"pid":16,"uuid":"1.605042e+06"},"geometry":{"type":"Point","coordinates":[105.94826601959961,14.792346760311391]}},{"type":"Feature","properties":{"name_en":"Phathoomphone","did":1605,"pid":16,"uuid":"1.605043e+06"},"geometry":{"type":"Point","coordinates":[105.93901978012018,14.794875500182277]}},{"type":"Feature","properties":{"name_en":"Tomotha","did":1605,"pid":16,"uuid":"1.605044e+06"},"geometry":{"type":"Point","coordinates":[105.92261127999392,14.805417580270097]}},{"type":"Feature","properties":{"name_en":"Thahou","did":1605,"pid":16,"uuid":"1.605045e+06"},"geometry":{"type":"Point","coordinates":[105.99174236959267,14.787159280404328]}},{"type":"Feature","properties":{"name_en":"Seng","did":1605,"pid":16,"uuid":"1.605046e+06"},"geometry":{"type":"Point","coordinates":[105.94149545991095,14.754118070332032]}},{"type":"Feature","properties":{"name_en":"Huoaiphay","did":1605,"pid":16,"uuid":"1.605049e+06"},"geometry":{"type":"Point","coordinates":[105.93136869003426,14.705334139829079]}},{"type":"Feature","properties":{"name_en":"Bounnhay","did":1605,"pid":16,"uuid":"1.60505e+06"},"geometry":{"type":"Point","coordinates":[105.87152625966988,14.629590570374837]}},{"type":"Feature","properties":{"name_en":"Phongphor","did":1605,"pid":16,"uuid":"1.605052e+06"},"geometry":{"type":"Point","coordinates":[105.86358986028861,14.594787820015712]}},{"type":"Feature","properties":{"name_en":"Thakouang","did":1605,"pid":16,"uuid":"1.605053e+06"},"geometry":{"type":"Point","coordinates":[105.86132105036715,14.563817939663023]}},{"type":"Feature","properties":{"name_en":"Phaao","did":1605,"pid":16,"uuid":"1.605054e+06"},"geometry":{"type":"Point","coordinates":[105.8689109398288,14.535047480102577]}},{"type":"Feature","properties":{"name_en":"Houaynhang","did":1605,"pid":16,"uuid":"1.605055e+06"},"geometry":{"type":"Point","coordinates":[105.87053593996177,14.510677179675662]}},{"type":"Feature","properties":{"name_en":"Nongbouanoy","did":1605,"pid":16,"uuid":"1.605056e+06"},"geometry":{"type":"Point","coordinates":[105.8761017797425,14.646416649557409]}},{"type":"Feature","properties":{"name_en":"Nongbouanhay","did":1605,"pid":16,"uuid":"1.605057e+06"},"geometry":{"type":"Point","coordinates":[105.88661042013982,14.673420629962179]}},{"type":"Feature","properties":{"name_en":"Houaimaesang","did":1605,"pid":16,"uuid":"1.605059e+06"},"geometry":{"type":"Point","coordinates":[105.90258314042192,14.64159537977599]}},{"type":"Feature","properties":{"name_en":"Sanod","did":1605,"pid":16,"uuid":"1.605061e+06"},"geometry":{"type":"Point","coordinates":[106.05829594021401,14.814512869686771]}},{"type":"Feature","properties":{"name_en":"Thobsork","did":1605,"pid":16,"uuid":"1.605062e+06"},"geometry":{"type":"Point","coordinates":[106.03836620013762,14.790532239678571]}},{"type":"Feature","properties":{"name_en":"Huoaiko","did":1605,"pid":16,"uuid":"1.605063e+06"},"geometry":{"type":"Point","coordinates":[106.03230651024643,14.802358690187283]}},{"type":"Feature","properties":{"name_en":"Kiadnhong","did":1605,"pid":16,"uuid":"1.605064e+06"},"geometry":{"type":"Point","coordinates":[106.03839017042121,14.770638890206042]}},{"type":"Feature","properties":{"name_en":"Phommalue","did":1605,"pid":16,"uuid":"1.605065e+06"},"geometry":{"type":"Point","coordinates":[106.07640127019845,14.79381627002706]}},{"type":"Feature","properties":{"name_en":"Nathong","did":1605,"pid":16,"uuid":"1.605066e+06"},"geometry":{"type":"Point","coordinates":[106.09086046999403,14.801654690093176]}},{"type":"Feature","properties":{"name_en":"Namorm","did":1605,"pid":16,"uuid":"1.605067e+06"},"geometry":{"type":"Point","coordinates":[106.08801598975201,14.845012100242183]}},{"type":"Feature","properties":{"name_en":"Thongpha","did":1605,"pid":16,"uuid":"1.605068e+06"},"geometry":{"type":"Point","coordinates":[106.05403592040516,14.851693820196054]}},{"type":"Feature","properties":{"name_en":"Nabone","did":1605,"pid":16,"uuid":"1.605069e+06"},"geometry":{"type":"Point","coordinates":[106.02155964982741,14.884837200120318]}},{"type":"Feature","properties":{"name_en":"Laonha","did":1605,"pid":16,"uuid":"1.60507e+06"},"geometry":{"type":"Point","coordinates":[106.08539479978342,14.878350450112194]}},{"type":"Feature","properties":{"name_en":"Somsook","did":1605,"pid":16,"uuid":"1.605071e+06"},"geometry":{"type":"Point","coordinates":[106.08307945967088,14.90753841985695]}},{"type":"Feature","properties":{"name_en":"Nong eik","did":1605,"pid":16,"uuid":"1.605072e+06"},"geometry":{"type":"Point","coordinates":[106.10575000013986,14.929989930241328]}},{"type":"Feature","properties":{"name_en":"Huoaitone","did":1605,"pid":16,"uuid":"1.605073e+06"},"geometry":{"type":"Point","coordinates":[106.17625018960044,14.883316890070647]}},{"type":"Feature","properties":{"name_en":"Saming","did":1605,"pid":16,"uuid":"1.605074e+06"},"geometry":{"type":"Point","coordinates":[106.11575556024657,14.801486219862293]}},{"type":"Feature","properties":{"name_en":"Kala","did":1605,"pid":16,"uuid":"1.605075e+06"},"geometry":{"type":"Point","coordinates":[106.15170244016716,14.80872064012658]}},{"type":"Feature","properties":{"name_en":"Thongxay","did":1605,"pid":16,"uuid":"1.605076e+06"},"geometry":{"type":"Point","coordinates":[106.12367587011666,14.782239360421755]}},{"type":"Feature","properties":{"name_en":"Kaelaenhay","did":1605,"pid":16,"uuid":"1.605077e+06"},"geometry":{"type":"Point","coordinates":[106.10506671040277,14.768822439736432]}},{"type":"Feature","properties":{"name_en":"Kangnaang","did":1605,"pid":16,"uuid":"1.605079e+06"},"geometry":{"type":"Point","coordinates":[106.16791732020582,14.768483980256518]}},{"type":"Feature","properties":{"name_en":"Konetood","did":1605,"pid":16,"uuid":"1.60508e+06"},"geometry":{"type":"Point","coordinates":[106.17546764963986,14.736914299625344]}},{"type":"Feature","properties":{"name_en":"Phapho","did":1605,"pid":16,"uuid":"1.605085e+06"},"geometry":{"type":"Point","coordinates":[106.08521676977192,14.73077036019499]}},{"type":"Feature","properties":{"name_en":"Phuckcka","did":1605,"pid":16,"uuid":"1.605086e+06"},"geometry":{"type":"Point","coordinates":[106.0829845795787,14.719590499988277]}},{"type":"Feature","properties":{"name_en":"Bingko","did":1605,"pid":16,"uuid":"1.605088e+06"},"geometry":{"type":"Point","coordinates":[106.1099547000333,14.729446020411906]}},{"type":"Feature","properties":{"name_en":"Phalaibok","did":1605,"pid":16,"uuid":"1.605089e+06"},"geometry":{"type":"Point","coordinates":[106.13749109028065,14.700299969787306]}},{"type":"Feature","properties":{"name_en":"Tavang","did":1605,"pid":16,"uuid":"1.605091e+06"},"geometry":{"type":"Point","coordinates":[106.15554914995887,14.654358840111865]}},{"type":"Feature","properties":{"name_en":"Nongphing","did":1605,"pid":16,"uuid":"1.605092e+06"},"geometry":{"type":"Point","coordinates":[106.12162976984436,14.657872530295014]}},{"type":"Feature","properties":{"name_en":"Taong","did":1605,"pid":16,"uuid":"1.605093e+06"},"geometry":{"type":"Point","coordinates":[106.13213295990792,14.633573309598528]}}]}