{"type":"FeatureCollection","features":[{"type":"Feature","properties":{"name_en":"Nonsavang","did":1606,"pid":16,"uuid":"1.606001e+06"},"geometry":{"type":"Point","coordinates":[105.75428455965009,15.106686229867245]}},{"type":"Feature","properties":{"name_en":"Houaydon","did":1606,"pid":16,"uuid":"1.606004e+06"},"geometry":{"type":"Point","coordinates":[105.76340750992252,15.117129080175483]}},{"type":"Feature","properties":{"name_en":"Donelai","did":1606,"pid":16,"uuid":"1.606005e+06"},"geometry":{"type":"Point","coordinates":[105.76725966017624,15.11011953988569]}},{"type":"Feature","properties":{"name_en":"Nongboua","did":1606,"pid":16,"uuid":"1.606006e+06"},"geometry":{"type":"Point","coordinates":[105.76588108983819,15.106760239910638]}},{"type":"Feature","properties":{"name_en":"Thalouang","did":1606,"pid":16,"uuid":"1.606007e+06"},"geometry":{"type":"Point","coordinates":[105.77303110984131,15.1049911599727]}},{"type":"Feature","properties":{"name_en":"Horphakeo","did":1606,"pid":16,"uuid":"1.606009e+06"},"geometry":{"type":"Point","coordinates":[105.77705199031035,15.104013080017182]}},{"type":"Feature","properties":{"name_en":"Phoxai","did":1606,"pid":16,"uuid":"1.60601e+06"},"geometry":{"type":"Point","coordinates":[105.78122039021518,15.102580780170795]}},{"type":"Feature","properties":{"name_en":"Houayphek","did":1606,"pid":16,"uuid":"1.606012e+06"},"geometry":{"type":"Point","coordinates":[105.78881497972611,15.10010937019379]}},{"type":"Feature","properties":{"name_en":"Khangneng","did":1606,"pid":16,"uuid":"1.606013e+06"},"geometry":{"type":"Point","coordinates":[105.79798596012,15.09756554965637]}},{"type":"Feature","properties":{"name_en":"Navar","did":1606,"pid":16,"uuid":"1.606014e+06"},"geometry":{"type":"Point","coordinates":[105.80011128033368,15.059309449800342]}},{"type":"Feature","properties":{"name_en":"Salao","did":1606,"pid":16,"uuid":"1.606016e+06"},"geometry":{"type":"Point","coordinates":[105.82247780007667,15.07314429031104]}},{"type":"Feature","properties":{"name_en":"Nonghoy","did":1606,"pid":16,"uuid":"1.606017e+06"},"geometry":{"type":"Point","coordinates":[105.8291031900328,15.05828217012993]}},{"type":"Feature","properties":{"name_en":"Kouai","did":1606,"pid":16,"uuid":"1.606018e+06"},"geometry":{"type":"Point","coordinates":[105.76670217978871,15.072342220416918]}},{"type":"Feature","properties":{"name_en":"Nongtaenoy","did":1606,"pid":16,"uuid":"1.606019e+06"},"geometry":{"type":"Point","coordinates":[105.75868857996957,15.059393439643296]}},{"type":"Feature","properties":{"name_en":"Phailorm","did":1606,"pid":16,"uuid":"1.60602e+06"},"geometry":{"type":"Point","coordinates":[105.76840747992941,15.039768810103038]}},{"type":"Feature","properties":{"name_en":"Phongnai","did":1606,"pid":16,"uuid":"1.606021e+06"},"geometry":{"type":"Point","coordinates":[105.73973256982111,15.048146269695595]}},{"type":"Feature","properties":{"name_en":"Nasavang","did":1606,"pid":16,"uuid":"1.606022e+06"},"geometry":{"type":"Point","coordinates":[105.72578147969281,15.030506380130372]}},{"type":"Feature","properties":{"name_en":"Nongmek","did":1606,"pid":16,"uuid":"1.606023e+06"},"geometry":{"type":"Point","coordinates":[105.72840988032307,15.05036838991379]}},{"type":"Feature","properties":{"name_en":"Nachan","did":1606,"pid":16,"uuid":"1.606025e+06"},"geometry":{"type":"Point","coordinates":[105.74306521991493,15.074423949969312]}},{"type":"Feature","properties":{"name_en":"Donexad","did":1606,"pid":16,"uuid":"1.606027e+06"},"geometry":{"type":"Point","coordinates":[105.73048171997577,15.083086979910325]}},{"type":"Feature","properties":{"name_en":"songkhone","did":1606,"pid":16,"uuid":"1.606029e+06"},"geometry":{"type":"Point","coordinates":[105.70517129974317,14.990849340255684]}},{"type":"Feature","properties":{"name_en":"Nonphachao","did":1606,"pid":16,"uuid":"1.606031e+06"},"geometry":{"type":"Point","coordinates":[105.6848258203745,14.975699879931941]}},{"type":"Feature","properties":{"name_en":"Nongphy","did":1606,"pid":16,"uuid":"1.606032e+06"},"geometry":{"type":"Point","coordinates":[105.70686586968233,15.033025059652898]}},{"type":"Feature","properties":{"name_en":"Kaenggnao","did":1606,"pid":16,"uuid":"1.606033e+06"},"geometry":{"type":"Point","coordinates":[105.76717995033752,14.99826715023488]}},{"type":"Feature","properties":{"name_en":"Bungkeo","did":1606,"pid":16,"uuid":"1.606034e+06"},"geometry":{"type":"Point","coordinates":[105.78347404002648,15.002039759947154]}},{"type":"Feature","properties":{"name_en":"Thagnai","did":1606,"pid":16,"uuid":"1.606035e+06"},"geometry":{"type":"Point","coordinates":[105.72205865978258,14.95789731026135]}},{"type":"Feature","properties":{"name_en":"Nonkung","did":1606,"pid":16,"uuid":"1.606037e+06"},"geometry":{"type":"Point","coordinates":[105.72296910033388,14.97753308956138]}},{"type":"Feature","properties":{"name_en":"Nonsaat","did":1606,"pid":16,"uuid":"1.606038e+06"},"geometry":{"type":"Point","coordinates":[105.71036598973484,14.976476299811845]}},{"type":"Feature","properties":{"name_en":"Angkham","did":1606,"pid":16,"uuid":"1.606039e+06"},"geometry":{"type":"Point","coordinates":[105.70021658959644,15.015548879642633]}},{"type":"Feature","properties":{"name_en":"Samorliap","did":1606,"pid":16,"uuid":"1.606041e+06"},"geometry":{"type":"Point","coordinates":[105.75812079002996,15.127150480076677]}},{"type":"Feature","properties":{"name_en":"Phaling","did":1606,"pid":16,"uuid":"1.606044e+06"},"geometry":{"type":"Point","coordinates":[105.7301648002667,15.137161910288714]}},{"type":"Feature","properties":{"name_en":"Donesabaeng","did":1606,"pid":16,"uuid":"1.606045e+06"},"geometry":{"type":"Point","coordinates":[105.71610298037312,15.119595620367297]}},{"type":"Feature","properties":{"name_en":"Nonhin","did":1606,"pid":16,"uuid":"1.606048e+06"},"geometry":{"type":"Point","coordinates":[105.71557541976213,15.100144069892247]}},{"type":"Feature","properties":{"name_en":"Oupalad","did":1606,"pid":16,"uuid":"1.606049e+06"},"geometry":{"type":"Point","coordinates":[105.68373684983641,15.10698755956474]}},{"type":"Feature","properties":{"name_en":"Phangded","did":1606,"pid":16,"uuid":"1.606053e+06"},"geometry":{"type":"Point","coordinates":[105.66864263692975,15.079295735136169]}},{"type":"Feature","properties":{"name_en":"Maisivilay","did":1606,"pid":16,"uuid":"1.606056e+06"},"geometry":{"type":"Point","coordinates":[105.70569592971061,15.053710930004478]}},{"type":"Feature","properties":{"name_en":"Phonthong","did":1606,"pid":16,"uuid":"1.606057e+06"},"geometry":{"type":"Point","coordinates":[105.65363550987904,15.101109330389841]}},{"type":"Feature","properties":{"name_en":"Kare","did":1606,"pid":16,"uuid":"1.606063e+06"},"geometry":{"type":"Point","coordinates":[105.68557457954137,15.098284549687532]}},{"type":"Feature","properties":{"name_en":"Kung","did":1606,"pid":16,"uuid":"1.606064e+06"},"geometry":{"type":"Point","coordinates":[105.67854006970033,15.131756419917908]}},{"type":"Feature","properties":{"name_en":"Chik","did":1606,"pid":16,"uuid":"1.606065e+06"},"geometry":{"type":"Point","coordinates":[105.66362196000209,15.14444754036192]}},{"type":"Feature","properties":{"name_en":"Nonhhaikhok","did":1606,"pid":16,"uuid":"1.606067e+06"},"geometry":{"type":"Point","coordinates":[105.6196883797139,15.141674980393033]}},{"type":"Feature","properties":{"name_en":"Dou","did":1606,"pid":16,"uuid":"1.606069e+06"},"geometry":{"type":"Point","coordinates":[105.62737945038721,15.133942670008464]}},{"type":"Feature","properties":{"name_en":"Bok","did":1606,"pid":16,"uuid":"1.60607e+06"},"geometry":{"type":"Point","coordinates":[105.62189693023342,15.130729470384402]}},{"type":"Feature","properties":{"name_en":"Khokkung","did":1606,"pid":16,"uuid":"1.606071e+06"},"geometry":{"type":"Point","coordinates":[105.59278405962395,15.10681363966976]}},{"type":"Feature","properties":{"name_en":"Donechik","did":1606,"pid":16,"uuid":"1.606072e+06"},"geometry":{"type":"Point","coordinates":[105.58302702001018,15.138480550292561]}},{"type":"Feature","properties":{"name_en":"Mai","did":1606,"pid":16,"uuid":"1.606073e+06"},"geometry":{"type":"Point","coordinates":[105.61289794956463,15.187241689597109]}},{"type":"Feature","properties":{"name_en":"Mor","did":1606,"pid":16,"uuid":"1.606074e+06"},"geometry":{"type":"Point","coordinates":[105.6321570503811,15.159209330210306]}},{"type":"Feature","properties":{"name_en":"Thongkouang","did":1606,"pid":16,"uuid":"1.606075e+06"},"geometry":{"type":"Point","coordinates":[105.51728742029691,15.182803379699152]}},{"type":"Feature","properties":{"name_en":"Naoudom","did":1606,"pid":16,"uuid":"1.606076e+06"},"geometry":{"type":"Point","coordinates":[105.51104500042548,15.163316129700064]}},{"type":"Feature","properties":{"name_en":"Vangtao","did":1606,"pid":16,"uuid":"1.606077e+06"},"geometry":{"type":"Point","coordinates":[105.5034527603928,15.136477360314386]}},{"type":"Feature","properties":{"name_en":"Donechod","did":1606,"pid":16,"uuid":"1.606079e+06"},"geometry":{"type":"Point","coordinates":[105.53204291968197,15.141685710003175]}},{"type":"Feature","properties":{"name_en":"Kaengkang","did":1606,"pid":16,"uuid":"1.60608e+06"},"geometry":{"type":"Point","coordinates":[105.54990886989245,15.135121920074912]}},{"type":"Feature","properties":{"name_en":"ladvaly","did":1606,"pid":16,"uuid":"1.606082e+06"},"geometry":{"type":"Point","coordinates":[105.5508937401723,15.146965549571824]}},{"type":"Feature","properties":{"name_en":"Donggnang","did":1606,"pid":16,"uuid":"1.606084e+06"},"geometry":{"type":"Point","coordinates":[105.57958985961481,15.159905790185908]}},{"type":"Feature","properties":{"name_en":"Nongsala","did":1606,"pid":16,"uuid":"1.606086e+06"},"geometry":{"type":"Point","coordinates":[105.55765734977119,15.176239180157538]}},{"type":"Feature","properties":{"name_en":"Nongdong","did":1606,"pid":16,"uuid":"1.606087e+06"},"geometry":{"type":"Point","coordinates":[105.58911086013215,15.150760290051462]}},{"type":"Feature","properties":{"name_en":"Ousu","did":1606,"pid":16,"uuid":"1.606088e+06"},"geometry":{"type":"Point","coordinates":[105.58981796024791,15.16306785976203]}},{"type":"Feature","properties":{"name_en":"Khangnang","did":1606,"pid":16,"uuid":"1.60609e+06"},"geometry":{"type":"Point","coordinates":[105.61783120029033,15.313667520092928]}},{"type":"Feature","properties":{"name_en":"Nonghaitha","did":1606,"pid":16,"uuid":"1.606093e+06"},"geometry":{"type":"Point","coordinates":[105.64481363974113,15.283183879904547]}},{"type":"Feature","properties":{"name_en":"Vernxaignai","did":1606,"pid":16,"uuid":"1.606095e+06"},"geometry":{"type":"Point","coordinates":[105.64897936012021,15.263762089737284]}},{"type":"Feature","properties":{"name_en":"Khamad","did":1606,"pid":16,"uuid":"1.606098e+06"},"geometry":{"type":"Point","coordinates":[105.64977722956229,15.22899948996025]}},{"type":"Feature","properties":{"name_en":"Sakmeuangneua","did":1606,"pid":16,"uuid":"1.6061e+06"},"geometry":{"type":"Point","coordinates":[105.6704943599015,15.201529730262436]}},{"type":"Feature","properties":{"name_en":"Samanh","did":1606,"pid":16,"uuid":"1.606103e+06"},"geometry":{"type":"Point","coordinates":[105.69467900036567,15.180128890385687]}},{"type":"Feature","properties":{"name_en":"Xongxay","did":1606,"pid":16,"uuid":"1.606106e+06"},"geometry":{"type":"Point","coordinates":[105.71380215022161,15.161124099584665]}},{"type":"Feature","properties":{"name_en":"Nonkhoun","did":1606,"pid":16,"uuid":"1.606108e+06"},"geometry":{"type":"Point","coordinates":[105.59998344979688,15.230264739673462]}},{"type":"Feature","properties":{"name_en":"Koudnamkhun","did":1606,"pid":16,"uuid":"1.60611e+06"},"geometry":{"type":"Point","coordinates":[105.59985880979295,15.245866730262076]}},{"type":"Feature","properties":{"name_en":"Khokkong","did":1606,"pid":16,"uuid":"1.606111e+06"},"geometry":{"type":"Point","coordinates":[105.58356681981641,15.235732339883183]}},{"type":"Feature","properties":{"name_en":"katin","did":1606,"pid":16,"uuid":"1.606112e+06"},"geometry":{"type":"Point","coordinates":[105.57591681959762,15.243147970358459]}},{"type":"Feature","properties":{"name_en":"Khoumthong","did":1606,"pid":16,"uuid":"1.606114e+06"},"geometry":{"type":"Point","coordinates":[105.56216689959187,15.229939690432007]}},{"type":"Feature","properties":{"name_en":"Pong","did":1606,"pid":16,"uuid":"1.606116e+06"},"geometry":{"type":"Point","coordinates":[105.54595336030008,15.205855970032731]}},{"type":"Feature","properties":{"name_en":"Nonsab","did":1606,"pid":16,"uuid":"1.606117e+06"},"geometry":{"type":"Point","coordinates":[105.56520274044482,15.198242430056295]}}]}