{"type":"FeatureCollection","features":[{"type":"Feature","properties":{"name_en":"Houaypakhor","did":1607,"pid":16,"uuid":"1.607001e+06"},"geometry":{"type":"Point","coordinates":[105.86467523019053,15.013205800141451]}},{"type":"Feature","properties":{"name_en":"Khonekaenh","did":1607,"pid":16,"uuid":"1.607002e+06"},"geometry":{"type":"Point","coordinates":[105.87387386976704,14.983013260108624]}},{"type":"Feature","properties":{"name_en":"Khangneng","did":1607,"pid":16,"uuid":"1.607003e+06"},"geometry":{"type":"Point","coordinates":[105.88435652957406,14.95961275021959]}},{"type":"Feature","properties":{"name_en":"vatxai","did":1607,"pid":16,"uuid":"1.607004e+06"},"geometry":{"type":"Point","coordinates":[105.88869331987765,14.945904059768369]}},{"type":"Feature","properties":{"name_en":"Phanthakhan","did":1607,"pid":16,"uuid":"1.607005e+06"},"geometry":{"type":"Point","coordinates":[105.88634856956354,14.921783460215737]}},{"type":"Feature","properties":{"name_en":"Phaphim","did":1607,"pid":16,"uuid":"1.607006e+06"},"geometry":{"type":"Point","coordinates":[105.88874662968507,14.917217000423394]}},{"type":"Feature","properties":{"name_en":"Phoxai","did":1607,"pid":16,"uuid":"1.607008e+06"},"geometry":{"type":"Point","coordinates":[105.88616107039032,14.911694670312293]}},{"type":"Feature","properties":{"name_en":"Vatmeuangsaen","did":1607,"pid":16,"uuid":"1.60701e+06"},"geometry":{"type":"Point","coordinates":[105.8831640302477,14.904689489706985]}},{"type":"Feature","properties":{"name_en":"Vatthong","did":1607,"pid":16,"uuid":"1.607011e+06"},"geometry":{"type":"Point","coordinates":[105.87973542001079,14.897546850366219]}},{"type":"Feature","properties":{"name_en":"Vat a mad","did":1607,"pid":16,"uuid":"1.607012e+06"},"geometry":{"type":"Point","coordinates":[105.8790378700119,14.894037349972345]}},{"type":"Feature","properties":{"name_en":"Vatlakhone","did":1607,"pid":16,"uuid":"1.607013e+06"},"geometry":{"type":"Point","coordinates":[105.8783347999249,14.891315409739319]}},{"type":"Feature","properties":{"name_en":"Vatphonpheng","did":1607,"pid":16,"uuid":"1.607014e+06"},"geometry":{"type":"Point","coordinates":[105.87617142978041,14.886032550011635]}},{"type":"Feature","properties":{"name_en":"Hai","did":1607,"pid":16,"uuid":"1.607015e+06"},"geometry":{"type":"Point","coordinates":[105.86573855964429,14.885881589563805]}},{"type":"Feature","properties":{"name_en":"Vatthad","did":1607,"pid":16,"uuid":"1.607017e+06"},"geometry":{"type":"Point","coordinates":[105.87401593977839,14.87846645994219]}},{"type":"Feature","properties":{"name_en":"Vatlouangkao","did":1607,"pid":16,"uuid":"1.607018e+06"},"geometry":{"type":"Point","coordinates":[105.87192993987719,14.85591996966296]}},{"type":"Feature","properties":{"name_en":"Phanoneneua","did":1607,"pid":16,"uuid":"1.607019e+06"},"geometry":{"type":"Point","coordinates":[105.871619,14.849967]}},{"type":"Feature","properties":{"name_en":"Phanonetai","did":1607,"pid":16,"uuid":"1.60702e+06"},"geometry":{"type":"Point","coordinates":[105.87397998001107,14.842249930012324]}},{"type":"Feature","properties":{"name_en":"Meuangkao","did":1607,"pid":16,"uuid":"1.607021e+06"},"geometry":{"type":"Point","coordinates":[105.87611997030481,14.831769949781021]}},{"type":"Feature","properties":{"name_en":"Sisavang","did":1607,"pid":16,"uuid":"1.607022e+06"},"geometry":{"type":"Point","coordinates":[105.88095899983102,14.818853000432716]}},{"type":"Feature","properties":{"name_en":"Kateub","did":1607,"pid":16,"uuid":"1.607023e+06"},"geometry":{"type":"Point","coordinates":[105.8842599702086,14.813189950210436]}},{"type":"Feature","properties":{"name_en":"Thadeua","did":1607,"pid":16,"uuid":"1.607024e+06"},"geometry":{"type":"Point","coordinates":[105.88519440000005,14.813388899999978]}},{"type":"Feature","properties":{"name_en":"Nongvien","did":1607,"pid":16,"uuid":"1.607025e+06"},"geometry":{"type":"Point","coordinates":[105.85550995970416,14.849369939833174]}},{"type":"Feature","properties":{"name_en":"Phonngam","did":1607,"pid":16,"uuid":"1.607027e+06"},"geometry":{"type":"Point","coordinates":[105.82552997954961,14.806299949986505]}},{"type":"Feature","properties":{"name_en":"Nongsa","did":1607,"pid":16,"uuid":"1.607028e+06"},"geometry":{"type":"Point","coordinates":[105.82767993988698,14.84669995957267]}},{"type":"Feature","properties":{"name_en":"Nongdeun","did":1607,"pid":16,"uuid":"1.607029e+06"},"geometry":{"type":"Point","coordinates":[105.83583998007697,14.85238993979772]}},{"type":"Feature","properties":{"name_en":"Nongthor","did":1607,"pid":16,"uuid":"1.60703e+06"},"geometry":{"type":"Point","coordinates":[105.84415993991524,14.861139969701904]}},{"type":"Feature","properties":{"name_en":"Houaysahoua","did":1607,"pid":16,"uuid":"1.607031e+06"},"geometry":{"type":"Point","coordinates":[105.8475299604403,14.868839920051386]}},{"type":"Feature","properties":{"name_en":"Donethangkhouai","did":1607,"pid":16,"uuid":"1.607033e+06"},"geometry":{"type":"Point","coordinates":[105.84499000042123,14.833119939841623]}},{"type":"Feature","properties":{"name_en":"Nongnokkhian","did":1607,"pid":16,"uuid":"1.607034e+06"},"geometry":{"type":"Point","coordinates":[105.83352991988328,14.81834994038346]}},{"type":"Feature","properties":{"name_en":"Sangkhen","did":1607,"pid":16,"uuid":"1.607035e+06"},"geometry":{"type":"Point","coordinates":[105.82567993975724,14.822469980189762]}},{"type":"Feature","properties":{"name_en":"Thangbeng","did":1607,"pid":16,"uuid":"1.607037e+06"},"geometry":{"type":"Point","coordinates":[105.82554993023133,14.806309919862805]}},{"type":"Feature","properties":{"name_en":"Khokkong","did":1607,"pid":16,"uuid":"1.607038e+06"},"geometry":{"type":"Point","coordinates":[105.84637997028824,14.806379990128205]}},{"type":"Feature","properties":{"name_en":"Nongthone","did":1607,"pid":16,"uuid":"1.607039e+06"},"geometry":{"type":"Point","coordinates":[105.83488000028206,14.798109989988342]}},{"type":"Feature","properties":{"name_en":"Donetalad","did":1607,"pid":16,"uuid":"1.607042e+06"},"geometry":{"type":"Point","coordinates":[105.81128593987103,14.785592710203286]}},{"type":"Feature","properties":{"name_en":"Donekang","did":1607,"pid":16,"uuid":"1.607044e+06"},"geometry":{"type":"Point","coordinates":[105.79064491961427,14.793730019675175]}},{"type":"Feature","properties":{"name_en":"Nasavang","did":1607,"pid":16,"uuid":"1.607045e+06"},"geometry":{"type":"Point","coordinates":[105.78142423979287,14.807206200185915]}},{"type":"Feature","properties":{"name_en":"Houay","did":1607,"pid":16,"uuid":"1.607046e+06"},"geometry":{"type":"Point","coordinates":[105.779369,14.810467599999981]}},{"type":"Feature","properties":{"name_en":"Nonghin","did":1607,"pid":16,"uuid":"1.607047e+06"},"geometry":{"type":"Point","coordinates":[105.79416330976586,14.823763720430104]}},{"type":"Feature","properties":{"name_en":"Nongkham","did":1607,"pid":16,"uuid":"1.607048e+06"},"geometry":{"type":"Point","coordinates":[105.80200910977128,14.811336629583746]}},{"type":"Feature","properties":{"name_en":"Nongsano","did":1607,"pid":16,"uuid":"1.607049e+06"},"geometry":{"type":"Point","coordinates":[105.81551026034627,14.819710490252612]}},{"type":"Feature","properties":{"name_en":"Thatengtherng","did":1607,"pid":16,"uuid":"1.60705e+06"},"geometry":{"type":"Point","coordinates":[105.78271731960756,14.826820599679799]}},{"type":"Feature","properties":{"name_en":"Nongmakkeo","did":1607,"pid":16,"uuid":"1.607051e+06"},"geometry":{"type":"Point","coordinates":[105.76431735967375,14.825601459784833]}},{"type":"Feature","properties":{"name_en":"Khamchalern","did":1607,"pid":16,"uuid":"1.607052e+06"},"geometry":{"type":"Point","coordinates":[105.74636952963364,14.835607099877809]}},{"type":"Feature","properties":{"name_en":"Nonthay","did":1607,"pid":16,"uuid":"1.607053e+06"},"geometry":{"type":"Point","coordinates":[105.77294786963621,14.816186150210543]}},{"type":"Feature","properties":{"name_en":"Chikthangngo","did":1607,"pid":16,"uuid":"1.607054e+06"},"geometry":{"type":"Point","coordinates":[105.78889285012835,14.75553100998381]}},{"type":"Feature","properties":{"name_en":"Nongbouakhao","did":1607,"pid":16,"uuid":"1.607055e+06"},"geometry":{"type":"Point","coordinates":[105.78002597015907,14.730557799837063]}},{"type":"Feature","properties":{"name_en":"Thomchanh","did":1607,"pid":16,"uuid":"1.607056e+06"},"geometry":{"type":"Point","coordinates":[105.80177961001495,14.738003189945196]}},{"type":"Feature","properties":{"name_en":"Peuai","did":1607,"pid":16,"uuid":"1.607057e+06"},"geometry":{"type":"Point","coordinates":[105.82454092034,14.753441650051165]}},{"type":"Feature","properties":{"name_en":"Lakbaeb","did":1607,"pid":16,"uuid":"1.607058e+06"},"geometry":{"type":"Point","coordinates":[105.83669375983841,14.776940650010738]}},{"type":"Feature","properties":{"name_en":"Nongbouakhao","did":1607,"pid":16,"uuid":"1.607059e+06"},"geometry":{"type":"Point","coordinates":[105.72236493035619,14.853340779952498]}},{"type":"Feature","properties":{"name_en":"Meui","did":1607,"pid":16,"uuid":"1.60706e+06"},"geometry":{"type":"Point","coordinates":[105.70311623017056,14.832141270299292]}},{"type":"Feature","properties":{"name_en":"Donedo","did":1607,"pid":16,"uuid":"1.607061e+06"},"geometry":{"type":"Point","coordinates":[105.6619289001372,14.810614699718082]}},{"type":"Feature","properties":{"name_en":"Nongthor","did":1607,"pid":16,"uuid":"1.607062e+06"},"geometry":{"type":"Point","coordinates":[105.71175294020176,14.867184669561613]}},{"type":"Feature","properties":{"name_en":"Bouaba","did":1607,"pid":16,"uuid":"1.607063e+06"},"geometry":{"type":"Point","coordinates":[105.69574900028584,14.857700000244149]}},{"type":"Feature","properties":{"name_en":"Nongtae","did":1607,"pid":16,"uuid":"1.607066e+06"},"geometry":{"type":"Point","coordinates":[105.7043817302075,14.895766699656456]}},{"type":"Feature","properties":{"name_en":"Houayna","did":1607,"pid":16,"uuid":"1.607067e+06"},"geometry":{"type":"Point","coordinates":[105.63283925032442,14.875356350320187]}},{"type":"Feature","properties":{"name_en":"Phongphod","did":1607,"pid":16,"uuid":"1.607068e+06"},"geometry":{"type":"Point","coordinates":[105.64201692970731,14.910414579824712]}},{"type":"Feature","properties":{"name_en":"Nondindam","did":1607,"pid":16,"uuid":"1.607069e+06"},"geometry":{"type":"Point","coordinates":[105.67732620005425,14.93897758966097]}},{"type":"Feature","properties":{"name_en":"Nondee","did":1607,"pid":16,"uuid":"1.60707e+06"},"geometry":{"type":"Point","coordinates":[105.68304240993012,14.928116990197559]}},{"type":"Feature","properties":{"name_en":"Sisoulad","did":1607,"pid":16,"uuid":"1.607071e+06"},"geometry":{"type":"Point","coordinates":[105.7204660101507,14.922415119813943]}},{"type":"Feature","properties":{"name_en":"Thataengtha","did":1607,"pid":16,"uuid":"1.607072e+06"},"geometry":{"type":"Point","coordinates":[105.90852214010074,14.795546049835213]}},{"type":"Feature","properties":{"name_en":"Houayhae","did":1607,"pid":16,"uuid":"1.607073e+06"},"geometry":{"type":"Point","coordinates":[105.91673648990046,14.79044843037707]}},{"type":"Feature","properties":{"name_en":"Somhong","did":1607,"pid":16,"uuid":"1.607074e+06"},"geometry":{"type":"Point","coordinates":[105.92339591014029,14.778860610170891]}},{"type":"Feature","properties":{"name_en":"Thatan","did":1607,"pid":16,"uuid":"1.607075e+06"},"geometry":{"type":"Point","coordinates":[105.92422211971706,14.75456608028141]}},{"type":"Feature","properties":{"name_en":"Nongpham","did":1607,"pid":16,"uuid":"1.607077e+06"},"geometry":{"type":"Point","coordinates":[105.91034026026689,14.742846839873732]}},{"type":"Feature","properties":{"name_en":"Maitha","did":1607,"pid":16,"uuid":"1.607078e+06"},"geometry":{"type":"Point","coordinates":[105.91165964994907,14.74704055956465]}},{"type":"Feature","properties":{"name_en":"Donexienglar","did":1607,"pid":16,"uuid":"1.607081e+06"},"geometry":{"type":"Point","coordinates":[105.89089592040861,14.75502793019921]}},{"type":"Feature","properties":{"name_en":"Maikang","did":1607,"pid":16,"uuid":"1.607082e+06"},"geometry":{"type":"Point","coordinates":[105.86438522021633,14.769417220214025]}},{"type":"Feature","properties":{"name_en":"Houaymanpa","did":1607,"pid":16,"uuid":"1.607083e+06"},"geometry":{"type":"Point","coordinates":[105.89230826987965,14.710644909829739]}},{"type":"Feature","properties":{"name_en":"Houaykang","did":1607,"pid":16,"uuid":"1.607084e+06"},"geometry":{"type":"Point","coordinates":[105.87263242000921,14.684218870063113]}},{"type":"Feature","properties":{"name_en":"Houayang","did":1607,"pid":16,"uuid":"1.607086e+06"},"geometry":{"type":"Point","coordinates":[105.86864524027561,14.67740110991995]}},{"type":"Feature","properties":{"name_en":"Nadong","did":1607,"pid":16,"uuid":"1.607088e+06"},"geometry":{"type":"Point","coordinates":[105.883987889683,14.72662149043005]}},{"type":"Feature","properties":{"name_en":"Donekoy","did":1607,"pid":16,"uuid":"1.607089e+06"},"geometry":{"type":"Point","coordinates":[105.8946271197711,14.74539838033698]}},{"type":"Feature","properties":{"name_en":"Donehee","did":1607,"pid":16,"uuid":"1.60709e+06"},"geometry":{"type":"Point","coordinates":[105.87739887976196,14.746749960211593]}},{"type":"Feature","properties":{"name_en":"Nonsavang","did":1607,"pid":16,"uuid":"1.607091e+06"},"geometry":{"type":"Point","coordinates":[105.8552756803581,14.737267599738892]}},{"type":"Feature","properties":{"name_en":"Nakhouai","did":1607,"pid":16,"uuid":"1.607092e+06"},"geometry":{"type":"Point","coordinates":[105.84039343961864,14.727073360104527]}},{"type":"Feature","properties":{"name_en":"Nonesamlan","did":1607,"pid":16,"uuid":"1.607999e+06"},"geometry":{"type":"Point","coordinates":[105.60904068030291,14.81486902033601]}}]}