{"type":"FeatureCollection","features":[{"type":"Feature","properties":{"name_en":"Soukoumaneua","did":1608,"pid":16,"uuid":"1.608001e+06"},"geometry":{"type":"Point","coordinates":[105.78878036986771,14.637946989864265]}},{"type":"Feature","properties":{"name_en":"Thabcharm","did":1608,"pid":16,"uuid":"1.608003e+06"},"geometry":{"type":"Point","coordinates":[105.80216508960201,14.628368150079327]}},{"type":"Feature","properties":{"name_en":"kouttaboune","did":1608,"pid":16,"uuid":"1.608004e+06"},"geometry":{"type":"Point","coordinates":[105.78928948026093,14.621143030070558]}},{"type":"Feature","properties":{"name_en":"Lard","did":1608,"pid":16,"uuid":"1.608005e+06"},"geometry":{"type":"Point","coordinates":[105.77667379968462,14.629021690279048]}},{"type":"Feature","properties":{"name_en":"Phon pheung","did":1608,"pid":16,"uuid":"1.608006e+06"},"geometry":{"type":"Point","coordinates":[105.78977624684322,14.6389496588301]}},{"type":"Feature","properties":{"name_en":"Bok","did":1608,"pid":16,"uuid":"1.608007e+06"},"geometry":{"type":"Point","coordinates":[105.77971812142569,14.648919368288588]}},{"type":"Feature","properties":{"name_en":"Mouang","did":1608,"pid":16,"uuid":"1.608008e+06"},"geometry":{"type":"Point","coordinates":[105.77435223781688,14.649316999718328]}},{"type":"Feature","properties":{"name_en":"Khoksavang","did":1608,"pid":16,"uuid":"1.608009e+06"},"geometry":{"type":"Point","coordinates":[105.73044626028674,14.649039680054837]}},{"type":"Feature","properties":{"name_en":"Par kor","did":1608,"pid":16,"uuid":"1.60801e+06"},"geometry":{"type":"Point","coordinates":[105.76371496003613,14.676362089827172]}},{"type":"Feature","properties":{"name_en":"Phon pheung","did":1608,"pid":16,"uuid":"1.608011e+06"},"geometry":{"type":"Point","coordinates":[105.78062066959798,14.622547509565168]}},{"type":"Feature","properties":{"name_en":"Bark","did":1608,"pid":16,"uuid":"1.608012e+06"},"geometry":{"type":"Point","coordinates":[105.79325052020488,14.70729299030023]}},{"type":"Feature","properties":{"name_en":"Sarm khar","did":1608,"pid":16,"uuid":"1.608013e+06"},"geometry":{"type":"Point","coordinates":[105.79378227029996,14.684484659585415]}},{"type":"Feature","properties":{"name_en":"Kok nong boua","did":1608,"pid":16,"uuid":"1.608014e+06"},"geometry":{"type":"Point","coordinates":[105.79248742982284,14.615215690044577]}},{"type":"Feature","properties":{"name_en":"Nama ngo","did":1608,"pid":16,"uuid":"1.608015e+06"},"geometry":{"type":"Point","coordinates":[105.73436530003289,14.657916289578377]}},{"type":"Feature","properties":{"name_en":"Hae","did":1608,"pid":16,"uuid":"1.608017e+06"},"geometry":{"type":"Point","coordinates":[105.85854823002875,14.6432234800906]}},{"type":"Feature","properties":{"name_en":"Boungkeo","did":1608,"pid":16,"uuid":"1.608018e+06"},"geometry":{"type":"Point","coordinates":[105.85197070022613,14.6246043404432]}},{"type":"Feature","properties":{"name_en":"Dong houa barn","did":1608,"pid":16,"uuid":"1.608019e+06"},"geometry":{"type":"Point","coordinates":[105.84897298956729,14.611725210244392]}},{"type":"Feature","properties":{"name_en":"Thar saeng","did":1608,"pid":16,"uuid":"1.60802e+06"},"geometry":{"type":"Point","coordinates":[105.84328671027589,14.591170269831082]}},{"type":"Feature","properties":{"name_en":"Tha pho sii","did":1608,"pid":16,"uuid":"1.608021e+06"},"geometry":{"type":"Point","coordinates":[105.842099330447,14.580164909858809]}},{"type":"Feature","properties":{"name_en":"Par kouai","did":1608,"pid":16,"uuid":"1.608022e+06"},"geometry":{"type":"Point","coordinates":[105.8404670395997,14.563096679701516]}},{"type":"Feature","properties":{"name_en":"Kong kwien","did":1608,"pid":16,"uuid":"1.608023e+06"},"geometry":{"type":"Point","coordinates":[105.81723006031682,14.642560719906053]}},{"type":"Feature","properties":{"name_en":"Thar darn","did":1608,"pid":16,"uuid":"1.608024e+06"},"geometry":{"type":"Point","coordinates":[105.7944165296392,14.59708622006184]}},{"type":"Feature","properties":{"name_en":"Dong gnang","did":1608,"pid":16,"uuid":"1.608025e+06"},"geometry":{"type":"Point","coordinates":[105.8282807597237,14.610165169794167]}},{"type":"Feature","properties":{"name_en":"Maivangmarkxaew","did":1608,"pid":16,"uuid":"1.608026e+06"},"geometry":{"type":"Point","coordinates":[105.81938076971628,14.593832450447632]}},{"type":"Feature","properties":{"name_en":"Ou toum mai","did":1608,"pid":16,"uuid":"1.608027e+06"},"geometry":{"type":"Point","coordinates":[105.82442558014843,14.520516530295723]}},{"type":"Feature","properties":{"name_en":"Houa done xai","did":1608,"pid":16,"uuid":"1.608029e+06"},"geometry":{"type":"Point","coordinates":[105.84330087968948,14.54591310958082]}},{"type":"Feature","properties":{"name_en":"Markmii","did":1608,"pid":16,"uuid":"1.60803e+06"},"geometry":{"type":"Point","coordinates":[105.83658379007534,14.52959630994405]}},{"type":"Feature","properties":{"name_en":"That(Done xai)","did":1608,"pid":16,"uuid":"1.608031e+06"},"geometry":{"type":"Point","coordinates":[105.83023742987612,14.511195680329923]}},{"type":"Feature","properties":{"name_en":"Kork","did":1608,"pid":16,"uuid":"1.608032e+06"},"geometry":{"type":"Point","coordinates":[105.8359710700501,14.49019783959569]}},{"type":"Feature","properties":{"name_en":"Toumnoi","did":1608,"pid":16,"uuid":"1.608033e+06"},"geometry":{"type":"Point","coordinates":[105.85377808990698,14.497257159993133]}},{"type":"Feature","properties":{"name_en":"Toum gnai","did":1608,"pid":16,"uuid":"1.608034e+06"},"geometry":{"type":"Point","coordinates":[105.85693622030578,14.508547249809965]}},{"type":"Feature","properties":{"name_en":"Non gnang","did":1608,"pid":16,"uuid":"1.608035e+06"},"geometry":{"type":"Point","coordinates":[105.71802569981553,14.687756109656947]}},{"type":"Feature","properties":{"name_en":"ThatSarmpang","did":1608,"pid":16,"uuid":"1.608036e+06"},"geometry":{"type":"Point","coordinates":[105.74370726984978,14.70749339992194]}},{"type":"Feature","properties":{"name_en":"Done kong","did":1608,"pid":16,"uuid":"1.608037e+06"},"geometry":{"type":"Point","coordinates":[105.7253599498486,14.708886300333264]}},{"type":"Feature","properties":{"name_en":"Done kork ngoua","did":1608,"pid":16,"uuid":"1.608038e+06"},"geometry":{"type":"Point","coordinates":[105.71687671026575,14.764430490405072]}},{"type":"Feature","properties":{"name_en":"Ngangsao","did":1608,"pid":16,"uuid":"1.608039e+06"},"geometry":{"type":"Point","coordinates":[105.73115378016604,14.754954329722898]}},{"type":"Feature","properties":{"name_en":"Saen meuang","did":1608,"pid":16,"uuid":"1.608041e+06"},"geometry":{"type":"Point","coordinates":[105.71767919964927,14.782754680430871]}},{"type":"Feature","properties":{"name_en":"Nondaeng neua","did":1608,"pid":16,"uuid":"1.608042e+06"},"geometry":{"type":"Point","coordinates":[105.61044943008363,14.75850540967679]}},{"type":"Feature","properties":{"name_en":"Thieng","did":1608,"pid":16,"uuid":"1.608043e+06"},"geometry":{"type":"Point","coordinates":[105.58666527044807,14.69694712031894]}},{"type":"Feature","properties":{"name_en":"Donewai","did":1608,"pid":16,"uuid":"1.608044e+06"},"geometry":{"type":"Point","coordinates":[105.74681041990841,14.731620789795144]}},{"type":"Feature","properties":{"name_en":"Nong phan vong","did":1608,"pid":16,"uuid":"1.608045e+06"},"geometry":{"type":"Point","coordinates":[105.74621026987234,14.759354329989245]}},{"type":"Feature","properties":{"name_en":"Houai pherng","did":1608,"pid":16,"uuid":"1.608046e+06"},"geometry":{"type":"Point","coordinates":[105.57533504021897,14.666661459968273]}},{"type":"Feature","properties":{"name_en":"Non pha chao","did":1608,"pid":16,"uuid":"1.608047e+06"},"geometry":{"type":"Point","coordinates":[105.72566932992015,14.728814279991454]}},{"type":"Feature","properties":{"name_en":"Park xang","did":1608,"pid":16,"uuid":"1.608048e+06"},"geometry":{"type":"Point","coordinates":[105.6787076197335,14.691972630125811]}},{"type":"Feature","properties":{"name_en":"Phaktob","did":1608,"pid":16,"uuid":"1.608049e+06"},"geometry":{"type":"Point","coordinates":[105.7416436395657,14.622505599803254]}},{"type":"Feature","properties":{"name_en":"Samlieng","did":1608,"pid":16,"uuid":"1.60805e+06"},"geometry":{"type":"Point","coordinates":[105.70467240993676,14.603345490099535]}},{"type":"Feature","properties":{"name_en":"Nacharn","did":1608,"pid":16,"uuid":"1.608051e+06"},"geometry":{"type":"Point","coordinates":[105.68375696003794,14.590874299617463]}},{"type":"Feature","properties":{"name_en":"Saensouk","did":1608,"pid":16,"uuid":"1.608052e+06"},"geometry":{"type":"Point","coordinates":[105.63517746996638,14.54903745982202]}},{"type":"Feature","properties":{"name_en":"Khokkong","did":1608,"pid":16,"uuid":"1.608053e+06"},"geometry":{"type":"Point","coordinates":[105.57908007035607,14.543469699679418]}},{"type":"Feature","properties":{"name_en":"Xae","did":1608,"pid":16,"uuid":"1.608054e+06"},"geometry":{"type":"Point","coordinates":[105.65091818019064,14.61468125996416]}},{"type":"Feature","properties":{"name_en":"Non khoum","did":1608,"pid":16,"uuid":"1.608055e+06"},"geometry":{"type":"Point","coordinates":[105.70586230993408,14.539501700123973]}},{"type":"Feature","properties":{"name_en":"Non euang","did":1608,"pid":16,"uuid":"1.608056e+06"},"geometry":{"type":"Point","coordinates":[105.72613218001595,14.529696049791125]}},{"type":"Feature","properties":{"name_en":"Non daeng tai","did":1608,"pid":16,"uuid":"1.608057e+06"},"geometry":{"type":"Point","coordinates":[105.73484465988349,14.553095219670492]}},{"type":"Feature","properties":{"name_en":"Houayphai","did":1608,"pid":16,"uuid":"1.608058e+06"},"geometry":{"type":"Point","coordinates":[105.78679301999492,14.601084390018839]}},{"type":"Feature","properties":{"name_en":"Non pho","did":1608,"pid":16,"uuid":"1.608059e+06"},"geometry":{"type":"Point","coordinates":[105.66546244988234,14.532010970186848]}},{"type":"Feature","properties":{"name_en":"Thalouang","did":1608,"pid":16,"uuid":"1.60806e+06"},"geometry":{"type":"Point","coordinates":[105.59673437014563,14.618955860268015]}}]}