{"type":"FeatureCollection","features":[{"type":"Feature","properties":{"name_en":"Vernkhenh","did":1609,"pid":16,"uuid":"1.609001e+06"},"geometry":{"type":"Point","coordinates":[105.85851561969773,14.36749993974979]}},{"type":"Feature","properties":{"name_en":"Thakhor","did":1609,"pid":16,"uuid":"1.609002e+06"},"geometry":{"type":"Point","coordinates":[105.82370037964026,14.501636040071997]}},{"type":"Feature","properties":{"name_en":"Thanong","did":1609,"pid":16,"uuid":"1.609003e+06"},"geometry":{"type":"Point","coordinates":[105.82793114981692,14.489417230034324]}},{"type":"Feature","properties":{"name_en":"Thahai","did":1609,"pid":16,"uuid":"1.609004e+06"},"geometry":{"type":"Point","coordinates":[105.84078822965552,14.479201790034269]}},{"type":"Feature","properties":{"name_en":"Vernneua","did":1609,"pid":16,"uuid":"1.609005e+06"},"geometry":{"type":"Point","coordinates":[105.83909232019397,14.450995679678678]}},{"type":"Feature","properties":{"name_en":"Mai","did":1609,"pid":16,"uuid":"1.609007e+06"},"geometry":{"type":"Point","coordinates":[105.83157904032359,14.4197958101451]}},{"type":"Feature","properties":{"name_en":"Donepeuai","did":1609,"pid":16,"uuid":"1.609008e+06"},"geometry":{"type":"Point","coordinates":[105.8504506400878,14.447500010039638]}},{"type":"Feature","properties":{"name_en":"Houadonenanglone","did":1609,"pid":16,"uuid":"1.609009e+06"},"geometry":{"type":"Point","coordinates":[105.85043940973677,14.403114310006183]}},{"type":"Feature","properties":{"name_en":"Louangxo","did":1609,"pid":16,"uuid":"1.609013e+06"},"geometry":{"type":"Point","coordinates":[105.84270618033047,14.397148410045897]}},{"type":"Feature","properties":{"name_en":"Pamerkkang","did":1609,"pid":16,"uuid":"1.609019e+06"},"geometry":{"type":"Point","coordinates":[105.8681060295543,14.3353581899318]}},{"type":"Feature","properties":{"name_en":"Deuateer","did":1609,"pid":16,"uuid":"1.609021e+06"},"geometry":{"type":"Point","coordinates":[105.86367794961664,14.301764190026434]}},{"type":"Feature","properties":{"name_en":"Saphangneua","did":1609,"pid":16,"uuid":"1.609022e+06"},"geometry":{"type":"Point","coordinates":[105.84268320957689,14.277774599658025]}},{"type":"Feature","properties":{"name_en":"Nonghoy","did":1609,"pid":16,"uuid":"1.609024e+06"},"geometry":{"type":"Point","coordinates":[105.8319999697707,14.264329860242206]}},{"type":"Feature","properties":{"name_en":"Nakham","did":1609,"pid":16,"uuid":"1.609025e+06"},"geometry":{"type":"Point","coordinates":[105.81830368976397,14.233590819725212]}},{"type":"Feature","properties":{"name_en":"Houaygnang","did":1609,"pid":16,"uuid":"1.609027e+06"},"geometry":{"type":"Point","coordinates":[105.7931433999949,14.200708360298284]}},{"type":"Feature","properties":{"name_en":"Houaythed","did":1609,"pid":16,"uuid":"1.609036e+06"},"geometry":{"type":"Point","coordinates":[105.73923987961003,14.192594849694796]}},{"type":"Feature","properties":{"name_en":"Houayko","did":1609,"pid":16,"uuid":"1.609037e+06"},"geometry":{"type":"Point","coordinates":[105.73740173043385,14.185139479859268]}},{"type":"Feature","properties":{"name_en":"Nadee","did":1609,"pid":16,"uuid":"1.60904e+06"},"geometry":{"type":"Point","coordinates":[105.74288030976795,14.169657270018812]}},{"type":"Feature","properties":{"name_en":"Xanvar","did":1609,"pid":16,"uuid":"1.609042e+06"},"geometry":{"type":"Point","coordinates":[105.7493202901184,14.147749990223062]}},{"type":"Feature","properties":{"name_en":"Salaosong","did":1609,"pid":16,"uuid":"1.609043e+06"},"geometry":{"type":"Point","coordinates":[105.7398072501556,14.132790469688953]}},{"type":"Feature","properties":{"name_en":"Vergnang","did":1609,"pid":16,"uuid":"1.609044e+06"},"geometry":{"type":"Point","coordinates":[105.73075941026724,14.109872919746012]}},{"type":"Feature","properties":{"name_en":"Phondoo","did":1609,"pid":16,"uuid":"1.609053e+06"},"geometry":{"type":"Point","coordinates":[105.69323077988604,14.16822094015873]}},{"type":"Feature","properties":{"name_en":"Thakang","did":1609,"pid":16,"uuid":"1.609054e+06"},"geometry":{"type":"Point","coordinates":[105.66465134012083,14.118545759806866]}},{"type":"Feature","properties":{"name_en":"Kan euang","did":1609,"pid":16,"uuid":"1.609055e+06"},"geometry":{"type":"Point","coordinates":[105.65199215005731,14.112648839904505]}},{"type":"Feature","properties":{"name_en":"Hinlad","did":1609,"pid":16,"uuid":"1.609056e+06"},"geometry":{"type":"Point","coordinates":[105.62373533007288,14.133319540039468]}},{"type":"Feature","properties":{"name_en":"Thahin","did":1609,"pid":16,"uuid":"1.609057e+06"},"geometry":{"type":"Point","coordinates":[105.5837899402137,14.149730630245966]}},{"type":"Feature","properties":{"name_en":"Kadian","did":1609,"pid":16,"uuid":"1.609058e+06"},"geometry":{"type":"Point","coordinates":[105.69396075977575,14.428114930120225]}},{"type":"Feature","properties":{"name_en":"Kouay","did":1609,"pid":16,"uuid":"1.609059e+06"},"geometry":{"type":"Point","coordinates":[105.81350630985779,14.364072579672357]}},{"type":"Feature","properties":{"name_en":"Nong nga","did":1609,"pid":16,"uuid":"1.609061e+06"},"geometry":{"type":"Point","coordinates":[105.51080150974708,14.371913260300053]}},{"type":"Feature","properties":{"name_en":"Pew","did":1609,"pid":16,"uuid":"1.609062e+06"},"geometry":{"type":"Point","coordinates":[105.49123085012344,14.329925040438964]}},{"type":"Feature","properties":{"name_en":"Por","did":1609,"pid":16,"uuid":"1.609063e+06"},"geometry":{"type":"Point","coordinates":[105.44133891030629,14.237848909721883]}},{"type":"Feature","properties":{"name_en":"Khem","did":1609,"pid":16,"uuid":"1.609064e+06"},"geometry":{"type":"Point","coordinates":[105.32350183992257,14.229391069774039]}},{"type":"Feature","properties":{"name_en":"Nongbouathong","did":1609,"pid":16,"uuid":"1.609065e+06"},"geometry":{"type":"Point","coordinates":[105.75226285014531,14.365501689598974]}},{"type":"Feature","properties":{"name_en":"Kadankang","did":1609,"pid":16,"uuid":"1.609066e+06"},"geometry":{"type":"Point","coordinates":[105.67448809045445,14.381999879673167]}},{"type":"Feature","properties":{"name_en":"Somhong","did":1609,"pid":16,"uuid":"1.609067e+06"},"geometry":{"type":"Point","coordinates":[105.67322225036789,14.313540930077046]}},{"type":"Feature","properties":{"name_en":"Houayxay","did":1609,"pid":16,"uuid":"1.60909e+06"},"geometry":{"type":"Point","coordinates":[105.53033251026572,14.455592150202786]}}]}