{"type":"FeatureCollection","features":[{"type":"Feature","properties":{"name_en":"Naphang","did":1610,"pid":16,"uuid":"1.610001e+06"},"geometry":{"type":"Point","coordinates":[105.86337687029679,14.464956160091017]}},{"type":"Feature","properties":{"name_en":"Donekamao","did":1610,"pid":16,"uuid":"1.610003e+06"},"geometry":{"type":"Point","coordinates":[105.87017409993743,14.4404095900473]}},{"type":"Feature","properties":{"name_en":"Songpeua","did":1610,"pid":16,"uuid":"1.610004e+06"},"geometry":{"type":"Point","coordinates":[105.87248473007004,14.442416549888074]}},{"type":"Feature","properties":{"name_en":"Kang","did":1610,"pid":16,"uuid":"1.610005e+06"},"geometry":{"type":"Point","coordinates":[105.87181561016932,14.434619870149595]}},{"type":"Feature","properties":{"name_en":"Bounnoy","did":1610,"pid":16,"uuid":"1.610006e+06"},"geometry":{"type":"Point","coordinates":[105.86497798959809,14.421836130402788]}},{"type":"Feature","properties":{"name_en":"Horkao","did":1610,"pid":16,"uuid":"1.610007e+06"},"geometry":{"type":"Point","coordinates":[105.86561082001667,14.397989950393702]}},{"type":"Feature","properties":{"name_en":"Thaphonuea","did":1610,"pid":16,"uuid":"1.610008e+06"},"geometry":{"type":"Point","coordinates":[105.87296736033502,14.370826209565603]}},{"type":"Feature","properties":{"name_en":"Chan","did":1610,"pid":16,"uuid":"1.610009e+06"},"geometry":{"type":"Point","coordinates":[105.91537299979771,14.328741009926908]}},{"type":"Feature","properties":{"name_en":"Kokphadeak","did":1610,"pid":16,"uuid":"1.61001e+06"},"geometry":{"type":"Point","coordinates":[105.87732402982515,14.290453229549982]}},{"type":"Feature","properties":{"name_en":"Taophoung","did":1610,"pid":16,"uuid":"1.610011e+06"},"geometry":{"type":"Point","coordinates":[105.93326082041453,14.239272580223126]}},{"type":"Feature","properties":{"name_en":"Lomphat","did":1610,"pid":16,"uuid":"1.610012e+06"},"geometry":{"type":"Point","coordinates":[105.86712845017838,14.26063059029482]}},{"type":"Feature","properties":{"name_en":"Huoaihay","did":1610,"pid":16,"uuid":"1.610013e+06"},"geometry":{"type":"Point","coordinates":[105.86407508962543,14.248293679669288]}},{"type":"Feature","properties":{"name_en":"Phonhsaath","did":1610,"pid":16,"uuid":"1.610014e+06"},"geometry":{"type":"Point","coordinates":[105.91544090006646,14.289417560004718]}},{"type":"Feature","properties":{"name_en":"Vang","did":1610,"pid":16,"uuid":"1.610015e+06"},"geometry":{"type":"Point","coordinates":[105.93330902033719,14.239250530383426]}},{"type":"Feature","properties":{"name_en":"Nalan","did":1610,"pid":16,"uuid":"1.610016e+06"},"geometry":{"type":"Point","coordinates":[105.85143517964354,14.225404379872245]}},{"type":"Feature","properties":{"name_en":"Songphueang","did":1610,"pid":16,"uuid":"1.610017e+06"},"geometry":{"type":"Point","coordinates":[105.84915998988346,14.187760840239712]}},{"type":"Feature","properties":{"name_en":"Huoaiphay","did":1610,"pid":16,"uuid":"1.610018e+06"},"geometry":{"type":"Point","coordinates":[105.86629545002374,14.16545441000186]}},{"type":"Feature","properties":{"name_en":"Boung","did":1610,"pid":16,"uuid":"1.61002e+06"},"geometry":{"type":"Point","coordinates":[105.87359013959694,14.151984439550759]}},{"type":"Feature","properties":{"name_en":"Samckang","did":1610,"pid":16,"uuid":"1.610022e+06"},"geometry":{"type":"Point","coordinates":[105.87041833980562,14.1382643598454]}},{"type":"Feature","properties":{"name_en":"Donevad","did":1610,"pid":16,"uuid":"1.610023e+06"},"geometry":{"type":"Point","coordinates":[105.86580301969268,14.144494630415426]}},{"type":"Feature","properties":{"name_en":"Nasomhong","did":1610,"pid":16,"uuid":"1.610024e+06"},"geometry":{"type":"Point","coordinates":[105.90862717020725,14.148126090385016]}},{"type":"Feature","properties":{"name_en":"Nasueak","did":1610,"pid":16,"uuid":"1.610026e+06"},"geometry":{"type":"Point","coordinates":[105.92622622990673,14.201358969644781]}},{"type":"Feature","properties":{"name_en":"Nasandphanh","did":1610,"pid":16,"uuid":"1.610027e+06"},"geometry":{"type":"Point","coordinates":[105.91738339976156,14.224292519822654]}},{"type":"Feature","properties":{"name_en":"Phonvixay","did":1610,"pid":16,"uuid":"1.610028e+06"},"geometry":{"type":"Point","coordinates":[105.96295598043864,14.178606209653351]}},{"type":"Feature","properties":{"name_en":"Hadsaikoon","did":1610,"pid":16,"uuid":"1.610029e+06"},"geometry":{"type":"Point","coordinates":[105.86827801965595,14.120685750370127]}},{"type":"Feature","properties":{"name_en":"Vernckao","did":1610,"pid":16,"uuid":"1.610031e+06"},"geometry":{"type":"Point","coordinates":[105.86249484982682,14.101694450312534]}},{"type":"Feature","properties":{"name_en":"Hathouabeng","did":1610,"pid":16,"uuid":"1.610032e+06"},"geometry":{"type":"Point","coordinates":[105.84762727981011,14.082357400434896]}},{"type":"Feature","properties":{"name_en":"Phonh","did":1610,"pid":16,"uuid":"1.610033e+06"},"geometry":{"type":"Point","coordinates":[105.86912577045273,14.075299919922632]}},{"type":"Feature","properties":{"name_en":"Kadanh","did":1610,"pid":16,"uuid":"1.610037e+06"},"geometry":{"type":"Point","coordinates":[105.89304722031257,14.061462319778252]}},{"type":"Feature","properties":{"name_en":"Doneckae","did":1610,"pid":16,"uuid":"1.610038e+06"},"geometry":{"type":"Point","coordinates":[105.88660815971537,14.059923319884437]}},{"type":"Feature","properties":{"name_en":"Kinak","did":1610,"pid":16,"uuid":"1.610039e+06"},"geometry":{"type":"Point","coordinates":[105.89461464003514,14.051129609987276]}},{"type":"Feature","properties":{"name_en":"Sonlavieng","did":1610,"pid":16,"uuid":"1.610042e+06"},"geometry":{"type":"Point","coordinates":[105.90316694031691,14.032390360066826]}},{"type":"Feature","properties":{"name_en":"Nasongphueang","did":1610,"pid":16,"uuid":"1.610043e+06"},"geometry":{"type":"Point","coordinates":[106.02195971973734,14.045798560274028]}},{"type":"Feature","properties":{"name_en":"Sod","did":1610,"pid":16,"uuid":"1.610044e+06"},"geometry":{"type":"Point","coordinates":[106.11694495044577,14.036011589785444]}},{"type":"Feature","properties":{"name_en":"Naphakiab","did":1610,"pid":16,"uuid":"1.610045e+06"},"geometry":{"type":"Point","coordinates":[106.15028623045507,14.027256780045807]}},{"type":"Feature","properties":{"name_en":"Setnumnamorm","did":1610,"pid":16,"uuid":"1.610046e+06"},"geometry":{"type":"Point","coordinates":[105.96157036972149,14.055973010092597]}},{"type":"Feature","properties":{"name_en":"Phiengdi","did":1610,"pid":16,"uuid":"1.610047e+06"},"geometry":{"type":"Point","coordinates":[105.91300495028402,14.015182729780625]}},{"type":"Feature","properties":{"name_en":"Nakasang","did":1610,"pid":16,"uuid":"1.610049e+06"},"geometry":{"type":"Point","coordinates":[105.92188641003638,14.003704469607966]}},{"type":"Feature","properties":{"name_en":"Thamoang","did":1610,"pid":16,"uuid":"1.61005e+06"},"geometry":{"type":"Point","coordinates":[105.94701979998122,13.99947152009876]}},{"type":"Feature","properties":{"name_en":"Sandhome","did":1610,"pid":16,"uuid":"1.610051e+06"},"geometry":{"type":"Point","coordinates":[105.94588539966333,14.01457495975319]}},{"type":"Feature","properties":{"name_en":"Settaolek","did":1610,"pid":16,"uuid":"1.610052e+06"},"geometry":{"type":"Point","coordinates":[105.9613276296203,14.000574329861168]}},{"type":"Feature","properties":{"name_en":"Setsavanh","did":1610,"pid":16,"uuid":"1.610053e+06"},"geometry":{"type":"Point","coordinates":[105.94612076040127,14.015332849991717]}},{"type":"Feature","properties":{"name_en":"Thackor","did":1610,"pid":16,"uuid":"1.610054e+06"},"geometry":{"type":"Point","coordinates":[105.98606355009024,13.971082519684357]}},{"type":"Feature","properties":{"name_en":"Beung","did":1610,"pid":16,"uuid":"1.610055e+06"},"geometry":{"type":"Point","coordinates":[106.01578049040805,13.954153840384576]}},{"type":"Feature","properties":{"name_en":"Donephapheng","did":1610,"pid":16,"uuid":"1.610056e+06"},"geometry":{"type":"Point","coordinates":[105.97994400014261,13.96663759995594]}},{"type":"Feature","properties":{"name_en":"Donetaventtok","did":1610,"pid":16,"uuid":"1.610058e+06"},"geometry":{"type":"Point","coordinates":[105.93525371016587,13.994730469955874]}},{"type":"Feature","properties":{"name_en":"Doneand","did":1610,"pid":16,"uuid":"1.610059e+06"},"geometry":{"type":"Point","coordinates":[105.92815750026114,13.983768199965823]}},{"type":"Feature","properties":{"name_en":"Donesom","did":1610,"pid":16,"uuid":"1.61006e+06"},"geometry":{"type":"Point","coordinates":[105.93750550029745,13.965589109797506]}},{"type":"Feature","properties":{"name_en":"Donsahong","did":1610,"pid":16,"uuid":"1.610061e+06"},"geometry":{"type":"Point","coordinates":[105.9496258196006,13.97319627004355]}},{"type":"Feature","properties":{"name_en":"Houasadam","did":1610,"pid":16,"uuid":"1.610062e+06"},"geometry":{"type":"Point","coordinates":[105.9689935504061,13.956557349898162]}},{"type":"Feature","properties":{"name_en":"Hangsadam","did":1610,"pid":16,"uuid":"1.610063e+06"},"geometry":{"type":"Point","coordinates":[105.96044224978972,13.938240629941744]}},{"type":"Feature","properties":{"name_en":"Hangkhone","did":1610,"pid":16,"uuid":"1.610064e+06"},"geometry":{"type":"Point","coordinates":[105.94790090967378,13.939120819668444]}},{"type":"Feature","properties":{"name_en":"Khonenuea","did":1610,"pid":16,"uuid":"1.610065e+06"},"geometry":{"type":"Point","coordinates":[105.92987553965547,13.966796439955816]}},{"type":"Feature","properties":{"name_en":"Dedtavanh ork","did":1610,"pid":16,"uuid":"1.610067e+06"},"geometry":{"type":"Point","coordinates":[105.92104772005976,13.983520429958253]}},{"type":"Feature","properties":{"name_en":"Thaphotay","did":1610,"pid":16,"uuid":"1.610069e+06"},"geometry":{"type":"Point","coordinates":[105.8621983804178,14.043635349973208]}},{"type":"Feature","properties":{"name_en":"Thaphao","did":1610,"pid":16,"uuid":"1.61007e+06"},"geometry":{"type":"Point","coordinates":[105.86660508016989,14.031580419644465]}},{"type":"Feature","properties":{"name_en":"Kangkoom","did":1610,"pid":16,"uuid":"1.610071e+06"},"geometry":{"type":"Point","coordinates":[105.87636949043511,14.022026139830276]}},{"type":"Feature","properties":{"name_en":"Somvant ork","did":1610,"pid":16,"uuid":"1.610072e+06"},"geometry":{"type":"Point","coordinates":[105.89684136998532,14.021264720136248]}},{"type":"Feature","properties":{"name_en":"Vernsom","did":1610,"pid":16,"uuid":"1.610073e+06"},"geometry":{"type":"Point","coordinates":[105.89686123966075,13.991573589907816]}},{"type":"Feature","properties":{"name_en":"Thakhamheb","did":1610,"pid":16,"uuid":"1.610076e+06"},"geometry":{"type":"Point","coordinates":[105.8883281196277,14.034861599654784]}},{"type":"Feature","properties":{"name_en":"Nangkhouan","did":1610,"pid":16,"uuid":"1.610077e+06"},"geometry":{"type":"Point","coordinates":[105.86094277035772,14.031132819622824]}},{"type":"Feature","properties":{"name_en":"Donesang","did":1610,"pid":16,"uuid":"1.610078e+06"},"geometry":{"type":"Point","coordinates":[105.88843508027482,13.987552210123019]}},{"type":"Feature","properties":{"name_en":"Thorlaty","did":1610,"pid":16,"uuid":"1.610079e+06"},"geometry":{"type":"Point","coordinates":[105.87176356036461,13.980691370399096]}},{"type":"Feature","properties":{"name_en":"Donepheuai","did":1610,"pid":16,"uuid":"1.61008e+06"},"geometry":{"type":"Point","coordinates":[105.87884156982412,13.999377649996111]}},{"type":"Feature","properties":{"name_en":"Houasobdi","did":1610,"pid":16,"uuid":"1.610082e+06"},"geometry":{"type":"Point","coordinates":[105.82294978026569,14.059121759910436]}},{"type":"Feature","properties":{"name_en":"Lobphakdykang","did":1610,"pid":16,"uuid":"1.610084e+06"},"geometry":{"type":"Point","coordinates":[105.83406695010918,14.031813180290866]}},{"type":"Feature","properties":{"name_en":"Lobpakdichok","did":1610,"pid":16,"uuid":"1.610085e+06"},"geometry":{"type":"Point","coordinates":[105.83646417990343,14.016619389891694]}},{"type":"Feature","properties":{"name_en":"Lobpakdikonenoy","did":1610,"pid":16,"uuid":"1.610086e+06"},"geometry":{"type":"Point","coordinates":[105.85760525963761,14.014509080063371]}},{"type":"Feature","properties":{"name_en":"Lobpakdiphotak","did":1610,"pid":16,"uuid":"1.610088e+06"},"geometry":{"type":"Point","coordinates":[105.82679297044412,14.025022250386401]}},{"type":"Feature","properties":{"name_en":"Donejonh","did":1610,"pid":16,"uuid":"1.610089e+06"},"geometry":{"type":"Point","coordinates":[105.81086610041663,14.020692910108455]}},{"type":"Feature","properties":{"name_en":"Houalong","did":1610,"pid":16,"uuid":"1.610091e+06"},"geometry":{"type":"Point","coordinates":[105.79550072970927,14.065735499931955]}},{"type":"Feature","properties":{"name_en":"Longsong","did":1610,"pid":16,"uuid":"1.610092e+06"},"geometry":{"type":"Point","coordinates":[105.79987172002983,14.05390351999167]}},{"type":"Feature","properties":{"name_en":"Longkang","did":1610,"pid":16,"uuid":"1.610093e+06"},"geometry":{"type":"Point","coordinates":[105.80203223989656,14.04224914976317]}},{"type":"Feature","properties":{"name_en":"Hanglong","did":1610,"pid":16,"uuid":"1.610094e+06"},"geometry":{"type":"Point","coordinates":[105.79666496963131,14.024793000335212]}},{"type":"Feature","properties":{"name_en":"Donethanventtok","did":1610,"pid":16,"uuid":"1.610096e+06"},"geometry":{"type":"Point","coordinates":[105.80015854981941,14.070855669613108]}},{"type":"Feature","properties":{"name_en":"Houahinoy","did":1610,"pid":16,"uuid":"1.610097e+06"},"geometry":{"type":"Point","coordinates":[105.80921066976268,14.051898739833966]}},{"type":"Feature","properties":{"name_en":"Hanghinoy","did":1610,"pid":16,"uuid":"1.610098e+06"},"geometry":{"type":"Point","coordinates":[105.81544847977754,14.029533300286152]}},{"type":"Feature","properties":{"name_en":"Donekadent","did":1610,"pid":16,"uuid":"1.610099e+06"},"geometry":{"type":"Point","coordinates":[105.78988275008123,14.041116259706117]}},{"type":"Feature","properties":{"name_en":"Donelieng","did":1610,"pid":16,"uuid":"1.6101e+06"},"geometry":{"type":"Point","coordinates":[105.8157003600366,14.060912970059793]}},{"type":"Feature","properties":{"name_en":"Houay","did":1610,"pid":16,"uuid":"1.610101e+06"},"geometry":{"type":"Point","coordinates":[105.83908762956635,14.078250939972492]}},{"type":"Feature","properties":{"name_en":"Houasangphay","did":1610,"pid":16,"uuid":"1.610102e+06"},"geometry":{"type":"Point","coordinates":[105.83731569026156,14.04943881978766]}},{"type":"Feature","properties":{"name_en":"Hangsangphay","did":1610,"pid":16,"uuid":"1.610103e+06"},"geometry":{"type":"Point","coordinates":[105.8487407303065,14.033224440277186]}},{"type":"Feature","properties":{"name_en":"Deuatay","did":1610,"pid":16,"uuid":"1.610105e+06"},"geometry":{"type":"Point","coordinates":[105.85336418971906,14.0617002801354]}},{"type":"Feature","properties":{"name_en":"Mouang","did":1610,"pid":16,"uuid":"1.610106e+06"},"geometry":{"type":"Point","coordinates":[105.87841266991178,14.064308399761838]}},{"type":"Feature","properties":{"name_en":"Sangla","did":1610,"pid":16,"uuid":"1.610107e+06"},"geometry":{"type":"Point","coordinates":[105.86763119036053,14.068114869673323]}},{"type":"Feature","properties":{"name_en":"Phimanphonh","did":1610,"pid":16,"uuid":"1.610108e+06"},"geometry":{"type":"Point","coordinates":[105.83226065021093,14.067103679610593]}},{"type":"Feature","properties":{"name_en":"Hinsiew","did":1610,"pid":16,"uuid":"1.610109e+06"},"geometry":{"type":"Point","coordinates":[105.81535628005342,14.087099459714715]}},{"type":"Feature","properties":{"name_en":"Hongphiman","did":1610,"pid":16,"uuid":"1.61011e+06"},"geometry":{"type":"Point","coordinates":[105.81081412986046,14.08461614957832]}},{"type":"Feature","properties":{"name_en":"Meuangsan","did":1610,"pid":16,"uuid":"1.610113e+06"},"geometry":{"type":"Point","coordinates":[105.7865418996769,14.099109470079448]}},{"type":"Feature","properties":{"name_en":"Sandhathnoy","did":1610,"pid":16,"uuid":"1.610114e+06"},"geometry":{"type":"Point","coordinates":[105.78978677974587,14.125104940263633]}},{"type":"Feature","properties":{"name_en":"Sandhathnhay","did":1610,"pid":16,"uuid":"1.610115e+06"},"geometry":{"type":"Point","coordinates":[105.78873132968506,14.139760609587942]}},{"type":"Feature","properties":{"name_en":"Donelekphay","did":1610,"pid":16,"uuid":"1.610116e+06"},"geometry":{"type":"Point","coordinates":[105.78283231981868,14.120349300365744]}},{"type":"Feature","properties":{"name_en":"Khonglam","did":1610,"pid":16,"uuid":"1.610117e+06"},"geometry":{"type":"Point","coordinates":[105.83578657997226,14.22621106018668]}},{"type":"Feature","properties":{"name_en":"Khongneua","did":1610,"pid":16,"uuid":"1.610118e+06"},"geometry":{"type":"Point","coordinates":[105.80549018977078,14.197656599549552]}},{"type":"Feature","properties":{"name_en":"Khonghadngiew","did":1610,"pid":16,"uuid":"1.610119e+06"},"geometry":{"type":"Point","coordinates":[105.82311163964,14.216025700438854]}},{"type":"Feature","properties":{"name_en":"Houasun","did":1610,"pid":16,"uuid":"1.610121e+06"},"geometry":{"type":"Point","coordinates":[105.85758146019232,14.261940510381926]}},{"type":"Feature","properties":{"name_en":"Hangsun","did":1610,"pid":16,"uuid":"1.610123e+06"},"geometry":{"type":"Point","coordinates":[105.8355399003237,14.247583570174152]}},{"type":"Feature","properties":{"name_en":"Kangkong","did":1610,"pid":16,"uuid":"1.610124e+06"},"geometry":{"type":"Point","coordinates":[105.85492062027384,14.116999389752506]}},{"type":"Feature","properties":{"name_en":"Na","did":1610,"pid":16,"uuid":"1.610126e+06"},"geometry":{"type":"Point","coordinates":[105.84731278956428,14.10296086992595]}},{"type":"Feature","properties":{"name_en":"Vernthong","did":1610,"pid":16,"uuid":"1.610129e+06"},"geometry":{"type":"Point","coordinates":[105.8487873298674,14.17546583996788]}},{"type":"Feature","properties":{"name_en":"Dong","did":1610,"pid":16,"uuid":"1.61013e+06"},"geometry":{"type":"Point","coordinates":[105.83691931006804,14.197329119720623]}},{"type":"Feature","properties":{"name_en":"Sandlam","did":1610,"pid":16,"uuid":"1.610131e+06"},"geometry":{"type":"Point","coordinates":[105.8377013399328,14.21977391979573]}},{"type":"Feature","properties":{"name_en":"Donechorm","did":1610,"pid":16,"uuid":"1.610134e+06"},"geometry":{"type":"Point","coordinates":[105.94054393962547,13.999032060327512]}},{"type":"Feature","properties":{"name_en":"Nongheer","did":1610,"pid":16,"uuid":"1.610135e+06"},"geometry":{"type":"Point","coordinates":[106.04907635031269,14.036553150101357]}},{"type":"Feature","properties":{"name_en":"Maysivilay","did":1610,"pid":16,"uuid":"1.610136e+06"},"geometry":{"type":"Point","coordinates":[105.93397600026019,14.016660999966005]}},{"type":"Feature","properties":{"name_en":"Donehad","did":1610,"pid":16,"uuid":"1.610137e+06"},"geometry":{"type":"Point","coordinates":[105.78371668964603,14.191687760185188]}},{"type":"Feature","properties":{"name_en":"Houahivern","did":1610,"pid":16,"uuid":"1.610138e+06"},"geometry":{"type":"Point","coordinates":[105.78379991972537,14.191850369666279]}},{"type":"Feature","properties":{"name_en":"Hithard","did":1610,"pid":16,"uuid":"1.610139e+06"},"geometry":{"type":"Point","coordinates":[105.784867440087,14.148558090214168]}},{"type":"Feature","properties":{"name_en":"Donekoy","did":1610,"pid":16,"uuid":"1.61014e+06"},"geometry":{"type":"Point","coordinates":[105.76974380980617,14.19422882002339]}},{"type":"Feature","properties":{"name_en":"Phonechampa","did":1610,"pid":16,"uuid":"1.610141e+06"},"geometry":{"type":"Point","coordinates":[105.76910167025528,14.10248009039067]}},{"type":"Feature","properties":{"name_en":"Khamaophoumeo","did":1610,"pid":16,"uuid":"1.610142e+06"},"geometry":{"type":"Point","coordinates":[105.76113097958556,14.142261100436318]}},{"type":"Feature","properties":{"name_en":"Khamaopakxe","did":1610,"pid":16,"uuid":"1.610143e+06"},"geometry":{"type":"Point","coordinates":[105.73611595042411,14.106842529825041]}},{"type":"Feature","properties":{"name_en":"Donekhao","did":1610,"pid":16,"uuid":"1.610144e+06"},"geometry":{"type":"Point","coordinates":[105.75924220016898,14.168693599559932]}},{"type":"Feature","properties":{"name_en":"Khonenoy","did":1610,"pid":16,"uuid":"1.610999e+06"},"geometry":{"type":"Point","coordinates":[105.84919092044903,13.996515479688913]}}]}