{"type":"FeatureCollection","features":[{"type":"Feature","properties":{"name_en":"saysi","did":1701,"pid":17,"uuid":"1.701001e+06"},"geometry":{"type":"Point","coordinates":[106.88520973960648,14.790035950064324]}},{"type":"Feature","properties":{"name_en":"kanmakong","did":1701,"pid":17,"uuid":"1.701002e+06"},"geometry":{"type":"Point","coordinates":[106.92696713026379,14.811111069647572]}},{"type":"Feature","properties":{"name_en":"fungdang","did":1701,"pid":17,"uuid":"1.701003e+06"},"geometry":{"type":"Point","coordinates":[106.93222091006676,14.81092173021301]}},{"type":"Feature","properties":{"name_en":"Say","did":1701,"pid":17,"uuid":"1.701004e+06"},"geometry":{"type":"Point","coordinates":[106.94158072992344,14.817842409578573]}},{"type":"Feature","properties":{"name_en":"phosay","did":1701,"pid":17,"uuid":"1.701005e+06"},"geometry":{"type":"Point","coordinates":[106.93739320995336,14.81550822008896]}},{"type":"Feature","properties":{"name_en":"Toiy","did":1701,"pid":17,"uuid":"1.701006e+06"},"geometry":{"type":"Point","coordinates":[106.95359602023346,14.832594059893632]}},{"type":"Feature","properties":{"name_en":"Kangyay","did":1701,"pid":17,"uuid":"1.701007e+06"},"geometry":{"type":"Point","coordinates":[107.01515304961261,14.839763859875026]}},{"type":"Feature","properties":{"name_en":"Hadsun","did":1701,"pid":17,"uuid":"1.701011e+06"},"geometry":{"type":"Point","coordinates":[107.01876976035982,14.795960360157482]}},{"type":"Feature","properties":{"name_en":"Vatneog","did":1701,"pid":17,"uuid":"1.701012e+06"},"geometry":{"type":"Point","coordinates":[106.94373855967447,14.813245019785692]}},{"type":"Feature","properties":{"name_en":"Vatthad","did":1701,"pid":17,"uuid":"1.701013e+06"},"geometry":{"type":"Point","coordinates":[106.94299642986302,14.811561520255616]}},{"type":"Feature","properties":{"name_en":"Vatloung","did":1701,"pid":17,"uuid":"1.701014e+06"},"geometry":{"type":"Point","coordinates":[106.93893908992496,14.808389890023886]}},{"type":"Feature","properties":{"name_en":"Somkoth","did":1701,"pid":17,"uuid":"1.701015e+06"},"geometry":{"type":"Point","coordinates":[106.92280233002354,14.802488110130113]}},{"type":"Feature","properties":{"name_en":"Donesim","did":1701,"pid":17,"uuid":"1.701016e+06"},"geometry":{"type":"Point","coordinates":[106.92496629012972,14.770372759577063]}},{"type":"Feature","properties":{"name_en":"Phog","did":1701,"pid":17,"uuid":"1.701017e+06"},"geometry":{"type":"Point","coordinates":[106.903065960252,14.804992959736568]}},{"type":"Feature","properties":{"name_en":"Thalan","did":1701,"pid":17,"uuid":"1.701018e+06"},"geometry":{"type":"Point","coordinates":[106.85144173978271,14.863116090055009]}},{"type":"Feature","properties":{"name_en":"Hadsaty","did":1701,"pid":17,"uuid":"1.701019e+06"},"geometry":{"type":"Point","coordinates":[106.8427975700708,14.904031429810725]}},{"type":"Feature","properties":{"name_en":"Kangsay","did":1701,"pid":17,"uuid":"1.701022e+06"},"geometry":{"type":"Point","coordinates":[106.86298471045238,15.03176995974254]}},{"type":"Feature","properties":{"name_en":"Sapoungneou","did":1701,"pid":17,"uuid":"1.701023e+06"},"geometry":{"type":"Point","coordinates":[106.85109103958445,15.085885620427263]}},{"type":"Feature","properties":{"name_en":"Numhieng","did":1701,"pid":17,"uuid":"1.701024e+06"},"geometry":{"type":"Point","coordinates":[106.8121575997096,15.16139743001607]}},{"type":"Feature","properties":{"name_en":"Sakare","did":1701,"pid":17,"uuid":"1.70103e+06"},"geometry":{"type":"Point","coordinates":[106.88377609968765,14.941986860180231]}},{"type":"Feature","properties":{"name_en":"Dakyieng","did":1701,"pid":17,"uuid":"1.701036e+06"},"geometry":{"type":"Point","coordinates":[107.22283456000467,14.83263823012741]}},{"type":"Feature","properties":{"name_en":"Maioudom","did":1701,"pid":17,"uuid":"1.701037e+06"},"geometry":{"type":"Point","coordinates":[106.9706031497955,14.738586740358308]}}]}