{"type":"FeatureCollection","features":[{"type":"Feature","properties":{"name_en":"Moungmay","did":1702,"pid":17,"uuid":"1.702001e+06"},"geometry":{"type":"Point","coordinates":[106.8381535703739,14.803452190057534]}},{"type":"Feature","properties":{"name_en":"Saykong","did":1702,"pid":17,"uuid":"1.702002e+06"},"geometry":{"type":"Point","coordinates":[106.83164989016956,14.80643522982195]}},{"type":"Feature","properties":{"name_en":"sayay","did":1702,"pid":17,"uuid":"1.702003e+06"},"geometry":{"type":"Point","coordinates":[106.83183337025235,14.8180984002809]}},{"type":"Feature","properties":{"name_en":"Samaky","did":1702,"pid":17,"uuid":"1.702004e+06"},"geometry":{"type":"Point","coordinates":[106.84708742013842,14.807483049897032]}},{"type":"Feature","properties":{"name_en":"Sivilay","did":1702,"pid":17,"uuid":"1.702005e+06"},"geometry":{"type":"Point","coordinates":[106.83536374021973,14.823025450442303]}},{"type":"Feature","properties":{"name_en":"Sakamankung","did":1702,"pid":17,"uuid":"1.702007e+06"},"geometry":{"type":"Point","coordinates":[106.82806301954653,14.7993874698976]}},{"type":"Feature","properties":{"name_en":"Luck 3","did":1702,"pid":17,"uuid":"1.702009e+06"},"geometry":{"type":"Point","coordinates":[106.81724634010811,14.822197060309758]}},{"type":"Feature","properties":{"name_en":"Saphaothong","did":1702,"pid":17,"uuid":"1.70201e+06"},"geometry":{"type":"Point","coordinates":[106.78786987014632,14.811134630147835]}},{"type":"Feature","properties":{"name_en":"Thahin","did":1702,"pid":17,"uuid":"1.702011e+06"},"geometry":{"type":"Point","coordinates":[106.79871000995787,14.834454840151217]}},{"type":"Feature","properties":{"name_en":"Konghun","did":1702,"pid":17,"uuid":"1.702012e+06"},"geometry":{"type":"Point","coordinates":[106.77428455970194,14.864521320433676]}},{"type":"Feature","properties":{"name_en":"Kayue","did":1702,"pid":17,"uuid":"1.702013e+06"},"geometry":{"type":"Point","coordinates":[106.79283706023631,14.8634402203688]}},{"type":"Feature","properties":{"name_en":"Layaokow","did":1702,"pid":17,"uuid":"1.702015e+06"},"geometry":{"type":"Point","coordinates":[106.76344633976785,14.843599080118997]}},{"type":"Feature","properties":{"name_en":"Layaokung","did":1702,"pid":17,"uuid":"1.702016e+06"},"geometry":{"type":"Point","coordinates":[106.75868139969761,14.836204730086184]}},{"type":"Feature","properties":{"name_en":"Layaotay","did":1702,"pid":17,"uuid":"1.702017e+06"},"geometry":{"type":"Point","coordinates":[106.74218706982366,14.836963460160245]}},{"type":"Feature","properties":{"name_en":"Champhao","did":1702,"pid":17,"uuid":"1.702018e+06"},"geometry":{"type":"Point","coordinates":[106.73918424971873,14.822894599619344]}},{"type":"Feature","properties":{"name_en":"Kamesung","did":1702,"pid":17,"uuid":"1.702019e+06"},"geometry":{"type":"Point","coordinates":[106.75761077991538,14.809521699891741]}},{"type":"Feature","properties":{"name_en":"Somsanook","did":1702,"pid":17,"uuid":"1.70202e+06"},"geometry":{"type":"Point","coordinates":[106.74870533968918,14.787932430324876]}},{"type":"Feature","properties":{"name_en":"Sisomphone","did":1702,"pid":17,"uuid":"1.702021e+06"},"geometry":{"type":"Point","coordinates":[106.74010676031564,14.774950370144023]}},{"type":"Feature","properties":{"name_en":"Vatloung","did":1702,"pid":17,"uuid":"1.702024e+06"},"geometry":{"type":"Point","coordinates":[106.83378651992639,14.810048580382208]}},{"type":"Feature","properties":{"name_en":"Phonesavung","did":1702,"pid":17,"uuid":"1.702026e+06"},"geometry":{"type":"Point","coordinates":[106.8288114402015,14.812829530286857]}},{"type":"Feature","properties":{"name_en":"Saysaead","did":1702,"pid":17,"uuid":"1.702029e+06"},"geometry":{"type":"Point","coordinates":[106.82543797043127,14.822183320286685]}},{"type":"Feature","properties":{"name_en":"Vernkan","did":1702,"pid":17,"uuid":"1.702031e+06"},"geometry":{"type":"Point","coordinates":[106.81369316999701,14.824149039958375]}},{"type":"Feature","properties":{"name_en":"Sayphosy","did":1702,"pid":17,"uuid":"1.702035e+06"},"geometry":{"type":"Point","coordinates":[106.82614959968804,14.915097300124764]}},{"type":"Feature","properties":{"name_en":"Halungyay","did":1702,"pid":17,"uuid":"1.702036e+06"},"geometry":{"type":"Point","coordinates":[106.8513389798052,14.953377199691001]}},{"type":"Feature","properties":{"name_en":"Kasom","did":1702,"pid":17,"uuid":"1.702037e+06"},"geometry":{"type":"Point","coordinates":[106.8505212400093,14.987505289940449]}},{"type":"Feature","properties":{"name_en":"Salk","did":1702,"pid":17,"uuid":"1.702038e+06"},"geometry":{"type":"Point","coordinates":[106.84222810021895,15.06124332956315]}},{"type":"Feature","properties":{"name_en":"Haisok","did":1702,"pid":17,"uuid":"1.702039e+06"},"geometry":{"type":"Point","coordinates":[106.85747787965929,15.077663049911786]}},{"type":"Feature","properties":{"name_en":"Meouhuomeung","did":1702,"pid":17,"uuid":"1.702043e+06"},"geometry":{"type":"Point","coordinates":[106.76654714044226,15.16693987959582]}}]}