{"type":"FeatureCollection","features":[{"type":"Feature","properties":{"name_en":"Mitsumphun","did":1703,"pid":17,"uuid":"1.703001e+06"},"geometry":{"type":"Point","coordinates":[106.58037250035991,14.681158799869115]}},{"type":"Feature","properties":{"name_en":"khung","did":1703,"pid":17,"uuid":"1.703005e+06"},"geometry":{"type":"Point","coordinates":[106.70770300022147,14.755574999565727]}},{"type":"Feature","properties":{"name_en":"Phu","did":1703,"pid":17,"uuid":"1.703006e+06"},"geometry":{"type":"Point","coordinates":[106.69684215004207,14.745000909736204]}},{"type":"Feature","properties":{"name_en":"Somsook","did":1703,"pid":17,"uuid":"1.703007e+06"},"geometry":{"type":"Point","coordinates":[106.67398502999629,14.742919180019168]}},{"type":"Feature","properties":{"name_en":"Donesuea","did":1703,"pid":17,"uuid":"1.703008e+06"},"geometry":{"type":"Point","coordinates":[106.6619600196754,14.711754339857693]}},{"type":"Feature","properties":{"name_en":"chomphoy","did":1703,"pid":17,"uuid":"1.703009e+06"},"geometry":{"type":"Point","coordinates":[106.69243276032044,14.744101450209895]}},{"type":"Feature","properties":{"name_en":"Donephay","did":1703,"pid":17,"uuid":"1.70301e+06"},"geometry":{"type":"Point","coordinates":[106.65348239019228,14.709174980235254]}},{"type":"Feature","properties":{"name_en":"Donesoug","did":1703,"pid":17,"uuid":"1.703011e+06"},"geometry":{"type":"Point","coordinates":[106.64151797998954,14.704693090251372]}},{"type":"Feature","properties":{"name_en":"Oudomsook","did":1703,"pid":17,"uuid":"1.703012e+06"},"geometry":{"type":"Point","coordinates":[106.62066765990599,14.696411690385272]}},{"type":"Feature","properties":{"name_en":"Hadphila","did":1703,"pid":17,"uuid":"1.703013e+06"},"geometry":{"type":"Point","coordinates":[106.63517389025674,14.678301999817483]}},{"type":"Feature","properties":{"name_en":"Hartsaykham","did":1703,"pid":17,"uuid":"1.703015e+06"},"geometry":{"type":"Point","coordinates":[106.61500534974031,14.675389790436645]}},{"type":"Feature","properties":{"name_en":"Oudomsay","did":1703,"pid":17,"uuid":"1.703016e+06"},"geometry":{"type":"Point","coordinates":[106.58542746000717,14.680414400016739]}},{"type":"Feature","properties":{"name_en":"tea","did":1703,"pid":17,"uuid":"1.703017e+06"},"geometry":{"type":"Point","coordinates":[106.54393402044435,14.728536420223694]}},{"type":"Feature","properties":{"name_en":"Mai","did":1703,"pid":17,"uuid":"1.703021e+06"},"geometry":{"type":"Point","coordinates":[106.49738285977264,14.713926339713167]}},{"type":"Feature","properties":{"name_en":"Thahintay","did":1703,"pid":17,"uuid":"1.703022e+06"},"geometry":{"type":"Point","coordinates":[106.49759599968516,14.713471000303004]}},{"type":"Feature","properties":{"name_en":"Samongtay","did":1703,"pid":17,"uuid":"1.703023e+06"},"geometry":{"type":"Point","coordinates":[106.49608164977627,14.711434490435394]}},{"type":"Feature","properties":{"name_en":"Thasangchan","did":1703,"pid":17,"uuid":"1.703024e+06"},"geometry":{"type":"Point","coordinates":[106.48778583025037,14.746823050328713]}},{"type":"Feature","properties":{"name_en":"Hinlath","did":1703,"pid":17,"uuid":"1.703025e+06"},"geometry":{"type":"Point","coordinates":[106.48540519974573,14.746104800062634]}},{"type":"Feature","properties":{"name_en":"Tamoryose","did":1703,"pid":17,"uuid":"1.703026e+06"},"geometry":{"type":"Point","coordinates":[106.45540402012493,14.735354929633028]}},{"type":"Feature","properties":{"name_en":"Phindong","did":1703,"pid":17,"uuid":"1.703027e+06"},"geometry":{"type":"Point","coordinates":[106.44809299977763,14.707117999646378]}},{"type":"Feature","properties":{"name_en":"Nonghin","did":1703,"pid":17,"uuid":"1.703028e+06"},"geometry":{"type":"Point","coordinates":[106.42745750030012,14.8931186897189]}},{"type":"Feature","properties":{"name_en":"Donekhong","did":1703,"pid":17,"uuid":"1.703029e+06"},"geometry":{"type":"Point","coordinates":[106.41551806969838,14.933652319950793]}},{"type":"Feature","properties":{"name_en":"Mathka","did":1703,"pid":17,"uuid":"1.70303e+06"},"geometry":{"type":"Point","coordinates":[106.41094095963517,14.940079310229487]}},{"type":"Feature","properties":{"name_en":"Nongmoung","did":1703,"pid":17,"uuid":"1.703031e+06"},"geometry":{"type":"Point","coordinates":[106.40127294018394,14.951964260441972]}},{"type":"Feature","properties":{"name_en":"Phakbor","did":1703,"pid":17,"uuid":"1.703032e+06"},"geometry":{"type":"Point","coordinates":[106.2789540602153,14.62890056959763]}},{"type":"Feature","properties":{"name_en":"Done","did":1703,"pid":17,"uuid":"1.703033e+06"},"geometry":{"type":"Point","coordinates":[106.28290496027269,14.651802530049519]}},{"type":"Feature","properties":{"name_en":"Sivilay","did":1703,"pid":17,"uuid":"1.703034e+06"},"geometry":{"type":"Point","coordinates":[106.29264262985724,14.584161490155733]}},{"type":"Feature","properties":{"name_en":"Phonesaath","did":1703,"pid":17,"uuid":"1.703035e+06"},"geometry":{"type":"Point","coordinates":[106.35581451977104,14.58981239988005]}},{"type":"Feature","properties":{"name_en":"Bangvilay","did":1703,"pid":17,"uuid":"1.703036e+06"},"geometry":{"type":"Point","coordinates":[106.27249195006476,14.695443999648726]}},{"type":"Feature","properties":{"name_en":"Phonemani","did":1703,"pid":17,"uuid":"1.703037e+06"},"geometry":{"type":"Point","coordinates":[106.19694779006599,14.721962660157295]}},{"type":"Feature","properties":{"name_en":"Chantor","did":1703,"pid":17,"uuid":"1.703038e+06"},"geometry":{"type":"Point","coordinates":[106.31293597979379,14.690848030038262]}},{"type":"Feature","properties":{"name_en":"Kasare","did":1703,"pid":17,"uuid":"1.703039e+06"},"geometry":{"type":"Point","coordinates":[106.38623287024443,14.703208489592237]}},{"type":"Feature","properties":{"name_en":"Hadxaisoung","did":1703,"pid":17,"uuid":"1.70304e+06"},"geometry":{"type":"Point","coordinates":[106.5704474896951,14.64245351978439]}},{"type":"Feature","properties":{"name_en":"Namkong","did":1703,"pid":17,"uuid":"1.703041e+06"},"geometry":{"type":"Point","coordinates":[106.58269487001697,14.637023470042942]}},{"type":"Feature","properties":{"name_en":"Hinsombath","did":1703,"pid":17,"uuid":"1.703042e+06"},"geometry":{"type":"Point","coordinates":[106.57871145997645,14.654707529668483]}},{"type":"Feature","properties":{"name_en":"Kunmarnao","did":1703,"pid":17,"uuid":"1.703043e+06"},"geometry":{"type":"Point","coordinates":[106.5518951502286,14.618889059983344]}},{"type":"Feature","properties":{"name_en":"Boungkeo","did":1703,"pid":17,"uuid":"1.703044e+06"},"geometry":{"type":"Point","coordinates":[106.53636968957953,14.593075390222356]}},{"type":"Feature","properties":{"name_en":"Somphoy","did":1703,"pid":17,"uuid":"1.703045e+06"},"geometry":{"type":"Point","coordinates":[106.49826564024157,14.580650059681334]}},{"type":"Feature","properties":{"name_en":"Takgao","did":1703,"pid":17,"uuid":"1.703046e+06"},"geometry":{"type":"Point","coordinates":[106.47634587012143,14.563669660188395]}},{"type":"Feature","properties":{"name_en":"Hadoudom","did":1703,"pid":17,"uuid":"1.703047e+06"},"geometry":{"type":"Point","coordinates":[106.36763819980374,14.456770140287714]}}]}