{"type":"FeatureCollection","features":[{"type":"Feature","properties":{"name_en":"Jalernsay","did":1704,"pid":17,"uuid":"1.704001e+06"},"geometry":{"type":"Point","coordinates":[107.07599057989127,15.155992860043145]}},{"type":"Feature","properties":{"name_en":"Dakkiat","did":1704,"pid":17,"uuid":"1.704003e+06"},"geometry":{"type":"Point","coordinates":[107.0025999802928,14.943955350010524]}},{"type":"Feature","properties":{"name_en":"Dakkanath","did":1704,"pid":17,"uuid":"1.704004e+06"},"geometry":{"type":"Point","coordinates":[107.09063033002782,15.145211389868946]}},{"type":"Feature","properties":{"name_en":"Dakhiat","did":1704,"pid":17,"uuid":"1.704005e+06"},"geometry":{"type":"Point","coordinates":[107.06167570957328,14.9146450102154]}},{"type":"Feature","properties":{"name_en":"Hindum","did":1704,"pid":17,"uuid":"1.704007e+06"},"geometry":{"type":"Point","coordinates":[107.1346678398768,14.937761209828048]}},{"type":"Feature","properties":{"name_en":"Donekand","did":1704,"pid":17,"uuid":"1.704008e+06"},"geometry":{"type":"Point","coordinates":[107.14695646005971,14.922279080399672]}},{"type":"Feature","properties":{"name_en":"Yiatdak","did":1704,"pid":17,"uuid":"1.70401e+06"},"geometry":{"type":"Point","coordinates":[107.40383715009915,14.940885990167237]}},{"type":"Feature","properties":{"name_en":"Kachung","did":1704,"pid":17,"uuid":"1.704011e+06"},"geometry":{"type":"Point","coordinates":[107.46484776955425,15.047886679943106]}},{"type":"Feature","properties":{"name_en":"Dakpork","did":1704,"pid":17,"uuid":"1.704012e+06"},"geometry":{"type":"Point","coordinates":[107.44377122039263,15.115847739893983]}},{"type":"Feature","properties":{"name_en":"Nongpha","did":1704,"pid":17,"uuid":"1.704014e+06"},"geometry":{"type":"Point","coordinates":[107.42733565032059,15.098490909707216]}},{"type":"Feature","properties":{"name_en":"Vungtatyai","did":1704,"pid":17,"uuid":"1.704015e+06"},"geometry":{"type":"Point","coordinates":[107.39770737968409,15.025154960012596]}},{"type":"Feature","properties":{"name_en":"Vungtatnoy","did":1704,"pid":17,"uuid":"1.704016e+06"},"geometry":{"type":"Point","coordinates":[107.40299275993945,15.072127139857727]}},{"type":"Feature","properties":{"name_en":"Misay","did":1704,"pid":17,"uuid":"1.704017e+06"},"geometry":{"type":"Point","coordinates":[107.04523485995497,14.923717250344714]}},{"type":"Feature","properties":{"name_en":"Tadsang","did":1704,"pid":17,"uuid":"1.704018e+06"},"geometry":{"type":"Point","coordinates":[106.96881093018234,14.981606949827414]}},{"type":"Feature","properties":{"name_en":"Moon","did":1704,"pid":17,"uuid":"1.704021e+06"},"geometry":{"type":"Point","coordinates":[106.910712360226,15.070247750386022]}},{"type":"Feature","properties":{"name_en":"Maythavone","did":1704,"pid":17,"uuid":"1.704023e+06"},"geometry":{"type":"Point","coordinates":[107.22226668978983,15.248494120188298]}},{"type":"Feature","properties":{"name_en":"Daksang","did":1704,"pid":17,"uuid":"1.704024e+06"},"geometry":{"type":"Point","coordinates":[107.21783240986551,15.266410349616558]}},{"type":"Feature","properties":{"name_en":"Dakphadook","did":1704,"pid":17,"uuid":"1.704025e+06"},"geometry":{"type":"Point","coordinates":[107.22037354986873,15.279207430384789]}},{"type":"Feature","properties":{"name_en":"Daksao","did":1704,"pid":17,"uuid":"1.704026e+06"},"geometry":{"type":"Point","coordinates":[107.24170680000435,15.229539599999688]}},{"type":"Feature","properties":{"name_en":"Sooksavung","did":1704,"pid":17,"uuid":"1.704027e+06"},"geometry":{"type":"Point","coordinates":[107.31008925015185,15.160837099658037]}},{"type":"Feature","properties":{"name_en":"Dakdao","did":1704,"pid":17,"uuid":"1.704029e+06"},"geometry":{"type":"Point","coordinates":[107.21988514026657,15.272134019804266]}},{"type":"Feature","properties":{"name_en":"Dakband","did":1704,"pid":17,"uuid":"1.70403e+06"},"geometry":{"type":"Point","coordinates":[107.21775622019557,15.284513670286854]}},{"type":"Feature","properties":{"name_en":"Vungsay","did":1704,"pid":17,"uuid":"1.704031e+06"},"geometry":{"type":"Point","coordinates":[107.05035577993502,14.92963940016247]}},{"type":"Feature","properties":{"name_en":"Kongnayai","did":1704,"pid":17,"uuid":"1.704032e+06"},"geometry":{"type":"Point","coordinates":[107.13847590966373,15.119942379631288]}},{"type":"Feature","properties":{"name_en":"Donechun","did":1704,"pid":17,"uuid":"1.704035e+06"},"geometry":{"type":"Point","coordinates":[107.16712474984729,15.224209570165996]}},{"type":"Feature","properties":{"name_en":"Dakyare","did":1704,"pid":17,"uuid":"1.704036e+06"},"geometry":{"type":"Point","coordinates":[107.14927860000353,15.163842799999768]}},{"type":"Feature","properties":{"name_en":"Daklakow","did":1704,"pid":17,"uuid":"1.704038e+06"},"geometry":{"type":"Point","coordinates":[107.13865494020936,15.201792590237442]}},{"type":"Feature","properties":{"name_en":"Daklomrg","did":1704,"pid":17,"uuid":"1.704039e+06"},"geometry":{"type":"Point","coordinates":[107.14894917977422,15.212912270277206]}},{"type":"Feature","properties":{"name_en":"Dakker","did":1704,"pid":17,"uuid":"1.70404e+06"},"geometry":{"type":"Point","coordinates":[107.12727320000334,15.198205699999775]}},{"type":"Feature","properties":{"name_en":"Daknong","did":1704,"pid":17,"uuid":"1.704046e+06"},"geometry":{"type":"Point","coordinates":[107.06237133031344,15.272055480359715]}},{"type":"Feature","properties":{"name_en":"Dakphoremai","did":1704,"pid":17,"uuid":"1.704047e+06"},"geometry":{"type":"Point","coordinates":[107.08836159968986,15.183905860409402]}},{"type":"Feature","properties":{"name_en":"Darkpokkao","did":1704,"pid":17,"uuid":"1.704048e+06"},"geometry":{"type":"Point","coordinates":[107.07999599955471,15.172992999913015]}},{"type":"Feature","properties":{"name_en":"Dakdor","did":1704,"pid":17,"uuid":"1.704049e+06"},"geometry":{"type":"Point","coordinates":[107.1188594003902,15.258595909639634]}},{"type":"Feature","properties":{"name_en":"Dakyok","did":1704,"pid":17,"uuid":"1.70405e+06"},"geometry":{"type":"Point","coordinates":[107.10305180043434,15.251906389579286]}},{"type":"Feature","properties":{"name_en":"Daksiet","did":1704,"pid":17,"uuid":"1.704052e+06"},"geometry":{"type":"Point","coordinates":[107.11325468013676,15.231148950117522]}},{"type":"Feature","properties":{"name_en":"Daksenm","did":1704,"pid":17,"uuid":"1.704053e+06"},"geometry":{"type":"Point","coordinates":[107.1029977396762,15.212009540348017]}},{"type":"Feature","properties":{"name_en":"Daksamore","did":1704,"pid":17,"uuid":"1.704054e+06"},"geometry":{"type":"Point","coordinates":[107.07657428953164,15.244503239716142]}},{"type":"Feature","properties":{"name_en":"Somboun","did":1704,"pid":17,"uuid":"1.704056e+06"},"geometry":{"type":"Point","coordinates":[107.05004901016125,14.9237197600133]}},{"type":"Feature","properties":{"name_en":"Mai","did":1704,"pid":17,"uuid":"1.704059e+06"},"geometry":{"type":"Point","coordinates":[107.07303989972907,14.85714967971149]}},{"type":"Feature","properties":{"name_en":"Tathkoom","did":1704,"pid":17,"uuid":"1.70406e+06"},"geometry":{"type":"Point","coordinates":[107.08213736006473,14.8894273895582]}},{"type":"Feature","properties":{"name_en":"Pheerkeo","did":1704,"pid":17,"uuid":"1.704061e+06"},"geometry":{"type":"Point","coordinates":[107.03635448983329,14.902189250373938]}},{"type":"Feature","properties":{"name_en":"Phouxai","did":1704,"pid":17,"uuid":"1.704062e+06"},"geometry":{"type":"Point","coordinates":[107.04744063978278,14.929300850393702]}}]}