{"type":"FeatureCollection","features":[{"type":"Feature","properties":{"name_en":"Vongsamphunh","did":1705,"pid":17,"uuid":"1.705001e+06"},"geometry":{"type":"Point","coordinates":[106.84211000043534,14.689059919997725]}},{"type":"Feature","properties":{"name_en":"Vongsay","did":1705,"pid":17,"uuid":"1.705005e+06"},"geometry":{"type":"Point","coordinates":[106.71130638022,14.649567660260361]}},{"type":"Feature","properties":{"name_en":"Etoom","did":1705,"pid":17,"uuid":"1.705007e+06"},"geometry":{"type":"Point","coordinates":[107.2963782197766,14.722705879855038]}},{"type":"Feature","properties":{"name_en":"Namsouan","did":1705,"pid":17,"uuid":"1.705008e+06"},"geometry":{"type":"Point","coordinates":[107.33044404006064,14.676365439971752]}},{"type":"Feature","properties":{"name_en":"Kaouan","did":1705,"pid":17,"uuid":"1.705012e+06"},"geometry":{"type":"Point","coordinates":[107.4833124302743,14.740668719893016]}},{"type":"Feature","properties":{"name_en":"Lamong","did":1705,"pid":17,"uuid":"1.705013e+06"},"geometry":{"type":"Point","coordinates":[106.84359888025729,14.463106440206479]}},{"type":"Feature","properties":{"name_en":"Vonglakone","did":1705,"pid":17,"uuid":"1.705014e+06"},"geometry":{"type":"Point","coordinates":[106.70671937953864,14.639858229684059]}},{"type":"Feature","properties":{"name_en":"Veingxay","did":1705,"pid":17,"uuid":"1.705018e+06"},"geometry":{"type":"Point","coordinates":[106.71658446018905,14.642250510417899]}},{"type":"Feature","properties":{"name_en":"Vangyung","did":1705,"pid":17,"uuid":"1.705019e+06"},"geometry":{"type":"Point","coordinates":[106.83820034038463,14.69491811004404]}},{"type":"Feature","properties":{"name_en":"Vongvilaytay","did":1705,"pid":17,"uuid":"1.70502e+06"},"geometry":{"type":"Point","coordinates":[106.83654047960421,14.684722200321948]}},{"type":"Feature","properties":{"name_en":"Phouhome","did":1705,"pid":17,"uuid":"1.705023e+06"},"geometry":{"type":"Point","coordinates":[106.80163587964157,14.685227129960447]}},{"type":"Feature","properties":{"name_en":"Phousay","did":1705,"pid":17,"uuid":"1.705024e+06"},"geometry":{"type":"Point","coordinates":[106.77240508969085,14.731480809919413]}},{"type":"Feature","properties":{"name_en":"Phouyung","did":1705,"pid":17,"uuid":"1.705025e+06"},"geometry":{"type":"Point","coordinates":[107.48932484958321,14.651399270015023]}},{"type":"Feature","properties":{"name_en":"Vungkhan","did":1705,"pid":17,"uuid":"1.705026e+06"},"geometry":{"type":"Point","coordinates":[106.86129810027012,14.699284919878442]}},{"type":"Feature","properties":{"name_en":"Khamvongsa","did":1705,"pid":17,"uuid":"1.705027e+06"},"geometry":{"type":"Point","coordinates":[106.92874333986086,14.75433902045206]}}]}