{"type":"FeatureCollection","features":[{"type":"Feature","properties":{"name_en":"Phouhouaxang","did":1801,"pid":18,"uuid":"1.801001e+06"},"geometry":{"type":"Point","coordinates":[103.09277280966991,18.897574689801065]}},{"type":"Feature","properties":{"name_en":"Phasangop","did":1801,"pid":18,"uuid":"1.801002e+06"},"geometry":{"type":"Point","coordinates":[103.10308926019034,18.90324110963624]}},{"type":"Feature","properties":{"name_en":"Thongkhoun","did":1801,"pid":18,"uuid":"1.801003e+06"},"geometry":{"type":"Point","coordinates":[103.00132758983311,18.86797014992889]}},{"type":"Feature","properties":{"name_en":"Thonghuk","did":1801,"pid":18,"uuid":"1.801004e+06"},"geometry":{"type":"Point","coordinates":[102.96969444987583,18.8488535402775]}},{"type":"Feature","properties":{"name_en":"Korhai","did":1801,"pid":18,"uuid":"1.801005e+06"},"geometry":{"type":"Point","coordinates":[103.31577661028687,18.9699252702031]}},{"type":"Feature","properties":{"name_en":"Om","did":1801,"pid":18,"uuid":"1.801006e+06"},"geometry":{"type":"Point","coordinates":[103.26900718993564,18.958212310147122]}},{"type":"Feature","properties":{"name_en":"Torlo","did":1801,"pid":18,"uuid":"1.801007e+06"},"geometry":{"type":"Point","coordinates":[103.21683998009297,18.93989517042034]}},{"type":"Feature","properties":{"name_en":"Aoneua","did":1801,"pid":18,"uuid":"1.801008e+06"},"geometry":{"type":"Point","coordinates":[103.15984152954724,18.815281840344568]}},{"type":"Feature","properties":{"name_en":"Aokang","did":1801,"pid":18,"uuid":"1.801009e+06"},"geometry":{"type":"Point","coordinates":[103.14551710971256,18.81206871986685]}},{"type":"Feature","properties":{"name_en":"Aotai","did":1801,"pid":18,"uuid":"1.80101e+06"},"geometry":{"type":"Point","coordinates":[103.09620226954479,18.799370969621513]}},{"type":"Feature","properties":{"name_en":"Namcha","did":1801,"pid":18,"uuid":"1.801011e+06"},"geometry":{"type":"Point","coordinates":[102.9419706404002,18.762872060406313]}},{"type":"Feature","properties":{"name_en":"Nammo","did":1801,"pid":18,"uuid":"1.801012e+06"},"geometry":{"type":"Point","coordinates":[102.92257985978809,18.87258094984503]}},{"type":"Feature","properties":{"name_en":"Namyon","did":1801,"pid":18,"uuid":"1.801013e+06"},"geometry":{"type":"Point","coordinates":[102.90094289987398,18.881715879945247]}},{"type":"Feature","properties":{"name_en":"Luck 24","did":1801,"pid":18,"uuid":"1.801014e+06"},"geometry":{"type":"Point","coordinates":[102.6442145095963,18.809751290196704]}},{"type":"Feature","properties":{"name_en":"Luck 18","did":1801,"pid":18,"uuid":"1.801015e+06"},"geometry":{"type":"Point","coordinates":[102.63019343008703,18.770632609922586]}},{"type":"Feature","properties":{"name_en":"Hinhouaseua","did":1801,"pid":18,"uuid":"1.801016e+06"},"geometry":{"type":"Point","coordinates":[102.61367806326486,18.751326532849323]}},{"type":"Feature","properties":{"name_en":"Phonpha","did":1801,"pid":18,"uuid":"1.801017e+06"},"geometry":{"type":"Point","coordinates":[102.6082807897974,18.750948799916117]}},{"type":"Feature","properties":{"name_en":"Muangsom","did":1801,"pid":18,"uuid":"1.801018e+06"},"geometry":{"type":"Point","coordinates":[102.61723131961986,18.7401379898775]}},{"type":"Feature","properties":{"name_en":"Xaichalern","did":1801,"pid":18,"uuid":"1.801019e+06"},"geometry":{"type":"Point","coordinates":[102.61938974003758,18.70855807999147]}},{"type":"Feature","properties":{"name_en":"Sanphouxai","did":1801,"pid":18,"uuid":"1.802025e+06"},"geometry":{"type":"Point","coordinates":[103.31419042025206,19.05380305972021]}}]}