{"type":"FeatureCollection","features":[{"type":"Feature","properties":{"name_en":"Sibounheuang","did":1802,"pid":18,"uuid":"1.802001e+06"},"geometry":{"type":"Point","coordinates":[103.60622322028347,18.987292149750942]}},{"type":"Feature","properties":{"name_en":"Xiengtan","did":1802,"pid":18,"uuid":"1.802002e+06"},"geometry":{"type":"Point","coordinates":[103.62072566967315,18.97988465020427]}},{"type":"Feature","properties":{"name_en":"Phonechalern","did":1802,"pid":18,"uuid":"1.802003e+06"},"geometry":{"type":"Point","coordinates":[103.63900660978041,18.96242045029088]}},{"type":"Feature","properties":{"name_en":"Phonehom","did":1802,"pid":18,"uuid":"1.802004e+06"},"geometry":{"type":"Point","coordinates":[103.68674564977171,18.93502898023423]}},{"type":"Feature","properties":{"name_en":"Namphang","did":1802,"pid":18,"uuid":"1.802005e+06"},"geometry":{"type":"Point","coordinates":[103.59994727009148,18.993932050008294]}},{"type":"Feature","properties":{"name_en":"Khonesana","did":1802,"pid":18,"uuid":"1.802006e+06"},"geometry":{"type":"Point","coordinates":[103.7020969399526,18.925620289647092]}},{"type":"Feature","properties":{"name_en":"Xamkorthong","did":1802,"pid":18,"uuid":"1.802007e+06"},"geometry":{"type":"Point","coordinates":[103.52379097969522,19.033646509712614]}},{"type":"Feature","properties":{"name_en":"Danemixai","did":1802,"pid":18,"uuid":"1.802008e+06"},"geometry":{"type":"Point","coordinates":[103.65635337041442,18.877785019855576]}},{"type":"Feature","properties":{"name_en":"Nahinboon","did":1802,"pid":18,"uuid":"1.802009e+06"},"geometry":{"type":"Point","coordinates":[103.63484000019456,18.99245000015999]}},{"type":"Feature","properties":{"name_en":"Xiengkhong","did":1802,"pid":18,"uuid":"1.80201e+06"},"geometry":{"type":"Point","coordinates":[103.33571606994275,19.11058358016387]}},{"type":"Feature","properties":{"name_en":"Viengthong","did":1802,"pid":18,"uuid":"1.802011e+06"},"geometry":{"type":"Point","coordinates":[103.35348118025654,19.068006439553944]}},{"type":"Feature","properties":{"name_en":"Nasong","did":1802,"pid":18,"uuid":"1.802012e+06"},"geometry":{"type":"Point","coordinates":[103.37621839999925,19.049494799999895]}},{"type":"Feature","properties":{"name_en":"Thaviengxai","did":1802,"pid":18,"uuid":"1.802013e+06"},"geometry":{"type":"Point","coordinates":[103.397103709699,19.0388604699617]}},{"type":"Feature","properties":{"name_en":"Phonehom","did":1802,"pid":18,"uuid":"1.802014e+06"},"geometry":{"type":"Point","coordinates":[103.38317591990024,19.013298770169907]}},{"type":"Feature","properties":{"name_en":"Nahong","did":1802,"pid":18,"uuid":"1.802015e+06"},"geometry":{"type":"Point","coordinates":[103.39599712953292,19.028475710277718]}},{"type":"Feature","properties":{"name_en":"Hardsamkhone","did":1802,"pid":18,"uuid":"1.802016e+06"},"geometry":{"type":"Point","coordinates":[103.44212566963385,19.020889840294267]}},{"type":"Feature","properties":{"name_en":"Pou","did":1802,"pid":18,"uuid":"1.802017e+06"},"geometry":{"type":"Point","coordinates":[103.45240080016816,19.01980413041052]}},{"type":"Feature","properties":{"name_en":"Phiengta","did":1802,"pid":18,"uuid":"1.802018e+06"},"geometry":{"type":"Point","coordinates":[103.42078425959845,19.028355099749668]}},{"type":"Feature","properties":{"name_en":"Namlong","did":1802,"pid":18,"uuid":"1.802019e+06"},"geometry":{"type":"Point","coordinates":[103.48628597987424,19.044447510011334]}},{"type":"Feature","properties":{"name_en":"Vunghai","did":1802,"pid":18,"uuid":"1.80202e+06"},"geometry":{"type":"Point","coordinates":[103.80520817979625,18.858009339832858]}},{"type":"Feature","properties":{"name_en":"Thidnoon","did":1802,"pid":18,"uuid":"1.802021e+06"},"geometry":{"type":"Point","coordinates":[103.74105811976995,18.90452622035088]}},{"type":"Feature","properties":{"name_en":"Pakyong","did":1802,"pid":18,"uuid":"1.802022e+06"},"geometry":{"type":"Point","coordinates":[103.76603276033207,18.888134910368972]}},{"type":"Feature","properties":{"name_en":"Yamchalern","did":1802,"pid":18,"uuid":"1.802023e+06"},"geometry":{"type":"Point","coordinates":[103.78481241034933,18.951876350026446]}},{"type":"Feature","properties":{"name_en":"Phiengsavat","did":1802,"pid":18,"uuid":"1.802024e+06"},"geometry":{"type":"Point","coordinates":[103.77057139036837,18.960168989754735]}},{"type":"Feature","properties":{"name_en":"Xaichalern","did":1802,"pid":18,"uuid":"1.802026e+06"},"geometry":{"type":"Point","coordinates":[103.80396000035493,18.950960000419595]}}]}