{"type":"FeatureCollection","features":[{"type":"Feature","properties":{"name_en":"Longcheng","did":1803,"pid":18,"uuid":"1.803001e+06"},"geometry":{"type":"Point","coordinates":[102.92190393955522,19.10972937992366]}},{"type":"Feature","properties":{"name_en":"Samthong","did":1803,"pid":18,"uuid":"1.803002e+06"},"geometry":{"type":"Point","coordinates":[102.89052461021437,19.18090188037636]}},{"type":"Feature","properties":{"name_en":"Luangphanxay","did":1803,"pid":18,"uuid":"1.803003e+06"},"geometry":{"type":"Point","coordinates":[103.00172195995037,19.092592909990646]}},{"type":"Feature","properties":{"name_en":"Phanxay","did":1803,"pid":18,"uuid":"1.803004e+06"},"geometry":{"type":"Point","coordinates":[102.96966512013383,19.077580930367674]}},{"type":"Feature","properties":{"name_en":"Nampha","did":1803,"pid":18,"uuid":"1.803005e+06"},"geometry":{"type":"Point","coordinates":[102.95783666013696,19.065375110390903]}},{"type":"Feature","properties":{"name_en":"Namxan","did":1803,"pid":18,"uuid":"1.803006e+06"},"geometry":{"type":"Point","coordinates":[102.9652164202144,19.020681550119264]}},{"type":"Feature","properties":{"name_en":"Nongpou","did":1803,"pid":18,"uuid":"1.803007e+06"},"geometry":{"type":"Point","coordinates":[102.71476910044328,19.09957286011989]}},{"type":"Feature","properties":{"name_en":"Meuangphoun","did":1803,"pid":18,"uuid":"1.803008e+06"},"geometry":{"type":"Point","coordinates":[102.71287026030858,19.106051320018477]}},{"type":"Feature","properties":{"name_en":"Homxay","did":1803,"pid":18,"uuid":"1.803009e+06"},"geometry":{"type":"Point","coordinates":[102.67163707954647,19.105690730410473]}},{"type":"Feature","properties":{"name_en":"Nasavang","did":1803,"pid":18,"uuid":"1.80301e+06"},"geometry":{"type":"Point","coordinates":[102.60975667039808,18.980507590005697]}},{"type":"Feature","properties":{"name_en":"Namxao","did":1803,"pid":18,"uuid":"1.803011e+06"},"geometry":{"type":"Point","coordinates":[102.58921882971269,19.031125990246263]}},{"type":"Feature","properties":{"name_en":"Natee","did":1803,"pid":18,"uuid":"1.803012e+06"},"geometry":{"type":"Point","coordinates":[102.67947918952686,19.02210949042091]}},{"type":"Feature","properties":{"name_en":"Donesamphan","did":1803,"pid":18,"uuid":"1.805017e+06"},"geometry":{"type":"Point","coordinates":[102.75134361024706,18.565498190040017]}},{"type":"Feature","properties":{"name_en":"Sanpatong","did":1803,"pid":18,"uuid":"1.805019e+06"},"geometry":{"type":"Point","coordinates":[102.76247201030071,18.55860542041219]}}]}