{"type":"FeatureCollection","features":[{"type":"Feature","properties":{"name_en":"Namkhien","did":1804,"pid":18,"uuid":"1.804001e+06"},"geometry":{"type":"Point","coordinates":[103.1804669604007,18.68502404983425]}},{"type":"Feature","properties":{"name_en":"Phalavaek","did":1804,"pid":18,"uuid":"1.804002e+06"},"geometry":{"type":"Point","coordinates":[103.19201529986518,18.67681121020447]}},{"type":"Feature","properties":{"name_en":"Homthard","did":1804,"pid":18,"uuid":"1.804003e+06"},"geometry":{"type":"Point","coordinates":[103.21044844999788,18.708523970204165]}},{"type":"Feature","properties":{"name_en":"Nampoung","did":1804,"pid":18,"uuid":"1.804004e+06"},"geometry":{"type":"Point","coordinates":[103.27902993022946,18.624109990085408]}},{"type":"Feature","properties":{"name_en":"Samsao","did":1804,"pid":18,"uuid":"1.804005e+06"},"geometry":{"type":"Point","coordinates":[103.29558728965415,18.723605530335693]}},{"type":"Feature","properties":{"name_en":"Houysay","did":1804,"pid":18,"uuid":"1.804006e+06"},"geometry":{"type":"Point","coordinates":[103.32418442016478,18.721342829765028]}},{"type":"Feature","properties":{"name_en":"Namyork","did":1804,"pid":18,"uuid":"1.804007e+06"},"geometry":{"type":"Point","coordinates":[103.40292107997243,18.724668939918388]}},{"type":"Feature","properties":{"name_en":"Nong","did":1804,"pid":18,"uuid":"1.804008e+06"},"geometry":{"type":"Point","coordinates":[103.43189781954511,18.717263110192924]}},{"type":"Feature","properties":{"name_en":"Sobphuon","did":1804,"pid":18,"uuid":"1.804009e+06"},"geometry":{"type":"Point","coordinates":[103.42867883975303,18.779273100430437]}},{"type":"Feature","properties":{"name_en":"Houypamom","did":1804,"pid":18,"uuid":"1.80401e+06"},"geometry":{"type":"Point","coordinates":[103.4342185195799,18.83611849995029]}},{"type":"Feature","properties":{"name_en":"Pha-aen","did":1804,"pid":18,"uuid":"1.804011e+06"},"geometry":{"type":"Point","coordinates":[103.18856991968019,18.551459929980137]}},{"type":"Feature","properties":{"name_en":"Phoukatha","did":1804,"pid":18,"uuid":"1.804012e+06"},"geometry":{"type":"Point","coordinates":[103.325499960442,18.566099930026887]}},{"type":"Feature","properties":{"name_en":"Namthouy","did":1804,"pid":18,"uuid":"1.804013e+06"},"geometry":{"type":"Point","coordinates":[103.46026998008865,18.540359939724247]}}]}