{"type":"FeatureCollection","features":[{"type":"Feature","properties":{"name_en":"Khonevat","did":1805,"pid":18,"uuid":"1.805001e+06"},"geometry":{"type":"Point","coordinates":[103.0073199803421,18.554239949702648]}},{"type":"Feature","properties":{"name_en":"Hinsor","did":1805,"pid":18,"uuid":"1.805002e+06"},"geometry":{"type":"Point","coordinates":[102.99403063983158,18.550211190102342]}},{"type":"Feature","properties":{"name_en":"Thaheua","did":1805,"pid":18,"uuid":"1.805003e+06"},"geometry":{"type":"Point","coordinates":[102.9068667298222,18.54275439982985]}},{"type":"Feature","properties":{"name_en":"Tumdin","did":1805,"pid":18,"uuid":"1.805004e+06"},"geometry":{"type":"Point","coordinates":[102.92505586975058,18.53727623957252]}},{"type":"Feature","properties":{"name_en":"Phoupaman","did":1805,"pid":18,"uuid":"1.805005e+06"},"geometry":{"type":"Point","coordinates":[102.95009396036791,18.536267730442454]}},{"type":"Feature","properties":{"name_en":"Phonemuang","did":1805,"pid":18,"uuid":"1.805006e+06"},"geometry":{"type":"Point","coordinates":[102.9660643396953,18.547063700419095]}},{"type":"Feature","properties":{"name_en":"Xamkhone","did":1805,"pid":18,"uuid":"1.805007e+06"},"geometry":{"type":"Point","coordinates":[103.01677065978933,18.562937020103377]}},{"type":"Feature","properties":{"name_en":"Phonelao","did":1805,"pid":18,"uuid":"1.805008e+06"},"geometry":{"type":"Point","coordinates":[103.02595302998704,18.56342199000886]}},{"type":"Feature","properties":{"name_en":"Vungluang","did":1805,"pid":18,"uuid":"1.805009e+06"},"geometry":{"type":"Point","coordinates":[103.03625087025027,18.573378099635235]}},{"type":"Feature","properties":{"name_en":"Naxai","did":1805,"pid":18,"uuid":"1.80501e+06"},"geometry":{"type":"Point","coordinates":[103.06058546966321,18.55273665963713]}},{"type":"Feature","properties":{"name_en":"Phonexai","did":1805,"pid":18,"uuid":"1.805011e+06"},"geometry":{"type":"Point","coordinates":[103.05182628975378,18.555580219972555]}},{"type":"Feature","properties":{"name_en":"Namkhouy","did":1805,"pid":18,"uuid":"1.805012e+06"},"geometry":{"type":"Point","coordinates":[103.00885361976833,18.55029157032581]}},{"type":"Feature","properties":{"name_en":"Nammoung","did":1805,"pid":18,"uuid":"1.805013e+06"},"geometry":{"type":"Point","coordinates":[102.85275474965081,18.604491140070778]}},{"type":"Feature","properties":{"name_en":"Namyen","did":1805,"pid":18,"uuid":"1.805014e+06"},"geometry":{"type":"Point","coordinates":[102.80933548979088,18.59055135981276]}},{"type":"Feature","properties":{"name_en":"Keosamy","did":1805,"pid":18,"uuid":"1.805015e+06"},"geometry":{"type":"Point","coordinates":[102.79062591022256,18.56678414019016]}},{"type":"Feature","properties":{"name_en":"Namone","did":1805,"pid":18,"uuid":"1.805016e+06"},"geometry":{"type":"Point","coordinates":[102.76650060953811,18.572429349558]}},{"type":"Feature","properties":{"name_en":"Phonesavat","did":1805,"pid":18,"uuid":"1.805018e+06"},"geometry":{"type":"Point","coordinates":[102.75354990023973,18.560577430321974]}},{"type":"Feature","properties":{"name_en":"Phouphadang","did":1805,"pid":18,"uuid":"1.80502e+06"},"geometry":{"type":"Point","coordinates":[102.76364991992867,18.522989949754393]}},{"type":"Feature","properties":{"name_en":"Phonesaat","did":1805,"pid":18,"uuid":"1.805021e+06"},"geometry":{"type":"Point","coordinates":[102.75628993974111,18.55945995035875]}},{"type":"Feature","properties":{"name_en":"Napho","did":1805,"pid":18,"uuid":"1.805022e+06"},"geometry":{"type":"Point","coordinates":[103.07476143959101,18.619702030231096]}},{"type":"Feature","properties":{"name_en":"Xiengmee","did":1805,"pid":18,"uuid":"1.805023e+06"},"geometry":{"type":"Point","coordinates":[103.10328037032355,18.67189479985717]}},{"type":"Feature","properties":{"name_en":"Namying","did":1805,"pid":18,"uuid":"1.805024e+06"},"geometry":{"type":"Point","coordinates":[103.03246368041158,18.63826676970967]}},{"type":"Feature","properties":{"name_en":"Meuanglong","did":1805,"pid":18,"uuid":"1.805025e+06"},"geometry":{"type":"Point","coordinates":[102.96794531985914,18.736623879666233]}},{"type":"Feature","properties":{"name_en":"Houysiet","did":1805,"pid":18,"uuid":"1.805026e+06"},"geometry":{"type":"Point","coordinates":[102.95362995037378,18.63664999022905]}}]}