{"type":"FeatureCollection","features":[{"type":"Feature","properties":{"name_en":"Saw gay","did":201,"pid":2,"uuid":"201001"},"geometry":{"type":"Point","coordinates":[102.19607178029207,21.898533400447292]}},{"type":"Feature","properties":{"name_en":"Loung sang","did":201,"pid":2,"uuid":"201002"},"geometry":{"type":"Point","coordinates":[102.17979421022491,21.946199529955873]}},{"type":"Feature","properties":{"name_en":"Kiew","did":201,"pid":2,"uuid":"201003"},"geometry":{"type":"Point","coordinates":[102.28958507027845,21.71615819005317]}},{"type":"Feature","properties":{"name_en":"Narm po sar","did":201,"pid":2,"uuid":"201005"},"geometry":{"type":"Point","coordinates":[102.18394700007525,21.870402000209147]}},{"type":"Feature","properties":{"name_en":"Phou nhord","did":201,"pid":2,"uuid":"201006"},"geometry":{"type":"Point","coordinates":[102.19752599990973,21.9966930000061]}},{"type":"Feature","properties":{"name_en":"Char kham par","did":201,"pid":2,"uuid":"201007"},"geometry":{"type":"Point","coordinates":[102.18478126986574,21.832331619634395]}},{"type":"Feature","properties":{"name_en":"Pur nhen sang mai","did":201,"pid":2,"uuid":"201008"},"geometry":{"type":"Point","coordinates":[102.13928196017977,21.821518550068195]}},{"type":"Feature","properties":{"name_en":"Pur nhean sang kow","did":201,"pid":2,"uuid":"201009"},"geometry":{"type":"Point","coordinates":[102.15854290010304,21.843118880208667]}},{"type":"Feature","properties":{"name_en":"Pay jo","did":201,"pid":2,"uuid":"201010"},"geometry":{"type":"Point","coordinates":[102.18474389027328,21.873988680309136]}},{"type":"Feature","properties":{"name_en":"Bor kang","did":201,"pid":2,"uuid":"201014"},"geometry":{"type":"Point","coordinates":[102.08681334009897,21.63516628985603]}},{"type":"Feature","properties":{"name_en":"Sar lar aba","did":201,"pid":2,"uuid":"201021"},"geometry":{"type":"Point","coordinates":[101.97871462046565,21.565310760261774]}},{"type":"Feature","properties":{"name_en":"Lark sip sarm","did":201,"pid":2,"uuid":"201023"},"geometry":{"type":"Point","coordinates":[102.03966797970394,21.625643700354868]}},{"type":"Feature","properties":{"name_en":"nha pong","did":201,"pid":2,"uuid":"201024"},"geometry":{"type":"Point","coordinates":[102.06188002992211,21.65132820008013]}},{"type":"Feature","properties":{"name_en":"Gi gour","did":201,"pid":2,"uuid":"201026"},"geometry":{"type":"Point","coordinates":[101.99644175006264,21.6013485801361]}},{"type":"Feature","properties":{"name_en":"Bar kar noi","did":201,"pid":2,"uuid":"201027"},"geometry":{"type":"Point","coordinates":[101.99452178967923,21.554871270376843]}},{"type":"Feature","properties":{"name_en":"Bar kar louai","did":201,"pid":2,"uuid":"201028"},"geometry":{"type":"Point","coordinates":[102.01757547025588,21.610010780126746]}},{"type":"Feature","properties":{"name_en":"Hard sar","did":201,"pid":2,"uuid":"201030"},"geometry":{"type":"Point","coordinates":[102.19744213983752,21.742493879813747]}},{"type":"Feature","properties":{"name_en":"Phou mueang","did":201,"pid":2,"uuid":"201033"},"geometry":{"type":"Point","coordinates":[102.3253536699944,21.925092639994403]}},{"type":"Feature","properties":{"name_en":"Mueang var","did":201,"pid":2,"uuid":"201034"},"geometry":{"type":"Point","coordinates":[102.31356577999435,21.894084369994328]}},{"type":"Feature","properties":{"name_en":"Var tay","did":201,"pid":2,"uuid":"201035"},"geometry":{"type":"Point","coordinates":[102.23066665999322,21.83613054999313]}},{"type":"Feature","properties":{"name_en":"Phou soom nuea","did":201,"pid":2,"uuid":"201036"},"geometry":{"type":"Point","coordinates":[102.2699976499938,21.854083499993752]}},{"type":"Feature","properties":{"name_en":"Vang say","did":201,"pid":2,"uuid":"201037"},"geometry":{"type":"Point","coordinates":[102.20611530986976,21.73079709993412]}},{"type":"Feature","properties":{"name_en":"pang sor","did":201,"pid":2,"uuid":"201038"},"geometry":{"type":"Point","coordinates":[102.16505236969024,21.725352809779277]}},{"type":"Feature","properties":{"name_en":"narm sar","did":201,"pid":2,"uuid":"201039"},"geometry":{"type":"Point","coordinates":[102.20731669016439,21.739288639838662]}},{"type":"Feature","properties":{"name_en":"Singaytai","did":201,"pid":2,"uuid":"201041"},"geometry":{"type":"Point","coordinates":[102.04659940015719,21.851405649947576]}},{"type":"Feature","properties":{"name_en":"Ngy tai","did":201,"pid":2,"uuid":"201042"},"geometry":{"type":"Point","coordinates":[102.02701366020978,21.852945319720305]}},{"type":"Feature","properties":{"name_en":"Sam meu Louai","did":201,"pid":2,"uuid":"201043"},"geometry":{"type":"Point","coordinates":[102.10477819013678,21.854073949570637]}},{"type":"Feature","properties":{"name_en":"Soap ngarm","did":201,"pid":2,"uuid":"201044"},"geometry":{"type":"Point","coordinates":[102.09939810029267,21.81673123036608]}},{"type":"Feature","properties":{"name_en":"Charng turn","did":201,"pid":2,"uuid":"201046"},"geometry":{"type":"Point","coordinates":[102.08030261027795,21.777336620030223]}},{"type":"Feature","properties":{"name_en":"Phou dork gam","did":201,"pid":2,"uuid":"201047"},"geometry":{"type":"Point","coordinates":[102.3103957398754,21.71278103977906]}},{"type":"Feature","properties":{"name_en":"Low fu gar","did":201,"pid":2,"uuid":"201048"},"geometry":{"type":"Point","coordinates":[102.40428311957186,21.777478439650455]}},{"type":"Feature","properties":{"name_en":"Narm ong","did":201,"pid":2,"uuid":"201051"},"geometry":{"type":"Point","coordinates":[102.27152777015726,21.70552172999935]}},{"type":"Feature","properties":{"name_en":"Houai seun","did":201,"pid":2,"uuid":"201052"},"geometry":{"type":"Point","coordinates":[102.34440220962503,21.730869270378314]}},{"type":"Feature","properties":{"name_en":"Houai lou","did":201,"pid":2,"uuid":"201053"},"geometry":{"type":"Point","coordinates":[102.26387526008165,21.716836040371092]}},{"type":"Feature","properties":{"name_en":"Ou dom","did":201,"pid":2,"uuid":"201054"},"geometry":{"type":"Point","coordinates":[102.23453231022475,21.705338500185768]}},{"type":"Feature","properties":{"name_en":"Huang tar nhae","did":201,"pid":2,"uuid":"201057"},"geometry":{"type":"Point","coordinates":[102.36767800974323,21.756735409760815]}},{"type":"Feature","properties":{"name_en":"Low tan","did":201,"pid":2,"uuid":"201059"},"geometry":{"type":"Point","coordinates":[102.04624291981283,21.99189506040275]}},{"type":"Feature","properties":{"name_en":"Laow tiew","did":201,"pid":2,"uuid":"201060"},"geometry":{"type":"Point","coordinates":[101.99571663990537,22.009722870148437]}},{"type":"Feature","properties":{"name_en":"Nhaow fang","did":201,"pid":2,"uuid":"201061"},"geometry":{"type":"Point","coordinates":[102.08758639968309,21.92497118001669]}},{"type":"Feature","properties":{"name_en":"Tar sanh phong","did":201,"pid":2,"uuid":"201064"},"geometry":{"type":"Point","coordinates":[102.09661170016709,21.993625420350615]}},{"type":"Feature","properties":{"name_en":"Khoun sook noi","did":201,"pid":2,"uuid":"201065"},"geometry":{"type":"Point","coordinates":[102.11041023982499,21.710284240080444]}},{"type":"Feature","properties":{"name_en":"Khoon sook luang","did":201,"pid":2,"uuid":"201066"},"geometry":{"type":"Point","coordinates":[102.12202152046945,21.72754123957448]}},{"type":"Feature","properties":{"name_en":"Charn tanh","did":201,"pid":2,"uuid":"201067"},"geometry":{"type":"Point","coordinates":[102.07861567041682,21.697708450103406]}},{"type":"Feature","properties":{"name_en":"Khoun noom noi","did":201,"pid":2,"uuid":"201068"},"geometry":{"type":"Point","coordinates":[102.05708323023761,21.695932660419608]}},{"type":"Feature","properties":{"name_en":"Khoun noom luang","did":201,"pid":2,"uuid":"201069"},"geometry":{"type":"Point","coordinates":[102.05903722000815,21.725786740216975]}},{"type":"Feature","properties":{"name_en":"Phar pounh","did":201,"pid":2,"uuid":"201073"},"geometry":{"type":"Point","coordinates":[101.9536761901095,21.70719081971344]}},{"type":"Feature","properties":{"name_en":"Kor dang","did":201,"pid":2,"uuid":"201075"},"geometry":{"type":"Point","coordinates":[102.13177009005531,21.63502154015081]}},{"type":"Feature","properties":{"name_en":"Char phou","did":201,"pid":2,"uuid":"201076"},"geometry":{"type":"Point","coordinates":[102.11639265996753,21.64808079982669]}},{"type":"Feature","properties":{"name_en":"Narm lang","did":201,"pid":2,"uuid":"201077"},"geometry":{"type":"Point","coordinates":[102.10745326977883,21.632779049846324]}},{"type":"Feature","properties":{"name_en":"Phou soom tay","did":201,"pid":2,"uuid":"201078"},"geometry":{"type":"Point","coordinates":[102.1030080999861,21.646182379649893]}},{"type":"Feature","properties":{"name_en":"Phong sack","did":201,"pid":2,"uuid":"201079"},"geometry":{"type":"Point","coordinates":[102.18809833040862,21.67371080963769]}},{"type":"Feature","properties":{"name_en":"Hard kou","did":201,"pid":2,"uuid":"201080"},"geometry":{"type":"Point","coordinates":[102.18774900033398,21.6756130001604]}},{"type":"Feature","properties":{"name_en":"Kor man nhay","did":201,"pid":2,"uuid":"201081"},"geometry":{"type":"Point","coordinates":[102.13859246043921,21.64882444024934]}},{"type":"Feature","properties":{"name_en":"Phar ya si","did":201,"pid":2,"uuid":"201082"},"geometry":{"type":"Point","coordinates":[102.15572908958887,21.654333279538605]}},{"type":"Feature","properties":{"name_en":"Hard hinh","did":201,"pid":2,"uuid":"201083"},"geometry":{"type":"Point","coordinates":[102.2572330296572,22.06583024137429]}},{"type":"Feature","properties":{"name_en":"Soap kong","did":201,"pid":2,"uuid":"201084"},"geometry":{"type":"Point","coordinates":[102.24924061998502,22.098060419732473]}},{"type":"Feature","properties":{"name_en":"Tarnh","did":201,"pid":2,"uuid":"201085"},"geometry":{"type":"Point","coordinates":[102.22130884952485,22.13888263042692]}},{"type":"Feature","properties":{"name_en":"Moung chow","did":201,"pid":2,"uuid":"201087"},"geometry":{"type":"Point","coordinates":[102.08946905975284,21.6632751702289]}},{"type":"Feature","properties":{"name_en":"Phon sar ard","did":201,"pid":2,"uuid":"201088"},"geometry":{"type":"Point","coordinates":[102.09947127006527,21.680499569848532]}},{"type":"Feature","properties":{"name_en":"Phong sa li","did":201,"pid":2,"uuid":"201089"},"geometry":{"type":"Point","coordinates":[102.10591912968847,21.68256301982129]}},{"type":"Feature","properties":{"name_en":"Chom mueang","did":201,"pid":2,"uuid":"201090"},"geometry":{"type":"Point","coordinates":[102.1052531895752,21.682638539774743]}},{"type":"Feature","properties":{"name_en":"Warth keo","did":201,"pid":2,"uuid":"201091"},"geometry":{"type":"Point","coordinates":[102.10944530992859,21.682340900426496]}},{"type":"Feature","properties":{"name_en":"Say loum","did":201,"pid":2,"uuid":"201092"},"geometry":{"type":"Point","coordinates":[102.11290863014315,21.692920710100505]}},{"type":"Feature","properties":{"name_en":"Nong kin mar ni","did":201,"pid":2,"uuid":"201093"},"geometry":{"type":"Point","coordinates":[102.12761971003488,21.700890810411508]}},{"type":"Feature","properties":{"name_en":"Phoun keo","did":201,"pid":2,"uuid":"201094"},"geometry":{"type":"Point","coordinates":[102.09034807017717,21.67345205970064]}},{"type":"Feature","properties":{"name_en":"San sa li","did":201,"pid":2,"uuid":"201095"},"geometry":{"type":"Point","coordinates":[102.10370413020942,21.681288050306808]}},{"type":"Feature","properties":{"name_en":"Tar lard","did":201,"pid":2,"uuid":"201096"},"geometry":{"type":"Point","coordinates":[102.1076083398744,21.683351259601935]}},{"type":"Feature","properties":{"name_en":"Houm sa vang","did":201,"pid":2,"uuid":"201097"},"geometry":{"type":"Point","coordinates":[102.10188350010905,21.683659709564814]}},{"type":"Feature","properties":{"name_en":"Phoun houm","did":201,"pid":2,"uuid":"201098"},"geometry":{"type":"Point","coordinates":[102.25608838969887,21.67555743028129]}},{"type":"Feature","properties":{"name_en":"Phou far","did":201,"pid":2,"uuid":"201100"},"geometry":{"type":"Point","coordinates":[102.10204267045518,21.68456159967035]}},{"type":"Feature","properties":{"name_en":"Chalern","did":201,"pid":2,"uuid":"201102"},"geometry":{"type":"Point","coordinates":[102.26230758954249,22.076013669928916]}},{"type":"Feature","properties":{"name_en":"Samukkheexai","did":201,"pid":2,"uuid":"201103"},"geometry":{"type":"Point","coordinates":[102.07204699995451,21.560086000275586]}},{"type":"Feature","properties":{"name_en":"Khoknamnoy","did":201,"pid":2,"uuid":"207021"},"geometry":{"type":"Point","coordinates":[102.09611999997988,21.501930000156122]}}]}