{"type":"FeatureCollection","features":[{"type":"Feature","properties":{"name_en":"Pang houck","did":202,"pid":2,"uuid":"202001"},"geometry":{"type":"Point","coordinates":[102.87539937974084,21.210140690054438]}},{"type":"Feature","properties":{"name_en":"Soap houn","did":202,"pid":2,"uuid":"202003"},"geometry":{"type":"Point","coordinates":[102.80446903974831,21.1793617498955]}},{"type":"Feature","properties":{"name_en":"Soap naow","did":202,"pid":2,"uuid":"202005"},"geometry":{"type":"Point","coordinates":[102.76468484031328,21.161691280322437]}},{"type":"Feature","properties":{"name_en":"Poung","did":202,"pid":2,"uuid":"202006"},"geometry":{"type":"Point","coordinates":[102.70656370978443,21.111928250409285]}},{"type":"Feature","properties":{"name_en":"San sar ard","did":202,"pid":2,"uuid":"202008"},"geometry":{"type":"Point","coordinates":[102.71849066009513,21.157204190310864]}},{"type":"Feature","properties":{"name_en":"Mouck gar lar","did":202,"pid":2,"uuid":"202009"},"geometry":{"type":"Point","coordinates":[102.67275372007225,21.14058715041228]}},{"type":"Feature","properties":{"name_en":"Houai song","did":202,"pid":2,"uuid":"202010"},"geometry":{"type":"Point","coordinates":[102.69618079999928,21.1468910999979]}},{"type":"Feature","properties":{"name_en":"Houai Chick","did":202,"pid":2,"uuid":"202013"},"geometry":{"type":"Point","coordinates":[102.73719857008064,21.169495329914167]}},{"type":"Feature","properties":{"name_en":"Narm ngar","did":202,"pid":2,"uuid":"202014"},"geometry":{"type":"Point","coordinates":[102.72529836033617,21.172145770177003]}},{"type":"Feature","properties":{"name_en":"Nar kham","did":202,"pid":2,"uuid":"202015"},"geometry":{"type":"Point","coordinates":[102.70749620021563,21.17902606026735]}},{"type":"Feature","properties":{"name_en":"Nar song","did":202,"pid":2,"uuid":"202016"},"geometry":{"type":"Point","coordinates":[102.72317932961303,21.17185928028455]}},{"type":"Feature","properties":{"name_en":"Nar kang","did":202,"pid":2,"uuid":"202017"},"geometry":{"type":"Point","coordinates":[102.72979088977621,21.171317560343866]}},{"type":"Feature","properties":{"name_en":"Om kar neng","did":202,"pid":2,"uuid":"202019"},"geometry":{"type":"Point","coordinates":[102.71387089045955,21.201385199846488]}},{"type":"Feature","properties":{"name_en":"Houai vang sood","did":202,"pid":2,"uuid":"202021"},"geometry":{"type":"Point","coordinates":[102.66362440013053,21.193321810276938]}},{"type":"Feature","properties":{"name_en":"Houai Ounh","did":202,"pid":2,"uuid":"202022"},"geometry":{"type":"Point","coordinates":[102.6833937904358,21.216313619648982]}},{"type":"Feature","properties":{"name_en":"Pong si may","did":202,"pid":2,"uuid":"202023"},"geometry":{"type":"Point","coordinates":[102.62851579015384,21.253969740143535]}},{"type":"Feature","properties":{"name_en":"Tinh touck","did":202,"pid":2,"uuid":"202024"},"geometry":{"type":"Point","coordinates":[102.66125899977911,21.24057000013733]}},{"type":"Feature","properties":{"name_en":"Oum proung","did":202,"pid":2,"uuid":"202025"},"geometry":{"type":"Point","coordinates":[102.69609530014147,21.260404529688543]}},{"type":"Feature","properties":{"name_en":"Houai vang may","did":202,"pid":2,"uuid":"202028"},"geometry":{"type":"Point","coordinates":[102.67966552040434,21.200083239925586]}},{"type":"Feature","properties":{"name_en":"Houai vang kow","did":202,"pid":2,"uuid":"202031"},"geometry":{"type":"Point","coordinates":[102.69049443025334,21.197914089796125]}},{"type":"Feature","properties":{"name_en":"Poung ngang","did":202,"pid":2,"uuid":"202032"},"geometry":{"type":"Point","coordinates":[102.73471517033911,21.069947320055874]}},{"type":"Feature","properties":{"name_en":"Tar mour","did":202,"pid":2,"uuid":"202033"},"geometry":{"type":"Point","coordinates":[102.75808903044808,21.069884289686172]}},{"type":"Feature","properties":{"name_en":"Hard gar","did":202,"pid":2,"uuid":"202035"},"geometry":{"type":"Point","coordinates":[102.74340427024815,21.038831350266662]}},{"type":"Feature","properties":{"name_en":"Si da","did":202,"pid":2,"uuid":"202039"},"geometry":{"type":"Point","coordinates":[102.73039874999944,21.11804376999814]}},{"type":"Feature","properties":{"name_en":"Nhar nhung","did":202,"pid":2,"uuid":"202041"},"geometry":{"type":"Point","coordinates":[102.54090696998014,21.242393669718293]}},{"type":"Feature","properties":{"name_en":"Keaw kar la","did":202,"pid":2,"uuid":"202042"},"geometry":{"type":"Point","coordinates":[102.59107961019365,21.19800595980495]}},{"type":"Feature","properties":{"name_en":"Hard kod","did":202,"pid":2,"uuid":"202044"},"geometry":{"type":"Point","coordinates":[102.50725102956906,21.267956789886835]}},{"type":"Feature","properties":{"name_en":"Noi","did":202,"pid":2,"uuid":"202046"},"geometry":{"type":"Point","coordinates":[102.59651351968769,21.237641130307946]}},{"type":"Feature","properties":{"name_en":"Koong har","did":202,"pid":2,"uuid":"202047"},"geometry":{"type":"Point","coordinates":[102.49550210999824,21.200026079996523]}},{"type":"Feature","properties":{"name_en":"Park lang","did":202,"pid":2,"uuid":"202050"},"geometry":{"type":"Point","coordinates":[102.47984161999818,21.1743564199964]}},{"type":"Feature","properties":{"name_en":"Park pha","did":202,"pid":2,"uuid":"202051"},"geometry":{"type":"Point","coordinates":[102.56921718002027,21.323360079695107]}},{"type":"Feature","properties":{"name_en":"Pang hi nuea","did":202,"pid":2,"uuid":"202053"},"geometry":{"type":"Point","coordinates":[102.55438205008188,21.306018349588893]}},{"type":"Feature","properties":{"name_en":"Soong loung","did":202,"pid":2,"uuid":"202055"},"geometry":{"type":"Point","coordinates":[102.5338820004142,21.35165600044425]}},{"type":"Feature","properties":{"name_en":"Gar muai","did":202,"pid":2,"uuid":"202056"},"geometry":{"type":"Point","coordinates":[102.57447364041447,21.261096790024823]}},{"type":"Feature","properties":{"name_en":"Nhang tay","did":202,"pid":2,"uuid":"202058"},"geometry":{"type":"Point","coordinates":[102.5350861495668,21.34331731021895]}},{"type":"Feature","properties":{"name_en":"Char beu nuea","did":202,"pid":2,"uuid":"202059"},"geometry":{"type":"Point","coordinates":[102.58908605960885,21.28973055038488]}},{"type":"Feature","properties":{"name_en":"Mou turn","did":202,"pid":2,"uuid":"202060"},"geometry":{"type":"Point","coordinates":[102.6296338500833,21.27624012989825]}},{"type":"Feature","properties":{"name_en":"Pak nhon","did":202,"pid":2,"uuid":"202063"},"geometry":{"type":"Point","coordinates":[102.5581264996613,21.339665230157365]}},{"type":"Feature","properties":{"name_en":"Houai doi","did":202,"pid":2,"uuid":"202064"},"geometry":{"type":"Point","coordinates":[102.81539325959399,21.269693939797627]}},{"type":"Feature","properties":{"name_en":"Houai kang","did":202,"pid":2,"uuid":"202065"},"geometry":{"type":"Point","coordinates":[102.82075842996048,21.24692978006794]}},{"type":"Feature","properties":{"name_en":"Na luang","did":202,"pid":2,"uuid":"202066"},"geometry":{"type":"Point","coordinates":[102.81441835963015,21.25726199018505]}},{"type":"Feature","properties":{"name_en":"Bouam phanh","did":202,"pid":2,"uuid":"202069"},"geometry":{"type":"Point","coordinates":[102.81424149964026,21.25684959957106]}},{"type":"Feature","properties":{"name_en":"San enh","did":202,"pid":2,"uuid":"202071"},"geometry":{"type":"Point","coordinates":[102.65002635015767,21.094843589723126]}},{"type":"Feature","properties":{"name_en":"Koong loock","did":202,"pid":2,"uuid":"202073"},"geometry":{"type":"Point","coordinates":[102.63829496019888,21.126570850013522]}},{"type":"Feature","properties":{"name_en":"Kiw ka gam","did":202,"pid":2,"uuid":"202074"},"geometry":{"type":"Point","coordinates":[102.63844139046945,21.14329718996627]}},{"type":"Feature","properties":{"name_en":"Om pa lour","did":202,"pid":2,"uuid":"202076"},"geometry":{"type":"Point","coordinates":[102.62727359033866,21.163425829585027]}},{"type":"Feature","properties":{"name_en":"San luang","did":202,"pid":2,"uuid":"202077"},"geometry":{"type":"Point","coordinates":[102.62006299997756,21.142745000079216]}},{"type":"Feature","properties":{"name_en":"Phier","did":202,"pid":2,"uuid":"202078"},"geometry":{"type":"Point","coordinates":[102.57746362992278,21.081107910191633]}},{"type":"Feature","properties":{"name_en":"Nhar khar","did":202,"pid":2,"uuid":"202079"},"geometry":{"type":"Point","coordinates":[102.61365124031997,21.097016759991003]}},{"type":"Feature","properties":{"name_en":"San tar","did":202,"pid":2,"uuid":"202083"},"geometry":{"type":"Point","coordinates":[102.76454720976233,21.434914409797294]}},{"type":"Feature","properties":{"name_en":"Houai lai","did":202,"pid":2,"uuid":"202084"},"geometry":{"type":"Point","coordinates":[102.8792060303783,21.536010560082435]}},{"type":"Feature","properties":{"name_en":"Chorm cheow kor","did":202,"pid":2,"uuid":"202086"},"geometry":{"type":"Point","coordinates":[102.69898362001247,21.296128790224383]}},{"type":"Feature","properties":{"name_en":"Houai meun","did":202,"pid":2,"uuid":"202088"},"geometry":{"type":"Point","coordinates":[102.73484575999484,21.391785250214824]}},{"type":"Feature","properties":{"name_en":"Na boua","did":202,"pid":2,"uuid":"202089"},"geometry":{"type":"Point","coordinates":[102.7190885400503,21.339679150173843]}},{"type":"Feature","properties":{"name_en":"Phon say","did":202,"pid":2,"uuid":"202091"},"geometry":{"type":"Point","coordinates":[102.76624127005194,21.431372470280383]}},{"type":"Feature","properties":{"name_en":"Houai arn tang luang","did":202,"pid":2,"uuid":"202092"},"geometry":{"type":"Point","coordinates":[102.81890988042697,21.470785439744255]}},{"type":"Feature","properties":{"name_en":"Saow yer","did":202,"pid":2,"uuid":"202094"},"geometry":{"type":"Point","coordinates":[102.65885131980876,21.323109969788053]}},{"type":"Feature","properties":{"name_en":"Phier lor kow","did":202,"pid":2,"uuid":"202095"},"geometry":{"type":"Point","coordinates":[102.60951870957815,21.32039129954063]}},{"type":"Feature","properties":{"name_en":"Phier lor may","did":202,"pid":2,"uuid":"202096"},"geometry":{"type":"Point","coordinates":[102.63010199957309,21.301247999541992]}},{"type":"Feature","properties":{"name_en":"Narm khong","did":202,"pid":2,"uuid":"202097"},"geometry":{"type":"Point","coordinates":[102.60275159225328,21.45332356754908]}},{"type":"Feature","properties":{"name_en":"Par larn","did":202,"pid":2,"uuid":"202098"},"geometry":{"type":"Point","coordinates":[102.61808074020378,21.43767986015258]}},{"type":"Feature","properties":{"name_en":"Houai thong","did":202,"pid":2,"uuid":"202099"},"geometry":{"type":"Point","coordinates":[102.6344789299094,21.382889280196608]}},{"type":"Feature","properties":{"name_en":"Phier luang","did":202,"pid":2,"uuid":"202100"},"geometry":{"type":"Point","coordinates":[102.66179505038524,21.48612265010059]}},{"type":"Feature","properties":{"name_en":"Houai ngurn","did":202,"pid":2,"uuid":"202101"},"geometry":{"type":"Point","coordinates":[102.59291415956493,21.44648185990047]}},{"type":"Feature","properties":{"name_en":"Lao mar","did":202,"pid":2,"uuid":"202102"},"geometry":{"type":"Point","coordinates":[102.68100671036325,21.420038800359052]}},{"type":"Feature","properties":{"name_en":"Nar khoua","did":202,"pid":2,"uuid":"202103"},"geometry":{"type":"Point","coordinates":[102.8345822004535,21.706526720221106]}},{"type":"Feature","properties":{"name_en":"Houai kouck","did":202,"pid":2,"uuid":"202104"},"geometry":{"type":"Point","coordinates":[102.84062621962364,21.67947168994349]}},{"type":"Feature","properties":{"name_en":"Nar laa","did":202,"pid":2,"uuid":"202105"},"geometry":{"type":"Point","coordinates":[102.82179804012392,21.63556551987299]}},{"type":"Feature","properties":{"name_en":"Mai","did":202,"pid":2,"uuid":"202106"},"geometry":{"type":"Point","coordinates":[102.81654292009848,21.595793809726004]}},{"type":"Feature","properties":{"name_en":"Soum phong","did":202,"pid":2,"uuid":"202107"},"geometry":{"type":"Point","coordinates":[102.80981165956197,21.566202090438747]}},{"type":"Feature","properties":{"name_en":"Park nam","did":202,"pid":2,"uuid":"202108"},"geometry":{"type":"Point","coordinates":[102.78853453977307,21.5277530401116]}},{"type":"Feature","properties":{"name_en":"Houai hong","did":202,"pid":2,"uuid":"202110"},"geometry":{"type":"Point","coordinates":[102.69077631977224,21.530156810186728]}},{"type":"Feature","properties":{"name_en":"Houai heng","did":202,"pid":2,"uuid":"202111"},"geometry":{"type":"Point","coordinates":[102.83581342008625,21.74530458963835]}},{"type":"Feature","properties":{"name_en":"Sar luang","did":202,"pid":2,"uuid":"202114"},"geometry":{"type":"Point","coordinates":[102.81997287971907,21.53450525008052]}},{"type":"Feature","properties":{"name_en":"Houai lar","did":202,"pid":2,"uuid":"202115"},"geometry":{"type":"Point","coordinates":[102.9141300597282,21.684245099982864]}},{"type":"Feature","properties":{"name_en":"Nar lam","did":202,"pid":2,"uuid":"202116"},"geometry":{"type":"Point","coordinates":[102.93408436029937,21.66363157007648]}},{"type":"Feature","properties":{"name_en":"May kor leaw","did":202,"pid":2,"uuid":"202117"},"geometry":{"type":"Point","coordinates":[102.95711297038115,21.666733800371876]}},{"type":"Feature","properties":{"name_en":"Phiw hor","did":202,"pid":2,"uuid":"202120"},"geometry":{"type":"Point","coordinates":[102.88329254008144,21.59238631976407]}},{"type":"Feature","properties":{"name_en":"Hard dee","did":202,"pid":2,"uuid":"202121"},"geometry":{"type":"Point","coordinates":[102.71371590993364,21.046268190379713]}},{"type":"Feature","properties":{"name_en":"Pang hi tay","did":202,"pid":2,"uuid":"202122"},"geometry":{"type":"Point","coordinates":[102.53241358044762,21.287097540239238]}},{"type":"Feature","properties":{"name_en":"Houai louad","did":202,"pid":2,"uuid":"202123"},"geometry":{"type":"Point","coordinates":[102.6002685296044,21.224552869760647]}},{"type":"Feature","properties":{"name_en":"Phouck","did":202,"pid":2,"uuid":"202124"},"geometry":{"type":"Point","coordinates":[102.72888890971353,21.376849449762897]}},{"type":"Feature","properties":{"name_en":"Kang","did":202,"pid":2,"uuid":"202125"},"geometry":{"type":"Point","coordinates":[102.94184365042126,21.66475457992693]}},{"type":"Feature","properties":{"name_en":"Houai phouck","did":202,"pid":2,"uuid":"202126"},"geometry":{"type":"Point","coordinates":[102.8215328300268,21.222702140187113]}},{"type":"Feature","properties":{"name_en":"Houai gar","did":202,"pid":2,"uuid":"202127"},"geometry":{"type":"Point","coordinates":[102.7725141195516,21.29083042011358]}},{"type":"Feature","properties":{"name_en":"Poung kow","did":202,"pid":2,"uuid":"202128"},"geometry":{"type":"Point","coordinates":[102.70331481019079,21.23226439036181]}},{"type":"Feature","properties":{"name_en":"Chorm cheow kow","did":202,"pid":2,"uuid":"202130"},"geometry":{"type":"Point","coordinates":[102.71212376996377,21.323378190121634]}},{"type":"Feature","properties":{"name_en":"Kar gi","did":202,"pid":2,"uuid":"202132"},"geometry":{"type":"Point","coordinates":[102.79819727991357,21.397603880364972]}}]}