{"type":"FeatureCollection","features":[{"type":"Feature","properties":{"name_en":"Mueang khoua","did":203,"pid":2,"uuid":"203001"},"geometry":{"type":"Point","coordinates":[102.50560524017777,21.08165683972758]}},{"type":"Feature","properties":{"name_en":"Soap ard","did":203,"pid":2,"uuid":"203002"},"geometry":{"type":"Point","coordinates":[102.56983785977927,21.070225179687984]}},{"type":"Feature","properties":{"name_en":"Hark ngang","did":203,"pid":2,"uuid":"203003"},"geometry":{"type":"Point","coordinates":[102.52262352000542,21.07423164975666]}},{"type":"Feature","properties":{"name_en":"Nar toon","did":203,"pid":2,"uuid":"203004"},"geometry":{"type":"Point","coordinates":[102.50431719035693,21.079193230314957]}},{"type":"Feature","properties":{"name_en":"Sar long say","did":203,"pid":2,"uuid":"203005"},"geometry":{"type":"Point","coordinates":[102.50212976991003,21.075205460319047]}},{"type":"Feature","properties":{"name_en":"Hard duea","did":203,"pid":2,"uuid":"203006"},"geometry":{"type":"Point","coordinates":[102.4989404500996,21.07265810955551]}},{"type":"Feature","properties":{"name_en":"Pho say tay","did":203,"pid":2,"uuid":"203007"},"geometry":{"type":"Point","coordinates":[102.50387730996478,21.08229838967073]}},{"type":"Feature","properties":{"name_en":"Thar barck","did":203,"pid":2,"uuid":"203008"},"geometry":{"type":"Point","coordinates":[102.51232392021791,21.080691160151076]}},{"type":"Feature","properties":{"name_en":"Phou say neua","did":203,"pid":2,"uuid":"203009"},"geometry":{"type":"Point","coordinates":[102.5038640697065,21.082456309914544]}},{"type":"Feature","properties":{"name_en":"Phon say","did":203,"pid":2,"uuid":"203010"},"geometry":{"type":"Point","coordinates":[102.50739519011842,21.080780010444684]}},{"type":"Feature","properties":{"name_en":"Tang kouck","did":203,"pid":2,"uuid":"203011"},"geometry":{"type":"Point","coordinates":[102.49126061993087,21.124054440186136]}},{"type":"Feature","properties":{"name_en":"Houai leak","did":203,"pid":2,"uuid":"203012"},"geometry":{"type":"Point","coordinates":[102.48707252004333,21.136092939862678]}},{"type":"Feature","properties":{"name_en":"Houai soi","did":203,"pid":2,"uuid":"203013"},"geometry":{"type":"Point","coordinates":[102.47041617015552,21.189687170285968]}},{"type":"Feature","properties":{"name_en":"Houai phouck","did":203,"pid":2,"uuid":"203014"},"geometry":{"type":"Point","coordinates":[102.462650840186,21.22672830957287]}},{"type":"Feature","properties":{"name_en":"Houai phaa ou","did":203,"pid":2,"uuid":"203015"},"geometry":{"type":"Point","coordinates":[102.48960376992646,21.131388680381185]}},{"type":"Feature","properties":{"name_en":"Houai an","did":203,"pid":2,"uuid":"203016"},"geometry":{"type":"Point","coordinates":[102.47616136962712,21.176956900362587]}},{"type":"Feature","properties":{"name_en":"Houai par","did":203,"pid":2,"uuid":"203017"},"geometry":{"type":"Point","coordinates":[102.40263146043897,21.05196754968363]}},{"type":"Feature","properties":{"name_en":"Char koud","did":203,"pid":2,"uuid":"203018"},"geometry":{"type":"Point","coordinates":[102.37635219001172,21.070227110077]}},{"type":"Feature","properties":{"name_en":"Chan may","did":203,"pid":2,"uuid":"203019"},"geometry":{"type":"Point","coordinates":[102.43849699964967,21.044614000168348]}},{"type":"Feature","properties":{"name_en":"Houai morn","did":203,"pid":2,"uuid":"203021"},"geometry":{"type":"Point","coordinates":[102.46586394973068,21.0597406003442]}},{"type":"Feature","properties":{"name_en":"Soap ky","did":203,"pid":2,"uuid":"203022"},"geometry":{"type":"Point","coordinates":[102.44552870018614,21.0485292996762]}},{"type":"Feature","properties":{"name_en":"Houai khang","did":203,"pid":2,"uuid":"203023"},"geometry":{"type":"Point","coordinates":[102.46749113044929,21.05793596983236]}},{"type":"Feature","properties":{"name_en":"Lard sang","did":203,"pid":2,"uuid":"203028"},"geometry":{"type":"Point","coordinates":[102.31999201977895,21.1007602899023]}},{"type":"Feature","properties":{"name_en":"Hard suai","did":203,"pid":2,"uuid":"203029"},"geometry":{"type":"Point","coordinates":[102.34265877987163,21.090725559974835]}},{"type":"Feature","properties":{"name_en":"Morn sar varnh","did":203,"pid":2,"uuid":"203030"},"geometry":{"type":"Point","coordinates":[102.34107435044508,21.094300519934777]}},{"type":"Feature","properties":{"name_en":"May","did":203,"pid":2,"uuid":"203032"},"geometry":{"type":"Point","coordinates":[102.3186137000115,21.09911491992743]}},{"type":"Feature","properties":{"name_en":"Hard nang","did":203,"pid":2,"uuid":"203033"},"geometry":{"type":"Point","coordinates":[102.24064204985581,21.05459703966446]}},{"type":"Feature","properties":{"name_en":"Sin say","did":203,"pid":2,"uuid":"203035"},"geometry":{"type":"Point","coordinates":[102.25380759035706,21.101126909708007]}},{"type":"Feature","properties":{"name_en":"Lao lee","did":203,"pid":2,"uuid":"203036"},"geometry":{"type":"Point","coordinates":[102.20576762971956,21.110648000114217]}},{"type":"Feature","properties":{"name_en":"San kham tay","did":203,"pid":2,"uuid":"203037"},"geometry":{"type":"Point","coordinates":[102.22956503035536,21.166017340131706]}},{"type":"Feature","properties":{"name_en":"Lee sou","did":203,"pid":2,"uuid":"203038"},"geometry":{"type":"Point","coordinates":[102.19905985007988,21.11248842009029]}},{"type":"Feature","properties":{"name_en":"Dong kharm","did":203,"pid":2,"uuid":"203039"},"geometry":{"type":"Point","coordinates":[102.2392399204557,21.13605137033786]}},{"type":"Feature","properties":{"name_en":"Houai phord","did":203,"pid":2,"uuid":"203040"},"geometry":{"type":"Point","coordinates":[102.25809375983685,21.096811150301246]}},{"type":"Feature","properties":{"name_en":"Sanh luang","did":203,"pid":2,"uuid":"203041"},"geometry":{"type":"Point","coordinates":[102.22806214976346,21.054954529571983]}},{"type":"Feature","properties":{"name_en":"Houai phaa kor","did":203,"pid":2,"uuid":"203042"},"geometry":{"type":"Point","coordinates":[102.2383129701905,21.08347755956321]}},{"type":"Feature","properties":{"name_en":"Lar hang nhy","did":203,"pid":2,"uuid":"203043"},"geometry":{"type":"Point","coordinates":[102.33892397047393,21.191537470118064]}},{"type":"Feature","properties":{"name_en":"Narm born ti","did":203,"pid":2,"uuid":"203044"},"geometry":{"type":"Point","coordinates":[102.32386253008308,21.14355326002142]}},{"type":"Feature","properties":{"name_en":"Sang houai","did":203,"pid":2,"uuid":"203045"},"geometry":{"type":"Point","coordinates":[102.29015469965063,21.110162859618555]}},{"type":"Feature","properties":{"name_en":"Narm born nuea","did":203,"pid":2,"uuid":"203046"},"geometry":{"type":"Point","coordinates":[102.33761296012747,21.169998330433323]}},{"type":"Feature","properties":{"name_en":"Sar nam gap","did":203,"pid":2,"uuid":"203047"},"geometry":{"type":"Point","coordinates":[102.25326327018864,21.185242579952014]}},{"type":"Feature","properties":{"name_en":"Sar bor","did":203,"pid":2,"uuid":"203048"},"geometry":{"type":"Point","coordinates":[102.2911794802004,21.165945179863915]}},{"type":"Feature","properties":{"name_en":"Char lar may","did":203,"pid":2,"uuid":"203049"},"geometry":{"type":"Point","coordinates":[102.2939160001788,21.202681969685546]}},{"type":"Feature","properties":{"name_en":"Tang  cra","did":203,"pid":2,"uuid":"203051"},"geometry":{"type":"Point","coordinates":[102.34722976981736,21.229760129924813]}},{"type":"Feature","properties":{"name_en":"Char lar kow","did":203,"pid":2,"uuid":"203052"},"geometry":{"type":"Point","coordinates":[102.28494945959237,21.18315422996998]}},{"type":"Feature","properties":{"name_en":"Torn gong","did":203,"pid":2,"uuid":"203053"},"geometry":{"type":"Point","coordinates":[102.37866903012146,21.25432731998976]}},{"type":"Feature","properties":{"name_en":"Narm mar tay","did":203,"pid":2,"uuid":"203054"},"geometry":{"type":"Point","coordinates":[102.14037328013757,21.085420649873843]}},{"type":"Feature","properties":{"name_en":"Narm mar nuea","did":203,"pid":2,"uuid":"203055"},"geometry":{"type":"Point","coordinates":[102.11194212022377,21.084521689761495]}},{"type":"Feature","properties":{"name_en":"Hond lurk","did":203,"pid":2,"uuid":"203056"},"geometry":{"type":"Point","coordinates":[102.16171376955062,21.148186690061294]}},{"type":"Feature","properties":{"name_en":"Phou lou","did":203,"pid":2,"uuid":"203057"},"geometry":{"type":"Point","coordinates":[102.15524144002786,21.189385589681844]}},{"type":"Feature","properties":{"name_en":"Phea chur kow","did":203,"pid":2,"uuid":"203058"},"geometry":{"type":"Point","coordinates":[102.14167305998961,21.164384630171543]}},{"type":"Feature","properties":{"name_en":"Phea chur may","did":203,"pid":2,"uuid":"203059"},"geometry":{"type":"Point","coordinates":[102.11836613701121,21.159697391075454]}},{"type":"Feature","properties":{"name_en":"Mouck kuang","did":203,"pid":2,"uuid":"203060"},"geometry":{"type":"Point","coordinates":[102.15342625036148,21.206734529780473]}},{"type":"Feature","properties":{"name_en":"San kham nuea","did":203,"pid":2,"uuid":"203061"},"geometry":{"type":"Point","coordinates":[102.06748257029105,21.184141619747074]}},{"type":"Feature","properties":{"name_en":"Bouam phanh","did":203,"pid":2,"uuid":"203062"},"geometry":{"type":"Point","coordinates":[102.13872297023539,21.13126010974348]}},{"type":"Feature","properties":{"name_en":"Houai lar","did":203,"pid":2,"uuid":"203063"},"geometry":{"type":"Point","coordinates":[102.06552079000572,21.15173676030025]}},{"type":"Feature","properties":{"name_en":"Kouck phaow","did":203,"pid":2,"uuid":"203064"},"geometry":{"type":"Point","coordinates":[102.15639554681091,21.097167419600513]}},{"type":"Feature","properties":{"name_en":"Kouck ngew","did":203,"pid":2,"uuid":"203065"},"geometry":{"type":"Point","coordinates":[102.09543630008181,21.131802079997183]}},{"type":"Feature","properties":{"name_en":"Keawthark","did":203,"pid":2,"uuid":"203068"},"geometry":{"type":"Point","coordinates":[102.31832444008118,20.95862332987185]}},{"type":"Feature","properties":{"name_en":"Kouck ngew kate pad","did":203,"pid":2,"uuid":"203069"},"geometry":{"type":"Point","coordinates":[102.34501476039871,21.03177245010786]}},{"type":"Feature","properties":{"name_en":"Kiew","did":203,"pid":2,"uuid":"203072"},"geometry":{"type":"Point","coordinates":[102.41521639006268,21.048890469849393]}},{"type":"Feature","properties":{"name_en":"Houai orn","did":203,"pid":2,"uuid":"203074"},"geometry":{"type":"Point","coordinates":[102.37270500007293,21.03415600040536]}},{"type":"Feature","properties":{"name_en":"yar lou","did":203,"pid":2,"uuid":"203076"},"geometry":{"type":"Point","coordinates":[102.28299881953234,21.053947780177438]}},{"type":"Feature","properties":{"name_en":"San yang","did":203,"pid":2,"uuid":"203078"},"geometry":{"type":"Point","coordinates":[102.32503213961299,21.05888127959692]}},{"type":"Feature","properties":{"name_en":"Kew kam","did":203,"pid":2,"uuid":"203079"},"geometry":{"type":"Point","coordinates":[102.33372684966217,20.986330799925227]}},{"type":"Feature","properties":{"name_en":"Mouck phak mouck koi","did":203,"pid":2,"uuid":"203080"},"geometry":{"type":"Point","coordinates":[102.44511320972035,20.95193649956162]}},{"type":"Feature","properties":{"name_en":"Phou vieng","did":203,"pid":2,"uuid":"203081"},"geometry":{"type":"Point","coordinates":[102.45905399033482,20.898871669769644]}},{"type":"Feature","properties":{"name_en":"Houai thong","did":203,"pid":2,"uuid":"203082"},"geometry":{"type":"Point","coordinates":[102.41162240044173,20.971273379598543]}},{"type":"Feature","properties":{"name_en":"Kong varth","did":203,"pid":2,"uuid":"203083"},"geometry":{"type":"Point","coordinates":[102.42056153000833,20.912922089575574]}},{"type":"Feature","properties":{"name_en":"Darp kar gork","did":203,"pid":2,"uuid":"203085"},"geometry":{"type":"Point","coordinates":[102.45912432033575,20.933334290352757]}},{"type":"Feature","properties":{"name_en":"Narm kuan","did":203,"pid":2,"uuid":"203086"},"geometry":{"type":"Point","coordinates":[102.43574399980447,21.001487000330947]}},{"type":"Feature","properties":{"name_en":"Phoun thong","did":203,"pid":2,"uuid":"203088"},"geometry":{"type":"Point","coordinates":[102.38076617997339,20.851061879652406]}},{"type":"Feature","properties":{"name_en":"Om tar la","did":203,"pid":2,"uuid":"203093"},"geometry":{"type":"Point","coordinates":[102.3846647704328,20.892222479854166]}},{"type":"Feature","properties":{"name_en":"Houai sing","did":203,"pid":2,"uuid":"203095"},"geometry":{"type":"Point","coordinates":[102.52846670957155,20.894224159736396]}},{"type":"Feature","properties":{"name_en":"San lard","did":203,"pid":2,"uuid":"203097"},"geometry":{"type":"Point","coordinates":[102.5042688296691,20.98086211017731]}},{"type":"Feature","properties":{"name_en":"Koung kueai","did":203,"pid":2,"uuid":"203098"},"geometry":{"type":"Point","coordinates":[102.4924526096555,21.002991339732382]}},{"type":"Feature","properties":{"name_en":"Koung head","did":203,"pid":2,"uuid":"203100"},"geometry":{"type":"Point","coordinates":[102.49645043988235,20.962716210072877]}},{"type":"Feature","properties":{"name_en":"Oum mouck","did":203,"pid":2,"uuid":"203102"},"geometry":{"type":"Point","coordinates":[102.53504122971691,21.00378543961587]}},{"type":"Feature","properties":{"name_en":"Houai koud","did":203,"pid":2,"uuid":"203103"},"geometry":{"type":"Point","coordinates":[102.49938126024253,21.055110259574157]}},{"type":"Feature","properties":{"name_en":"Phoun sar ard","did":203,"pid":2,"uuid":"203104"},"geometry":{"type":"Point","coordinates":[102.51035366999068,21.03244082023859]}},{"type":"Feature","properties":{"name_en":"Nhang tuai","did":203,"pid":2,"uuid":"203110"},"geometry":{"type":"Point","coordinates":[102.53921146960057,20.980420129949803]}},{"type":"Feature","properties":{"name_en":"Omtup","did":203,"pid":2,"uuid":"203118"},"geometry":{"type":"Point","coordinates":[102.51969655977801,20.949782930385556]}},{"type":"Feature","properties":{"name_en":"Na","did":203,"pid":2,"uuid":"203119"},"geometry":{"type":"Point","coordinates":[102.56125964983734,20.91336239020735]}},{"type":"Feature","properties":{"name_en":"Viengkham","did":203,"pid":2,"uuid":"203120"},"geometry":{"type":"Point","coordinates":[102.59910947957435,20.97385375013269]}},{"type":"Feature","properties":{"name_en":"Tanh thar","did":203,"pid":2,"uuid":"203122"},"geometry":{"type":"Point","coordinates":[102.61404846023089,21.041964509617443]}},{"type":"Feature","properties":{"name_en":"Hard dan","did":203,"pid":2,"uuid":"203123"},"geometry":{"type":"Point","coordinates":[102.60688611992035,21.065020690433123]}},{"type":"Feature","properties":{"name_en":"Oum teun","did":203,"pid":2,"uuid":"203125"},"geometry":{"type":"Point","coordinates":[102.63453164980986,21.00276201024543]}},{"type":"Feature","properties":{"name_en":"Koum teung vang kock","did":203,"pid":2,"uuid":"203127"},"geometry":{"type":"Point","coordinates":[102.73108588972697,21.03188115997478]}},{"type":"Feature","properties":{"name_en":"Kong bang","did":203,"pid":2,"uuid":"203128"},"geometry":{"type":"Point","coordinates":[102.63038159999927,21.024188419997518]}},{"type":"Feature","properties":{"name_en":"Kar deeng","did":203,"pid":2,"uuid":"203129"},"geometry":{"type":"Point","coordinates":[102.64864510036156,20.985575169641503]}},{"type":"Feature","properties":{"name_en":"Vieng say sykham","did":203,"pid":2,"uuid":"203130"},"geometry":{"type":"Point","coordinates":[102.66957797977851,21.034579040286314]}},{"type":"Feature","properties":{"name_en":"Park barn","did":203,"pid":2,"uuid":"203135"},"geometry":{"type":"Point","coordinates":[102.46804350038447,21.239348440176826]}},{"type":"Feature","properties":{"name_en":"Hard pounh","did":203,"pid":2,"uuid":"203136"},"geometry":{"type":"Point","coordinates":[102.68517259986321,21.051026270383133]}},{"type":"Feature","properties":{"name_en":"Narm bood","did":203,"pid":2,"uuid":"203139"},"geometry":{"type":"Point","coordinates":[102.54298408953825,20.905229009577816]}},{"type":"Feature","properties":{"name_en":"Obphoud","did":203,"pid":2,"uuid":"203999"},"geometry":{"type":"Point","coordinates":[102.5730220003092,20.994298999902576]}}]}