{"type":"FeatureCollection","features":[{"type":"Feature","properties":{"name_en":"Nar say","did":204,"pid":2,"uuid":"204001"},"geometry":{"type":"Point","coordinates":[102.35023903962635,21.345430049692766]}},{"type":"Feature","properties":{"name_en":"Nar","did":204,"pid":2,"uuid":"204002"},"geometry":{"type":"Point","coordinates":[102.34723900040788,21.352782000258394]}},{"type":"Feature","properties":{"name_en":"Khar nar","did":204,"pid":2,"uuid":"204003"},"geometry":{"type":"Point","coordinates":[102.35084446000144,21.437284650260548]}},{"type":"Feature","properties":{"name_en":"Kang vang","did":204,"pid":2,"uuid":"204005"},"geometry":{"type":"Point","coordinates":[102.32458779998741,21.500172699996934]}},{"type":"Feature","properties":{"name_en":"Phar nang","did":204,"pid":2,"uuid":"204006"},"geometry":{"type":"Point","coordinates":[102.32578719998756,21.483230600022203]}},{"type":"Feature","properties":{"name_en":"Nar tuai","did":204,"pid":2,"uuid":"204008"},"geometry":{"type":"Point","coordinates":[102.37106428999849,21.33830912009265]}},{"type":"Feature","properties":{"name_en":"Phieng","did":204,"pid":2,"uuid":"204009"},"geometry":{"type":"Point","coordinates":[102.20468937986223,21.282313230243137]}},{"type":"Feature","properties":{"name_en":"Sar lar kow","did":204,"pid":2,"uuid":"204010"},"geometry":{"type":"Point","coordinates":[102.2324195699084,21.26591639043314]}},{"type":"Feature","properties":{"name_en":"Lao san","did":204,"pid":2,"uuid":"204011"},"geometry":{"type":"Point","coordinates":[102.23192462032551,21.306366279760184]}},{"type":"Feature","properties":{"name_en":"Don chan","did":204,"pid":2,"uuid":"204012"},"geometry":{"type":"Point","coordinates":[102.23074906016903,21.261104669603633]}},{"type":"Feature","properties":{"name_en":"Soum boun","did":204,"pid":2,"uuid":"204013"},"geometry":{"type":"Point","coordinates":[102.2495939204719,21.28299107959215]}},{"type":"Feature","properties":{"name_en":"Lee wy","did":204,"pid":2,"uuid":"204014"},"geometry":{"type":"Point","coordinates":[102.39833088011758,21.52122606018191]}},{"type":"Feature","properties":{"name_en":"Kouck muang","did":204,"pid":2,"uuid":"204016"},"geometry":{"type":"Point","coordinates":[102.35373503963574,21.55241980996438]}},{"type":"Feature","properties":{"name_en":"Narm onh","did":204,"pid":2,"uuid":"204019"},"geometry":{"type":"Point","coordinates":[102.43081519039893,21.489664170147687]}},{"type":"Feature","properties":{"name_en":"Nhang nuea","did":204,"pid":2,"uuid":"204021"},"geometry":{"type":"Point","coordinates":[102.38188400046599,21.436178999849727]}},{"type":"Feature","properties":{"name_en":"Phou say","did":204,"pid":2,"uuid":"204022"},"geometry":{"type":"Point","coordinates":[102.40474806016466,21.415954880215633]}},{"type":"Feature","properties":{"name_en":"Oum thurm","did":204,"pid":2,"uuid":"204023"},"geometry":{"type":"Point","coordinates":[102.40493153973836,21.41530470031161]}},{"type":"Feature","properties":{"name_en":"houai thong","did":204,"pid":2,"uuid":"204024"},"geometry":{"type":"Point","coordinates":[102.33844419019638,21.376568400045436]}},{"type":"Feature","properties":{"name_en":"Soap keek","did":204,"pid":2,"uuid":"204026"},"geometry":{"type":"Point","coordinates":[102.27260526039049,21.62254382024703]}},{"type":"Feature","properties":{"name_en":"Xieng nuea","did":204,"pid":2,"uuid":"204030"},"geometry":{"type":"Point","coordinates":[102.42191127025482,21.65711322008407]}},{"type":"Feature","properties":{"name_en":"Nong kharm","did":204,"pid":2,"uuid":"204031"},"geometry":{"type":"Point","coordinates":[102.37791113971596,21.616970610373127]}},{"type":"Feature","properties":{"name_en":"Narm hounh","did":204,"pid":2,"uuid":"204032"},"geometry":{"type":"Point","coordinates":[102.40312365007809,21.620689240122587]}},{"type":"Feature","properties":{"name_en":"Nam hang","did":204,"pid":2,"uuid":"204034"},"geometry":{"type":"Point","coordinates":[102.48229072023055,21.461549590295206]}},{"type":"Feature","properties":{"name_en":"Nar uo tay","did":204,"pid":2,"uuid":"204035"},"geometry":{"type":"Point","coordinates":[102.44349189999275,21.47676241017642]}},{"type":"Feature","properties":{"name_en":"Sar keo","did":204,"pid":2,"uuid":"204036"},"geometry":{"type":"Point","coordinates":[102.30052839969666,21.34508504983635]}},{"type":"Feature","properties":{"name_en":"Narm thuang","did":204,"pid":2,"uuid":"204037"},"geometry":{"type":"Point","coordinates":[102.28319981952689,21.4466546899114]}},{"type":"Feature","properties":{"name_en":"Lao panh song","did":204,"pid":2,"uuid":"204038"},"geometry":{"type":"Point","coordinates":[102.27755620004271,21.37214670035394]}},{"type":"Feature","properties":{"name_en":"Thao vong","did":204,"pid":2,"uuid":"204039"},"geometry":{"type":"Point","coordinates":[102.32299265036231,21.36148265991005]}},{"type":"Feature","properties":{"name_en":"Kong sar veer","did":204,"pid":2,"uuid":"204040"},"geometry":{"type":"Point","coordinates":[102.27695739957419,21.39189479996298]}},{"type":"Feature","properties":{"name_en":"Narm nhar","did":204,"pid":2,"uuid":"204041"},"geometry":{"type":"Point","coordinates":[102.45342931960451,21.335002380300235]}},{"type":"Feature","properties":{"name_en":"Tang chark","did":204,"pid":2,"uuid":"204042"},"geometry":{"type":"Point","coordinates":[102.45025483965006,21.285958189998322]}},{"type":"Feature","properties":{"name_en":"Hard nhar nuea","did":204,"pid":2,"uuid":"204043"},"geometry":{"type":"Point","coordinates":[102.37609577960608,21.283224770016947]}},{"type":"Feature","properties":{"name_en":"Hard nhar tay","did":204,"pid":2,"uuid":"204044"},"geometry":{"type":"Point","coordinates":[102.42644402998457,21.2719262099737]}},{"type":"Feature","properties":{"name_en":"Phar tow","did":204,"pid":2,"uuid":"204046"},"geometry":{"type":"Point","coordinates":[102.33510038146676,21.5688549880086]}},{"type":"Feature","properties":{"name_en":"Mouck kouck luang","did":204,"pid":2,"uuid":"204051"},"geometry":{"type":"Point","coordinates":[102.16922010038526,21.294108330067942]}},{"type":"Feature","properties":{"name_en":"Narm lee","did":204,"pid":2,"uuid":"204053"},"geometry":{"type":"Point","coordinates":[102.11303344001116,21.210868569937865]}},{"type":"Feature","properties":{"name_en":"Phou vieng","did":204,"pid":2,"uuid":"204054"},"geometry":{"type":"Point","coordinates":[102.11343678037116,21.28795366998039]}},{"type":"Feature","properties":{"name_en":"Mouck kouck noi","did":204,"pid":2,"uuid":"204055"},"geometry":{"type":"Point","coordinates":[102.13465087017788,21.258034210372216]}},{"type":"Feature","properties":{"name_en":"Nam kee","did":204,"pid":2,"uuid":"204056"},"geometry":{"type":"Point","coordinates":[102.37617096986921,21.697920430432724]}},{"type":"Feature","properties":{"name_en":"Mueang hounh","did":204,"pid":2,"uuid":"204060"},"geometry":{"type":"Point","coordinates":[102.30056762999514,21.609620599994297]}},{"type":"Feature","properties":{"name_en":"Salar turng","did":204,"pid":2,"uuid":"204063"},"geometry":{"type":"Point","coordinates":[102.31300972012227,21.64909885970536]}},{"type":"Feature","properties":{"name_en":"Mouck nhoun","did":204,"pid":2,"uuid":"204064"},"geometry":{"type":"Point","coordinates":[102.3333129600929,21.291951500383885]}},{"type":"Feature","properties":{"name_en":"Narm loi","did":204,"pid":2,"uuid":"204065"},"geometry":{"type":"Point","coordinates":[102.32091947012127,21.317466429599765]}},{"type":"Feature","properties":{"name_en":"Kong khoum","did":204,"pid":2,"uuid":"204066"},"geometry":{"type":"Point","coordinates":[102.28912414966085,21.277747360147014]}},{"type":"Feature","properties":{"name_en":"Lao lew","did":204,"pid":2,"uuid":"204067"},"geometry":{"type":"Point","coordinates":[102.2716249195213,21.30715175020147]}},{"type":"Feature","properties":{"name_en":"Gar seu","did":204,"pid":2,"uuid":"204069"},"geometry":{"type":"Point","coordinates":[102.22844487015568,21.47695233980439]}},{"type":"Feature","properties":{"name_en":"Lao panh nueng","did":204,"pid":2,"uuid":"204070"},"geometry":{"type":"Point","coordinates":[102.23274487020801,21.44626534960242]}},{"type":"Feature","properties":{"name_en":"Phoung koo luang","did":204,"pid":2,"uuid":"204071"},"geometry":{"type":"Point","coordinates":[102.20398991008402,21.430607959873416]}},{"type":"Feature","properties":{"name_en":"mou chee kang","did":204,"pid":2,"uuid":"204072"},"geometry":{"type":"Point","coordinates":[102.2468428097644,21.413604850342942]}},{"type":"Feature","properties":{"name_en":"Phou sang kow","did":204,"pid":2,"uuid":"204073"},"geometry":{"type":"Point","coordinates":[102.28333099962911,21.44672426016902]}},{"type":"Feature","properties":{"name_en":"Phou chang may","did":204,"pid":2,"uuid":"204074"},"geometry":{"type":"Point","coordinates":[102.29574182957876,21.441594869691087]}},{"type":"Feature","properties":{"name_en":"Mou chee kow","did":204,"pid":2,"uuid":"204075"},"geometry":{"type":"Point","coordinates":[102.2467731602976,21.4158581604021]}},{"type":"Feature","properties":{"name_en":"Kur jang kow","did":204,"pid":2,"uuid":"204077"},"geometry":{"type":"Point","coordinates":[102.28874981020331,21.49742370982232]}},{"type":"Feature","properties":{"name_en":"Nong keo","did":204,"pid":2,"uuid":"204078"},"geometry":{"type":"Point","coordinates":[102.25986392960549,21.49129117998606]}},{"type":"Feature","properties":{"name_en":"Saenkham","did":204,"pid":2,"uuid":"204081"},"geometry":{"type":"Point","coordinates":[102.32928285010568,21.53457650022999]}},{"type":"Feature","properties":{"name_en":"Mouck phar","did":204,"pid":2,"uuid":"204082"},"geometry":{"type":"Point","coordinates":[102.22595000020301,21.20978999025189]}},{"type":"Feature","properties":{"name_en":"Ear lake","did":204,"pid":2,"uuid":"204083"},"geometry":{"type":"Point","coordinates":[102.22595176016775,21.209785039582663]}},{"type":"Feature","properties":{"name_en":"Ar sur","did":204,"pid":2,"uuid":"204084"},"geometry":{"type":"Point","coordinates":[102.21174200040292,21.242952070423858]}},{"type":"Feature","properties":{"name_en":"Phier luang","did":204,"pid":2,"uuid":"204085"},"geometry":{"type":"Point","coordinates":[102.17998849960827,21.212435320407728]}},{"type":"Feature","properties":{"name_en":"San luang may","did":204,"pid":2,"uuid":"204086"},"geometry":{"type":"Point","coordinates":[102.25879808993736,21.219565470225625]}},{"type":"Feature","properties":{"name_en":"Sar nam har","did":204,"pid":2,"uuid":"204087"},"geometry":{"type":"Point","coordinates":[102.29650298956953,21.23700434994234]}},{"type":"Feature","properties":{"name_en":"Nhang par","did":204,"pid":2,"uuid":"204088"},"geometry":{"type":"Point","coordinates":[102.18381400044686,21.35134625035536]}},{"type":"Feature","properties":{"name_en":"Nong houm","did":204,"pid":2,"uuid":"204089"},"geometry":{"type":"Point","coordinates":[102.19912422017701,21.368535689641043]}},{"type":"Feature","properties":{"name_en":"Char phew noi","did":204,"pid":2,"uuid":"204090"},"geometry":{"type":"Point","coordinates":[102.161416890407,21.317806070214477]}},{"type":"Feature","properties":{"name_en":"Lee see so","did":204,"pid":2,"uuid":"204091"},"geometry":{"type":"Point","coordinates":[102.20108290001369,21.367902440118577]}},{"type":"Feature","properties":{"name_en":"Char peaw luang","did":204,"pid":2,"uuid":"204092"},"geometry":{"type":"Point","coordinates":[102.15824157021791,21.318493219942688]}},{"type":"Feature","properties":{"name_en":"Eur par","did":204,"pid":2,"uuid":"204093"},"geometry":{"type":"Point","coordinates":[102.19572357965184,21.36225377069683]}},{"type":"Feature","properties":{"name_en":"Santan","did":204,"pid":2,"uuid":"204095"},"geometry":{"type":"Point","coordinates":[102.5044445999978,21.40230050999649]}}]}