{"type":"FeatureCollection","features":[{"type":"Feature","properties":{"name_en":"San say","did":205,"pid":2,"uuid":"205001"},"geometry":{"type":"Point","coordinates":[101.88056889953697,21.55209274999171]}},{"type":"Feature","properties":{"name_en":"Bor mang","did":205,"pid":2,"uuid":"205002"},"geometry":{"type":"Point","coordinates":[101.88149879022853,21.554998840013443]}},{"type":"Feature","properties":{"name_en":"San tham","did":205,"pid":2,"uuid":"205003"},"geometry":{"type":"Point","coordinates":[101.8801690803364,21.56499651968796]}},{"type":"Feature","properties":{"name_en":"Bor may","did":205,"pid":2,"uuid":"205004"},"geometry":{"type":"Point","coordinates":[101.8879640704725,21.58686901889125]}},{"type":"Feature","properties":{"name_en":"Nar la","did":205,"pid":2,"uuid":"205005"},"geometry":{"type":"Point","coordinates":[101.90253569593229,21.614727399589558]}},{"type":"Feature","properties":{"name_en":"Phieng dork kham","did":205,"pid":2,"uuid":"205006"},"geometry":{"type":"Point","coordinates":[101.90017166020864,21.616264180061158]}},{"type":"Feature","properties":{"name_en":"Kong","did":205,"pid":2,"uuid":"205007"},"geometry":{"type":"Point","coordinates":[101.90729132995081,21.6318887998948]}},{"type":"Feature","properties":{"name_en":"Soum say","did":205,"pid":2,"uuid":"205008"},"geometry":{"type":"Point","coordinates":[101.92785038004128,21.58524200025782]}},{"type":"Feature","properties":{"name_en":"Narn boun kow","did":205,"pid":2,"uuid":"205009"},"geometry":{"type":"Point","coordinates":[101.93707633975997,21.570667049965614]}},{"type":"Feature","properties":{"name_en":"Houai lake","did":205,"pid":2,"uuid":"205010"},"geometry":{"type":"Point","coordinates":[101.92330905981832,21.63185536027601]}},{"type":"Feature","properties":{"name_en":"Maay long thong","did":205,"pid":2,"uuid":"205012"},"geometry":{"type":"Point","coordinates":[101.75931729009416,21.73211104968005]}},{"type":"Feature","properties":{"name_en":"Nhord boun","did":205,"pid":2,"uuid":"205013"},"geometry":{"type":"Point","coordinates":[101.78860583951142,21.738297060395862]}},{"type":"Feature","properties":{"name_en":"Mor sor sarn","did":205,"pid":2,"uuid":"205014"},"geometry":{"type":"Point","coordinates":[101.82108018998824,21.65759684966104]}},{"type":"Feature","properties":{"name_en":"Phar poun kow","did":205,"pid":2,"uuid":"205015"},"geometry":{"type":"Point","coordinates":[101.88264920018423,21.577202330324774]}},{"type":"Feature","properties":{"name_en":"Kham kor","did":205,"pid":2,"uuid":"205016"},"geometry":{"type":"Point","coordinates":[101.83404498017671,21.631919060279913]}},{"type":"Feature","properties":{"name_en":"Houai sang","did":205,"pid":2,"uuid":"205018"},"geometry":{"type":"Point","coordinates":[101.81944395001935,21.71195935977496]}},{"type":"Feature","properties":{"name_en":"Houm","did":205,"pid":2,"uuid":"205020"},"geometry":{"type":"Point","coordinates":[101.87308586992343,21.676362089960584]}},{"type":"Feature","properties":{"name_en":"Xieng far","did":205,"pid":2,"uuid":"205021"},"geometry":{"type":"Point","coordinates":[101.86445954961785,21.680222710150236]}},{"type":"Feature","properties":{"name_en":"Nar Por","did":205,"pid":2,"uuid":"205022"},"geometry":{"type":"Point","coordinates":[101.88516226984024,21.664901260212716]}},{"type":"Feature","properties":{"name_en":"Dong nuea","did":205,"pid":2,"uuid":"205023"},"geometry":{"type":"Point","coordinates":[101.86976797974434,21.70778031022714]}},{"type":"Feature","properties":{"name_en":"Noy","did":205,"pid":2,"uuid":"205024"},"geometry":{"type":"Point","coordinates":[101.86528415995788,21.732219599546404]}},{"type":"Feature","properties":{"name_en":"Houai nheng","did":205,"pid":2,"uuid":"205025"},"geometry":{"type":"Point","coordinates":[101.87069351044454,21.774102039895762]}},{"type":"Feature","properties":{"name_en":"Phieng say","did":205,"pid":2,"uuid":"205027"},"geometry":{"type":"Point","coordinates":[101.86205780007673,21.694054610048063]}},{"type":"Feature","properties":{"name_en":"Duea","did":205,"pid":2,"uuid":"205028"},"geometry":{"type":"Point","coordinates":[101.84258202985264,21.488610729837315]}},{"type":"Feature","properties":{"name_en":"Houaitou","did":205,"pid":2,"uuid":"205029"},"geometry":{"type":"Point","coordinates":[101.83065115013903,21.467299819896684]}},{"type":"Feature","properties":{"name_en":"Bor khoun","did":205,"pid":2,"uuid":"205030"},"geometry":{"type":"Point","coordinates":[101.79363624027576,21.469705100216345]}},{"type":"Feature","properties":{"name_en":"Houa khoua","did":205,"pid":2,"uuid":"205031"},"geometry":{"type":"Point","coordinates":[101.80022365996618,21.469116850258725]}},{"type":"Feature","properties":{"name_en":"Par khar may","did":205,"pid":2,"uuid":"205032"},"geometry":{"type":"Point","coordinates":[101.7735770902295,21.4478929500033]}},{"type":"Feature","properties":{"name_en":"Houai tard","did":205,"pid":2,"uuid":"205033"},"geometry":{"type":"Point","coordinates":[101.82665238974901,21.457610599829795]}},{"type":"Feature","properties":{"name_en":"Parkhar  kow","did":205,"pid":2,"uuid":"205034"},"geometry":{"type":"Point","coordinates":[101.76787387975502,21.447985910043933]}},{"type":"Feature","properties":{"name_en":"Pang kouck","did":205,"pid":2,"uuid":"205035"},"geometry":{"type":"Point","coordinates":[101.89024982991063,21.912884309858455]}},{"type":"Feature","properties":{"name_en":"Ngy nuea","did":205,"pid":2,"uuid":"205038"},"geometry":{"type":"Point","coordinates":[101.90206269998495,21.837304689986397]}},{"type":"Feature","properties":{"name_en":"Nam karng","did":205,"pid":2,"uuid":"205039"},"geometry":{"type":"Point","coordinates":[101.99761479962632,21.875643429546518]}},{"type":"Feature","properties":{"name_en":"Nhor","did":205,"pid":2,"uuid":"205040"},"geometry":{"type":"Point","coordinates":[101.85002030006413,21.509292409973654]}},{"type":"Feature","properties":{"name_en":"Boun nuea","did":205,"pid":2,"uuid":"205041"},"geometry":{"type":"Point","coordinates":[101.90501278976642,21.635926370369372]}},{"type":"Feature","properties":{"name_en":"Ar paa kor","did":205,"pid":2,"uuid":"205042"},"geometry":{"type":"Point","coordinates":[101.83454520968193,21.856052329651792]}},{"type":"Feature","properties":{"name_en":"Houai poung","did":205,"pid":2,"uuid":"205044"},"geometry":{"type":"Point","coordinates":[101.89760855001964,21.50787476966044]}},{"type":"Feature","properties":{"name_en":"San dao tay","did":205,"pid":2,"uuid":"205045"},"geometry":{"type":"Point","coordinates":[101.84503356991083,21.87339221960704]}},{"type":"Feature","properties":{"name_en":"Phou sar","did":205,"pid":2,"uuid":"205047"},"geometry":{"type":"Point","coordinates":[101.81870575991437,21.79869562983268]}},{"type":"Feature","properties":{"name_en":"Thong huea bin","did":205,"pid":2,"uuid":"205049"},"geometry":{"type":"Point","coordinates":[101.89769002967702,21.650681110350398]}},{"type":"Feature","properties":{"name_en":"Phier chane houck kow","did":205,"pid":2,"uuid":"205050"},"geometry":{"type":"Point","coordinates":[101.8216151998099,21.46755153033512]}},{"type":"Feature","properties":{"name_en":"Phier chane chade sip","did":205,"pid":2,"uuid":"205051"},"geometry":{"type":"Point","coordinates":[101.81473809966336,21.470831709842763]}},{"type":"Feature","properties":{"name_en":"Narm hoi","did":205,"pid":2,"uuid":"205052"},"geometry":{"type":"Point","coordinates":[101.81572674972752,21.55453958953673]}},{"type":"Feature","properties":{"name_en":"Som boun","did":205,"pid":2,"uuid":"205053"},"geometry":{"type":"Point","coordinates":[101.83062918002192,21.5376931398458]}},{"type":"Feature","properties":{"name_en":"Xieng pea","did":205,"pid":2,"uuid":"205054"},"geometry":{"type":"Point","coordinates":[101.84411968977446,21.517301649716334]}},{"type":"Feature","properties":{"name_en":"Don say","did":205,"pid":2,"uuid":"205055"},"geometry":{"type":"Point","coordinates":[101.87810092951972,21.489785119527454]}},{"type":"Feature","properties":{"name_en":"Nam paa","did":205,"pid":2,"uuid":"205056"},"geometry":{"type":"Point","coordinates":[101.8748872303785,21.49993409015288]}},{"type":"Feature","properties":{"name_en":"Vang douai","did":205,"pid":2,"uuid":"205057"},"geometry":{"type":"Point","coordinates":[101.87010912043753,21.450908930440878]}},{"type":"Feature","properties":{"name_en":"Phar poun may","did":205,"pid":2,"uuid":"205058"},"geometry":{"type":"Point","coordinates":[101.93498530000332,21.56346926020317]}},{"type":"Feature","properties":{"name_en":"Narm nhong kow","did":205,"pid":2,"uuid":"205059"},"geometry":{"type":"Point","coordinates":[101.94401555031509,21.84851959005696]}},{"type":"Feature","properties":{"name_en":"Phoun say","did":205,"pid":2,"uuid":"205060"},"geometry":{"type":"Point","coordinates":[101.90490106030799,21.66026222034199]}},{"type":"Feature","properties":{"name_en":"Durn kea lar","did":205,"pid":2,"uuid":"205061"},"geometry":{"type":"Point","coordinates":[101.90671858957775,21.665541220396502]}},{"type":"Feature","properties":{"name_en":"Noun sar vang","did":205,"pid":2,"uuid":"205062"},"geometry":{"type":"Point","coordinates":[101.89933295975469,21.656385170165258]}},{"type":"Feature","properties":{"name_en":"Houai khar","did":205,"pid":2,"uuid":"205063"},"geometry":{"type":"Point","coordinates":[101.90539666189729,21.649780035723474]}},{"type":"Feature","properties":{"name_en":"May loung","did":205,"pid":2,"uuid":"205064"},"geometry":{"type":"Point","coordinates":[101.90820377966342,21.655846879554694]}},{"type":"Feature","properties":{"name_en":"Houai doung","did":205,"pid":2,"uuid":"205065"},"geometry":{"type":"Point","coordinates":[101.90663452020303,21.667566040293604]}},{"type":"Feature","properties":{"name_en":"Boun fuea","did":205,"pid":2,"uuid":"205067"},"geometry":{"type":"Point","coordinates":[101.8829990595415,21.56745191988769]}},{"type":"Feature","properties":{"name_en":"Narm nhong may","did":205,"pid":2,"uuid":"205068"},"geometry":{"type":"Point","coordinates":[101.89358214021499,21.599147249756754]}},{"type":"Feature","properties":{"name_en":"Houai khar","did":205,"pid":2,"uuid":"205069"},"geometry":{"type":"Point","coordinates":[101.83574825995743,21.484644330261645]}},{"type":"Feature","properties":{"name_en":"Phar deng","did":205,"pid":2,"uuid":"205070"},"geometry":{"type":"Point","coordinates":[101.77952362948875,21.864052180346707]}},{"type":"Feature","properties":{"name_en":"Huoi lou","did":205,"pid":2,"uuid":"205071"},"geometry":{"type":"Point","coordinates":[101.84414105964365,21.658222559753614]}},{"type":"Feature","properties":{"name_en":"Huoi pongmay","did":205,"pid":2,"uuid":"205072"},"geometry":{"type":"Point","coordinates":[101.85757298042572,21.436899250264354]}},{"type":"Feature","properties":{"name_en":"Huoi sarngmay","did":205,"pid":2,"uuid":"205073"},"geometry":{"type":"Point","coordinates":[101.87700817991471,21.476884280390063]}},{"type":"Feature","properties":{"name_en":"Houailare","did":205,"pid":2,"uuid":"205074"},"geometry":{"type":"Point","coordinates":[101.8972296099632,21.51127481032834]}},{"type":"Feature","properties":{"name_en":"Houaisung","did":205,"pid":2,"uuid":"205076"},"geometry":{"type":"Point","coordinates":[101.82773558018323,21.52949640033145]}}]}