{"type":"FeatureCollection","features":[{"type":"Feature","properties":{"name_en":"Phou sarng","did":206,"pid":2,"uuid":"206002"},"geometry":{"type":"Point","coordinates":[101.79320122013246,22.126125540043056]}},{"type":"Feature","properties":{"name_en":"Thurng","did":206,"pid":2,"uuid":"206004"},"geometry":{"type":"Point","coordinates":[101.79005843041425,22.124907739542788]}},{"type":"Feature","properties":{"name_en":"Loum","did":206,"pid":2,"uuid":"206005"},"geometry":{"type":"Point","coordinates":[101.7918100803447,22.123783310130232]}},{"type":"Feature","properties":{"name_en":"Kard","did":206,"pid":2,"uuid":"206006"},"geometry":{"type":"Point","coordinates":[101.79028214027349,22.12203861004282]}},{"type":"Feature","properties":{"name_en":"Tay","did":206,"pid":2,"uuid":"206007"},"geometry":{"type":"Point","coordinates":[101.78867884950434,22.121421790385902]}},{"type":"Feature","properties":{"name_en":"Ngong","did":206,"pid":2,"uuid":"206008"},"geometry":{"type":"Point","coordinates":[101.73652296008322,22.069186349552236]}},{"type":"Feature","properties":{"name_en":"Lar","did":206,"pid":2,"uuid":"206009"},"geometry":{"type":"Point","coordinates":[101.70609280029612,22.101926989841225]}},{"type":"Feature","properties":{"name_en":"Kang","did":206,"pid":2,"uuid":"206010"},"geometry":{"type":"Point","coordinates":[101.73766558021572,22.08367639960253]}},{"type":"Feature","properties":{"name_en":"Nar luang","did":206,"pid":2,"uuid":"206011"},"geometry":{"type":"Point","coordinates":[101.73485890025084,22.189019410215085]}},{"type":"Feature","properties":{"name_en":"Khur nuea","did":206,"pid":2,"uuid":"206012"},"geometry":{"type":"Point","coordinates":[101.76723248981459,22.147854870349825]}},{"type":"Feature","properties":{"name_en":"Soom kham","did":206,"pid":2,"uuid":"206014"},"geometry":{"type":"Point","coordinates":[101.87688765015352,22.017054269890647]}},{"type":"Feature","properties":{"name_en":"Tarng","did":206,"pid":2,"uuid":"206017"},"geometry":{"type":"Point","coordinates":[101.88402375037012,22.035097319778615]}},{"type":"Feature","properties":{"name_en":"Parng hock","did":206,"pid":2,"uuid":"206018"},"geometry":{"type":"Point","coordinates":[101.89442241982385,21.93617493955726]}},{"type":"Feature","properties":{"name_en":"Houai ou","did":206,"pid":2,"uuid":"206019"},"geometry":{"type":"Point","coordinates":[101.8803085595264,22.023769850403415]}},{"type":"Feature","properties":{"name_en":"Nar nhow","did":206,"pid":2,"uuid":"206020"},"geometry":{"type":"Point","coordinates":[101.81619814951372,22.216833410361946]}},{"type":"Feature","properties":{"name_en":"Phor","did":206,"pid":2,"uuid":"206021"},"geometry":{"type":"Point","coordinates":[101.81837417024914,22.187694899545853]}},{"type":"Feature","properties":{"name_en":"Bor tay","did":206,"pid":2,"uuid":"206022"},"geometry":{"type":"Point","coordinates":[101.8145007300875,22.264753089728174]}},{"type":"Feature","properties":{"name_en":"Chomphor","did":206,"pid":2,"uuid":"206025"},"geometry":{"type":"Point","coordinates":[101.81696417017481,22.152867419949423]}},{"type":"Feature","properties":{"name_en":"Soap hueang","did":206,"pid":2,"uuid":"206028"},"geometry":{"type":"Point","coordinates":[101.73714396972275,22.409921360388566]}},{"type":"Feature","properties":{"name_en":"Don nhang","did":206,"pid":2,"uuid":"206029"},"geometry":{"type":"Point","coordinates":[101.79438054969823,22.296589729981296]}},{"type":"Feature","properties":{"name_en":"Bor sao","did":206,"pid":2,"uuid":"206033"},"geometry":{"type":"Point","coordinates":[101.85240512001353,22.328539119956805]}},{"type":"Feature","properties":{"name_en":"Souai ngarm","did":206,"pid":2,"uuid":"206034"},"geometry":{"type":"Point","coordinates":[101.76724196021254,22.339059830297835]}},{"type":"Feature","properties":{"name_en":"Houai paa nuea","did":206,"pid":2,"uuid":"206035"},"geometry":{"type":"Point","coordinates":[101.69029970030081,22.332578190180662]}},{"type":"Feature","properties":{"name_en":"Houysay","did":206,"pid":2,"uuid":"206038"},"geometry":{"type":"Point","coordinates":[101.88208794998066,22.318818119985306]}},{"type":"Feature","properties":{"name_en":"Tar kou sarng","did":206,"pid":2,"uuid":"206039"},"geometry":{"type":"Point","coordinates":[101.90858440014127,22.280465550206873]}},{"type":"Feature","properties":{"name_en":"Karng","did":206,"pid":2,"uuid":"206041"},"geometry":{"type":"Point","coordinates":[101.7160888896975,22.225543300078854]}},{"type":"Feature","properties":{"name_en":"Narm mar nhay","did":206,"pid":2,"uuid":"206042"},"geometry":{"type":"Point","coordinates":[101.64142640962814,22.043710400331623]}},{"type":"Feature","properties":{"name_en":"Sou linh","did":206,"pid":2,"uuid":"206043"},"geometry":{"type":"Point","coordinates":[101.72553227034736,22.045125929676537]}},{"type":"Feature","properties":{"name_en":"Narn mar noin","did":206,"pid":2,"uuid":"206044"},"geometry":{"type":"Point","coordinates":[101.65415827016493,22.064281680012012]}},{"type":"Feature","properties":{"name_en":"Xeow hou pan","did":206,"pid":2,"uuid":"206045"},"geometry":{"type":"Point","coordinates":[101.63865275955804,22.067488850164825]}},{"type":"Feature","properties":{"name_en":"Pur lao lou","did":206,"pid":2,"uuid":"206046"},"geometry":{"type":"Point","coordinates":[101.67102266017007,22.119082230184308]}},{"type":"Feature","properties":{"name_en":"Toung koua lean noi","did":206,"pid":2,"uuid":"206047"},"geometry":{"type":"Point","coordinates":[101.75349865954692,22.15505559987246]}},{"type":"Feature","properties":{"name_en":"Toung koua lenh nhay","did":206,"pid":2,"uuid":"206048"},"geometry":{"type":"Point","coordinates":[101.75246600954307,22.155975599850855]}},{"type":"Feature","properties":{"name_en":"Houai nhoum","did":206,"pid":2,"uuid":"206049"},"geometry":{"type":"Point","coordinates":[101.68755805950828,22.079140450099185]}},{"type":"Feature","properties":{"name_en":"Pharrng sarn","did":206,"pid":2,"uuid":"206051"},"geometry":{"type":"Point","coordinates":[101.65719965038856,22.215327600081494]}},{"type":"Feature","properties":{"name_en":"Phou nur sarn","did":206,"pid":2,"uuid":"206052"},"geometry":{"type":"Point","coordinates":[101.60777071952353,22.24681253981427]}},{"type":"Feature","properties":{"name_en":"Par char","did":206,"pid":2,"uuid":"206053"},"geometry":{"type":"Point","coordinates":[101.57485859037389,22.264863980335914]}},{"type":"Feature","properties":{"name_en":"Houai var","did":206,"pid":2,"uuid":"206054"},"geometry":{"type":"Point","coordinates":[101.6237491496496,22.221253270395277]}},{"type":"Feature","properties":{"name_en":"Chan sarn","did":206,"pid":2,"uuid":"206056"},"geometry":{"type":"Point","coordinates":[101.8075270699457,21.976429529953947]}},{"type":"Feature","properties":{"name_en":"Phar dang noi","did":206,"pid":2,"uuid":"206057"},"geometry":{"type":"Point","coordinates":[101.82187823041657,21.973476750158525]}},{"type":"Feature","properties":{"name_en":"Nhar kur","did":206,"pid":2,"uuid":"206058"},"geometry":{"type":"Point","coordinates":[101.78668412044739,21.951555899628964]}},{"type":"Feature","properties":{"name_en":"Nhae new toung nhay","did":206,"pid":2,"uuid":"206060"},"geometry":{"type":"Point","coordinates":[101.73115410006888,21.96289578030696]}},{"type":"Feature","properties":{"name_en":"Houai kar nhay","did":206,"pid":2,"uuid":"206061"},"geometry":{"type":"Point","coordinates":[101.6570712301573,21.974807880084256]}},{"type":"Feature","properties":{"name_en":"Xieng siew","did":206,"pid":2,"uuid":"206063"},"geometry":{"type":"Point","coordinates":[101.7366386299044,22.396894710012496]}},{"type":"Feature","properties":{"name_en":"Seow chay","did":206,"pid":2,"uuid":"206064"},"geometry":{"type":"Point","coordinates":[101.73637326043239,22.425835410366798]}},{"type":"Feature","properties":{"name_en":"Larn toui","did":206,"pid":2,"uuid":"206065"},"geometry":{"type":"Point","coordinates":[101.72934470004341,22.439067339923657]}},{"type":"Feature","properties":{"name_en":"Narm mar","did":206,"pid":2,"uuid":"206067"},"geometry":{"type":"Point","coordinates":[101.81237550023997,22.368283090170447]}},{"type":"Feature","properties":{"name_en":"Long thang","did":206,"pid":2,"uuid":"206068"},"geometry":{"type":"Point","coordinates":[101.80340031966945,22.440576160347153]}},{"type":"Feature","properties":{"name_en":"Lee sarn more","did":206,"pid":2,"uuid":"206073"},"geometry":{"type":"Point","coordinates":[101.69947175960283,22.395960049610547]}},{"type":"Feature","properties":{"name_en":"Woo phow nuea","did":206,"pid":2,"uuid":"206075"},"geometry":{"type":"Point","coordinates":[101.96789559041996,22.148166349630273]}},{"type":"Feature","properties":{"name_en":"Woo phow kang","did":206,"pid":2,"uuid":"206076"},"geometry":{"type":"Point","coordinates":[101.93975100034098,22.11076997982929]}},{"type":"Feature","properties":{"name_en":"Tar pur soe","did":206,"pid":2,"uuid":"206077"},"geometry":{"type":"Point","coordinates":[101.91682415038966,22.08988193983943]}},{"type":"Feature","properties":{"name_en":"Lao meo","did":206,"pid":2,"uuid":"206079"},"geometry":{"type":"Point","coordinates":[102.06395873954006,22.173610030352034]}},{"type":"Feature","properties":{"name_en":"Seo lee soo","did":206,"pid":2,"uuid":"206080"},"geometry":{"type":"Point","coordinates":[102.05642071957774,22.196056269589214]}},{"type":"Feature","properties":{"name_en":"Pheam chang kang","did":206,"pid":2,"uuid":"206082"},"geometry":{"type":"Point","coordinates":[102.00496783019715,22.23409904005622]}},{"type":"Feature","properties":{"name_en":"Sin chaay","did":206,"pid":2,"uuid":"206084"},"geometry":{"type":"Point","coordinates":[101.91349570010082,22.23492549971117]}},{"type":"Feature","properties":{"name_en":"koung chea","did":206,"pid":2,"uuid":"206085"},"geometry":{"type":"Point","coordinates":[101.9383738604389,22.170250149914843]}},{"type":"Feature","properties":{"name_en":"Ma lee tur","did":206,"pid":2,"uuid":"206088"},"geometry":{"type":"Point","coordinates":[101.97819618997512,22.3487817502271]}},{"type":"Feature","properties":{"name_en":"See per chay","did":206,"pid":2,"uuid":"206089"},"geometry":{"type":"Point","coordinates":[102.14773384989154,22.31876899965265]}},{"type":"Feature","properties":{"name_en":"Peryinsarng","did":206,"pid":2,"uuid":"206090"},"geometry":{"type":"Point","coordinates":[102.00292159997495,22.319209099992907]}},{"type":"Feature","properties":{"name_en":"Per houa sou","did":206,"pid":2,"uuid":"206091"},"geometry":{"type":"Point","coordinates":[102.01268320023017,22.291724460440225]}},{"type":"Feature","properties":{"name_en":"Thoo chang fang","did":206,"pid":2,"uuid":"206092"},"geometry":{"type":"Point","coordinates":[102.00424866013854,22.390197399716786]}},{"type":"Feature","properties":{"name_en":"Si thong par may","did":206,"pid":2,"uuid":"206095"},"geometry":{"type":"Point","coordinates":[102.09002444982222,22.2732074900872]}},{"type":"Feature","properties":{"name_en":"Si thong par kow","did":206,"pid":2,"uuid":"206096"},"geometry":{"type":"Point","coordinates":[102.08143466954654,22.31482346988221]}},{"type":"Feature","properties":{"name_en":"Man koua phong","did":206,"pid":2,"uuid":"206099"},"geometry":{"type":"Point","coordinates":[101.95278528026677,22.380668519751545]}},{"type":"Feature","properties":{"name_en":"See kao hou","did":206,"pid":2,"uuid":"206100"},"geometry":{"type":"Point","coordinates":[102.12028027006504,22.312020900192138]}},{"type":"Feature","properties":{"name_en":"Sar varng","did":206,"pid":2,"uuid":"206102"},"geometry":{"type":"Point","coordinates":[101.90264473968304,22.06814892985112]}},{"type":"Feature","properties":{"name_en":"Tar lee sou","did":206,"pid":2,"uuid":"206103"},"geometry":{"type":"Point","coordinates":[102.0424742402519,22.204435320377204]}},{"type":"Feature","properties":{"name_en":"Sea vi lay","did":206,"pid":2,"uuid":"206104"},"geometry":{"type":"Point","coordinates":[101.81992834034737,22.245567999862914]}},{"type":"Feature","properties":{"name_en":"Soum say","did":206,"pid":2,"uuid":"206105"},"geometry":{"type":"Point","coordinates":[101.81121862018009,22.13751110028666]}},{"type":"Feature","properties":{"name_en":"Nar kong","did":206,"pid":2,"uuid":"206106"},"geometry":{"type":"Point","coordinates":[102.06939013007995,22.335389900350954]}},{"type":"Feature","properties":{"name_en":"Mea say","did":206,"pid":2,"uuid":"206107"},"geometry":{"type":"Point","coordinates":[101.84862554984107,21.9259664497456]}},{"type":"Feature","properties":{"name_en":"Chokamai","did":206,"pid":2,"uuid":"206109"},"geometry":{"type":"Point","coordinates":[101.92940638964608,21.96803765005065]}},{"type":"Feature","properties":{"name_en":"Phonengam","did":206,"pid":2,"uuid":"206110"},"geometry":{"type":"Point","coordinates":[101.77392937955385,22.33292402984456]}},{"type":"Feature","properties":{"name_en":"Yordnam ou","did":206,"pid":2,"uuid":"206111"},"geometry":{"type":"Point","coordinates":[101.79720999993813,22.108549999982323]}},{"type":"Feature","properties":{"name_en":"Chokakao","did":206,"pid":2,"uuid":"206112"},"geometry":{"type":"Point","coordinates":[101.94273554969875,22.040329050275147]}},{"type":"Feature","properties":{"name_en":"Phiengseng","did":206,"pid":2,"uuid":"206114"},"geometry":{"type":"Point","coordinates":[101.80144699949899,22.291971000283592]}}]}