{"type":"FeatureCollection","features":[{"type":"Feature","properties":{"name_en":"Phou thong","did":207,"pid":2,"uuid":"207001"},"geometry":{"type":"Point","coordinates":[101.97233699027746,21.388595849971274]}},{"type":"Feature","properties":{"name_en":"Boun tay","did":207,"pid":2,"uuid":"207002"},"geometry":{"type":"Point","coordinates":[101.96970834020114,21.391408399920863]}},{"type":"Feature","properties":{"name_en":"Na wy","did":207,"pid":2,"uuid":"207003"},"geometry":{"type":"Point","coordinates":[101.98096868006391,21.361415850385406]}},{"type":"Feature","properties":{"name_en":"Boun nhong","did":207,"pid":2,"uuid":"207004"},"geometry":{"type":"Point","coordinates":[101.96508874005302,21.405307599726434]}},{"type":"Feature","properties":{"name_en":"Char tor","did":207,"pid":2,"uuid":"207005"},"geometry":{"type":"Point","coordinates":[102.01628113034332,21.426215169991693]}},{"type":"Feature","properties":{"name_en":"phier souck","did":207,"pid":2,"uuid":"207006"},"geometry":{"type":"Point","coordinates":[102.04217341977296,21.431022530189807]}},{"type":"Feature","properties":{"name_en":"nar say","did":207,"pid":2,"uuid":"207007"},"geometry":{"type":"Point","coordinates":[101.97276077009087,21.40300317267346]}},{"type":"Feature","properties":{"name_en":"Sing say","did":207,"pid":2,"uuid":"207008"},"geometry":{"type":"Point","coordinates":[101.92638144958879,21.42611869967534]}},{"type":"Feature","properties":{"name_en":"Long nai may","did":207,"pid":2,"uuid":"207009"},"geometry":{"type":"Point","coordinates":[101.91157271991901,21.23599450028971]}},{"type":"Feature","properties":{"name_en":"Long nay kow","did":207,"pid":2,"uuid":"207010"},"geometry":{"type":"Point","coordinates":[101.9295956597329,21.260849020326713]}},{"type":"Feature","properties":{"name_en":"Bor thard","did":207,"pid":2,"uuid":"207011"},"geometry":{"type":"Point","coordinates":[101.97042222972901,21.221992280237174]}},{"type":"Feature","properties":{"name_en":"Hardset","did":207,"pid":2,"uuid":"207012"},"geometry":{"type":"Point","coordinates":[102.07860000044872,21.464079999646106]}},{"type":"Feature","properties":{"name_en":"Pang khay","did":207,"pid":2,"uuid":"207013"},"geometry":{"type":"Point","coordinates":[101.88588788965876,21.20712421039933]}},{"type":"Feature","properties":{"name_en":"Narm barn","did":207,"pid":2,"uuid":"207014"},"geometry":{"type":"Point","coordinates":[101.9973337603225,21.22302082021987]}},{"type":"Feature","properties":{"name_en":"Narm heanh","did":207,"pid":2,"uuid":"207015"},"geometry":{"type":"Point","coordinates":[102.00050245016978,21.234815920149575]}},{"type":"Feature","properties":{"name_en":"Bor noi","did":207,"pid":2,"uuid":"207016"},"geometry":{"type":"Point","coordinates":[101.9543158201815,21.23994798997712]}},{"type":"Feature","properties":{"name_en":"Char luang may","did":207,"pid":2,"uuid":"207017"},"geometry":{"type":"Point","coordinates":[101.94250882019473,21.290701340329505]}},{"type":"Feature","properties":{"name_en":"Mou teun","did":207,"pid":2,"uuid":"207019"},"geometry":{"type":"Point","coordinates":[101.82028331966467,21.288266650415597]}},{"type":"Feature","properties":{"name_en":"Char luang lee","did":207,"pid":2,"uuid":"207020"},"geometry":{"type":"Point","coordinates":[101.93306099024937,21.325818239794465]}},{"type":"Feature","properties":{"name_en":"Nar tan","did":207,"pid":2,"uuid":"207022"},"geometry":{"type":"Point","coordinates":[101.87805885031902,21.332090339698002]}},{"type":"Feature","properties":{"name_en":"Sar paa","did":207,"pid":2,"uuid":"207023"},"geometry":{"type":"Point","coordinates":[101.8081883198577,21.330198710144003]}},{"type":"Feature","properties":{"name_en":"Thao duang","did":207,"pid":2,"uuid":"207024"},"geometry":{"type":"Point","coordinates":[101.77665576021457,21.374797730106145]}},{"type":"Feature","properties":{"name_en":"Houai khong","did":207,"pid":2,"uuid":"207025"},"geometry":{"type":"Point","coordinates":[101.86337661045097,21.408120319946125]}},{"type":"Feature","properties":{"name_en":"Narm  larn noi","did":207,"pid":2,"uuid":"207026"},"geometry":{"type":"Point","coordinates":[101.92664748981986,21.397171289742268]}},{"type":"Feature","properties":{"name_en":"Sa no nam larn","did":207,"pid":2,"uuid":"207027"},"geometry":{"type":"Point","coordinates":[101.7772222997709,21.400242419848155]}},{"type":"Feature","properties":{"name_en":"Char kham sao","did":207,"pid":2,"uuid":"207028"},"geometry":{"type":"Point","coordinates":[101.81662997999204,21.359327499922966]}},{"type":"Feature","properties":{"name_en":"Jakhamdeng","did":207,"pid":2,"uuid":"207029"},"geometry":{"type":"Point","coordinates":[101.78309943954808,21.340722689926977]}},{"type":"Feature","properties":{"name_en":"San enh luang","did":207,"pid":2,"uuid":"207030"},"geometry":{"type":"Point","coordinates":[102.13969451036758,21.4942813404406]}},{"type":"Feature","properties":{"name_en":"Char kharm leu","did":207,"pid":2,"uuid":"207031"},"geometry":{"type":"Point","coordinates":[102.17256154964693,21.50557787986441]}},{"type":"Feature","properties":{"name_en":"Tur kar","did":207,"pid":2,"uuid":"207034"},"geometry":{"type":"Point","coordinates":[102.16348276952861,21.42540179030245]}},{"type":"Feature","properties":{"name_en":"Sarm phanh say","did":207,"pid":2,"uuid":"207035"},"geometry":{"type":"Point","coordinates":[102.16093651972841,21.45003570002353]}},{"type":"Feature","properties":{"name_en":"san enh may","did":207,"pid":2,"uuid":"207036"},"geometry":{"type":"Point","coordinates":[101.97908000003467,21.392590000002873]}},{"type":"Feature","properties":{"name_en":"Ea pur ching","did":207,"pid":2,"uuid":"207037"},"geometry":{"type":"Point","coordinates":[102.14317224960881,21.42273224008903]}},{"type":"Feature","properties":{"name_en":"chur nha","did":207,"pid":2,"uuid":"207038"},"geometry":{"type":"Point","coordinates":[102.15424759044873,21.404341420038758]}},{"type":"Feature","properties":{"name_en":"Phou lee may","did":207,"pid":2,"uuid":"207039"},"geometry":{"type":"Point","coordinates":[102.10364194003061,21.415645590193133]}},{"type":"Feature","properties":{"name_en":"Phong koo","did":207,"pid":2,"uuid":"207041"},"geometry":{"type":"Point","coordinates":[102.08403666992214,21.38742816964246]}},{"type":"Feature","properties":{"name_en":"Sar nou may","did":207,"pid":2,"uuid":"207043"},"geometry":{"type":"Point","coordinates":[102.05233747972011,21.34650502961759]}},{"type":"Feature","properties":{"name_en":"Sar nou kow","did":207,"pid":2,"uuid":"207044"},"geometry":{"type":"Point","coordinates":[102.09217783987887,21.34614293033168]}},{"type":"Feature","properties":{"name_en":"Phou lee kow","did":207,"pid":2,"uuid":"207045"},"geometry":{"type":"Point","coordinates":[102.07980791005711,21.33888999038164]}},{"type":"Feature","properties":{"name_en":"Naarmkuang","did":207,"pid":2,"uuid":"207046"},"geometry":{"type":"Point","coordinates":[102.0916486186861,21.454250493000398]}},{"type":"Feature","properties":{"name_en":"Sar mam nhang","did":207,"pid":2,"uuid":"207047"},"geometry":{"type":"Point","coordinates":[102.10767454955095,21.356585029709816]}},{"type":"Feature","properties":{"name_en":"Moo chea pork","did":207,"pid":2,"uuid":"207048"},"geometry":{"type":"Point","coordinates":[102.1307200102795,21.36924412955295]}},{"type":"Feature","properties":{"name_en":"narm pork","did":207,"pid":2,"uuid":"207049"},"geometry":{"type":"Point","coordinates":[102.13233611999354,21.374598989991885]}},{"type":"Feature","properties":{"name_en":"Car maa","did":207,"pid":2,"uuid":"207050"},"geometry":{"type":"Point","coordinates":[102.09115999978103,21.488649999794788]}},{"type":"Feature","properties":{"name_en":"Mou chee houai","did":207,"pid":2,"uuid":"207051"},"geometry":{"type":"Point","coordinates":[101.9849981900309,21.302741780048596]}},{"type":"Feature","properties":{"name_en":"Ar neng","did":207,"pid":2,"uuid":"207052"},"geometry":{"type":"Point","coordinates":[101.9994674497125,21.291806659763044]}},{"type":"Feature","properties":{"name_en":"nar mark","did":207,"pid":2,"uuid":"207053"},"geometry":{"type":"Point","coordinates":[101.96761790006279,21.3081530502779]}},{"type":"Feature","properties":{"name_en":"Ar nhar","did":207,"pid":2,"uuid":"207054"},"geometry":{"type":"Point","coordinates":[102.04872756022391,21.320129029700567]}},{"type":"Feature","properties":{"name_en":"Houai wy","did":207,"pid":2,"uuid":"207055"},"geometry":{"type":"Point","coordinates":[101.93650486045136,21.205658049902382]}},{"type":"Feature","properties":{"name_en":"Phier lake","did":207,"pid":2,"uuid":"207056"},"geometry":{"type":"Point","coordinates":[102.02078262952654,21.358570869782387]}},{"type":"Feature","properties":{"name_en":"Lao sanh kow","did":207,"pid":2,"uuid":"207057"},"geometry":{"type":"Point","coordinates":[102.05003195039556,21.2652423097109]}},{"type":"Feature","properties":{"name_en":"Lao sanh may","did":207,"pid":2,"uuid":"207058"},"geometry":{"type":"Point","coordinates":[102.06967754014168,21.249629430185866]}},{"type":"Feature","properties":{"name_en":"Noun boon kang","did":207,"pid":2,"uuid":"207059"},"geometry":{"type":"Point","coordinates":[101.98482300954866,21.38628118970926]}},{"type":"Feature","properties":{"name_en":"Lou kou may","did":207,"pid":2,"uuid":"207060"},"geometry":{"type":"Point","coordinates":[101.99935194996006,21.26910520018299]}},{"type":"Feature","properties":{"name_en":"Narm kounh may","did":207,"pid":2,"uuid":"207061"},"geometry":{"type":"Point","coordinates":[101.98147268024731,21.30377308034355]}},{"type":"Feature","properties":{"name_en":"Hardngam","did":207,"pid":2,"uuid":"207062"},"geometry":{"type":"Point","coordinates":[102.0661067695647,21.452718080320608]}},{"type":"Feature","properties":{"name_en":"Phicher","did":207,"pid":2,"uuid":"207063"},"geometry":{"type":"Point","coordinates":[102.00014781024396,21.17606908966338]}},{"type":"Feature","properties":{"name_en":"Laokou","did":207,"pid":2,"uuid":"207064"},"geometry":{"type":"Point","coordinates":[101.92958735973181,21.176651970432555]}},{"type":"Feature","properties":{"name_en":"Longthang","did":207,"pid":2,"uuid":"207065"},"geometry":{"type":"Point","coordinates":[102.23190299043223,21.55975289006653]}},{"type":"Feature","properties":{"name_en":"Phoukhor","did":207,"pid":2,"uuid":"207067"},"geometry":{"type":"Point","coordinates":[102.28569158981881,21.587754389881407]}},{"type":"Feature","properties":{"name_en":"Sengkang","did":207,"pid":2,"uuid":"207068"},"geometry":{"type":"Point","coordinates":[102.21925368979252,21.532831719607675]}},{"type":"Feature","properties":{"name_en":"Nanam","did":207,"pid":2,"uuid":"207070"},"geometry":{"type":"Point","coordinates":[102.20643483009705,21.503013940118525]}}]}