{"type":"FeatureCollection","features":[{"type":"Feature","properties":{"name_en":"Nammatmay","did":301,"pid":3,"uuid":"301001"},"geometry":{"type":"Point","coordinates":[101.36953147024839,20.978093900270387]}},{"type":"Feature","properties":{"name_en":"Nammatkauw","did":301,"pid":3,"uuid":"301002"},"geometry":{"type":"Point","coordinates":[101.35134592989407,21.130994320264296]}},{"type":"Feature","properties":{"name_en":"Namyang","did":301,"pid":3,"uuid":"301003"},"geometry":{"type":"Point","coordinates":[101.28503225004512,20.98802083951215]}},{"type":"Feature","properties":{"name_en":"Namsa","did":301,"pid":3,"uuid":"301004"},"geometry":{"type":"Point","coordinates":[101.33309349002677,20.901226489954876]}},{"type":"Feature","properties":{"name_en":"Namgang","did":301,"pid":3,"uuid":"301005"},"geometry":{"type":"Point","coordinates":[101.4007758500086,20.99450113978359]}},{"type":"Feature","properties":{"name_en":"Namhorm","did":301,"pid":3,"uuid":"301006"},"geometry":{"type":"Point","coordinates":[101.40440438008774,20.998765689859518]}},{"type":"Feature","properties":{"name_en":"Saysomboune","did":301,"pid":3,"uuid":"301007"},"geometry":{"type":"Point","coordinates":[101.40815234951359,21.007834069609224]}},{"type":"Feature","properties":{"name_en":"Phonesay","did":301,"pid":3,"uuid":"301008"},"geometry":{"type":"Point","coordinates":[101.41045628014922,21.003358050046476]}},{"type":"Feature","properties":{"name_en":"Oudomesin","did":301,"pid":3,"uuid":"301009"},"geometry":{"type":"Point","coordinates":[101.410425850122,21.004443249943947]}},{"type":"Feature","properties":{"name_en":"Nongbouavieng","did":301,"pid":3,"uuid":"301010"},"geometry":{"type":"Point","coordinates":[101.40976947005664,20.999172040156456]}},{"type":"Feature","properties":{"name_en":"Houakhoua","did":301,"pid":3,"uuid":"301011"},"geometry":{"type":"Point","coordinates":[101.41061704948726,20.989991260269953]}},{"type":"Feature","properties":{"name_en":"Thongom","did":301,"pid":3,"uuid":"301012"},"geometry":{"type":"Point","coordinates":[101.40717812015055,20.982759440354766]}},{"type":"Feature","properties":{"name_en":"Viengnuea","did":301,"pid":3,"uuid":"301013"},"geometry":{"type":"Point","coordinates":[101.40808521019802,20.97202364040989]}},{"type":"Feature","properties":{"name_en":"Viengtai","did":301,"pid":3,"uuid":"301014"},"geometry":{"type":"Point","coordinates":[101.40604161956848,20.966266369607073]}},{"type":"Feature","properties":{"name_en":"Louang","did":301,"pid":3,"uuid":"301015"},"geometry":{"type":"Point","coordinates":[101.40216264021515,20.949031750014253]}},{"type":"Feature","properties":{"name_en":"Khorn","did":301,"pid":3,"uuid":"301016"},"geometry":{"type":"Point","coordinates":[101.40283168027842,20.948018040073496]}},{"type":"Feature","properties":{"name_en":"Donkhoune","did":301,"pid":3,"uuid":"301017"},"geometry":{"type":"Point","coordinates":[101.40043814991587,20.944469389986534]}},{"type":"Feature","properties":{"name_en":"Namngan","did":301,"pid":3,"uuid":"301018"},"geometry":{"type":"Point","coordinates":[101.39855297014549,20.93718644030857]}},{"type":"Feature","properties":{"name_en":"Phiengngarm","did":301,"pid":3,"uuid":"301019"},"geometry":{"type":"Point","coordinates":[101.38102774962371,20.97050810980308]}},{"type":"Feature","properties":{"name_en":"Donmoune","did":301,"pid":3,"uuid":"301020"},"geometry":{"type":"Point","coordinates":[101.38485753009188,20.955254309773267]}},{"type":"Feature","properties":{"name_en":"Tharsa","did":301,"pid":3,"uuid":"301021"},"geometry":{"type":"Point","coordinates":[101.40026228956889,20.931184829962408]}},{"type":"Feature","properties":{"name_en":"Chaleunsouk","did":301,"pid":3,"uuid":"301023"},"geometry":{"type":"Point","coordinates":[101.39753548973837,20.923604409679577]}},{"type":"Feature","properties":{"name_en":"Nalarnnuea","did":301,"pid":3,"uuid":"301024"},"geometry":{"type":"Point","coordinates":[101.28185626015227,20.826713710043954]}},{"type":"Feature","properties":{"name_en":"Naleu","did":301,"pid":3,"uuid":"301025"},"geometry":{"type":"Point","coordinates":[101.33599740035247,20.879704359860998]}},{"type":"Feature","properties":{"name_en":"Phonsaysavang","did":301,"pid":3,"uuid":"301026"},"geometry":{"type":"Point","coordinates":[101.3489046099878,20.83938271023349]}},{"type":"Feature","properties":{"name_en":"Thaor","did":301,"pid":3,"uuid":"301027"},"geometry":{"type":"Point","coordinates":[101.38436920009941,20.90143000017043]}},{"type":"Feature","properties":{"name_en":"Naleu","did":301,"pid":3,"uuid":"301028"},"geometry":{"type":"Point","coordinates":[101.41177249032421,20.93036366031232]}},{"type":"Feature","properties":{"name_en":"Viengngurn","did":301,"pid":3,"uuid":"301029"},"geometry":{"type":"Point","coordinates":[101.41318550983834,21.013752450321146]}},{"type":"Feature","properties":{"name_en":"Thongjainuea","did":301,"pid":3,"uuid":"301030"},"geometry":{"type":"Point","coordinates":[101.41394189960143,21.012590630324073]}},{"type":"Feature","properties":{"name_en":"Thongjaitai","did":301,"pid":3,"uuid":"301031"},"geometry":{"type":"Point","coordinates":[101.41622839006438,21.001654509559796]}},{"type":"Feature","properties":{"name_en":"Phaphua","did":301,"pid":3,"uuid":"301032"},"geometry":{"type":"Point","coordinates":[101.41975331949894,20.994731730181446]}},{"type":"Feature","properties":{"name_en":"Donsamphanh","did":301,"pid":3,"uuid":"301033"},"geometry":{"type":"Point","coordinates":[101.41996403997138,20.988747049691554]}},{"type":"Feature","properties":{"name_en":"Pasack","did":301,"pid":3,"uuid":"301034"},"geometry":{"type":"Point","coordinates":[101.4107890400862,20.94724480964434]}},{"type":"Feature","properties":{"name_en":"Phoung","did":301,"pid":3,"uuid":"301035"},"geometry":{"type":"Point","coordinates":[101.42065076963884,20.950452819596144]}},{"type":"Feature","properties":{"name_en":"Nanoi","did":301,"pid":3,"uuid":"301036"},"geometry":{"type":"Point","coordinates":[101.43135177990966,20.949728789723434]}},{"type":"Feature","properties":{"name_en":"Namthoung","did":301,"pid":3,"uuid":"301037"},"geometry":{"type":"Point","coordinates":[101.43675299029368,20.970157749935375]}},{"type":"Feature","properties":{"name_en":"Boumphieng","did":301,"pid":3,"uuid":"301038"},"geometry":{"type":"Point","coordinates":[101.45645868025389,20.964328890292222]}},{"type":"Feature","properties":{"name_en":"Houaihock","did":301,"pid":3,"uuid":"301039"},"geometry":{"type":"Point","coordinates":[101.44563924018362,20.942539209738474]}},{"type":"Feature","properties":{"name_en":"Mai","did":301,"pid":3,"uuid":"301040"},"geometry":{"type":"Point","coordinates":[101.41243416020099,20.937012179621576]}},{"type":"Feature","properties":{"name_en":"Narmkhon","did":301,"pid":3,"uuid":"301041"},"geometry":{"type":"Point","coordinates":[101.47611936023527,20.92211275993593]}},{"type":"Feature","properties":{"name_en":"Narmthalarn","did":301,"pid":3,"uuid":"301042"},"geometry":{"type":"Point","coordinates":[101.53139952031205,20.889355199544422]}},{"type":"Feature","properties":{"name_en":"Narmbick","did":301,"pid":3,"uuid":"301043"},"geometry":{"type":"Point","coordinates":[101.53416647020576,20.85838800032737]}},{"type":"Feature","properties":{"name_en":"Soupsim","did":301,"pid":3,"uuid":"301044"},"geometry":{"type":"Point","coordinates":[101.47617786005242,20.870910649615]}},{"type":"Feature","properties":{"name_en":"Hathyong","did":301,"pid":3,"uuid":"301045"},"geometry":{"type":"Point","coordinates":[101.45948923995905,20.83845290011765]}},{"type":"Feature","properties":{"name_en":"Sinoudoum","did":301,"pid":3,"uuid":"301046"},"geometry":{"type":"Point","coordinates":[101.46871520010293,20.822401480233964]}},{"type":"Feature","properties":{"name_en":"Sarmnjord","did":301,"pid":3,"uuid":"301047"},"geometry":{"type":"Point","coordinates":[101.56967974985686,20.983000419725407]}},{"type":"Feature","properties":{"name_en":"Tavarn","did":301,"pid":3,"uuid":"301048"},"geometry":{"type":"Point","coordinates":[101.50414886043752,20.987611299584934]}},{"type":"Feature","properties":{"name_en":"Namdeng","did":301,"pid":3,"uuid":"301049"},"geometry":{"type":"Point","coordinates":[101.54492857985339,21.018040459793852]}},{"type":"Feature","properties":{"name_en":"Houaidam","did":301,"pid":3,"uuid":"301050"},"geometry":{"type":"Point","coordinates":[101.59369097027721,21.05115191002657]}},{"type":"Feature","properties":{"name_en":"Narm kaa noi","did":301,"pid":3,"uuid":"301051"},"geometry":{"type":"Point","coordinates":[101.6018987002991,21.025993459975783]}},{"type":"Feature","properties":{"name_en":"Natoy","did":301,"pid":3,"uuid":"301053"},"geometry":{"type":"Point","coordinates":[101.64381869003367,21.06007754963499]}},{"type":"Feature","properties":{"name_en":"Tintouck","did":301,"pid":3,"uuid":"301055"},"geometry":{"type":"Point","coordinates":[101.64408606974126,21.071599479757097]}},{"type":"Feature","properties":{"name_en":"Bor pieth","did":301,"pid":3,"uuid":"301057"},"geometry":{"type":"Point","coordinates":[101.6540260901693,21.12536686988396]}},{"type":"Feature","properties":{"name_en":"Bor tenth","did":301,"pid":3,"uuid":"301059"},"geometry":{"type":"Point","coordinates":[101.66480488043617,21.136802300065334]}},{"type":"Feature","properties":{"name_en":"Koui soung","did":301,"pid":3,"uuid":"301062"},"geometry":{"type":"Point","coordinates":[101.55557593974136,21.20180220038519]}},{"type":"Feature","properties":{"name_en":"Pa kha","did":301,"pid":3,"uuid":"301063"},"geometry":{"type":"Point","coordinates":[101.54839650990947,21.109253590334138]}},{"type":"Feature","properties":{"name_en":"Suoan nha","did":301,"pid":3,"uuid":"301066"},"geometry":{"type":"Point","coordinates":[101.55843568035806,21.09359333985538]}},{"type":"Feature","properties":{"name_en":"Houai hom","did":301,"pid":3,"uuid":"301069"},"geometry":{"type":"Point","coordinates":[101.61191984997689,21.053363480371264]}},{"type":"Feature","properties":{"name_en":"Si da","did":301,"pid":3,"uuid":"301070"},"geometry":{"type":"Point","coordinates":[101.47516399023685,21.00890602975153]}},{"type":"Feature","properties":{"name_en":"Thong dee","did":301,"pid":3,"uuid":"301071"},"geometry":{"type":"Point","coordinates":[101.4284800597143,20.98947098961834]}},{"type":"Feature","properties":{"name_en":"Narm dee","did":301,"pid":3,"uuid":"301072"},"geometry":{"type":"Point","coordinates":[101.43723863992557,21.013817910073104]}},{"type":"Feature","properties":{"name_en":"Harth nhaw","did":301,"pid":3,"uuid":"301073"},"geometry":{"type":"Point","coordinates":[101.41435672002993,21.020609009760104]}},{"type":"Feature","properties":{"name_en":"Houng lueay","did":301,"pid":3,"uuid":"301074"},"geometry":{"type":"Point","coordinates":[101.40791027992196,21.041864509619238]}},{"type":"Feature","properties":{"name_en":"Phim hor","did":301,"pid":3,"uuid":"301075"},"geometry":{"type":"Point","coordinates":[101.39448809026881,21.08327772958479]}},{"type":"Feature","properties":{"name_en":"Narm lueang may","did":301,"pid":3,"uuid":"301078"},"geometry":{"type":"Point","coordinates":[101.38132238037733,21.185683219681064]}},{"type":"Feature","properties":{"name_en":"Lack kharm may","did":301,"pid":3,"uuid":"301079"},"geometry":{"type":"Point","coordinates":[101.35627407018326,21.14406731968287]}},{"type":"Feature","properties":{"name_en":"Lack kharm kow","did":301,"pid":3,"uuid":"301080"},"geometry":{"type":"Point","coordinates":[101.39582944030018,21.088203690339686]}},{"type":"Feature","properties":{"name_en":"Vieng kham","did":301,"pid":3,"uuid":"301081"},"geometry":{"type":"Point","coordinates":[101.40582888025153,20.998138799532292]}},{"type":"Feature","properties":{"name_en":"Nam koi","did":301,"pid":3,"uuid":"301082"},"geometry":{"type":"Point","coordinates":[101.38425176954784,20.854682199856818]}},{"type":"Feature","properties":{"name_en":"Nam kong","did":301,"pid":3,"uuid":"301083"},"geometry":{"type":"Point","coordinates":[101.39685571973962,21.191951290240223]}},{"type":"Feature","properties":{"name_en":"Soup thouth","did":301,"pid":3,"uuid":"301084"},"geometry":{"type":"Point","coordinates":[101.43209147990783,20.90917344992318]}},{"type":"Feature","properties":{"name_en":"Vieng thong","did":301,"pid":3,"uuid":"301085"},"geometry":{"type":"Point","coordinates":[101.4083675095845,21.011146599560668]}},{"type":"Feature","properties":{"name_en":"Houa na","did":301,"pid":3,"uuid":"301086"},"geometry":{"type":"Point","coordinates":[101.42813019041306,21.011864249716254]}},{"type":"Feature","properties":{"name_en":"Don say","did":301,"pid":3,"uuid":"301087"},"geometry":{"type":"Point","coordinates":[101.35378597961365,21.09670553967749]}},{"type":"Feature","properties":{"name_en":"Tin sarn","did":301,"pid":3,"uuid":"301088"},"geometry":{"type":"Point","coordinates":[101.66265701996092,21.08486350978522]}},{"type":"Feature","properties":{"name_en":"Koua soung","did":301,"pid":3,"uuid":"301089"},"geometry":{"type":"Point","coordinates":[101.25007770033939,20.80186229003863]}},{"type":"Feature","properties":{"name_en":"Phouvan","did":301,"pid":3,"uuid":"301091"},"geometry":{"type":"Point","coordinates":[101.49079490035646,21.216331390237578]}},{"type":"Feature","properties":{"name_en":"Phouvan","did":301,"pid":3,"uuid":"301092"},"geometry":{"type":"Point","coordinates":[101.27768609993626,20.87997550967584]}}]}