{"type":"FeatureCollection","features":[{"type":"Feature","properties":{"name_en":"Xieng gay","did":302,"pid":3,"uuid":"302001"},"geometry":{"type":"Point","coordinates":[101.15030363020733,21.189312659677842]}},{"type":"Feature","properties":{"name_en":"Xieng Ean","did":302,"pid":3,"uuid":"302002"},"geometry":{"type":"Point","coordinates":[101.15218051029272,21.19261043984318]}},{"type":"Feature","properties":{"name_en":"Xieng laa","did":302,"pid":3,"uuid":"302003"},"geometry":{"type":"Point","coordinates":[101.14768563029519,21.193898820288116]}},{"type":"Feature","properties":{"name_en":"Xieng nheun","did":302,"pid":3,"uuid":"302004"},"geometry":{"type":"Point","coordinates":[101.14707634962562,21.190647230010295]}},{"type":"Feature","properties":{"name_en":"Xieng moun","did":302,"pid":3,"uuid":"302005"},"geometry":{"type":"Point","coordinates":[101.1529803097042,21.202324480342355]}},{"type":"Feature","properties":{"name_en":"Houa khoua","did":302,"pid":3,"uuid":"302006"},"geometry":{"type":"Point","coordinates":[101.14571018035427,21.200091959548406]}},{"type":"Feature","properties":{"name_en":"Na may","did":302,"pid":3,"uuid":"302007"},"geometry":{"type":"Point","coordinates":[101.15066178996013,21.223016130016667]}},{"type":"Feature","properties":{"name_en":"Chorm","did":302,"pid":3,"uuid":"302008"},"geometry":{"type":"Point","coordinates":[101.1544741302711,21.235896599610985]}},{"type":"Feature","properties":{"name_en":"Ta paow","did":302,"pid":3,"uuid":"302009"},"geometry":{"type":"Point","coordinates":[101.13660592972938,21.203727189552]}},{"type":"Feature","properties":{"name_en":"Don may","did":302,"pid":3,"uuid":"302011"},"geometry":{"type":"Point","coordinates":[101.11713870011008,21.22357285977678]}},{"type":"Feature","properties":{"name_en":"Houa na may","did":302,"pid":3,"uuid":"302014"},"geometry":{"type":"Point","coordinates":[101.1088708799596,21.222134019830587]}},{"type":"Feature","properties":{"name_en":"Houai kam","did":302,"pid":3,"uuid":"302015"},"geometry":{"type":"Point","coordinates":[101.09859701001409,21.20589248985276]}},{"type":"Feature","properties":{"name_en":"Houai long may","did":302,"pid":3,"uuid":"302016"},"geometry":{"type":"Point","coordinates":[101.15743176964962,21.25249294017645]}},{"type":"Feature","properties":{"name_en":"Houai lar","did":302,"pid":3,"uuid":"302018"},"geometry":{"type":"Point","coordinates":[101.11562326032922,21.2451661502302]}},{"type":"Feature","properties":{"name_en":"Houai long kaow","did":302,"pid":3,"uuid":"302021"},"geometry":{"type":"Point","coordinates":[101.16112987033675,21.268781490030637]}},{"type":"Feature","properties":{"name_en":"Sor","did":302,"pid":3,"uuid":"302022"},"geometry":{"type":"Point","coordinates":[101.16163176963119,21.186471530178398]}},{"type":"Feature","properties":{"name_en":"Nong kham","did":302,"pid":3,"uuid":"302023"},"geometry":{"type":"Point","coordinates":[101.1602360202852,21.196167890277597]}},{"type":"Feature","properties":{"name_en":"Si li moun","did":302,"pid":3,"uuid":"302024"},"geometry":{"type":"Point","coordinates":[101.18120502964815,21.174199259652813]}},{"type":"Feature","properties":{"name_en":"Nakham","did":302,"pid":3,"uuid":"302025"},"geometry":{"type":"Point","coordinates":[101.1838226994733,21.18151791021759]}},{"type":"Feature","properties":{"name_en":"Don gay","did":302,"pid":3,"uuid":"302026"},"geometry":{"type":"Point","coordinates":[101.20155963955217,21.18068056024949]}},{"type":"Feature","properties":{"name_en":"Pha bath noi","did":302,"pid":3,"uuid":"302027"},"geometry":{"type":"Point","coordinates":[101.17425048001921,21.212693310074012]}},{"type":"Feature","properties":{"name_en":"Pha bath nhay","did":302,"pid":3,"uuid":"302028"},"geometry":{"type":"Point","coordinates":[101.20768413020456,21.207970949519975]}},{"type":"Feature","properties":{"name_en":"Pha ya louang","did":302,"pid":3,"uuid":"302029"},"geometry":{"type":"Point","coordinates":[101.22192514999688,21.203447740197728]}},{"type":"Feature","properties":{"name_en":"Ou dom sin","did":302,"pid":3,"uuid":"302030"},"geometry":{"type":"Point","coordinates":[101.21836593995948,21.186050510252446]}},{"type":"Feature","properties":{"name_en":"Narm dath may","did":302,"pid":3,"uuid":"302031"},"geometry":{"type":"Point","coordinates":[101.22723576027592,21.180805620300767]}},{"type":"Feature","properties":{"name_en":"Narm may","did":302,"pid":3,"uuid":"302034"},"geometry":{"type":"Point","coordinates":[101.22400067985016,21.17638072991449]}},{"type":"Feature","properties":{"name_en":"Home say","did":302,"pid":3,"uuid":"302035"},"geometry":{"type":"Point","coordinates":[101.12640632015577,21.140388170401184]}},{"type":"Feature","properties":{"name_en":"Lark kham","did":302,"pid":3,"uuid":"302037"},"geometry":{"type":"Point","coordinates":[101.20106871005378,21.169995139706547]}},{"type":"Feature","properties":{"name_en":"Poung kok","did":302,"pid":3,"uuid":"302038"},"geometry":{"type":"Point","coordinates":[101.19631516988574,21.153548590352013]}},{"type":"Feature","properties":{"name_en":"Pa kha","did":302,"pid":3,"uuid":"302039"},"geometry":{"type":"Point","coordinates":[101.20917342998979,21.162968429683715]}},{"type":"Feature","properties":{"name_en":"Narm keo louang","did":302,"pid":3,"uuid":"302040"},"geometry":{"type":"Point","coordinates":[101.14730434019627,21.1841280403843]}},{"type":"Feature","properties":{"name_en":"Nong boua","did":302,"pid":3,"uuid":"302041"},"geometry":{"type":"Point","coordinates":[101.15504619954072,21.169485610192368]}},{"type":"Feature","properties":{"name_en":"Narm keo noi","did":302,"pid":3,"uuid":"302042"},"geometry":{"type":"Point","coordinates":[101.16361459991923,21.158952990043982]}},{"type":"Feature","properties":{"name_en":"Par toi","did":302,"pid":3,"uuid":"302043"},"geometry":{"type":"Point","coordinates":[101.16567889017975,21.161211079592068]}},{"type":"Feature","properties":{"name_en":"Koum","did":302,"pid":3,"uuid":"302044"},"geometry":{"type":"Point","coordinates":[101.17532402979646,21.158483269996808]}},{"type":"Feature","properties":{"name_en":"tin thath","did":302,"pid":3,"uuid":"302045"},"geometry":{"type":"Point","coordinates":[101.16740389027866,21.153761740294822]}},{"type":"Feature","properties":{"name_en":"Sorp ea may","did":302,"pid":3,"uuid":"302046"},"geometry":{"type":"Point","coordinates":[101.19217173948938,21.14180270035275]}},{"type":"Feature","properties":{"name_en":"Yang luang","did":302,"pid":3,"uuid":"302047"},"geometry":{"type":"Point","coordinates":[101.14849321958404,21.134636920180775]}},{"type":"Feature","properties":{"name_en":"Laow khaow","did":302,"pid":3,"uuid":"302048"},"geometry":{"type":"Point","coordinates":[101.14428919958247,21.12366945029561]}},{"type":"Feature","properties":{"name_en":"Nar leck","did":302,"pid":3,"uuid":"302049"},"geometry":{"type":"Point","coordinates":[101.13138424954255,21.13262150020765]}},{"type":"Feature","properties":{"name_en":"Si li hueang","did":302,"pid":3,"uuid":"302051"},"geometry":{"type":"Point","coordinates":[101.13334971991536,21.176143100136937]}},{"type":"Feature","properties":{"name_en":"Kang phon si","did":302,"pid":3,"uuid":"302052"},"geometry":{"type":"Point","coordinates":[101.12870825042046,21.17097707968312]}},{"type":"Feature","properties":{"name_en":"Yang phieng","did":302,"pid":3,"uuid":"302053"},"geometry":{"type":"Point","coordinates":[101.13338241036092,21.167786510121882]}},{"type":"Feature","properties":{"name_en":"Thong mai","did":302,"pid":3,"uuid":"302054"},"geometry":{"type":"Point","coordinates":[101.11967623959927,21.16443895023179]}},{"type":"Feature","properties":{"name_en":"Narm dai","did":302,"pid":3,"uuid":"302055"},"geometry":{"type":"Point","coordinates":[101.11321799025859,21.15677722034033]}},{"type":"Feature","properties":{"name_en":"Khuang","did":302,"pid":3,"uuid":"302056"},"geometry":{"type":"Point","coordinates":[101.11202608018498,21.152134480270945]}},{"type":"Feature","properties":{"name_en":"Kouai na karng","did":302,"pid":3,"uuid":"302057"},"geometry":{"type":"Point","coordinates":[101.11051784033796,21.107772669794734]}},{"type":"Feature","properties":{"name_en":"Er lar mai","did":302,"pid":3,"uuid":"302060"},"geometry":{"type":"Point","coordinates":[101.09769067949829,21.11264959958883]}},{"type":"Feature","properties":{"name_en":"Tar mee","did":302,"pid":3,"uuid":"302061"},"geometry":{"type":"Point","coordinates":[101.08498186996735,21.11987354029664]}},{"type":"Feature","properties":{"name_en":"Houai koth","did":302,"pid":3,"uuid":"302062"},"geometry":{"type":"Point","coordinates":[101.09964106006902,21.15527250005381]}},{"type":"Feature","properties":{"name_en":"Phy yer","did":302,"pid":3,"uuid":"302063"},"geometry":{"type":"Point","coordinates":[101.08562174017014,21.16028462958167]}},{"type":"Feature","properties":{"name_en":"Narm hou","did":302,"pid":3,"uuid":"302064"},"geometry":{"type":"Point","coordinates":[101.07963924014125,21.136917140397827]}},{"type":"Feature","properties":{"name_en":"Mor nar","did":302,"pid":3,"uuid":"302065"},"geometry":{"type":"Point","coordinates":[101.08166951026605,21.154461800187246]}},{"type":"Feature","properties":{"name_en":"Paway","did":302,"pid":3,"uuid":"302068"},"geometry":{"type":"Point","coordinates":[101.08241156035403,21.162080870311918]}},{"type":"Feature","properties":{"name_en":"Lor meu","did":302,"pid":3,"uuid":"302069"},"geometry":{"type":"Point","coordinates":[101.16490984977837,21.303833019805406]}},{"type":"Feature","properties":{"name_en":"Mom","did":302,"pid":3,"uuid":"302071"},"geometry":{"type":"Point","coordinates":[101.16924966967059,21.331127260382214]}},{"type":"Feature","properties":{"name_en":"San Aan","did":302,"pid":3,"uuid":"302072"},"geometry":{"type":"Point","coordinates":[101.15240204022014,21.310074600312454]}},{"type":"Feature","properties":{"name_en":"Nar noi","did":302,"pid":3,"uuid":"302073"},"geometry":{"type":"Point","coordinates":[101.15460899992475,21.329664030182744]}},{"type":"Feature","properties":{"name_en":"lauw muai","did":302,"pid":3,"uuid":"302074"},"geometry":{"type":"Point","coordinates":[101.15532103962589,21.34643872954257]}},{"type":"Feature","properties":{"name_en":"Cha phou keun","did":302,"pid":3,"uuid":"302075"},"geometry":{"type":"Point","coordinates":[101.1478301300057,21.372876849784042]}},{"type":"Feature","properties":{"name_en":"Cha vang mai","did":302,"pid":3,"uuid":"302076"},"geometry":{"type":"Point","coordinates":[101.13842488030454,21.361469749697548]}},{"type":"Feature","properties":{"name_en":"Pha bath noi","did":302,"pid":3,"uuid":"302077"},"geometry":{"type":"Point","coordinates":[101.15623239981672,21.35598815020581]}},{"type":"Feature","properties":{"name_en":"Bouak nha sai mai","did":302,"pid":3,"uuid":"302078"},"geometry":{"type":"Point","coordinates":[101.14333072972069,21.372611899514013]}},{"type":"Feature","properties":{"name_en":"Bouk nha sai kauw","did":302,"pid":3,"uuid":"302079"},"geometry":{"type":"Point","coordinates":[101.1318327702308,21.401704390098583]}},{"type":"Feature","properties":{"name_en":"Par phouk","did":302,"pid":3,"uuid":"302081"},"geometry":{"type":"Point","coordinates":[101.16850577006862,21.433474569576646]}},{"type":"Feature","properties":{"name_en":"Houai that","did":302,"pid":3,"uuid":"302082"},"geometry":{"type":"Point","coordinates":[101.1353053897443,21.454908099995603]}},{"type":"Feature","properties":{"name_en":"Buakkou","did":302,"pid":3,"uuid":"302083"},"geometry":{"type":"Point","coordinates":[101.16927153945925,21.444886030306318]}},{"type":"Feature","properties":{"name_en":"Suea deng","did":302,"pid":3,"uuid":"302086"},"geometry":{"type":"Point","coordinates":[101.12582470009099,21.23835224959575]}},{"type":"Feature","properties":{"name_en":"Sai","did":302,"pid":3,"uuid":"302092"},"geometry":{"type":"Point","coordinates":[101.00489478955043,21.38655678020466]}},{"type":"Feature","properties":{"name_en":"Xieng khang","did":302,"pid":3,"uuid":"302097"},"geometry":{"type":"Point","coordinates":[100.87747678949326,21.329348869640924]}},{"type":"Feature","properties":{"name_en":"Cha phou thon","did":302,"pid":3,"uuid":"302099"},"geometry":{"type":"Point","coordinates":[100.86540114972144,21.304161670099745]}},{"type":"Feature","properties":{"name_en":"Meu tor kauw","did":302,"pid":3,"uuid":"302100"},"geometry":{"type":"Point","coordinates":[100.90893055018857,21.26700820973628]}},{"type":"Feature","properties":{"name_en":"Phar deng","did":302,"pid":3,"uuid":"302102"},"geometry":{"type":"Point","coordinates":[100.92670353986358,21.290411910037292]}},{"type":"Feature","properties":{"name_en":"Char kern","did":302,"pid":3,"uuid":"302103"},"geometry":{"type":"Point","coordinates":[100.93983504986659,21.21766060027357]}},{"type":"Feature","properties":{"name_en":"Kor phen","did":302,"pid":3,"uuid":"302106"},"geometry":{"type":"Point","coordinates":[100.9521127801833,21.308017849768603]}},{"type":"Feature","properties":{"name_en":"Lou koo","did":302,"pid":3,"uuid":"302107"},"geometry":{"type":"Point","coordinates":[100.9487300901385,21.32101742997083]}},{"type":"Feature","properties":{"name_en":"Er lar","did":302,"pid":3,"uuid":"302108"},"geometry":{"type":"Point","coordinates":[100.95061408968624,21.336131759530907]}},{"type":"Feature","properties":{"name_en":"Cha Oup-_pang thong","did":302,"pid":3,"uuid":"302113"},"geometry":{"type":"Point","coordinates":[101.05644257979132,21.080235770185887]}},{"type":"Feature","properties":{"name_en":"Kouk muang","did":302,"pid":3,"uuid":"302114"},"geometry":{"type":"Point","coordinates":[101.13005378957197,21.213863429743995]}},{"type":"Feature","properties":{"name_en":"Houai hoi","did":302,"pid":3,"uuid":"302115"},"geometry":{"type":"Point","coordinates":[101.13182798946055,21.2542490303082]}},{"type":"Feature","properties":{"name_en":"Phou yer","did":302,"pid":3,"uuid":"302116"},"geometry":{"type":"Point","coordinates":[101.11948254041523,21.11446067965398]}},{"type":"Feature","properties":{"name_en":"Lor see","did":302,"pid":3,"uuid":"302118"},"geometry":{"type":"Point","coordinates":[101.09919849976498,21.18438845984088]}},{"type":"Feature","properties":{"name_en":"Koua narm mar","did":302,"pid":3,"uuid":"302120"},"geometry":{"type":"Point","coordinates":[101.15167574993389,21.05351945983672]}},{"type":"Feature","properties":{"name_en":"Sing cha lern","did":302,"pid":3,"uuid":"302121"},"geometry":{"type":"Point","coordinates":[101.147985110357,21.186976800060776]}},{"type":"Feature","properties":{"name_en":"Poung seaw","did":302,"pid":3,"uuid":"302122"},"geometry":{"type":"Point","coordinates":[101.18242828023877,21.20983315992552]}},{"type":"Feature","properties":{"name_en":"Huayluang","did":302,"pid":3,"uuid":"302123"},"geometry":{"type":"Point","coordinates":[101.16295552985417,21.22330747956044]}},{"type":"Feature","properties":{"name_en":"Namdadsomboon","did":302,"pid":3,"uuid":"302124"},"geometry":{"type":"Point","coordinates":[101.22121537040195,21.192189330095673]}},{"type":"Feature","properties":{"name_en":"Singphatthana","did":302,"pid":3,"uuid":"302125"},"geometry":{"type":"Point","coordinates":[101.10536413978677,21.136916970177047]}},{"type":"Feature","properties":{"name_en":"Soblar","did":302,"pid":3,"uuid":"302126"},"geometry":{"type":"Point","coordinates":[101.16819600028819,21.533944999776395]}},{"type":"Feature","properties":{"name_en":"phudonethun","did":302,"pid":3,"uuid":"302127"},"geometry":{"type":"Point","coordinates":[101.22437232955106,21.174881039825927]}}]}