{"type":"FeatureCollection","features":[{"type":"Feature","properties":{"name_en":"Luang pha kharm","did":303,"pid":3,"uuid":"303001"},"geometry":{"type":"Point","coordinates":[100.8214793902494,20.967565389722445]}},{"type":"Feature","properties":{"name_en":"Houa khoua","did":303,"pid":3,"uuid":"303002"},"geometry":{"type":"Point","coordinates":[100.84753905946512,20.968630819468906]}},{"type":"Feature","properties":{"name_en":"Chom chang","did":303,"pid":3,"uuid":"303003"},"geometry":{"type":"Point","coordinates":[100.82034833987413,20.96397726977095]}},{"type":"Feature","properties":{"name_en":"Don sa vang","did":303,"pid":3,"uuid":"303004"},"geometry":{"type":"Point","coordinates":[100.80162065018155,20.959288260244477]}},{"type":"Feature","properties":{"name_en":"Pang arn","did":303,"pid":3,"uuid":"303007"},"geometry":{"type":"Point","coordinates":[100.77196296002963,20.939710149724174]}},{"type":"Feature","properties":{"name_en":"Nhongkham","did":303,"pid":3,"uuid":"303008"},"geometry":{"type":"Point","coordinates":[100.79501185972134,20.969496499471514]}},{"type":"Feature","properties":{"name_en":"Phone sa vang","did":303,"pid":3,"uuid":"303009"},"geometry":{"type":"Point","coordinates":[100.76309952018906,20.94791125963035]}},{"type":"Feature","properties":{"name_en":"Par khar","did":303,"pid":3,"uuid":"303011"},"geometry":{"type":"Point","coordinates":[100.78972102981338,20.953860560233043]}},{"type":"Feature","properties":{"name_en":"Houai thou mai","did":303,"pid":3,"uuid":"303012"},"geometry":{"type":"Point","coordinates":[100.82537185966781,21.05306743023228]}},{"type":"Feature","properties":{"name_en":"Chom mock","did":303,"pid":3,"uuid":"303016"},"geometry":{"type":"Point","coordinates":[100.7294475195698,20.982931099888734]}},{"type":"Feature","properties":{"name_en":"Char kharm tarn","did":303,"pid":3,"uuid":"303017"},"geometry":{"type":"Point","coordinates":[100.76887397996435,20.99514302985102]}},{"type":"Feature","properties":{"name_en":"Lang phar mai","did":303,"pid":3,"uuid":"303019"},"geometry":{"type":"Point","coordinates":[100.83507516955537,20.978433450230995]}},{"type":"Feature","properties":{"name_en":"Xieng kouck","did":303,"pid":3,"uuid":"303020"},"geometry":{"type":"Point","coordinates":[100.64273363023077,20.899590670329513]}},{"type":"Feature","properties":{"name_en":"Tar soum mai","did":303,"pid":3,"uuid":"303022"},"geometry":{"type":"Point","coordinates":[100.71540112967412,20.860196060304478]}},{"type":"Feature","properties":{"name_en":"som pharn mai","did":303,"pid":3,"uuid":"303023"},"geometry":{"type":"Point","coordinates":[100.73045392981822,20.92693965013766]}},{"type":"Feature","properties":{"name_en":"Tow houm","did":303,"pid":3,"uuid":"303024"},"geometry":{"type":"Point","coordinates":[100.75476984034783,20.93581935034753]}},{"type":"Feature","properties":{"name_en":"Soum pharn tai","did":303,"pid":3,"uuid":"303025"},"geometry":{"type":"Point","coordinates":[100.69972000976259,20.917270290311876]}},{"type":"Feature","properties":{"name_en":"Mueang kharn","did":303,"pid":3,"uuid":"303028"},"geometry":{"type":"Point","coordinates":[100.66603204991549,20.877713649502226]}},{"type":"Feature","properties":{"name_en":"Char varth","did":303,"pid":3,"uuid":"303034"},"geometry":{"type":"Point","coordinates":[100.70921900033314,21.23976599995549]}},{"type":"Feature","properties":{"name_en":"Soum pharn kow","did":303,"pid":3,"uuid":"303035"},"geometry":{"type":"Point","coordinates":[100.79894682032788,21.229111029766678]}},{"type":"Feature","properties":{"name_en":"Soum pharn mai","did":303,"pid":3,"uuid":"303036"},"geometry":{"type":"Point","coordinates":[100.82177711996934,21.224489579699995]}},{"type":"Feature","properties":{"name_en":"Chakhamtankang","did":303,"pid":3,"uuid":"303038"},"geometry":{"type":"Point","coordinates":[100.88368678029742,21.209120609779774]}},{"type":"Feature","properties":{"name_en":"Phar yar luang kharm ping","did":303,"pid":3,"uuid":"303042"},"geometry":{"type":"Point","coordinates":[100.7768065302556,21.296872600294275]}},{"type":"Feature","properties":{"name_en":"Char kharm leu","did":303,"pid":3,"uuid":"303043"},"geometry":{"type":"Point","coordinates":[100.83831368965848,21.26523603013984]}},{"type":"Feature","properties":{"name_en":"Phar ngoua","did":303,"pid":3,"uuid":"303045"},"geometry":{"type":"Point","coordinates":[100.81888937946822,21.265892829594016]}},{"type":"Feature","properties":{"name_en":"Phar kham","did":303,"pid":3,"uuid":"303046"},"geometry":{"type":"Point","coordinates":[100.7409054997827,21.225744189908546]}},{"type":"Feature","properties":{"name_en":"Houyluang","did":303,"pid":3,"uuid":"303049"},"geometry":{"type":"Point","coordinates":[100.883479000062,20.984529000108065]}},{"type":"Feature","properties":{"name_en":"Phar taa","did":303,"pid":3,"uuid":"303052"},"geometry":{"type":"Point","coordinates":[100.87774995955347,20.98406978002678]}},{"type":"Feature","properties":{"name_en":"Pho charn","did":303,"pid":3,"uuid":"303053"},"geometry":{"type":"Point","coordinates":[100.87495912010917,21.011868029814877]}},{"type":"Feature","properties":{"name_en":"Char kharm ping","did":303,"pid":3,"uuid":"303056"},"geometry":{"type":"Point","coordinates":[100.9003939998171,20.990580260106245]}},{"type":"Feature","properties":{"name_en":"Si vi lay","did":303,"pid":3,"uuid":"303057"},"geometry":{"type":"Point","coordinates":[100.929498319486,21.004477120088726]}},{"type":"Feature","properties":{"name_en":"Dan karng","did":303,"pid":3,"uuid":"303060"},"geometry":{"type":"Point","coordinates":[100.958018749746,21.020783350280745]}},{"type":"Feature","properties":{"name_en":"Narm hi","did":303,"pid":3,"uuid":"303065"},"geometry":{"type":"Point","coordinates":[100.93514101966082,20.81757400015483]}},{"type":"Feature","properties":{"name_en":"Narm bour","did":303,"pid":3,"uuid":"303067"},"geometry":{"type":"Point","coordinates":[100.89760994965937,20.90638999026924]}},{"type":"Feature","properties":{"name_en":"Phin ho","did":303,"pid":3,"uuid":"303070"},"geometry":{"type":"Point","coordinates":[100.94748253000903,20.915475470332623]}},{"type":"Feature","properties":{"name_en":"Mueang sar","did":303,"pid":3,"uuid":"303076"},"geometry":{"type":"Point","coordinates":[100.61081282970491,21.01220279988779]}},{"type":"Feature","properties":{"name_en":"San kharn kharm","did":303,"pid":3,"uuid":"303077"},"geometry":{"type":"Point","coordinates":[100.65046056990967,20.970198569836715]}},{"type":"Feature","properties":{"name_en":"Houai sing","did":303,"pid":3,"uuid":"303078"},"geometry":{"type":"Point","coordinates":[100.55405468964307,20.986435399675052]}},{"type":"Feature","properties":{"name_en":"Ckar keo","did":303,"pid":3,"uuid":"303079"},"geometry":{"type":"Point","coordinates":[100.63809374024976,20.959924370317815]}},{"type":"Feature","properties":{"name_en":"Char yea","did":303,"pid":3,"uuid":"303088"},"geometry":{"type":"Point","coordinates":[100.55977105969063,20.879774930249763]}},{"type":"Feature","properties":{"name_en":"tharth","did":303,"pid":3,"uuid":"303092"},"geometry":{"type":"Point","coordinates":[101.0129247399694,21.04651714001818]}},{"type":"Feature","properties":{"name_en":"Si li moun","did":303,"pid":3,"uuid":"303093"},"geometry":{"type":"Point","coordinates":[101.0246598300493,21.05851315022388]}},{"type":"Feature","properties":{"name_en":"Soup ear mai","did":303,"pid":3,"uuid":"303098"},"geometry":{"type":"Point","coordinates":[101.05831577000089,20.99582146022973]}},{"type":"Feature","properties":{"name_en":"Pheow yaa","did":303,"pid":3,"uuid":"303099"},"geometry":{"type":"Point","coordinates":[101.03330995007362,21.064541160336734]}},{"type":"Feature","properties":{"name_en":"Soup mar","did":303,"pid":3,"uuid":"303100"},"geometry":{"type":"Point","coordinates":[101.02064899983837,21.049203959661405]}},{"type":"Feature","properties":{"name_en":"Phar yar luang","did":303,"pid":3,"uuid":"303103"},"geometry":{"type":"Point","coordinates":[100.99610301949913,21.033745719666296]}},{"type":"Feature","properties":{"name_en":"Narm mar","did":303,"pid":3,"uuid":"303105"},"geometry":{"type":"Point","coordinates":[101.03958012037299,21.066457690376584]}},{"type":"Feature","properties":{"name_en":"Houanambuk","did":303,"pid":3,"uuid":"303106"},"geometry":{"type":"Point","coordinates":[100.74644324993726,21.255243209911953]}},{"type":"Feature","properties":{"name_en":"Houana","did":303,"pid":3,"uuid":"303107"},"geometry":{"type":"Point","coordinates":[100.99126099973579,21.03481499968395]}},{"type":"Feature","properties":{"name_en":"Char char narm","did":303,"pid":3,"uuid":"303111"},"geometry":{"type":"Point","coordinates":[100.72018190987865,21.027580570181073]}},{"type":"Feature","properties":{"name_en":"San chom phou","did":303,"pid":3,"uuid":"303112"},"geometry":{"type":"Point","coordinates":[100.73403928966846,21.1788780300319]}},{"type":"Feature","properties":{"name_en":"Phar yar luang","did":303,"pid":3,"uuid":"303113"},"geometry":{"type":"Point","coordinates":[100.69467284955175,21.077921449609455]}},{"type":"Feature","properties":{"name_en":"Kokmuang","did":303,"pid":3,"uuid":"303115"},"geometry":{"type":"Point","coordinates":[100.72040100012875,20.922957999806627]}},{"type":"Feature","properties":{"name_en":"thong mo tarm","did":303,"pid":3,"uuid":"303117"},"geometry":{"type":"Point","coordinates":[100.721773639612,21.165632609489816]}},{"type":"Feature","properties":{"name_en":"Houai thou kow","did":303,"pid":3,"uuid":"303119"},"geometry":{"type":"Point","coordinates":[100.83798822004141,21.174421960153936]}},{"type":"Feature","properties":{"name_en":"Phar taa","did":303,"pid":3,"uuid":"303121"},"geometry":{"type":"Point","coordinates":[100.77888213978466,21.110673479843285]}},{"type":"Feature","properties":{"name_en":"Char mai","did":303,"pid":3,"uuid":"303122"},"geometry":{"type":"Point","coordinates":[100.84396360016297,21.115481510204077]}},{"type":"Feature","properties":{"name_en":"Phar sord","did":303,"pid":3,"uuid":"303123"},"geometry":{"type":"Point","coordinates":[100.7816528594853,21.17965755020642]}},{"type":"Feature","properties":{"name_en":"Sarm mueang mai","did":303,"pid":3,"uuid":"303124"},"geometry":{"type":"Point","coordinates":[100.88032160956774,21.089762729566765]}},{"type":"Feature","properties":{"name_en":"Sankhammai","did":303,"pid":3,"uuid":"303125"},"geometry":{"type":"Point","coordinates":[100.79767311002618,20.816927669990157]}},{"type":"Feature","properties":{"name_en":"Cha tar","did":303,"pid":3,"uuid":"303129"},"geometry":{"type":"Point","coordinates":[100.90276835038053,21.16617575959897]}},{"type":"Feature","properties":{"name_en":"Char kurn mai","did":303,"pid":3,"uuid":"303133"},"geometry":{"type":"Point","coordinates":[100.820149939556,20.84475994963021]}},{"type":"Feature","properties":{"name_en":"Phon sarm pharn","did":303,"pid":3,"uuid":"303134"},"geometry":{"type":"Point","coordinates":[100.77910200012653,20.947760299782463]}},{"type":"Feature","properties":{"name_en":"Luang pho kharm","did":303,"pid":3,"uuid":"303135"},"geometry":{"type":"Point","coordinates":[100.99745249984865,21.036638980225636]}},{"type":"Feature","properties":{"name_en":"Don nhang","did":303,"pid":3,"uuid":"303136"},"geometry":{"type":"Point","coordinates":[100.81137970020745,20.958233400159372]}},{"type":"Feature","properties":{"name_en":"Jar lern xay","did":303,"pid":3,"uuid":"303137"},"geometry":{"type":"Point","coordinates":[100.76786555012366,20.952313510247098]}},{"type":"Feature","properties":{"name_en":"Santao","did":303,"pid":3,"uuid":"303139"},"geometry":{"type":"Point","coordinates":[101.0408099995141,21.071929999755245]}},{"type":"Feature","properties":{"name_en":"Tarbhai","did":303,"pid":3,"uuid":"303140"},"geometry":{"type":"Point","coordinates":[100.62106851031724,21.052958290050125]}},{"type":"Feature","properties":{"name_en":"Tindoy","did":303,"pid":3,"uuid":"303141"},"geometry":{"type":"Point","coordinates":[100.61757241015422,20.998679439919794]}},{"type":"Feature","properties":{"name_en":"Houykoum","did":303,"pid":3,"uuid":"303142"},"geometry":{"type":"Point","coordinates":[100.54436578944943,20.872412849548176]}},{"type":"Feature","properties":{"name_en":"Poungsay","did":303,"pid":3,"uuid":"303143"},"geometry":{"type":"Point","coordinates":[100.6350509994994,20.90175099957554]}},{"type":"Feature","properties":{"name_en":"Xiengkokmai","did":303,"pid":3,"uuid":"303144"},"geometry":{"type":"Point","coordinates":[100.86224799998078,20.81398700001127]}},{"type":"Feature","properties":{"name_en":"Khokhin","did":303,"pid":3,"uuid":"303146"},"geometry":{"type":"Point","coordinates":[100.97915154018764,21.031434570190108]}},{"type":"Feature","properties":{"name_en":"Houymor","did":303,"pid":3,"uuid":"303147"},"geometry":{"type":"Point","coordinates":[100.95340375978014,21.020951580249257]}},{"type":"Feature","properties":{"name_en":"Nambuk","did":303,"pid":3,"uuid":"303149"},"geometry":{"type":"Point","coordinates":[100.65606319959694,20.90633097992036]}},{"type":"Feature","properties":{"name_en":"Paor","did":303,"pid":3,"uuid":"303153"},"geometry":{"type":"Point","coordinates":[100.71346599994163,20.961879999789232]}},{"type":"Feature","properties":{"name_en":"Pamaekkouy","did":303,"pid":3,"uuid":"303156"},"geometry":{"type":"Point","coordinates":[101.00318422020439,20.922155929542946]}},{"type":"Feature","properties":{"name_en":"Bor","did":303,"pid":3,"uuid":"303157"},"geometry":{"type":"Point","coordinates":[100.72863900031521,21.11336599958748]}}]}