{"type":"FeatureCollection","features":[{"type":"Feature","properties":{"name_en":"Theo","did":304,"pid":3,"uuid":"304001"},"geometry":{"type":"Point","coordinates":[101.06381169993332,20.677781710281455]}},{"type":"Feature","properties":{"name_en":"Mai","did":304,"pid":3,"uuid":"304002"},"geometry":{"type":"Point","coordinates":[101.0567742502341,20.67931619031508]}},{"type":"Feature","properties":{"name_en":"Phar deng","did":304,"pid":3,"uuid":"304004"},"geometry":{"type":"Point","coordinates":[101.04974727996486,20.693396610041816]}},{"type":"Feature","properties":{"name_en":"narm marng","did":304,"pid":3,"uuid":"304005"},"geometry":{"type":"Point","coordinates":[101.06705389952182,20.663353769742415]}},{"type":"Feature","properties":{"name_en":"Karm phon","did":304,"pid":3,"uuid":"304006"},"geometry":{"type":"Point","coordinates":[101.06217999030282,20.654600970404086]}},{"type":"Feature","properties":{"name_en":"Lar vaa","did":304,"pid":3,"uuid":"304008"},"geometry":{"type":"Point","coordinates":[101.04314603010229,20.64427244970276]}},{"type":"Feature","properties":{"name_en":"Narm par marn","did":304,"pid":3,"uuid":"304012"},"geometry":{"type":"Point","coordinates":[101.0106823313956,20.684258575060824]}},{"type":"Feature","properties":{"name_en":"Houai hock","did":304,"pid":3,"uuid":"304014"},"geometry":{"type":"Point","coordinates":[101.01023280979804,20.820241542543933]}},{"type":"Feature","properties":{"name_en":"Nong kharm","did":304,"pid":3,"uuid":"304020"},"geometry":{"type":"Point","coordinates":[101.0848352695153,20.69118897964749]}},{"type":"Feature","properties":{"name_en":"Narm Oou","did":304,"pid":3,"uuid":"304021"},"geometry":{"type":"Point","coordinates":[101.11859069985589,20.711920199773715]}},{"type":"Feature","properties":{"name_en":"Narm ang","did":304,"pid":3,"uuid":"304022"},"geometry":{"type":"Point","coordinates":[101.14245749953021,20.720943230300758]}},{"type":"Feature","properties":{"name_en":"Phou larn nuea","did":304,"pid":3,"uuid":"304023"},"geometry":{"type":"Point","coordinates":[101.17241735966628,20.73429601985471]}},{"type":"Feature","properties":{"name_en":"Narm sing","did":304,"pid":3,"uuid":"304024"},"geometry":{"type":"Point","coordinates":[101.20828318365618,20.766191008341742]}},{"type":"Feature","properties":{"name_en":"Narm loung","did":304,"pid":3,"uuid":"304025"},"geometry":{"type":"Point","coordinates":[101.21220850995131,20.771079000098617]}},{"type":"Feature","properties":{"name_en":"Tar long","did":304,"pid":3,"uuid":"304026"},"geometry":{"type":"Point","coordinates":[101.22058790010806,20.776163879585404]}},{"type":"Feature","properties":{"name_en":"par larng","did":304,"pid":3,"uuid":"304027"},"geometry":{"type":"Point","coordinates":[101.2369280865484,20.782102960588652]}},{"type":"Feature","properties":{"name_en":"Narm varng","did":304,"pid":3,"uuid":"304028"},"geometry":{"type":"Point","coordinates":[101.21055711130671,20.71729618067373]}},{"type":"Feature","properties":{"name_en":"Thong larth","did":304,"pid":3,"uuid":"304030"},"geometry":{"type":"Point","coordinates":[101.0090420767267,20.83607068273694]}},{"type":"Feature","properties":{"name_en":"Narm tar lang","did":304,"pid":3,"uuid":"304032"},"geometry":{"type":"Point","coordinates":[101.01079624125174,20.704896999516386]}},{"type":"Feature","properties":{"name_en":"Thar luang","did":304,"pid":3,"uuid":"304035"},"geometry":{"type":"Point","coordinates":[101.01718098858677,20.74299115661384]}},{"type":"Feature","properties":{"name_en":"Tar soom","did":304,"pid":3,"uuid":"304036"},"geometry":{"type":"Point","coordinates":[100.95155648597228,20.71982731396741]}},{"type":"Feature","properties":{"name_en":"Narm karp nuea","did":304,"pid":3,"uuid":"304037"},"geometry":{"type":"Point","coordinates":[101.01441504370901,20.72382409085679]}},{"type":"Feature","properties":{"name_en":"Nar lour","did":304,"pid":3,"uuid":"304038"},"geometry":{"type":"Point","coordinates":[101.08901767055691,20.77617175870698]}},{"type":"Feature","properties":{"name_en":"Narm far","did":304,"pid":3,"uuid":"304039"},"geometry":{"type":"Point","coordinates":[101.0798551611188,20.620957101334962]}},{"type":"Feature","properties":{"name_en":"lar mon","did":304,"pid":3,"uuid":"304040"},"geometry":{"type":"Point","coordinates":[101.0842963964024,20.635438765609393]}},{"type":"Feature","properties":{"name_en":"Narm kieng","did":304,"pid":3,"uuid":"304041"},"geometry":{"type":"Point","coordinates":[101.09981071155364,20.6142472198804]}},{"type":"Feature","properties":{"name_en":"Narm suea","did":304,"pid":3,"uuid":"304042"},"geometry":{"type":"Point","coordinates":[101.10329733154543,20.60769793612008]}},{"type":"Feature","properties":{"name_en":"Phou laid","did":304,"pid":3,"uuid":"304043"},"geometry":{"type":"Point","coordinates":[101.1271387343026,20.556126013091056]}},{"type":"Feature","properties":{"name_en":"Phon thong","did":304,"pid":3,"uuid":"304044"},"geometry":{"type":"Point","coordinates":[101.0643819999345,20.60123448322096]}},{"type":"Feature","properties":{"name_en":"Lay lord","did":304,"pid":3,"uuid":"304045"},"geometry":{"type":"Point","coordinates":[101.06324398933721,20.584020233292723]}},{"type":"Feature","properties":{"name_en":"Sar koun","did":304,"pid":3,"uuid":"304046"},"geometry":{"type":"Point","coordinates":[101.05894524578653,20.578394718145788]}},{"type":"Feature","properties":{"name_en":"Narm ngurn","did":304,"pid":3,"uuid":"304047"},"geometry":{"type":"Point","coordinates":[101.05819556879965,20.591138228772426]}},{"type":"Feature","properties":{"name_en":"Parng sai","did":304,"pid":3,"uuid":"304048"},"geometry":{"type":"Point","coordinates":[101.0357387735735,20.583758969050052]}},{"type":"Feature","properties":{"name_en":"Narm phaa","did":304,"pid":3,"uuid":"304050"},"geometry":{"type":"Point","coordinates":[100.97824629369306,20.547038856508102]}},{"type":"Feature","properties":{"name_en":"Phoun larn narm phaa","did":304,"pid":3,"uuid":"304051"},"geometry":{"type":"Point","coordinates":[100.99782465965684,20.555393266492885]}},{"type":"Feature","properties":{"name_en":"Thong nar hi","did":304,"pid":3,"uuid":"304054"},"geometry":{"type":"Point","coordinates":[101.0664265980848,20.526123409577796]}},{"type":"Feature","properties":{"name_en":"Dong vieng","did":304,"pid":3,"uuid":"304059"},"geometry":{"type":"Point","coordinates":[101.1435117760868,20.526708634541965]}},{"type":"Feature","properties":{"name_en":"Dong vieng","did":304,"pid":3,"uuid":"304065"},"geometry":{"type":"Point","coordinates":[101.06131900034309,20.676777559730763]}},{"type":"Feature","properties":{"name_en":"Don may","did":304,"pid":3,"uuid":"304069"},"geometry":{"type":"Point","coordinates":[100.8940934112029,20.54911446833313]}},{"type":"Feature","properties":{"name_en":"Thong na pan","did":304,"pid":3,"uuid":"304070"},"geometry":{"type":"Point","coordinates":[101.08709100587926,20.502822893137466]}},{"type":"Feature","properties":{"name_en":"Narm gar lea","did":304,"pid":3,"uuid":"304071"},"geometry":{"type":"Point","coordinates":[101.01916138084437,20.56006282592466]}},{"type":"Feature","properties":{"name_en":"narm karp tai","did":304,"pid":3,"uuid":"304072"},"geometry":{"type":"Point","coordinates":[101.02748402642179,20.822535387575762]}},{"type":"Feature","properties":{"name_en":"Pak kharn","did":304,"pid":3,"uuid":"304073"},"geometry":{"type":"Point","coordinates":[100.93219553084207,20.695702889594273]}},{"type":"Feature","properties":{"name_en":"Namkhongnoy","did":304,"pid":3,"uuid":"304074"},"geometry":{"type":"Point","coordinates":[100.9358338636486,20.582510986944225]}},{"type":"Feature","properties":{"name_en":"Viengsavang","did":304,"pid":3,"uuid":"304075"},"geometry":{"type":"Point","coordinates":[101.064822385311,20.684518077945647]}}]}