{"type":"FeatureCollection","features":[{"type":"Feature","properties":{"name_en":"Phouxaitha","did":305,"pid":3,"uuid":"304076"},"geometry":{"type":"Point","coordinates":[101.23382141986191,20.556542680294672]}},{"type":"Feature","properties":{"name_en":"Hard nar lang","did":305,"pid":3,"uuid":"305001"},"geometry":{"type":"Point","coordinates":[101.4213774802824,20.72905440026044]}},{"type":"Feature","properties":{"name_en":"Hard gar lar","did":305,"pid":3,"uuid":"305002"},"geometry":{"type":"Point","coordinates":[101.46694352031732,20.65416788031541]}},{"type":"Feature","properties":{"name_en":"Hard loi","did":305,"pid":3,"uuid":"305003"},"geometry":{"type":"Point","coordinates":[101.46524241011548,20.62652955992545]}},{"type":"Feature","properties":{"name_en":"Hard lom","did":305,"pid":3,"uuid":"305004"},"geometry":{"type":"Point","coordinates":[101.45957507000566,20.594173649945898]}},{"type":"Feature","properties":{"name_en":"Low","did":305,"pid":3,"uuid":"305005"},"geometry":{"type":"Point","coordinates":[101.45836513972412,20.570469209567733]}},{"type":"Feature","properties":{"name_en":"Phou chaa","did":305,"pid":3,"uuid":"305007"},"geometry":{"type":"Point","coordinates":[101.52520964963036,20.574169989811715]}},{"type":"Feature","properties":{"name_en":"van","did":305,"pid":3,"uuid":"305008"},"geometry":{"type":"Point","coordinates":[101.49107996002974,20.57130840975252]}},{"type":"Feature","properties":{"name_en":"Narm hang","did":305,"pid":3,"uuid":"305009"},"geometry":{"type":"Point","coordinates":[101.4544316002206,20.56216936989492]}},{"type":"Feature","properties":{"name_en":"Donsy","did":305,"pid":3,"uuid":"305010"},"geometry":{"type":"Point","coordinates":[101.45501473043073,20.539353569912304]}},{"type":"Feature","properties":{"name_en":"Vang mee sy","did":305,"pid":3,"uuid":"305011"},"geometry":{"type":"Point","coordinates":[101.44538316955261,20.53494318021027]}},{"type":"Feature","properties":{"name_en":"Nar lang","did":305,"pid":3,"uuid":"305012"},"geometry":{"type":"Point","coordinates":[101.44838112036103,20.531975150044104]}},{"type":"Feature","properties":{"name_en":"Don chanh","did":305,"pid":3,"uuid":"305013"},"geometry":{"type":"Point","coordinates":[101.44348970036829,20.530324759788357]}},{"type":"Feature","properties":{"name_en":"Phar hoo","did":305,"pid":3,"uuid":"305018"},"geometry":{"type":"Point","coordinates":[101.53905312004078,20.528935870267514]}},{"type":"Feature","properties":{"name_en":"Phurng","did":305,"pid":3,"uuid":"305019"},"geometry":{"type":"Point","coordinates":[101.5266235897215,20.494950859594013]}},{"type":"Feature","properties":{"name_en":"Phang bouk","did":305,"pid":3,"uuid":"305020"},"geometry":{"type":"Point","coordinates":[101.558275589761,20.476678140235858]}},{"type":"Feature","properties":{"name_en":"Khon lang","did":305,"pid":3,"uuid":"305021"},"geometry":{"type":"Point","coordinates":[101.46798194989908,20.48213619034876]}},{"type":"Feature","properties":{"name_en":"Phou houn","did":305,"pid":3,"uuid":"305023"},"geometry":{"type":"Point","coordinates":[101.42218993979807,20.491772019844962]}},{"type":"Feature","properties":{"name_en":"Phar vea","did":305,"pid":3,"uuid":"305025"},"geometry":{"type":"Point","coordinates":[101.42727968015004,20.50344549974108]}},{"type":"Feature","properties":{"name_en":"Vard","did":305,"pid":3,"uuid":"305026"},"geometry":{"type":"Point","coordinates":[101.4103401101993,20.456016330314053]}},{"type":"Feature","properties":{"name_en":"Nong kharm","did":305,"pid":3,"uuid":"305028"},"geometry":{"type":"Point","coordinates":[101.38077645984434,20.434145769871083]}},{"type":"Feature","properties":{"name_en":"Sar kan","did":305,"pid":3,"uuid":"305030"},"geometry":{"type":"Point","coordinates":[101.47970345963307,20.463862550324194]}},{"type":"Feature","properties":{"name_en":"Khanha","did":305,"pid":3,"uuid":"305031"},"geometry":{"type":"Point","coordinates":[101.45101556024059,20.459107659568996]}},{"type":"Feature","properties":{"name_en":"Mouk kood","did":305,"pid":3,"uuid":"305032"},"geometry":{"type":"Point","coordinates":[101.43970770033349,20.460927290272323]}},{"type":"Feature","properties":{"name_en":"Mouck loi","did":305,"pid":3,"uuid":"305036"},"geometry":{"type":"Point","coordinates":[101.40073108986394,20.43545175003904]}},{"type":"Feature","properties":{"name_en":"Mouck nhoum","did":305,"pid":3,"uuid":"305037"},"geometry":{"type":"Point","coordinates":[101.3371037295839,20.337063209638096]}},{"type":"Feature","properties":{"name_en":"Mouck chord","did":305,"pid":3,"uuid":"305038"},"geometry":{"type":"Point","coordinates":[101.35574022035871,20.406545920238194]}},{"type":"Feature","properties":{"name_en":"mouck phard","did":305,"pid":3,"uuid":"305039"},"geometry":{"type":"Point","coordinates":[101.33804100014252,20.399632860039855]}},{"type":"Feature","properties":{"name_en":"Puean","did":305,"pid":3,"uuid":"305040"},"geometry":{"type":"Point","coordinates":[101.33749575005065,20.43272922988424]}},{"type":"Feature","properties":{"name_en":"Khon kham","did":305,"pid":3,"uuid":"305041"},"geometry":{"type":"Point","coordinates":[101.27963865992133,20.4129989001809]}},{"type":"Feature","properties":{"name_en":"Phou loum","did":305,"pid":3,"uuid":"305042"},"geometry":{"type":"Point","coordinates":[101.25960842977565,20.39444504960715]}},{"type":"Feature","properties":{"name_en":"Phou hurn houai lao","did":305,"pid":3,"uuid":"305043"},"geometry":{"type":"Point","coordinates":[101.21948693963043,20.324993270397357]}},{"type":"Feature","properties":{"name_en":"Phou thoun","did":305,"pid":3,"uuid":"305044"},"geometry":{"type":"Point","coordinates":[101.32451839005178,20.38678868988691]}},{"type":"Feature","properties":{"name_en":"Sang hand","did":305,"pid":3,"uuid":"305045"},"geometry":{"type":"Point","coordinates":[101.30680265016764,20.330163479623433]}},{"type":"Feature","properties":{"name_en":"Ngouan","did":305,"pid":3,"uuid":"305047"},"geometry":{"type":"Point","coordinates":[101.23799770042149,20.376495289580646]}},{"type":"Feature","properties":{"name_en":"Tar varn","did":305,"pid":3,"uuid":"305048"},"geometry":{"type":"Point","coordinates":[101.27557787995367,20.323688630127698]}},{"type":"Feature","properties":{"name_en":"Hard daow","did":305,"pid":3,"uuid":"305049"},"geometry":{"type":"Point","coordinates":[101.22086776957042,20.350678439599584]}},{"type":"Feature","properties":{"name_en":"Don thip","did":305,"pid":3,"uuid":"305052"},"geometry":{"type":"Point","coordinates":[101.22603153009314,20.368384369637884]}},{"type":"Feature","properties":{"name_en":"Narm ling","did":305,"pid":3,"uuid":"305053"},"geometry":{"type":"Point","coordinates":[101.19274237970325,20.291678229574337]}},{"type":"Feature","properties":{"name_en":"Lar arnd","did":305,"pid":3,"uuid":"305054"},"geometry":{"type":"Point","coordinates":[101.17670444958273,20.280060739643694]}},{"type":"Feature","properties":{"name_en":"Tar lang","did":305,"pid":3,"uuid":"305055"},"geometry":{"type":"Point","coordinates":[101.21559631003193,20.33228083990542]}},{"type":"Feature","properties":{"name_en":"Tar khurng","did":305,"pid":3,"uuid":"305056"},"geometry":{"type":"Point","coordinates":[101.13160285021405,20.33109680954993]}},{"type":"Feature","properties":{"name_en":"Corm si","did":305,"pid":3,"uuid":"305057"},"geometry":{"type":"Point","coordinates":[101.17056536967294,20.352349709939848]}},{"type":"Feature","properties":{"name_en":"Kajan","did":305,"pid":3,"uuid":"305058"},"geometry":{"type":"Point","coordinates":[101.15643172976536,20.384597909938275]}},{"type":"Feature","properties":{"name_en":"Sar phim","did":305,"pid":3,"uuid":"305059"},"geometry":{"type":"Point","coordinates":[101.07522130980097,20.308903200214463]}},{"type":"Feature","properties":{"name_en":"Tar kou nhay","did":305,"pid":3,"uuid":"305060"},"geometry":{"type":"Point","coordinates":[101.01331307966932,20.352353399557067]}},{"type":"Feature","properties":{"name_en":"Taluobig","did":305,"pid":3,"uuid":"305063"},"geometry":{"type":"Point","coordinates":[101.06984112988461,20.34381114970586]}},{"type":"Feature","properties":{"name_en":"Sar lueang pang","did":305,"pid":3,"uuid":"305066"},"geometry":{"type":"Point","coordinates":[101.21450993012844,20.371492969972184]}},{"type":"Feature","properties":{"name_en":"Moung kho lar","did":305,"pid":3,"uuid":"305067"},"geometry":{"type":"Point","coordinates":[101.17014057956365,20.381122439567765]}},{"type":"Feature","properties":{"name_en":"Sar karp","did":305,"pid":3,"uuid":"305068"},"geometry":{"type":"Point","coordinates":[101.27332959982266,20.411817890038414]}},{"type":"Feature","properties":{"name_en":"Hoon","did":305,"pid":3,"uuid":"305073"},"geometry":{"type":"Point","coordinates":[101.34161713972756,20.43543398015913]}},{"type":"Feature","properties":{"name_en":"Nar laa","did":305,"pid":3,"uuid":"305074"},"geometry":{"type":"Point","coordinates":[101.35341282037166,20.434207040136386]}},{"type":"Feature","properties":{"name_en":"Toung lar hang","did":305,"pid":3,"uuid":"305076"},"geometry":{"type":"Point","coordinates":[101.38333454023196,20.438908789745966]}},{"type":"Feature","properties":{"name_en":"Hard raa","did":305,"pid":3,"uuid":"305078"},"geometry":{"type":"Point","coordinates":[101.4218225596887,20.4844124601343]}},{"type":"Feature","properties":{"name_en":"Phou hong hard harp","did":305,"pid":3,"uuid":"305080"},"geometry":{"type":"Point","coordinates":[101.32701862982826,20.43074748995573]}},{"type":"Feature","properties":{"name_en":"Phou khang","did":305,"pid":3,"uuid":"305082"},"geometry":{"type":"Point","coordinates":[101.30481739964775,20.435101470009126]}},{"type":"Feature","properties":{"name_en":"Long moun chom keo","did":305,"pid":3,"uuid":"305084"},"geometry":{"type":"Point","coordinates":[101.3207512302686,20.53426642959611]}},{"type":"Feature","properties":{"name_en":"Houai khueang","did":305,"pid":3,"uuid":"305089"},"geometry":{"type":"Point","coordinates":[101.41244672987742,20.496516350387278]}},{"type":"Feature","properties":{"name_en":"Phou tin","did":305,"pid":3,"uuid":"305090"},"geometry":{"type":"Point","coordinates":[101.3994031498232,20.54625489978718]}},{"type":"Feature","properties":{"name_en":"Orm","did":305,"pid":3,"uuid":"305091"},"geometry":{"type":"Point","coordinates":[101.4511482403188,20.538324279953855]}},{"type":"Feature","properties":{"name_en":"Thong thon","did":305,"pid":3,"uuid":"305093"},"geometry":{"type":"Point","coordinates":[101.4552572995431,20.59267840019369]}},{"type":"Feature","properties":{"name_en":"Long moun sing say","did":305,"pid":3,"uuid":"305096"},"geometry":{"type":"Point","coordinates":[101.32159168028568,20.53515926964244]}},{"type":"Feature","properties":{"name_en":"Sar loy","did":305,"pid":3,"uuid":"305097"},"geometry":{"type":"Point","coordinates":[101.46480160995324,20.623718430338776]}},{"type":"Feature","properties":{"name_en":"Hard tor","did":305,"pid":3,"uuid":"305098"},"geometry":{"type":"Point","coordinates":[101.457973629983,20.66511304976745]}},{"type":"Feature","properties":{"name_en":"Phou luang mouk ngong","did":305,"pid":3,"uuid":"305099"},"geometry":{"type":"Point","coordinates":[101.44347250979288,20.6992258896019]}},{"type":"Feature","properties":{"name_en":"Sarng Aark","did":305,"pid":3,"uuid":"305103"},"geometry":{"type":"Point","coordinates":[101.4513989399104,20.680460570030682]}},{"type":"Feature","properties":{"name_en":"Poung luang","did":305,"pid":3,"uuid":"305104"},"geometry":{"type":"Point","coordinates":[101.36855100000383,20.551799000131346]}},{"type":"Feature","properties":{"name_en":"Pkou vieng","did":305,"pid":3,"uuid":"305106"},"geometry":{"type":"Point","coordinates":[101.45370379963845,20.564266350139285]}},{"type":"Feature","properties":{"name_en":"Phou tang","did":305,"pid":3,"uuid":"305107"},"geometry":{"type":"Point","coordinates":[101.52273555951685,20.6011374198577]}},{"type":"Feature","properties":{"name_en":"Had chonh","did":305,"pid":3,"uuid":"305108"},"geometry":{"type":"Point","coordinates":[101.43690831022596,20.51634331985329]}},{"type":"Feature","properties":{"name_en":"Nong par sad","did":305,"pid":3,"uuid":"305111"},"geometry":{"type":"Point","coordinates":[101.3812283297873,20.66850806007813]}}]}