{"type":"FeatureCollection","features":[{"type":"Feature","properties":{"name_en":"Pasuck","did":401,"pid":4,"uuid":"401001"},"geometry":{"type":"Point","coordinates":[101.98830485015998,20.692426399912534]}},{"type":"Feature","properties":{"name_en":"Montai","did":401,"pid":4,"uuid":"401004"},"geometry":{"type":"Point","coordinates":[101.98790478996676,20.696111759594107]}},{"type":"Feature","properties":{"name_en":"Viengsa","did":401,"pid":4,"uuid":"401008"},"geometry":{"type":"Point","coordinates":[102.01115877965654,20.71073901995594]}},{"type":"Feature","properties":{"name_en":"Longkunuea","did":401,"pid":4,"uuid":"401009"},"geometry":{"type":"Point","coordinates":[101.99597387997547,20.705370069992888]}},{"type":"Feature","properties":{"name_en":"poukhey","did":401,"pid":4,"uuid":"401010"},"geometry":{"type":"Point","coordinates":[101.9814652999027,20.6975603200338]}},{"type":"Feature","properties":{"name_en":"Houmsouk","did":401,"pid":4,"uuid":"401013"},"geometry":{"type":"Point","coordinates":[101.97751465956813,20.698788690185946]}},{"type":"Feature","properties":{"name_en":"Ruck4","did":401,"pid":4,"uuid":"401014"},"geometry":{"type":"Point","coordinates":[101.97241250969316,20.705482309993684]}},{"type":"Feature","properties":{"name_en":"Thin","did":401,"pid":4,"uuid":"401017"},"geometry":{"type":"Point","coordinates":[101.9784180602238,20.690344090441357]}},{"type":"Feature","properties":{"name_en":"Vienghai","did":401,"pid":4,"uuid":"401018"},"geometry":{"type":"Point","coordinates":[101.98130595967875,20.690884799627007]}},{"type":"Feature","properties":{"name_en":"Navannoy","did":401,"pid":4,"uuid":"401020"},"geometry":{"type":"Point","coordinates":[101.98536933958061,20.688523539916883]}},{"type":"Feature","properties":{"name_en":"Jaang","did":401,"pid":4,"uuid":"401022"},"geometry":{"type":"Point","coordinates":[101.99094514961853,20.690739380009205]}},{"type":"Feature","properties":{"name_en":"Nongmangda","did":401,"pid":4,"uuid":"401023"},"geometry":{"type":"Point","coordinates":[101.99334002957923,20.689575469631315]}},{"type":"Feature","properties":{"name_en":"Donsai","did":401,"pid":4,"uuid":"401024"},"geometry":{"type":"Point","coordinates":[101.9994272196667,20.682445490432613]}},{"type":"Feature","properties":{"name_en":"Donkeo","did":401,"pid":4,"uuid":"401025"},"geometry":{"type":"Point","coordinates":[102.00343602970624,20.69456438031556]}},{"type":"Feature","properties":{"name_en":"Nalao","did":401,"pid":4,"uuid":"401026"},"geometry":{"type":"Point","coordinates":[101.98699862008185,20.678559130291966]}},{"type":"Feature","properties":{"name_en":"Namee","did":401,"pid":4,"uuid":"401027"},"geometry":{"type":"Point","coordinates":[101.98309408030582,20.66864175022598]}},{"type":"Feature","properties":{"name_en":"Nasao","did":401,"pid":4,"uuid":"401028"},"geometry":{"type":"Point","coordinates":[101.9730363797181,20.663326199534257]}},{"type":"Feature","properties":{"name_en":"Nalae","did":401,"pid":4,"uuid":"401029"},"geometry":{"type":"Point","coordinates":[101.96661063996143,20.671045590366106]}},{"type":"Feature","properties":{"name_en":"Nasanekham","did":401,"pid":4,"uuid":"401030"},"geometry":{"type":"Point","coordinates":[101.9584535399139,20.6740339901057]}},{"type":"Feature","properties":{"name_en":"Hiepsoum","did":401,"pid":4,"uuid":"401034"},"geometry":{"type":"Point","coordinates":[101.97660572964816,20.649227159809982]}},{"type":"Feature","properties":{"name_en":"Tuey","did":401,"pid":4,"uuid":"401035"},"geometry":{"type":"Point","coordinates":[101.97135043977183,20.636159610399076]}},{"type":"Feature","properties":{"name_en":"Nangie","did":401,"pid":4,"uuid":"401036"},"geometry":{"type":"Point","coordinates":[101.99494408042648,20.619722030243494]}},{"type":"Feature","properties":{"name_en":"Hieyja","did":401,"pid":4,"uuid":"401037"},"geometry":{"type":"Point","coordinates":[101.93620613044527,20.629188880408755]}},{"type":"Feature","properties":{"name_en":"Bou","did":401,"pid":4,"uuid":"401038"},"geometry":{"type":"Point","coordinates":[102.03197791961361,20.70537955014876]}},{"type":"Feature","properties":{"name_en":"Pan","did":401,"pid":4,"uuid":"401039"},"geometry":{"type":"Point","coordinates":[102.05263864001613,20.721301980399105]}},{"type":"Feature","properties":{"name_en":"Mai","did":401,"pid":4,"uuid":"401040"},"geometry":{"type":"Point","coordinates":[102.05842684960125,20.72945915977516]}},{"type":"Feature","properties":{"name_en":"Kud","did":401,"pid":4,"uuid":"401041"},"geometry":{"type":"Point","coordinates":[102.08791832042411,20.75198602978884]}},{"type":"Feature","properties":{"name_en":"Numpung+yavak","did":401,"pid":4,"uuid":"401042"},"geometry":{"type":"Point","coordinates":[101.83162863988346,20.714541469876284]}},{"type":"Feature","properties":{"name_en":"Numpra+Numteen","did":401,"pid":4,"uuid":"401044"},"geometry":{"type":"Point","coordinates":[101.7953014704687,20.657369180073655]}},{"type":"Feature","properties":{"name_en":"kuechu","did":401,"pid":4,"uuid":"401047"},"geometry":{"type":"Point","coordinates":[101.82363188975401,20.758370269786596]}},{"type":"Feature","properties":{"name_en":"Jopmahongtai","did":401,"pid":4,"uuid":"401048"},"geometry":{"type":"Point","coordinates":[101.7807613004477,20.706810250252076]}},{"type":"Feature","properties":{"name_en":"Kasure","did":401,"pid":4,"uuid":"401050"},"geometry":{"type":"Point","coordinates":[101.74322781017462,20.692841809694936]}},{"type":"Feature","properties":{"name_en":"Houyahon","did":401,"pid":4,"uuid":"401055"},"geometry":{"type":"Point","coordinates":[101.93370823968965,20.676138939708647]}},{"type":"Feature","properties":{"name_en":"Naahom","did":401,"pid":4,"uuid":"401056"},"geometry":{"type":"Point","coordinates":[101.86858093027762,20.673538870376152]}},{"type":"Feature","properties":{"name_en":"Nakgam","did":401,"pid":4,"uuid":"401058"},"geometry":{"type":"Point","coordinates":[101.87313667008274,20.652701630326224]}},{"type":"Feature","properties":{"name_en":"Mokjaknuea","did":401,"pid":4,"uuid":"401062"},"geometry":{"type":"Point","coordinates":[101.8480481199696,20.658833329952323]}},{"type":"Feature","properties":{"name_en":"Lang","did":401,"pid":4,"uuid":"401065"},"geometry":{"type":"Point","coordinates":[101.84560806012159,20.63111160979491]}},{"type":"Feature","properties":{"name_en":"Tasalueang","did":401,"pid":4,"uuid":"401066"},"geometry":{"type":"Point","coordinates":[101.90792574983462,20.667254289695776]}},{"type":"Feature","properties":{"name_en":"Mokkhok","did":401,"pid":4,"uuid":"401068"},"geometry":{"type":"Point","coordinates":[102.02546920963505,20.61016899953738]}},{"type":"Feature","properties":{"name_en":"Nasaytong","did":401,"pid":4,"uuid":"401069"},"geometry":{"type":"Point","coordinates":[102.0380273099264,20.61233530963795]}},{"type":"Feature","properties":{"name_en":"Luck44","did":401,"pid":4,"uuid":"401071"},"geometry":{"type":"Point","coordinates":[102.19238927953056,20.576378119586195]}},{"type":"Feature","properties":{"name_en":"Luck32","did":401,"pid":4,"uuid":"401073"},"geometry":{"type":"Point","coordinates":[102.12424197043893,20.576903239937845]}},{"type":"Feature","properties":{"name_en":"Luck37","did":401,"pid":4,"uuid":"401074"},"geometry":{"type":"Point","coordinates":[102.15576588997696,20.569696650005792]}},{"type":"Feature","properties":{"name_en":"Yaonhai","did":401,"pid":4,"uuid":"401075"},"geometry":{"type":"Point","coordinates":[102.16498355022104,20.596530389861087]}},{"type":"Feature","properties":{"name_en":"Laova","did":401,"pid":4,"uuid":"401079"},"geometry":{"type":"Point","coordinates":[102.1748899602367,20.56332421993679]}},{"type":"Feature","properties":{"name_en":"Punglian","did":401,"pid":4,"uuid":"401080"},"geometry":{"type":"Point","coordinates":[102.11505992987911,20.517018479997883]}},{"type":"Feature","properties":{"name_en":"Houypanoy","did":401,"pid":4,"uuid":"401081"},"geometry":{"type":"Point","coordinates":[102.09878823021032,20.546297060343854]}},{"type":"Feature","properties":{"name_en":"Pousavan","did":401,"pid":4,"uuid":"401082"},"geometry":{"type":"Point","coordinates":[102.08855450980774,20.580596729912486]}},{"type":"Feature","properties":{"name_en":"Longya","did":401,"pid":4,"uuid":"401084"},"geometry":{"type":"Point","coordinates":[102.1232897004302,20.808406040234626]}},{"type":"Feature","properties":{"name_en":"punghieng","did":401,"pid":4,"uuid":"401085"},"geometry":{"type":"Point","coordinates":[102.11379677986754,20.78329470038794]}},{"type":"Feature","properties":{"name_en":"Houysang","did":401,"pid":4,"uuid":"401086"},"geometry":{"type":"Point","coordinates":[102.10673275958008,20.759402670243926]}},{"type":"Feature","properties":{"name_en":"Sanelad","did":401,"pid":4,"uuid":"401089"},"geometry":{"type":"Point","coordinates":[102.16539863022146,20.701639790416316]}},{"type":"Feature","properties":{"name_en":"numbak","did":401,"pid":4,"uuid":"401091"},"geometry":{"type":"Point","coordinates":[102.174448900146,20.673708110098627]}},{"type":"Feature","properties":{"name_en":"Sanesuvan","did":401,"pid":4,"uuid":"401095"},"geometry":{"type":"Point","coordinates":[102.17793124989288,20.685861279782962]}},{"type":"Feature","properties":{"name_en":"taueng","did":401,"pid":4,"uuid":"401099"},"geometry":{"type":"Point","coordinates":[101.68960693001956,20.61804346971821]}},{"type":"Feature","properties":{"name_en":"Jomka+Va","did":401,"pid":4,"uuid":"401100"},"geometry":{"type":"Point","coordinates":[101.69547610992032,20.587354390378724]}},{"type":"Feature","properties":{"name_en":"tangkuk","did":401,"pid":4,"uuid":"401101"},"geometry":{"type":"Point","coordinates":[101.64946725960861,20.63272545968724]}},{"type":"Feature","properties":{"name_en":"Jomsane","did":401,"pid":4,"uuid":"401103"},"geometry":{"type":"Point","coordinates":[101.6089219798698,20.663900110009315]}},{"type":"Feature","properties":{"name_en":"Thuting","did":401,"pid":4,"uuid":"401104"},"geometry":{"type":"Point","coordinates":[101.6899178195142,20.644962450314253]}},{"type":"Feature","properties":{"name_en":"Sakan","did":401,"pid":4,"uuid":"401106"},"geometry":{"type":"Point","coordinates":[101.65484626012856,20.682680679748618]}},{"type":"Feature","properties":{"name_en":"tongjale( numpa)","did":401,"pid":4,"uuid":"401110"},"geometry":{"type":"Point","coordinates":[101.6805419901096,20.588080509978994]}},{"type":"Feature","properties":{"name_en":"Pern","did":401,"pid":4,"uuid":"401111"},"geometry":{"type":"Point","coordinates":[101.58678972965083,20.59194289033466]}},{"type":"Feature","properties":{"name_en":"Sanekhun","did":401,"pid":4,"uuid":"401112"},"geometry":{"type":"Point","coordinates":[101.57813415954976,20.579096279950324]}},{"type":"Feature","properties":{"name_en":"Pouvieng","did":401,"pid":4,"uuid":"401115"},"geometry":{"type":"Point","coordinates":[101.55869844993126,20.572048029949585]}},{"type":"Feature","properties":{"name_en":"Houyhoum","did":401,"pid":4,"uuid":"401116"},"geometry":{"type":"Point","coordinates":[101.90811367975328,20.551866500203342]}},{"type":"Feature","properties":{"name_en":"Nahong","did":401,"pid":4,"uuid":"401117"},"geometry":{"type":"Point","coordinates":[101.91982000971802,20.57287683040086]}},{"type":"Feature","properties":{"name_en":"konkane","did":401,"pid":4,"uuid":"401119"},"geometry":{"type":"Point","coordinates":[101.93422162967838,20.59198479963104]}},{"type":"Feature","properties":{"name_en":"Pangmeng","did":401,"pid":4,"uuid":"401120"},"geometry":{"type":"Point","coordinates":[101.97233414016209,20.561049039571923]}},{"type":"Feature","properties":{"name_en":"Namon","did":401,"pid":4,"uuid":"401123"},"geometry":{"type":"Point","coordinates":[101.92970100038092,20.5869069998165]}},{"type":"Feature","properties":{"name_en":"Huoimog","did":401,"pid":4,"uuid":"401124"},"geometry":{"type":"Point","coordinates":[101.9990942895943,20.4993741596273]}},{"type":"Feature","properties":{"name_en":"vungyan","did":401,"pid":4,"uuid":"401125"},"geometry":{"type":"Point","coordinates":[102.00174330991655,20.53193633969678]}},{"type":"Feature","properties":{"name_en":"Saloung","did":401,"pid":4,"uuid":"401126"},"geometry":{"type":"Point","coordinates":[101.76844502039667,20.55637017974147]}},{"type":"Feature","properties":{"name_en":"Numhangnhuea","did":401,"pid":4,"uuid":"401132"},"geometry":{"type":"Point","coordinates":[101.79413169990345,20.60046485987352]}},{"type":"Feature","properties":{"name_en":"Pane","did":401,"pid":4,"uuid":"401134"},"geometry":{"type":"Point","coordinates":[101.73527036964668,20.61740358995994]}},{"type":"Feature","properties":{"name_en":"Kae","did":401,"pid":4,"uuid":"401136"},"geometry":{"type":"Point","coordinates":[101.68569999969829,20.56387799978809]}},{"type":"Feature","properties":{"name_en":"Tongprang","did":401,"pid":4,"uuid":"401137"},"geometry":{"type":"Point","coordinates":[101.73031841955715,20.569352409998803]}},{"type":"Feature","properties":{"name_en":"Mukkha","did":401,"pid":4,"uuid":"401138"},"geometry":{"type":"Point","coordinates":[101.809939039541,20.605369110198556]}},{"type":"Feature","properties":{"name_en":"Namjong","did":401,"pid":4,"uuid":"401140"},"geometry":{"type":"Point","coordinates":[101.8120361102442,20.56964854011319]}},{"type":"Feature","properties":{"name_en":"Houytong","did":401,"pid":4,"uuid":"401144"},"geometry":{"type":"Point","coordinates":[101.95519122028568,20.770037549582472]}},{"type":"Feature","properties":{"name_en":"Kornoy","did":401,"pid":4,"uuid":"401145"},"geometry":{"type":"Point","coordinates":[101.93328050974691,20.76671696989366]}},{"type":"Feature","properties":{"name_en":"Luck22","did":401,"pid":4,"uuid":"401150"},"geometry":{"type":"Point","coordinates":[101.87360035035238,20.794579000084557]}},{"type":"Feature","properties":{"name_en":"Houyta","did":401,"pid":4,"uuid":"401151"},"geometry":{"type":"Point","coordinates":[101.893717669971,20.798119439972176]}},{"type":"Feature","properties":{"name_en":"Houykha","did":401,"pid":4,"uuid":"401152"},"geometry":{"type":"Point","coordinates":[101.90033534981917,20.776824630336254]}},{"type":"Feature","properties":{"name_en":"Luck10","did":401,"pid":4,"uuid":"401153"},"geometry":{"type":"Point","coordinates":[101.94935172032653,20.752866630216882]}},{"type":"Feature","properties":{"name_en":"Houaiyam","did":401,"pid":4,"uuid":"401157"},"geometry":{"type":"Point","coordinates":[101.94934048980753,20.724917260063048]}},{"type":"Feature","properties":{"name_en":"houmsai","did":401,"pid":4,"uuid":"401158"},"geometry":{"type":"Point","coordinates":[101.95197064021393,20.73250020005695]}},{"type":"Feature","properties":{"name_en":"Mukpod","did":401,"pid":4,"uuid":"401161"},"geometry":{"type":"Point","coordinates":[101.89929255994112,20.721373139674494]}},{"type":"Feature","properties":{"name_en":"Namvin","did":401,"pid":4,"uuid":"401163"},"geometry":{"type":"Point","coordinates":[101.89334560016201,20.882744139573994]}},{"type":"Feature","properties":{"name_en":"Houylavong","did":401,"pid":4,"uuid":"401164"},"geometry":{"type":"Point","coordinates":[101.89053565017169,20.87237287016866]}},{"type":"Feature","properties":{"name_en":"Houaiheer","did":401,"pid":4,"uuid":"401165"},"geometry":{"type":"Point","coordinates":[101.92918309991167,20.834681209935642]}},{"type":"Feature","properties":{"name_en":"Najang","did":401,"pid":4,"uuid":"401166"},"geometry":{"type":"Point","coordinates":[101.96516752998184,20.83252689968407]}},{"type":"Feature","properties":{"name_en":"Sanangpe","did":401,"pid":4,"uuid":"401170"},"geometry":{"type":"Point","coordinates":[101.98153228024611,20.86635256979852]}},{"type":"Feature","properties":{"name_en":"Piengsai","did":401,"pid":4,"uuid":"401172"},"geometry":{"type":"Point","coordinates":[101.96688523969695,20.796971280105147]}},{"type":"Feature","properties":{"name_en":"Vongmun","did":401,"pid":4,"uuid":"401173"},"geometry":{"type":"Point","coordinates":[101.95216484952198,20.816309840128387]}},{"type":"Feature","properties":{"name_en":"phonhhoum","did":401,"pid":4,"uuid":"401174"},"geometry":{"type":"Point","coordinates":[101.94482608034886,20.807584949560077]}},{"type":"Feature","properties":{"name_en":"Kiewhear","did":401,"pid":4,"uuid":"401176"},"geometry":{"type":"Point","coordinates":[102.05192332963918,20.60811887030655]}},{"type":"Feature","properties":{"name_en":"Nampa","did":401,"pid":4,"uuid":"401177"},"geometry":{"type":"Point","coordinates":[101.92932332983888,20.759015760193396]}}]}