{"type":"FeatureCollection","features":[{"type":"Feature","properties":{"name_en":"Ahno","did":402,"pid":4,"uuid":"402001"},"geometry":{"type":"Point","coordinates":[102.27511497014054,20.945656859976946]}},{"type":"Feature","properties":{"name_en":"Saneluang","did":402,"pid":4,"uuid":"402002"},"geometry":{"type":"Point","coordinates":[102.27567797972276,20.942502999899748]}},{"type":"Feature","properties":{"name_en":"Laohaang","did":402,"pid":4,"uuid":"402005"},"geometry":{"type":"Point","coordinates":[102.27510600030307,20.942566950015365]}},{"type":"Feature","properties":{"name_en":"Ahkhong","did":402,"pid":4,"uuid":"402006"},"geometry":{"type":"Point","coordinates":[102.26286164029193,20.864583739907925]}},{"type":"Feature","properties":{"name_en":"Muklahang","did":402,"pid":4,"uuid":"402008"},"geometry":{"type":"Point","coordinates":[102.31084743991158,20.89398217022509]}},{"type":"Feature","properties":{"name_en":"Houaitern","did":402,"pid":4,"uuid":"402009"},"geometry":{"type":"Point","coordinates":[102.29665621006093,20.841286319772124]}},{"type":"Feature","properties":{"name_en":"Japranew","did":402,"pid":4,"uuid":"402010"},"geometry":{"type":"Point","coordinates":[102.28575755968512,20.81901946019969]}},{"type":"Feature","properties":{"name_en":"Thalolum","did":402,"pid":4,"uuid":"402014"},"geometry":{"type":"Point","coordinates":[102.34285374040246,20.890842559949128]}},{"type":"Feature","properties":{"name_en":"Mukkuk","did":402,"pid":4,"uuid":"402015"},"geometry":{"type":"Point","coordinates":[102.38273072968721,20.812583080121765]}},{"type":"Feature","properties":{"name_en":"Mukton","did":402,"pid":4,"uuid":"402023"},"geometry":{"type":"Point","coordinates":[102.20154567022448,20.823664630195292]}},{"type":"Feature","properties":{"name_en":"prangpur+thongsor","did":402,"pid":4,"uuid":"402026"},"geometry":{"type":"Point","coordinates":[102.25534172994817,20.838072029651496]}},{"type":"Feature","properties":{"name_en":"Kukmaihai","did":402,"pid":4,"uuid":"402027"},"geometry":{"type":"Point","coordinates":[102.25497720019116,20.855846610365642]}},{"type":"Feature","properties":{"name_en":"Pernsahvang","did":402,"pid":4,"uuid":"402028"},"geometry":{"type":"Point","coordinates":[102.13606616016277,20.839985119741073]}},{"type":"Feature","properties":{"name_en":"Houaisong","did":402,"pid":4,"uuid":"402029"},"geometry":{"type":"Point","coordinates":[102.20504226024791,20.861206750375906]}},{"type":"Feature","properties":{"name_en":"Houaiahor","did":402,"pid":4,"uuid":"402030"},"geometry":{"type":"Point","coordinates":[102.1527989497697,20.842205650317176]}},{"type":"Feature","properties":{"name_en":"Houaipa","did":402,"pid":4,"uuid":"402031"},"geometry":{"type":"Point","coordinates":[102.18711538015951,20.910407849545393]}},{"type":"Feature","properties":{"name_en":"Tadahan","did":402,"pid":4,"uuid":"402033"},"geometry":{"type":"Point","coordinates":[102.16261935025469,20.886334020104286]}},{"type":"Feature","properties":{"name_en":"Houakang","did":402,"pid":4,"uuid":"402034"},"geometry":{"type":"Point","coordinates":[102.22679857960239,20.986285869747206]}},{"type":"Feature","properties":{"name_en":"Houaijay","did":402,"pid":4,"uuid":"402035"},"geometry":{"type":"Point","coordinates":[102.21824443037126,20.959272170112868]}},{"type":"Feature","properties":{"name_en":"Pakkor","did":402,"pid":4,"uuid":"402036"},"geometry":{"type":"Point","coordinates":[102.14091768028584,20.87189853961119]}},{"type":"Feature","properties":{"name_en":"Donsaahad","did":402,"pid":4,"uuid":"402039"},"geometry":{"type":"Point","coordinates":[102.11664185024463,20.86302377978043]}},{"type":"Feature","properties":{"name_en":"Viengkor","did":402,"pid":4,"uuid":"402041"},"geometry":{"type":"Point","coordinates":[102.11183516035277,20.870101549863843]}},{"type":"Feature","properties":{"name_en":"Vonglun","did":402,"pid":4,"uuid":"402042"},"geometry":{"type":"Point","coordinates":[102.11296270020054,20.877281320326457]}},{"type":"Feature","properties":{"name_en":"Bormsom","did":402,"pid":4,"uuid":"402043"},"geometry":{"type":"Point","coordinates":[102.10610864992886,20.86398342998026]}},{"type":"Feature","properties":{"name_en":"Nongboua","did":402,"pid":4,"uuid":"402045"},"geometry":{"type":"Point","coordinates":[102.11043915998113,20.857278990098468]}},{"type":"Feature","properties":{"name_en":"Houaira","did":402,"pid":4,"uuid":"402046"},"geometry":{"type":"Point","coordinates":[102.09116178991879,20.814601860342094]}},{"type":"Feature","properties":{"name_en":"Phonesai","did":402,"pid":4,"uuid":"402047"},"geometry":{"type":"Point","coordinates":[102.07509752977407,20.787521109747225]}},{"type":"Feature","properties":{"name_en":"Samukkesai","did":402,"pid":4,"uuid":"402048"},"geometry":{"type":"Point","coordinates":[102.06264923022773,20.778172180124166]}},{"type":"Feature","properties":{"name_en":"Houaisou","did":402,"pid":4,"uuid":"402049"},"geometry":{"type":"Point","coordinates":[102.03956966028419,20.75369921010212]}},{"type":"Feature","properties":{"name_en":"Thanongpor","did":402,"pid":4,"uuid":"402050"},"geometry":{"type":"Point","coordinates":[102.05811010027679,20.798496709783606]}},{"type":"Feature","properties":{"name_en":"Phavi","did":402,"pid":4,"uuid":"402051"},"geometry":{"type":"Point","coordinates":[102.05028323999433,20.85955661040299]}},{"type":"Feature","properties":{"name_en":"Thadmoun","did":402,"pid":4,"uuid":"402053"},"geometry":{"type":"Point","coordinates":[102.04943944044248,20.899565189754515]}},{"type":"Feature","properties":{"name_en":"Mai","did":402,"pid":4,"uuid":"402054"},"geometry":{"type":"Point","coordinates":[102.17915099982233,20.895369999942474]}},{"type":"Feature","properties":{"name_en":"Nakoy","did":402,"pid":4,"uuid":"402055"},"geometry":{"type":"Point","coordinates":[102.08710519983579,20.871241150104797]}},{"type":"Feature","properties":{"name_en":"Hopuailang","did":402,"pid":4,"uuid":"402057"},"geometry":{"type":"Point","coordinates":[102.00784181038327,20.906597359592897]}},{"type":"Feature","properties":{"name_en":"Thangery","did":402,"pid":4,"uuid":"402058"},"geometry":{"type":"Point","coordinates":[102.03785104021705,20.907727740213655]}},{"type":"Feature","properties":{"name_en":"Mokhoung","did":402,"pid":4,"uuid":"402059"},"geometry":{"type":"Point","coordinates":[102.02588939028142,20.918110489777884]}},{"type":"Feature","properties":{"name_en":"houaithong","did":402,"pid":4,"uuid":"402060"},"geometry":{"type":"Point","coordinates":[102.00702021978506,20.918259599723765]}},{"type":"Feature","properties":{"name_en":"Pangsabut","did":402,"pid":4,"uuid":"402064"},"geometry":{"type":"Point","coordinates":[102.05544741958263,21.067088670053298]}},{"type":"Feature","properties":{"name_en":"Phousathi","did":402,"pid":4,"uuid":"402065"},"geometry":{"type":"Point","coordinates":[102.09572347030108,21.035159490281753]}},{"type":"Feature","properties":{"name_en":"Langling+Phonesavat","did":402,"pid":4,"uuid":"402066"},"geometry":{"type":"Point","coordinates":[102.12312299983607,21.046364999547514]}},{"type":"Feature","properties":{"name_en":"Langling","did":402,"pid":4,"uuid":"402067"},"geometry":{"type":"Point","coordinates":[102.11328481010484,21.032710970210406]}},{"type":"Feature","properties":{"name_en":"Mai","did":402,"pid":4,"uuid":"402068"},"geometry":{"type":"Point","coordinates":[102.154726450194,20.961848010247852]}},{"type":"Feature","properties":{"name_en":"Phouthan+Pangsom","did":402,"pid":4,"uuid":"402069"},"geometry":{"type":"Point","coordinates":[102.15074227968671,20.999172629852968]}}]}