{"type":"FeatureCollection","features":[{"type":"Feature","properties":{"name_en":"Phou pard","did":403,"pid":4,"uuid":"305112"},"geometry":{"type":"Point","coordinates":[101.43322555034537,20.718507450124235]}},{"type":"Feature","properties":{"name_en":"Phou lar","did":403,"pid":4,"uuid":"305113"},"geometry":{"type":"Point","coordinates":[101.46808035955557,20.663819140402218]}},{"type":"Feature","properties":{"name_en":"Houmsai","did":403,"pid":4,"uuid":"403001"},"geometry":{"type":"Point","coordinates":[101.75993999042991,20.910429980278277]}},{"type":"Feature","properties":{"name_en":"Houaion","did":403,"pid":4,"uuid":"403004"},"geometry":{"type":"Point","coordinates":[101.76177997967577,20.908589989982087]}},{"type":"Feature","properties":{"name_en":"Numsa","did":403,"pid":4,"uuid":"403005"},"geometry":{"type":"Point","coordinates":[101.759329950184,20.91527992025006]}},{"type":"Feature","properties":{"name_en":"Nathong","did":403,"pid":4,"uuid":"403006"},"geometry":{"type":"Point","coordinates":[101.74562997974047,20.92940996010108]}},{"type":"Feature","properties":{"name_en":"Paknumthong","did":403,"pid":4,"uuid":"403007"},"geometry":{"type":"Point","coordinates":[101.78147435019478,20.926931350430632]}},{"type":"Feature","properties":{"name_en":"Pangsar","did":403,"pid":4,"uuid":"403008"},"geometry":{"type":"Point","coordinates":[101.78713489958596,20.93208982964172]}},{"type":"Feature","properties":{"name_en":"Jomsane","did":403,"pid":4,"uuid":"403010"},"geometry":{"type":"Point","coordinates":[101.79800489011112,20.955699299665348]}},{"type":"Feature","properties":{"name_en":"Houaihok","did":403,"pid":4,"uuid":"403015"},"geometry":{"type":"Point","coordinates":[101.78500154036085,20.96492560014278]}},{"type":"Feature","properties":{"name_en":"Phoule","did":403,"pid":4,"uuid":"403016"},"geometry":{"type":"Point","coordinates":[101.79561200046017,20.993937999660076]}},{"type":"Feature","properties":{"name_en":"gnainatao","did":403,"pid":4,"uuid":"403017"},"geometry":{"type":"Point","coordinates":[101.79788837958607,21.030688919873793]}},{"type":"Feature","properties":{"name_en":"Nasavang","did":403,"pid":4,"uuid":"403018"},"geometry":{"type":"Point","coordinates":[101.81220810954527,21.04984576009589]}},{"type":"Feature","properties":{"name_en":"Khang","did":403,"pid":4,"uuid":"403019"},"geometry":{"type":"Point","coordinates":[101.81369590017314,21.06857521041838]}},{"type":"Feature","properties":{"name_en":"Houailuck","did":403,"pid":4,"uuid":"403021"},"geometry":{"type":"Point","coordinates":[101.87956768033403,21.042880229618]}},{"type":"Feature","properties":{"name_en":"Numkor","did":403,"pid":4,"uuid":"403024"},"geometry":{"type":"Point","coordinates":[101.8204020101979,21.096731950366358]}},{"type":"Feature","properties":{"name_en":"mouthuentai","did":403,"pid":4,"uuid":"403025"},"geometry":{"type":"Point","coordinates":[101.80555899997351,21.163457000233645]}},{"type":"Feature","properties":{"name_en":"Numnguen","did":403,"pid":4,"uuid":"403028"},"geometry":{"type":"Point","coordinates":[101.86480655985069,21.084419270242304]}},{"type":"Feature","properties":{"name_en":"Numyon","did":403,"pid":4,"uuid":"403029"},"geometry":{"type":"Point","coordinates":[101.89535893019264,21.10349564012799]}},{"type":"Feature","properties":{"name_en":"Houana","did":403,"pid":4,"uuid":"403031"},"geometry":{"type":"Point","coordinates":[101.94236607025327,21.07766537982436]}},{"type":"Feature","properties":{"name_en":"Numdeng","did":403,"pid":4,"uuid":"403033"},"geometry":{"type":"Point","coordinates":[101.9835683199916,21.112502829632472]}},{"type":"Feature","properties":{"name_en":"sapue","did":403,"pid":4,"uuid":"403034"},"geometry":{"type":"Point","coordinates":[101.92974326006261,21.146329089885878]}},{"type":"Feature","properties":{"name_en":"Pheermaignai","did":403,"pid":4,"uuid":"403036"},"geometry":{"type":"Point","coordinates":[101.88563718019522,21.157869800393843]}},{"type":"Feature","properties":{"name_en":"Pheermainoy","did":403,"pid":4,"uuid":"403037"},"geometry":{"type":"Point","coordinates":[101.8804067904727,21.13151440981247]}},{"type":"Feature","properties":{"name_en":"Phakhum","did":403,"pid":4,"uuid":"403039"},"geometry":{"type":"Point","coordinates":[101.8833364402462,21.15005115964534]}},{"type":"Feature","properties":{"name_en":"Nummoung","did":403,"pid":4,"uuid":"403040"},"geometry":{"type":"Point","coordinates":[101.80616031031984,21.062988330179316]}},{"type":"Feature","properties":{"name_en":"kiewlan","did":403,"pid":4,"uuid":"403045"},"geometry":{"type":"Point","coordinates":[101.74246211972458,20.976638800225928]}},{"type":"Feature","properties":{"name_en":"Saisamphun","did":403,"pid":4,"uuid":"403046"},"geometry":{"type":"Point","coordinates":[101.76114600027668,20.975643999739052]}},{"type":"Feature","properties":{"name_en":"Namornuea","did":403,"pid":4,"uuid":"403047"},"geometry":{"type":"Point","coordinates":[101.73208399012098,20.954664220175705]}},{"type":"Feature","properties":{"name_en":"namortai","did":403,"pid":4,"uuid":"403048"},"geometry":{"type":"Point","coordinates":[101.72786705037812,20.950532279934045]}},{"type":"Feature","properties":{"name_en":"Pangthong","did":403,"pid":4,"uuid":"403049"},"geometry":{"type":"Point","coordinates":[101.68450973042656,20.964532490104247]}},{"type":"Feature","properties":{"name_en":"Numphang","did":403,"pid":4,"uuid":"403051"},"geometry":{"type":"Point","coordinates":[101.66145052965926,21.014428699880067]}},{"type":"Feature","properties":{"name_en":"Houaisang","did":403,"pid":4,"uuid":"403053"},"geometry":{"type":"Point","coordinates":[101.67067087015823,20.943095179736165]}},{"type":"Feature","properties":{"name_en":"Pangdou","did":403,"pid":4,"uuid":"403054"},"geometry":{"type":"Point","coordinates":[101.70242932032039,20.94863502971342]}},{"type":"Feature","properties":{"name_en":"Nakham","did":403,"pid":4,"uuid":"403055"},"geometry":{"type":"Point","coordinates":[101.68891761040348,20.922474019991807]}},{"type":"Feature","properties":{"name_en":"khuanumkham","did":403,"pid":4,"uuid":"403059"},"geometry":{"type":"Point","coordinates":[101.66602931004209,20.899774319697194]}},{"type":"Feature","properties":{"name_en":"Phouthong","did":403,"pid":4,"uuid":"403060"},"geometry":{"type":"Point","coordinates":[101.72927998969125,20.87173995970848]}},{"type":"Feature","properties":{"name_en":"Lao","did":403,"pid":4,"uuid":"403061"},"geometry":{"type":"Point","coordinates":[101.71702992018427,20.892329930059955]}},{"type":"Feature","properties":{"name_en":"Phang","did":403,"pid":4,"uuid":"403063"},"geometry":{"type":"Point","coordinates":[101.72319991966357,20.860219949541193]}},{"type":"Feature","properties":{"name_en":"Phukhuea","did":403,"pid":4,"uuid":"403064"},"geometry":{"type":"Point","coordinates":[101.71237998040299,20.847219959872387]}},{"type":"Feature","properties":{"name_en":"Phououad","did":403,"pid":4,"uuid":"403065"},"geometry":{"type":"Point","coordinates":[101.67586337986694,20.812226260377418]}},{"type":"Feature","properties":{"name_en":"Numvin","did":403,"pid":4,"uuid":"403066"},"geometry":{"type":"Point","coordinates":[101.77110996038226,20.884579940245988]}},{"type":"Feature","properties":{"name_en":"Nathoua","did":403,"pid":4,"uuid":"403067"},"geometry":{"type":"Point","coordinates":[101.77795998983635,20.81733997960205]}},{"type":"Feature","properties":{"name_en":"Nathong","did":403,"pid":4,"uuid":"403068"},"geometry":{"type":"Point","coordinates":[101.78598993039422,20.880559980167014]}},{"type":"Feature","properties":{"name_en":"Numluemnoua","did":403,"pid":4,"uuid":"403070"},"geometry":{"type":"Point","coordinates":[101.80866994013297,20.883089969599112]}},{"type":"Feature","properties":{"name_en":"Phouthum","did":403,"pid":4,"uuid":"403072"},"geometry":{"type":"Point","coordinates":[101.81582222030778,20.92436330016159]}},{"type":"Feature","properties":{"name_en":"kiewjabe","did":403,"pid":4,"uuid":"403073"},"geometry":{"type":"Point","coordinates":[101.80503998956834,20.861789969682466]}},{"type":"Feature","properties":{"name_en":"Khulong","did":403,"pid":4,"uuid":"403074"},"geometry":{"type":"Point","coordinates":[101.84616998998551,20.83645994025356]}},{"type":"Feature","properties":{"name_en":"Borthakai","did":403,"pid":4,"uuid":"403075"},"geometry":{"type":"Point","coordinates":[101.86604992982923,20.800729980016428]}},{"type":"Feature","properties":{"name_en":"Makjouk","did":403,"pid":4,"uuid":"403076"},"geometry":{"type":"Point","coordinates":[101.82587999993319,20.788269950112266]}},{"type":"Feature","properties":{"name_en":"Houaihou","did":403,"pid":4,"uuid":"403077"},"geometry":{"type":"Point","coordinates":[101.71019993017556,20.805779989980785]}},{"type":"Feature","properties":{"name_en":"Houaipord","did":403,"pid":4,"uuid":"403078"},"geometry":{"type":"Point","coordinates":[101.72654991975051,20.784199950172603]}},{"type":"Feature","properties":{"name_en":"Hopuaisoy","did":403,"pid":4,"uuid":"403079"},"geometry":{"type":"Point","coordinates":[101.7488199698399,20.73399996967068]}},{"type":"Feature","properties":{"name_en":"Pouum","did":403,"pid":4,"uuid":"403085"},"geometry":{"type":"Point","coordinates":[101.64168558018343,20.788788450059577]}},{"type":"Feature","properties":{"name_en":"Mokkha","did":403,"pid":4,"uuid":"403087"},"geometry":{"type":"Point","coordinates":[101.60054217041278,20.75204613012078]}},{"type":"Feature","properties":{"name_en":"Houaihar","did":403,"pid":4,"uuid":"403094"},"geometry":{"type":"Point","coordinates":[101.57838520015109,20.78621612959139]}},{"type":"Feature","properties":{"name_en":"Vungang","did":403,"pid":4,"uuid":"403095"},"geometry":{"type":"Point","coordinates":[101.55136562996695,20.76455192984455]}},{"type":"Feature","properties":{"name_en":"Numtong","did":403,"pid":4,"uuid":"403098"},"geometry":{"type":"Point","coordinates":[101.57472573992943,20.81198193031673]}},{"type":"Feature","properties":{"name_en":"Houaiha","did":403,"pid":4,"uuid":"403100"},"geometry":{"type":"Point","coordinates":[101.47245017963827,20.759647000020106]}},{"type":"Feature","properties":{"name_en":"Sangae","did":403,"pid":4,"uuid":"403103"},"geometry":{"type":"Point","coordinates":[101.53200117003391,20.67550317007704]}},{"type":"Feature","properties":{"name_en":"Thao","did":403,"pid":4,"uuid":"403104"},"geometry":{"type":"Point","coordinates":[101.53999994023427,20.685991619770522]}},{"type":"Feature","properties":{"name_en":"Sakhoua","did":403,"pid":4,"uuid":"403105"},"geometry":{"type":"Point","coordinates":[101.57089897960171,20.740581529577664]}},{"type":"Feature","properties":{"name_en":"NaHoum","did":403,"pid":4,"uuid":"403106"},"geometry":{"type":"Point","coordinates":[101.65016278993862,21.03767145965628]}},{"type":"Feature","properties":{"name_en":"Teukar","did":403,"pid":4,"uuid":"403108"},"geometry":{"type":"Point","coordinates":[101.8844529995493,21.178876999910372]}}]}