{"type":"FeatureCollection","features":[{"type":"Feature","properties":{"name_en":"Donan","did":404,"pid":4,"uuid":"404001"},"geometry":{"type":"Point","coordinates":[101.97599208983564,20.28126488032465]}},{"type":"Feature","properties":{"name_en":"Donngiew","did":404,"pid":4,"uuid":"404002"},"geometry":{"type":"Point","coordinates":[101.97968541040665,20.28815606997283]}},{"type":"Feature","properties":{"name_en":"Houykhan","did":404,"pid":4,"uuid":"404003"},"geometry":{"type":"Point","coordinates":[101.98495803970863,20.312386810226432]}},{"type":"Feature","properties":{"name_en":"Mueangnga","did":404,"pid":4,"uuid":"404004"},"geometry":{"type":"Point","coordinates":[101.97873036967466,20.26833688988866]}},{"type":"Feature","properties":{"name_en":"Houailieng","did":404,"pid":4,"uuid":"404005"},"geometry":{"type":"Point","coordinates":[102.01094907036743,20.34175489995496]}},{"type":"Feature","properties":{"name_en":"Houailern","did":404,"pid":4,"uuid":"404006"},"geometry":{"type":"Point","coordinates":[102.0088373301007,20.39082550042662]}},{"type":"Feature","properties":{"name_en":"Houaipong+poung","did":404,"pid":4,"uuid":"404009"},"geometry":{"type":"Point","coordinates":[101.96230041984211,20.377993049747896]}},{"type":"Feature","properties":{"name_en":"Mai","did":404,"pid":4,"uuid":"404010"},"geometry":{"type":"Point","coordinates":[101.97835671021195,20.459531870437413]}},{"type":"Feature","properties":{"name_en":"Nakhok","did":404,"pid":4,"uuid":"404011"},"geometry":{"type":"Point","coordinates":[102.02185133041304,20.41615048964486]}},{"type":"Feature","properties":{"name_en":"Hongtougnai","did":404,"pid":4,"uuid":"404013"},"geometry":{"type":"Point","coordinates":[102.10840545990908,20.458345999915792]}},{"type":"Feature","properties":{"name_en":"sanesai","did":404,"pid":4,"uuid":"404019"},"geometry":{"type":"Point","coordinates":[102.10540489987594,20.42373637031155]}},{"type":"Feature","properties":{"name_en":"Thungthounoy+Houailom","did":404,"pid":4,"uuid":"404021"},"geometry":{"type":"Point","coordinates":[102.10698253970784,20.487827249881928]}},{"type":"Feature","properties":{"name_en":"Thin","did":404,"pid":4,"uuid":"404022"},"geometry":{"type":"Point","coordinates":[101.96522167998627,20.251206209595946]}},{"type":"Feature","properties":{"name_en":"Numngaw","did":404,"pid":4,"uuid":"404027"},"geometry":{"type":"Point","coordinates":[101.80068986023005,20.119806040377195]}},{"type":"Feature","properties":{"name_en":"sanejot","did":404,"pid":4,"uuid":"404029"},"geometry":{"type":"Point","coordinates":[102.05485992977513,20.192164669608502]}},{"type":"Feature","properties":{"name_en":"Houaiyen","did":404,"pid":4,"uuid":"404030"},"geometry":{"type":"Point","coordinates":[101.72069709012682,19.948908089732413]}},{"type":"Feature","properties":{"name_en":"Houaisery","did":404,"pid":4,"uuid":"404033"},"geometry":{"type":"Point","coordinates":[101.97611161955716,20.25910983991423]}},{"type":"Feature","properties":{"name_en":"Houaisarak","did":404,"pid":4,"uuid":"404035"},"geometry":{"type":"Point","coordinates":[102.09925023992876,20.215674310015956]}},{"type":"Feature","properties":{"name_en":"kiewlukkhum+Sumphunkao","did":404,"pid":4,"uuid":"404037"},"geometry":{"type":"Point","coordinates":[102.11478734987821,20.22712080994945]}},{"type":"Feature","properties":{"name_en":"Moklavan","did":404,"pid":4,"uuid":"404040"},"geometry":{"type":"Point","coordinates":[102.1545145603507,20.16745700040278]}},{"type":"Feature","properties":{"name_en":"Thakuang+Houaipon","did":404,"pid":4,"uuid":"404041"},"geometry":{"type":"Point","coordinates":[102.18523999979628,20.207070000025336]}},{"type":"Feature","properties":{"name_en":"Houaingouan","did":404,"pid":4,"uuid":"404043"},"geometry":{"type":"Point","coordinates":[102.10609859010887,20.270937459911302]}},{"type":"Feature","properties":{"name_en":"Houailaper","did":404,"pid":4,"uuid":"404045"},"geometry":{"type":"Point","coordinates":[102.11347961025601,20.242867469687297]}},{"type":"Feature","properties":{"name_en":"Nongtao","did":404,"pid":4,"uuid":"404049"},"geometry":{"type":"Point","coordinates":[101.92814626025566,20.22205972971586]}},{"type":"Feature","properties":{"name_en":"Ladhan","did":404,"pid":4,"uuid":"404050"},"geometry":{"type":"Point","coordinates":[102.1287847097518,20.091093250029832]}},{"type":"Feature","properties":{"name_en":"Khukphou","did":404,"pid":4,"uuid":"404051"},"geometry":{"type":"Point","coordinates":[102.08346576960194,20.073924600024185]}},{"type":"Feature","properties":{"name_en":"Yoyhai","did":404,"pid":4,"uuid":"404052"},"geometry":{"type":"Point","coordinates":[102.07274121029108,20.064383219936172]}},{"type":"Feature","properties":{"name_en":"Houaihin","did":404,"pid":4,"uuid":"404055"},"geometry":{"type":"Point","coordinates":[102.01953289009964,20.055489020409883]}},{"type":"Feature","properties":{"name_en":"Houaiphang","did":404,"pid":4,"uuid":"404056"},"geometry":{"type":"Point","coordinates":[102.04527991954943,20.11677733034706]}},{"type":"Feature","properties":{"name_en":"Phouhordgnai+Phoukeo","did":404,"pid":4,"uuid":"404058"},"geometry":{"type":"Point","coordinates":[102.04477347993645,20.186071190219568]}},{"type":"Feature","properties":{"name_en":"Mokjalang","did":404,"pid":4,"uuid":"404059"},"geometry":{"type":"Point","coordinates":[102.0486242101534,20.187641709672366]}},{"type":"Feature","properties":{"name_en":"Houailum","did":404,"pid":4,"uuid":"404061"},"geometry":{"type":"Point","coordinates":[102.11822058019406,20.119937390221377]}},{"type":"Feature","properties":{"name_en":"Khagnaygnai+Mokkok","did":404,"pid":4,"uuid":"404063"},"geometry":{"type":"Point","coordinates":[102.14364448969981,20.14770042978141]}},{"type":"Feature","properties":{"name_en":"Houaikha+Ka","did":404,"pid":4,"uuid":"404064"},"geometry":{"type":"Point","coordinates":[101.64117252012612,19.87807019981151]}},{"type":"Feature","properties":{"name_en":"Moksouk","did":404,"pid":4,"uuid":"404068"},"geometry":{"type":"Point","coordinates":[101.99142183018255,20.058252449838967]}},{"type":"Feature","properties":{"name_en":"Ladkhamoon","did":404,"pid":4,"uuid":"404069"},"geometry":{"type":"Point","coordinates":[101.97169980039467,20.046096760257814]}},{"type":"Feature","properties":{"name_en":"Namueang","did":404,"pid":4,"uuid":"404072"},"geometry":{"type":"Point","coordinates":[101.89053062043871,20.065781159995222]}},{"type":"Feature","properties":{"name_en":"Houaijum+Houaimong","did":404,"pid":4,"uuid":"404073"},"geometry":{"type":"Point","coordinates":[101.91500176007911,20.088061090294865]}},{"type":"Feature","properties":{"name_en":"Phoukor+Houaithery","did":404,"pid":4,"uuid":"404074"},"geometry":{"type":"Point","coordinates":[101.89428857041874,20.118200320147892]}},{"type":"Feature","properties":{"name_en":"Phounoy","did":404,"pid":4,"uuid":"404076"},"geometry":{"type":"Point","coordinates":[101.86303882028547,20.096126500142034]}},{"type":"Feature","properties":{"name_en":"Mokloy","did":404,"pid":4,"uuid":"404078"},"geometry":{"type":"Point","coordinates":[101.8922902398333,20.139896800289037]}},{"type":"Feature","properties":{"name_en":"Thum","did":404,"pid":4,"uuid":"404081"},"geometry":{"type":"Point","coordinates":[101.98229418965522,20.186964699582234]}},{"type":"Feature","properties":{"name_en":"Houaiyueang","did":404,"pid":4,"uuid":"404084"},"geometry":{"type":"Point","coordinates":[101.78805187992938,20.0304500901894]}},{"type":"Feature","properties":{"name_en":"Keo","did":404,"pid":4,"uuid":"404085"},"geometry":{"type":"Point","coordinates":[101.93282025987791,20.180277789987855]}},{"type":"Feature","properties":{"name_en":"Khonthoy+moklum","did":404,"pid":4,"uuid":"404086"},"geometry":{"type":"Point","coordinates":[101.96312854963276,20.188426590050863]}},{"type":"Feature","properties":{"name_en":"Numying+Phouvieng","did":404,"pid":4,"uuid":"404087"},"geometry":{"type":"Point","coordinates":[101.80315029032774,20.04180061973935]}},{"type":"Feature","properties":{"name_en":"Khagnaynoy","did":404,"pid":4,"uuid":"404088"},"geometry":{"type":"Point","coordinates":[102.13519108009459,20.134551489750272]}},{"type":"Feature","properties":{"name_en":"Houaije","did":404,"pid":4,"uuid":"404089"},"geometry":{"type":"Point","coordinates":[101.75926206008009,19.992809229863152]}},{"type":"Feature","properties":{"name_en":"Houaipung","did":404,"pid":4,"uuid":"404090"},"geometry":{"type":"Point","coordinates":[101.8153544199685,20.044498330047052]}},{"type":"Feature","properties":{"name_en":"Houaio","did":404,"pid":4,"uuid":"404091"},"geometry":{"type":"Point","coordinates":[101.85335553984176,20.052490230292836]}},{"type":"Feature","properties":{"name_en":"Phouje","did":404,"pid":4,"uuid":"404092"},"geometry":{"type":"Point","coordinates":[101.82893687984948,20.040103029582923]}},{"type":"Feature","properties":{"name_en":"HatKhan","did":404,"pid":4,"uuid":"404094"},"geometry":{"type":"Point","coordinates":[101.88274878035996,19.97102499963742]}},{"type":"Feature","properties":{"name_en":"Ladan","did":404,"pid":4,"uuid":"404095"},"geometry":{"type":"Point","coordinates":[101.9313656596752,20.013237099618788]}},{"type":"Feature","properties":{"name_en":"Houihea","did":404,"pid":4,"uuid":"404096"},"geometry":{"type":"Point","coordinates":[101.85784866015324,19.956514669905587]}},{"type":"Feature","properties":{"name_en":"Houaisan+kiewving","did":404,"pid":4,"uuid":"404099"},"geometry":{"type":"Point","coordinates":[101.76388878028217,20.004234350045632]}},{"type":"Feature","properties":{"name_en":"Hatter","did":404,"pid":4,"uuid":"404103"},"geometry":{"type":"Point","coordinates":[101.70234173021153,19.928502010298207]}},{"type":"Feature","properties":{"name_en":"PakHouailao","did":404,"pid":4,"uuid":"404104"},"geometry":{"type":"Point","coordinates":[102.14386366965485,20.26213167969759]}},{"type":"Feature","properties":{"name_en":"Nasan+Houaimo","did":404,"pid":4,"uuid":"404106"},"geometry":{"type":"Point","coordinates":[101.74569712028683,19.974557130225257]}},{"type":"Feature","properties":{"name_en":"Phonekhum","did":404,"pid":4,"uuid":"404108"},"geometry":{"type":"Point","coordinates":[101.99042187001989,20.48130629998003]}},{"type":"Feature","properties":{"name_en":"Houailai","did":404,"pid":4,"uuid":"404109"},"geometry":{"type":"Point","coordinates":[102.07380630033248,20.421524129960783]}},{"type":"Feature","properties":{"name_en":"Latkuem","did":404,"pid":4,"uuid":"404114"},"geometry":{"type":"Point","coordinates":[101.93641080958959,20.018899499752013]}},{"type":"Feature","properties":{"name_en":"Huayyorn","did":404,"pid":4,"uuid":"404115"},"geometry":{"type":"Point","coordinates":[102.17035535034677,20.187713539557265]}}]}