{"type":"FeatureCollection","features":[{"type":"Feature","properties":{"name_en":"Pheerhouanum","did":405,"pid":4,"uuid":"405001"},"geometry":{"type":"Point","coordinates":[101.86183458970311,20.493767590262237]}},{"type":"Feature","properties":{"name_en":"Phonhsaat","did":405,"pid":4,"uuid":"405002"},"geometry":{"type":"Point","coordinates":[101.84433376008984,20.47527467970208]}},{"type":"Feature","properties":{"name_en":"Napanuea","did":405,"pid":4,"uuid":"405003"},"geometry":{"type":"Point","coordinates":[101.82808988964413,20.45496004962027]}},{"type":"Feature","properties":{"name_en":"Nammate","did":405,"pid":4,"uuid":"405005"},"geometry":{"type":"Point","coordinates":[101.78836309982587,20.4250026199241]}},{"type":"Feature","properties":{"name_en":"Mueanghoung","did":405,"pid":4,"uuid":"405011"},"geometry":{"type":"Point","coordinates":[101.77152579032258,20.5043586301777]}},{"type":"Feature","properties":{"name_en":"Laignai","did":405,"pid":4,"uuid":"405012"},"geometry":{"type":"Point","coordinates":[101.72808112984754,20.44598134991611]}},{"type":"Feature","properties":{"name_en":"Lainoy","did":405,"pid":4,"uuid":"405014"},"geometry":{"type":"Point","coordinates":[101.70762886018443,20.467265179669397]}},{"type":"Feature","properties":{"name_en":"Thamuen","did":405,"pid":4,"uuid":"405015"},"geometry":{"type":"Point","coordinates":[101.7666502899077,20.40857158001516]}},{"type":"Feature","properties":{"name_en":"Pangthong","did":405,"pid":4,"uuid":"405016"},"geometry":{"type":"Point","coordinates":[101.74057770990139,20.38325654987228]}},{"type":"Feature","properties":{"name_en":"Somlor","did":405,"pid":4,"uuid":"405018"},"geometry":{"type":"Point","coordinates":[101.70708495953943,20.35768378959676]}},{"type":"Feature","properties":{"name_en":"Sienglae","did":405,"pid":4,"uuid":"405019"},"geometry":{"type":"Point","coordinates":[101.6861629798207,20.35461885959904]}},{"type":"Feature","properties":{"name_en":"Namthuoi","did":405,"pid":4,"uuid":"405020"},"geometry":{"type":"Point","coordinates":[101.68575536035794,20.379515790202547]}},{"type":"Feature","properties":{"name_en":"Nangoua","did":405,"pid":4,"uuid":"405021"},"geometry":{"type":"Point","coordinates":[101.68060509965058,20.398802549779074]}},{"type":"Feature","properties":{"name_en":"Mang","did":405,"pid":4,"uuid":"405024"},"geometry":{"type":"Point","coordinates":[101.67362541008777,20.416132890124914]}},{"type":"Feature","properties":{"name_en":"Pom","did":405,"pid":4,"uuid":"405026"},"geometry":{"type":"Point","coordinates":[101.62385433992881,20.433090990255973]}},{"type":"Feature","properties":{"name_en":"Tangdou","did":405,"pid":4,"uuid":"405027"},"geometry":{"type":"Point","coordinates":[101.64593789036111,20.464774420043888]}},{"type":"Feature","properties":{"name_en":"Bong","did":405,"pid":4,"uuid":"405029"},"geometry":{"type":"Point","coordinates":[101.67059585037703,20.460010729990223]}},{"type":"Feature","properties":{"name_en":"kum","did":405,"pid":4,"uuid":"405030"},"geometry":{"type":"Point","coordinates":[101.65210889977494,20.48419880966054]}},{"type":"Feature","properties":{"name_en":"Thangjong","did":405,"pid":4,"uuid":"405032"},"geometry":{"type":"Point","coordinates":[101.63827958993977,20.52916276959161]}},{"type":"Feature","properties":{"name_en":"Kunvang","did":405,"pid":4,"uuid":"405034"},"geometry":{"type":"Point","coordinates":[101.64089710008905,20.54394785988229]}},{"type":"Feature","properties":{"name_en":"Yor","did":405,"pid":4,"uuid":"405038"},"geometry":{"type":"Point","coordinates":[101.68040511011836,20.344527130339998]}},{"type":"Feature","properties":{"name_en":"Nalai","did":405,"pid":4,"uuid":"405039"},"geometry":{"type":"Point","coordinates":[101.67443284009482,20.339866630396852]}},{"type":"Feature","properties":{"name_en":"Houaihok","did":405,"pid":4,"uuid":"405040"},"geometry":{"type":"Point","coordinates":[101.65995049962528,20.341500089746006]}},{"type":"Feature","properties":{"name_en":"Pangduar","did":405,"pid":4,"uuid":"405041"},"geometry":{"type":"Point","coordinates":[101.66839384009195,20.328929330382348]}},{"type":"Feature","properties":{"name_en":"Phonhkeo","did":405,"pid":4,"uuid":"405042"},"geometry":{"type":"Point","coordinates":[101.65598107955948,20.31590745956014]}},{"type":"Feature","properties":{"name_en":"Phousing","did":405,"pid":4,"uuid":"405043"},"geometry":{"type":"Point","coordinates":[101.63903682015955,20.32444039988923]}},{"type":"Feature","properties":{"name_en":"Thongtoun","did":405,"pid":4,"uuid":"405044"},"geometry":{"type":"Point","coordinates":[101.54266059974945,20.3860313801696]}},{"type":"Feature","properties":{"name_en":"Mukvieng","did":405,"pid":4,"uuid":"405045"},"geometry":{"type":"Point","coordinates":[101.60080125963209,20.390361049835704]}},{"type":"Feature","properties":{"name_en":"Khon","did":405,"pid":4,"uuid":"405052"},"geometry":{"type":"Point","coordinates":[101.5271800001172,20.379895999674027]}},{"type":"Feature","properties":{"name_en":"Junmai","did":405,"pid":4,"uuid":"405053"},"geometry":{"type":"Point","coordinates":[101.51422599959373,20.36723522015038]}},{"type":"Feature","properties":{"name_en":"Namkhong","did":405,"pid":4,"uuid":"405057"},"geometry":{"type":"Point","coordinates":[101.59174813024165,20.332748209730976]}},{"type":"Feature","properties":{"name_en":"Nangiew","did":405,"pid":4,"uuid":"405059"},"geometry":{"type":"Point","coordinates":[101.63418168040539,20.312425619599637]}},{"type":"Feature","properties":{"name_en":"Bangrouang","did":405,"pid":4,"uuid":"405060"},"geometry":{"type":"Point","coordinates":[101.64064907046048,20.30340308035003]}},{"type":"Feature","properties":{"name_en":"Bangkham","did":405,"pid":4,"uuid":"405061"},"geometry":{"type":"Point","coordinates":[101.6480818898666,20.30815428039503]}},{"type":"Feature","properties":{"name_en":"Houaira","did":405,"pid":4,"uuid":"405062"},"geometry":{"type":"Point","coordinates":[101.63344742993755,20.29191475997462]}},{"type":"Feature","properties":{"name_en":"Thakart","did":405,"pid":4,"uuid":"405063"},"geometry":{"type":"Point","coordinates":[101.62568427994142,20.287838480401824]}},{"type":"Feature","properties":{"name_en":"Numdor","did":405,"pid":4,"uuid":"405064"},"geometry":{"type":"Point","coordinates":[101.61832160992212,20.299062100092137]}},{"type":"Feature","properties":{"name_en":"Khonkham","did":405,"pid":4,"uuid":"405065"},"geometry":{"type":"Point","coordinates":[101.616434930107,20.283011589721756]}},{"type":"Feature","properties":{"name_en":"Nabon","did":405,"pid":4,"uuid":"405066"},"geometry":{"type":"Point","coordinates":[101.61126112019136,20.280559970198798]}},{"type":"Feature","properties":{"name_en":"Namhang","did":405,"pid":4,"uuid":"405069"},"geometry":{"type":"Point","coordinates":[101.56829296994296,20.282263589554898]}},{"type":"Feature","properties":{"name_en":"Kokngiew","did":405,"pid":4,"uuid":"405070"},"geometry":{"type":"Point","coordinates":[101.60369309972245,20.271719660362066]}},{"type":"Feature","properties":{"name_en":"Phoukham","did":405,"pid":4,"uuid":"405077"},"geometry":{"type":"Point","coordinates":[101.59492780029956,20.26523232011331]}},{"type":"Feature","properties":{"name_en":"Samkang","did":405,"pid":4,"uuid":"405078"},"geometry":{"type":"Point","coordinates":[101.58474554991147,20.25375372007052]}},{"type":"Feature","properties":{"name_en":"Pangsom","did":405,"pid":4,"uuid":"405079"},"geometry":{"type":"Point","coordinates":[101.54678332998091,20.218908390328277]}},{"type":"Feature","properties":{"name_en":"Vungva","did":405,"pid":4,"uuid":"405081"},"geometry":{"type":"Point","coordinates":[101.55987804028187,20.228439199581555]}},{"type":"Feature","properties":{"name_en":"Sanesi","did":405,"pid":4,"uuid":"405082"},"geometry":{"type":"Point","coordinates":[101.61498636974592,20.224910250392767]}},{"type":"Feature","properties":{"name_en":"Pheerkao","did":405,"pid":4,"uuid":"405084"},"geometry":{"type":"Point","coordinates":[101.58594106010985,20.203021239562958]}},{"type":"Feature","properties":{"name_en":"Hamoua","did":405,"pid":4,"uuid":"405086"},"geometry":{"type":"Point","coordinates":[101.57733285012073,20.184092140140358]}},{"type":"Feature","properties":{"name_en":"Phouluung","did":405,"pid":4,"uuid":"405087"},"geometry":{"type":"Point","coordinates":[101.65942445004042,20.259302620305625]}},{"type":"Feature","properties":{"name_en":"Luck","did":405,"pid":4,"uuid":"405088"},"geometry":{"type":"Point","coordinates":[101.63296303999252,20.244430279979944]}},{"type":"Feature","properties":{"name_en":"Nahoum","did":405,"pid":4,"uuid":"405091"},"geometry":{"type":"Point","coordinates":[101.6697713296488,20.197825390160993]}},{"type":"Feature","properties":{"name_en":"Namphae","did":405,"pid":4,"uuid":"405093"},"geometry":{"type":"Point","coordinates":[101.66779378019447,20.22572648037359]}},{"type":"Feature","properties":{"name_en":"Kiewsangvan","did":405,"pid":4,"uuid":"405095"},"geometry":{"type":"Point","coordinates":[101.8044941604193,20.43499141985289]}},{"type":"Feature","properties":{"name_en":"Nahouai","did":405,"pid":4,"uuid":"405098"},"geometry":{"type":"Point","coordinates":[101.64874087992833,20.30230764982598]}},{"type":"Feature","properties":{"name_en":"Phonhsi","did":405,"pid":4,"uuid":"405100"},"geometry":{"type":"Point","coordinates":[101.56821007005865,20.236523119677614]}},{"type":"Feature","properties":{"name_en":"Phonhsai","did":405,"pid":4,"uuid":"405101"},"geometry":{"type":"Point","coordinates":[101.61845898984359,20.284063599905778]}},{"type":"Feature","properties":{"name_en":"Nampor","did":405,"pid":4,"uuid":"405103"},"geometry":{"type":"Point","coordinates":[101.71783600011662,20.406233999886126]}}]}