{"type":"FeatureCollection","features":[{"type":"Feature","properties":{"name_en":"Namon","did":406,"pid":4,"uuid":"405102"},"geometry":{"type":"Point","coordinates":[101.53775799992091,20.20920699999967]}},{"type":"Feature","properties":{"name_en":"Vangtang","did":406,"pid":4,"uuid":"406001"},"geometry":{"type":"Point","coordinates":[101.5193109696351,20.188709229734386]}},{"type":"Feature","properties":{"name_en":"Langching","did":406,"pid":4,"uuid":"406003"},"geometry":{"type":"Point","coordinates":[101.51196842004586,20.1688411798818]}},{"type":"Feature","properties":{"name_en":"Nanguen","did":406,"pid":4,"uuid":"406005"},"geometry":{"type":"Point","coordinates":[101.50342340956685,20.154426489532135]}},{"type":"Feature","properties":{"name_en":"Donkham","did":406,"pid":4,"uuid":"406006"},"geometry":{"type":"Point","coordinates":[101.49597775993288,20.15479369987128]}},{"type":"Feature","properties":{"name_en":"Pheerlaeng","did":406,"pid":4,"uuid":"406007"},"geometry":{"type":"Point","coordinates":[101.54777549033385,20.15583523979331]}},{"type":"Feature","properties":{"name_en":"Saimoua","did":406,"pid":4,"uuid":"406008"},"geometry":{"type":"Point","coordinates":[101.55415302999761,20.132504960422704]}},{"type":"Feature","properties":{"name_en":"Mokprai","did":406,"pid":4,"uuid":"406009"},"geometry":{"type":"Point","coordinates":[101.52620869036159,20.119476299699492]}},{"type":"Feature","properties":{"name_en":"Vunglor","did":406,"pid":4,"uuid":"406010"},"geometry":{"type":"Point","coordinates":[101.48669505043125,20.15330330991885]}},{"type":"Feature","properties":{"name_en":"Donkeo","did":406,"pid":4,"uuid":"406011"},"geometry":{"type":"Point","coordinates":[101.47296826009405,20.15241424955314]}},{"type":"Feature","properties":{"name_en":"Nongbouadang","did":406,"pid":4,"uuid":"406012"},"geometry":{"type":"Point","coordinates":[101.47312273970493,20.149869329854635]}},{"type":"Feature","properties":{"name_en":"Naphang","did":406,"pid":4,"uuid":"406013"},"geometry":{"type":"Point","coordinates":[101.46433356002055,20.142795759604976]}},{"type":"Feature","properties":{"name_en":"Phonesavan","did":406,"pid":4,"uuid":"406014"},"geometry":{"type":"Point","coordinates":[101.45921834028016,20.15004527038894]}},{"type":"Feature","properties":{"name_en":"Phonesavat","did":406,"pid":4,"uuid":"406016"},"geometry":{"type":"Point","coordinates":[101.45541203033376,20.149180759757858]}},{"type":"Feature","properties":{"name_en":"Nakhoung","did":406,"pid":4,"uuid":"406018"},"geometry":{"type":"Point","coordinates":[101.45539727966964,20.14216535966412]}},{"type":"Feature","properties":{"name_en":"Nahoum","did":406,"pid":4,"uuid":"406020"},"geometry":{"type":"Point","coordinates":[101.44812120005948,20.135156909856043]}},{"type":"Feature","properties":{"name_en":"Namoun","did":406,"pid":4,"uuid":"406021"},"geometry":{"type":"Point","coordinates":[101.43697393979097,20.126646100081555]}},{"type":"Feature","properties":{"name_en":"Phane","did":406,"pid":4,"uuid":"406026"},"geometry":{"type":"Point","coordinates":[101.43177371995118,20.12531287039936]}},{"type":"Feature","properties":{"name_en":"Nongdin","did":406,"pid":4,"uuid":"406031"},"geometry":{"type":"Point","coordinates":[101.41633014957694,20.110969339851408]}},{"type":"Feature","properties":{"name_en":"Konkham","did":406,"pid":4,"uuid":"406034"},"geometry":{"type":"Point","coordinates":[101.39225699015093,20.1323651503473]}},{"type":"Feature","properties":{"name_en":"Moksouan","did":406,"pid":4,"uuid":"406036"},"geometry":{"type":"Point","coordinates":[101.37604412998678,20.140551249968595]}},{"type":"Feature","properties":{"name_en":"Phangam","did":406,"pid":4,"uuid":"406037"},"geometry":{"type":"Point","coordinates":[101.32079808022463,20.11462351030063]}},{"type":"Feature","properties":{"name_en":"Jontainuea","did":406,"pid":4,"uuid":"406038"},"geometry":{"type":"Point","coordinates":[101.41610836979781,20.107952519866974]}},{"type":"Feature","properties":{"name_en":"Nathong","did":406,"pid":4,"uuid":"406041"},"geometry":{"type":"Point","coordinates":[101.40070686998078,20.09820144032386]}},{"type":"Feature","properties":{"name_en":"Namkhor","did":406,"pid":4,"uuid":"406042"},"geometry":{"type":"Point","coordinates":[101.3902742497776,20.088585970120306]}},{"type":"Feature","properties":{"name_en":"Bouamlao","did":406,"pid":4,"uuid":"406043"},"geometry":{"type":"Point","coordinates":[101.38109649033784,20.077652029588755]}},{"type":"Feature","properties":{"name_en":"Namyon","did":406,"pid":4,"uuid":"406045"},"geometry":{"type":"Point","coordinates":[101.37307559036296,20.065670350369626]}},{"type":"Feature","properties":{"name_en":"Navang","did":406,"pid":4,"uuid":"406046"},"geometry":{"type":"Point","coordinates":[101.35862409986952,20.051143089672767]}},{"type":"Feature","properties":{"name_en":"Longuen","did":406,"pid":4,"uuid":"406047"},"geometry":{"type":"Point","coordinates":[101.38315859959285,20.038320369614908]}},{"type":"Feature","properties":{"name_en":"Namnieng","did":406,"pid":4,"uuid":"406048"},"geometry":{"type":"Point","coordinates":[101.37556527015194,20.015056390253427]}},{"type":"Feature","properties":{"name_en":"Phouthuom","did":406,"pid":4,"uuid":"406049"},"geometry":{"type":"Point","coordinates":[101.31509445017207,20.095132739743494]}},{"type":"Feature","properties":{"name_en":"Kongnouang","did":406,"pid":4,"uuid":"406050"},"geometry":{"type":"Point","coordinates":[101.28806725007615,20.0916757897784]}},{"type":"Feature","properties":{"name_en":"SibounHouang","did":406,"pid":4,"uuid":"406056"},"geometry":{"type":"Point","coordinates":[101.33819261979065,20.02616911951628]}},{"type":"Feature","properties":{"name_en":"houanammao","did":406,"pid":4,"uuid":"406057"},"geometry":{"type":"Point","coordinates":[101.35239308000418,19.98435751030905]}},{"type":"Feature","properties":{"name_en":"Phonesavang","did":406,"pid":4,"uuid":"406058"},"geometry":{"type":"Point","coordinates":[101.30994419006295,20.009551159870746]}},{"type":"Feature","properties":{"name_en":"Oudom","did":406,"pid":4,"uuid":"406061"},"geometry":{"type":"Point","coordinates":[101.27720648034645,19.989927110049905]}},{"type":"Feature","properties":{"name_en":"Phoukhoy","did":406,"pid":4,"uuid":"406062"},"geometry":{"type":"Point","coordinates":[101.2297223304354,20.024162410035775]}},{"type":"Feature","properties":{"name_en":"Du","did":406,"pid":4,"uuid":"406064"},"geometry":{"type":"Point","coordinates":[101.19622984013293,20.096171930268046]}},{"type":"Feature","properties":{"name_en":"Namphuk","did":406,"pid":4,"uuid":"406065"},"geometry":{"type":"Point","coordinates":[101.24912676998638,20.049700479541286]}},{"type":"Feature","properties":{"name_en":"Phousae","did":406,"pid":4,"uuid":"406068"},"geometry":{"type":"Point","coordinates":[101.25620126987155,20.09204862030053]}},{"type":"Feature","properties":{"name_en":"Phoulod","did":406,"pid":4,"uuid":"406069"},"geometry":{"type":"Point","coordinates":[101.21824389972629,20.117289289505127]}},{"type":"Feature","properties":{"name_en":"Thungloun","did":406,"pid":4,"uuid":"406072"},"geometry":{"type":"Point","coordinates":[101.26875836014261,20.08590652965528]}},{"type":"Feature","properties":{"name_en":"Thungya","did":406,"pid":4,"uuid":"406073"},"geometry":{"type":"Point","coordinates":[101.2614277196535,20.069807820063374]}},{"type":"Feature","properties":{"name_en":"Longkhou","did":406,"pid":4,"uuid":"406074"},"geometry":{"type":"Point","coordinates":[101.27704261986851,20.06495804970362]}},{"type":"Feature","properties":{"name_en":"Somsai","did":406,"pid":4,"uuid":"406075"},"geometry":{"type":"Point","coordinates":[101.44930723962877,20.177436739795763]}},{"type":"Feature","properties":{"name_en":"Na","did":406,"pid":4,"uuid":"406076"},"geometry":{"type":"Point","coordinates":[101.44426368040754,20.170537850018828]}},{"type":"Feature","properties":{"name_en":"Nakhamnuea","did":406,"pid":4,"uuid":"406079"},"geometry":{"type":"Point","coordinates":[101.42959099033376,20.178246179769157]}},{"type":"Feature","properties":{"name_en":"Somphone","did":406,"pid":4,"uuid":"406081"},"geometry":{"type":"Point","coordinates":[101.42543038012337,20.191509450014212]}},{"type":"Feature","properties":{"name_en":"Namlian","did":406,"pid":4,"uuid":"406082"},"geometry":{"type":"Point","coordinates":[101.4021126001617,20.215052380262385]}},{"type":"Feature","properties":{"name_en":"Chaeng","did":406,"pid":4,"uuid":"406084"},"geometry":{"type":"Point","coordinates":[101.36861005016982,20.19913062031671]}},{"type":"Feature","properties":{"name_en":"Houayhok","did":406,"pid":4,"uuid":"406085"},"geometry":{"type":"Point","coordinates":[101.36250709985835,20.22706690969216]}},{"type":"Feature","properties":{"name_en":"Chongnang","did":406,"pid":4,"uuid":"406088"},"geometry":{"type":"Point","coordinates":[101.30793932043085,20.223620109835128]}},{"type":"Feature","properties":{"name_en":"Pha gnam","did":406,"pid":4,"uuid":"406090"},"geometry":{"type":"Point","coordinates":[101.2712226401403,20.191352460111016]}},{"type":"Feature","properties":{"name_en":"Phouthong","did":406,"pid":4,"uuid":"406092"},"geometry":{"type":"Point","coordinates":[101.33527378956094,20.241057310235053]}},{"type":"Feature","properties":{"name_en":"Mokkachork","did":406,"pid":4,"uuid":"406098"},"geometry":{"type":"Point","coordinates":[101.29610692024927,20.23902244010087]}},{"type":"Feature","properties":{"name_en":"Mokkhaloum","did":406,"pid":4,"uuid":"406099"},"geometry":{"type":"Point","coordinates":[101.26377447979876,20.22690337966917]}},{"type":"Feature","properties":{"name_en":"Phouyouak","did":406,"pid":4,"uuid":"406102"},"geometry":{"type":"Point","coordinates":[101.22366455982615,20.260217589565915]}},{"type":"Feature","properties":{"name_en":"Konetrong","did":406,"pid":4,"uuid":"406103"},"geometry":{"type":"Point","coordinates":[101.19216109964783,20.237067029878407]}},{"type":"Feature","properties":{"name_en":"Sanyang","did":406,"pid":4,"uuid":"406107"},"geometry":{"type":"Point","coordinates":[101.26272481999393,20.301880179610894]}},{"type":"Feature","properties":{"name_en":"Kang","did":406,"pid":4,"uuid":"406108"},"geometry":{"type":"Point","coordinates":[101.27647147995533,20.25547133981445]}},{"type":"Feature","properties":{"name_en":"Phoulat","did":406,"pid":4,"uuid":"406113"},"geometry":{"type":"Point","coordinates":[101.34228793980306,20.284242470299787]}},{"type":"Feature","properties":{"name_en":"Korntheui","did":406,"pid":4,"uuid":"406114"},"geometry":{"type":"Point","coordinates":[101.38437539967227,20.286978740178828]}},{"type":"Feature","properties":{"name_en":"Phoulao","did":406,"pid":4,"uuid":"406116"},"geometry":{"type":"Point","coordinates":[101.41590216971656,20.2938070598848]}},{"type":"Feature","properties":{"name_en":"Mok hang tai","did":406,"pid":4,"uuid":"406117"},"geometry":{"type":"Point","coordinates":[101.4665960098994,20.30648686965164]}},{"type":"Feature","properties":{"name_en":"Chanhvang","did":406,"pid":4,"uuid":"406120"},"geometry":{"type":"Point","coordinates":[101.4332357800691,20.27539654980166]}},{"type":"Feature","properties":{"name_en":"Namphoune","did":406,"pid":4,"uuid":"406122"},"geometry":{"type":"Point","coordinates":[101.41240155034941,20.245312470401405]}},{"type":"Feature","properties":{"name_en":"Mae","did":406,"pid":4,"uuid":"406123"},"geometry":{"type":"Point","coordinates":[101.45140497964658,20.26214676963062]}},{"type":"Feature","properties":{"name_en":"Namtamnoy","did":406,"pid":4,"uuid":"406125"},"geometry":{"type":"Point","coordinates":[101.59808299975131,20.145801589918843]}},{"type":"Feature","properties":{"name_en":"Mokford","did":406,"pid":4,"uuid":"406127"},"geometry":{"type":"Point","coordinates":[101.59670258958435,20.118304510146785]}},{"type":"Feature","properties":{"name_en":"Taleub yai","did":406,"pid":4,"uuid":"406130"},"geometry":{"type":"Point","coordinates":[101.57485615968587,20.100961770045483]}},{"type":"Feature","properties":{"name_en":"Phonekham","did":406,"pid":4,"uuid":"406132"},"geometry":{"type":"Point","coordinates":[101.63842040982124,20.036698969818172]}},{"type":"Feature","properties":{"name_en":"Mok lak","did":406,"pid":4,"uuid":"406134"},"geometry":{"type":"Point","coordinates":[101.61089198006286,20.000101910065514]}},{"type":"Feature","properties":{"name_en":"Namphouan","did":406,"pid":4,"uuid":"406135"},"geometry":{"type":"Point","coordinates":[101.62883385955412,20.02540846032992]}},{"type":"Feature","properties":{"name_en":"Phouphon","did":406,"pid":4,"uuid":"406136"},"geometry":{"type":"Point","coordinates":[101.49716279993739,20.108390100472793]}},{"type":"Feature","properties":{"name_en":"Naphok","did":406,"pid":4,"uuid":"406137"},"geometry":{"type":"Point","coordinates":[101.49072633008676,20.132491890282093]}},{"type":"Feature","properties":{"name_en":"Phonxai","did":406,"pid":4,"uuid":"406138"},"geometry":{"type":"Point","coordinates":[101.4876914097378,20.094038730188355]}},{"type":"Feature","properties":{"name_en":"Donena","did":406,"pid":4,"uuid":"406140"},"geometry":{"type":"Point","coordinates":[101.49385260992428,20.07759981041757]}},{"type":"Feature","properties":{"name_en":"Ngiew","did":406,"pid":4,"uuid":"406142"},"geometry":{"type":"Point","coordinates":[101.45612818009765,20.0811936302761]}},{"type":"Feature","properties":{"name_en":"Katang gna","did":406,"pid":4,"uuid":"406147"},"geometry":{"type":"Point","coordinates":[101.4206733195233,20.033267840247195]}},{"type":"Feature","properties":{"name_en":"Nam gneung","did":406,"pid":4,"uuid":"406148"},"geometry":{"type":"Point","coordinates":[101.47519591999176,20.029092729973804]}},{"type":"Feature","properties":{"name_en":"Chormlaeng","did":406,"pid":4,"uuid":"406149"},"geometry":{"type":"Point","coordinates":[101.501563879542,20.05415831029537]}},{"type":"Feature","properties":{"name_en":"Kiew gnarb","did":406,"pid":4,"uuid":"406150"},"geometry":{"type":"Point","coordinates":[101.50615984976315,20.02300930965313]}},{"type":"Feature","properties":{"name_en":"Mokchark","did":406,"pid":4,"uuid":"406151"},"geometry":{"type":"Point","coordinates":[101.54181159982552,20.033682239870735]}},{"type":"Feature","properties":{"name_en":"Mae","did":406,"pid":4,"uuid":"406152"},"geometry":{"type":"Point","coordinates":[101.537922149882,20.017184479687327]}},{"type":"Feature","properties":{"name_en":"Namphaognai","did":406,"pid":4,"uuid":"406153"},"geometry":{"type":"Point","coordinates":[101.57408293045428,19.99805830993013]}},{"type":"Feature","properties":{"name_en":"Konelang","did":406,"pid":4,"uuid":"406155"},"geometry":{"type":"Point","coordinates":[101.55489935985443,19.978178870352878]}},{"type":"Feature","properties":{"name_en":"Naxiengdy","did":406,"pid":4,"uuid":"406159"},"geometry":{"type":"Point","coordinates":[101.52395931994776,20.0010084903469]}},{"type":"Feature","properties":{"name_en":"Mai","did":406,"pid":4,"uuid":"406160"},"geometry":{"type":"Point","coordinates":[101.49899332036041,19.958622130173538]}},{"type":"Feature","properties":{"name_en":"Phienghor","did":406,"pid":4,"uuid":"406161"},"geometry":{"type":"Point","coordinates":[101.4766143900063,19.939076620275642]}},{"type":"Feature","properties":{"name_en":"Namnong","did":406,"pid":4,"uuid":"406165"},"geometry":{"type":"Point","coordinates":[101.43810474007581,19.998523259716116]}},{"type":"Feature","properties":{"name_en":"Keo","did":406,"pid":4,"uuid":"406166"},"geometry":{"type":"Point","coordinates":[101.50240927959831,19.92984580035478]}},{"type":"Feature","properties":{"name_en":"Kiewpha","did":406,"pid":4,"uuid":"406168"},"geometry":{"type":"Point","coordinates":[101.36500431998823,19.99658535969471]}},{"type":"Feature","properties":{"name_en":"Namnoy","did":406,"pid":4,"uuid":"406169"},"geometry":{"type":"Point","coordinates":[101.37033630037206,19.972900450111712]}},{"type":"Feature","properties":{"name_en":"Phieng gna","did":406,"pid":4,"uuid":"406171"},"geometry":{"type":"Point","coordinates":[101.29506630958079,19.967122800019638]}}]}