{"type":"FeatureCollection","features":[{"type":"Feature","properties":{"name_en":"Pakbaeng","did":407,"pid":4,"uuid":"407001"},"geometry":{"type":"Point","coordinates":[101.13529867968711,19.89314186026636]}},{"type":"Feature","properties":{"name_en":"Pak ngeui","did":407,"pid":4,"uuid":"407003"},"geometry":{"type":"Point","coordinates":[101.05125811967737,19.8430508603237]}},{"type":"Feature","properties":{"name_en":"Donechaeng","did":407,"pid":4,"uuid":"407004"},"geometry":{"type":"Point","coordinates":[101.22339265009177,19.83518049974888]}},{"type":"Feature","properties":{"name_en":"Houaythom","did":407,"pid":4,"uuid":"407005"},"geometry":{"type":"Point","coordinates":[101.25222513970495,19.819798370032842]}},{"type":"Feature","properties":{"name_en":"Houaylao","did":407,"pid":4,"uuid":"407006"},"geometry":{"type":"Point","coordinates":[101.2905829103523,19.83138517042173]}},{"type":"Feature","properties":{"name_en":"Kiewkhouy","did":407,"pid":4,"uuid":"407007"},"geometry":{"type":"Point","coordinates":[101.34004979961365,19.856925920271014]}},{"type":"Feature","properties":{"name_en":"Kaengxang","did":407,"pid":4,"uuid":"407009"},"geometry":{"type":"Point","coordinates":[101.14080886002905,19.89481572988545]}},{"type":"Feature","properties":{"name_en":"Done sa at","did":407,"pid":4,"uuid":"407011"},"geometry":{"type":"Point","coordinates":[101.15371264044789,19.909068739819777]}},{"type":"Feature","properties":{"name_en":"Mokphang","did":407,"pid":4,"uuid":"407014"},"geometry":{"type":"Point","coordinates":[101.19158173973729,19.94624868038625]}},{"type":"Feature","properties":{"name_en":"Phoulouang","did":407,"pid":4,"uuid":"407015"},"geometry":{"type":"Point","coordinates":[101.20666186979007,19.96060092964517]}},{"type":"Feature","properties":{"name_en":"Xaixana","did":407,"pid":4,"uuid":"407016"},"geometry":{"type":"Point","coordinates":[101.26398377961353,19.962476299968245]}},{"type":"Feature","properties":{"name_en":"Houanampa","did":407,"pid":4,"uuid":"407017"},"geometry":{"type":"Point","coordinates":[101.27807031976451,19.93183801032568]}},{"type":"Feature","properties":{"name_en":"Khokka","did":407,"pid":4,"uuid":"407018"},"geometry":{"type":"Point","coordinates":[100.81731827998709,19.90868133019203]}},{"type":"Feature","properties":{"name_en":"Houaymong","did":407,"pid":4,"uuid":"407019"},"geometry":{"type":"Point","coordinates":[100.7658254003096,19.901334169997934]}},{"type":"Feature","properties":{"name_en":"Homxai","did":407,"pid":4,"uuid":"407021"},"geometry":{"type":"Point","coordinates":[100.82496978020042,19.90171018024732]}},{"type":"Feature","properties":{"name_en":"Mokpaikang","did":407,"pid":4,"uuid":"407023"},"geometry":{"type":"Point","coordinates":[100.73938467982406,19.937586649543157]}},{"type":"Feature","properties":{"name_en":"Mokpailoum","did":407,"pid":4,"uuid":"407024"},"geometry":{"type":"Point","coordinates":[100.76986329989006,19.918516819882033]}},{"type":"Feature","properties":{"name_en":"Kang","did":407,"pid":4,"uuid":"407026"},"geometry":{"type":"Point","coordinates":[100.87360569023654,19.96116703987253]}},{"type":"Feature","properties":{"name_en":"Chomesaen","did":407,"pid":4,"uuid":"407028"},"geometry":{"type":"Point","coordinates":[100.81280143995788,19.951899259603074]}},{"type":"Feature","properties":{"name_en":"Nam yen","did":407,"pid":4,"uuid":"407029"},"geometry":{"type":"Point","coordinates":[100.85664290039396,19.968329299579214]}},{"type":"Feature","properties":{"name_en":"Ta ngone","did":407,"pid":4,"uuid":"407030"},"geometry":{"type":"Point","coordinates":[100.84628069007698,19.943081490158093]}},{"type":"Feature","properties":{"name_en":"Louangtong","did":407,"pid":4,"uuid":"407031"},"geometry":{"type":"Point","coordinates":[100.92197858009918,19.88328507972479]}},{"type":"Feature","properties":{"name_en":"Kaenglae","did":407,"pid":4,"uuid":"407032"},"geometry":{"type":"Point","coordinates":[100.8773468699375,19.907159089875556]}},{"type":"Feature","properties":{"name_en":"Taengsa","did":407,"pid":4,"uuid":"407033"},"geometry":{"type":"Point","coordinates":[100.89105500007949,19.8887700001308]}},{"type":"Feature","properties":{"name_en":"Phalome","did":407,"pid":4,"uuid":"407034"},"geometry":{"type":"Point","coordinates":[100.90228446012597,19.916330060324295]}},{"type":"Feature","properties":{"name_en":"Phourung","did":407,"pid":4,"uuid":"407035"},"geometry":{"type":"Point","coordinates":[100.93504093980393,19.926290450072006]}},{"type":"Feature","properties":{"name_en":"Mokwaen","did":407,"pid":4,"uuid":"407036"},"geometry":{"type":"Point","coordinates":[100.94523291003678,19.933966430001867]}},{"type":"Feature","properties":{"name_en":"Tong","did":407,"pid":4,"uuid":"407038"},"geometry":{"type":"Point","coordinates":[100.95626232018436,19.965090950358398]}},{"type":"Feature","properties":{"name_en":"Phoulouang","did":407,"pid":4,"uuid":"407040"},"geometry":{"type":"Point","coordinates":[100.99328970964005,19.981770100260874]}},{"type":"Feature","properties":{"name_en":"Long gnong","did":407,"pid":4,"uuid":"407042"},"geometry":{"type":"Point","coordinates":[100.96259249999773,19.996542700269032]}},{"type":"Feature","properties":{"name_en":"Mokwat","did":407,"pid":4,"uuid":"407043"},"geometry":{"type":"Point","coordinates":[100.95158815027747,20.011674039500935]}},{"type":"Feature","properties":{"name_en":"Katangtone","did":407,"pid":4,"uuid":"407044"},"geometry":{"type":"Point","coordinates":[100.95894353004819,20.023283989572057]}},{"type":"Feature","properties":{"name_en":"Phieng","did":407,"pid":4,"uuid":"407045"},"geometry":{"type":"Point","coordinates":[100.95324115035153,19.900901660345717]}},{"type":"Feature","properties":{"name_en":"Mokka","did":407,"pid":4,"uuid":"407046"},"geometry":{"type":"Point","coordinates":[100.97625450012404,19.896159680025175]}},{"type":"Feature","properties":{"name_en":"Piing","did":407,"pid":4,"uuid":"407047"},"geometry":{"type":"Point","coordinates":[101.01158866976571,19.862548760115676]}},{"type":"Feature","properties":{"name_en":"Phousoung","did":407,"pid":4,"uuid":"407048"},"geometry":{"type":"Point","coordinates":[101.15358271952447,20.025403600178926]}},{"type":"Feature","properties":{"name_en":"Konelang","did":407,"pid":4,"uuid":"407049"},"geometry":{"type":"Point","coordinates":[101.17471199003225,20.07319922980191]}},{"type":"Feature","properties":{"name_en":"Mokkae","did":407,"pid":4,"uuid":"407050"},"geometry":{"type":"Point","coordinates":[101.11516811996432,20.015425779547108]}},{"type":"Feature","properties":{"name_en":"Chomelaeng gnai","did":407,"pid":4,"uuid":"407053"},"geometry":{"type":"Point","coordinates":[101.12843289987804,19.99897756037699]}},{"type":"Feature","properties":{"name_en":"Chomelaengnoy","did":407,"pid":4,"uuid":"407055"},"geometry":{"type":"Point","coordinates":[101.14374127004292,19.98528294954098]}},{"type":"Feature","properties":{"name_en":"Kham","did":407,"pid":4,"uuid":"407056"},"geometry":{"type":"Point","coordinates":[101.05042018006203,19.91468854968215]}},{"type":"Feature","properties":{"name_en":"Houayxaengkham","did":407,"pid":4,"uuid":"407058"},"geometry":{"type":"Point","coordinates":[101.10299332007827,19.886467940343966]}},{"type":"Feature","properties":{"name_en":"Houayka","did":407,"pid":4,"uuid":"407060"},"geometry":{"type":"Point","coordinates":[101.10257631961646,19.921058459574514]}},{"type":"Feature","properties":{"name_en":"Ngone","did":407,"pid":4,"uuid":"407062"},"geometry":{"type":"Point","coordinates":[101.01523973965863,19.910607489912067]}},{"type":"Feature","properties":{"name_en":"Chomephou","did":407,"pid":4,"uuid":"407063"},"geometry":{"type":"Point","coordinates":[101.06928986041365,19.970883509679]}},{"type":"Feature","properties":{"name_en":"Mokkane","did":407,"pid":4,"uuid":"407066"},"geometry":{"type":"Point","coordinates":[101.0679496701814,20.0181634000701]}},{"type":"Feature","properties":{"name_en":"Chome xang nam yen","did":407,"pid":4,"uuid":"407067"},"geometry":{"type":"Point","coordinates":[101.03521524016291,19.96957728035298]}},{"type":"Feature","properties":{"name_en":"Mokkho gnai","did":407,"pid":4,"uuid":"407068"},"geometry":{"type":"Point","coordinates":[101.06328555960687,20.052008009776344]}},{"type":"Feature","properties":{"name_en":"Moksatong","did":407,"pid":4,"uuid":"407069"},"geometry":{"type":"Point","coordinates":[101.0251536002461,20.04934827004139]}},{"type":"Feature","properties":{"name_en":"Moktu","did":407,"pid":4,"uuid":"407070"},"geometry":{"type":"Point","coordinates":[101.05266988022863,20.073755450277815]}},{"type":"Feature","properties":{"name_en":"Mokchong gnai","did":407,"pid":4,"uuid":"407073"},"geometry":{"type":"Point","coordinates":[101.12647815956822,20.07467695989818]}},{"type":"Feature","properties":{"name_en":"Mokkholaosoung","did":407,"pid":4,"uuid":"407075"},"geometry":{"type":"Point","coordinates":[101.10530949038068,20.050468260283395]}},{"type":"Feature","properties":{"name_en":"Langching","did":407,"pid":4,"uuid":"407079"},"geometry":{"type":"Point","coordinates":[101.12985555983698,20.12927835009682]}},{"type":"Feature","properties":{"name_en":"Kongvang","did":407,"pid":4,"uuid":"407080"},"geometry":{"type":"Point","coordinates":[101.19634055966968,20.09797588031976]}},{"type":"Feature","properties":{"name_en":"Houayxaeng","did":407,"pid":4,"uuid":"407082"},"geometry":{"type":"Point","coordinates":[101.08544304016422,19.88902609988339]}}]}