{"type":"FeatureCollection","features":[{"type":"Feature","properties":{"name_en":"Namyankuao","did":501,"pid":5,"uuid":"501001"},"geometry":{"type":"Point","coordinates":[100.32383255983511,20.4024931900391]}},{"type":"Feature","properties":{"name_en":"Namyonemai","did":501,"pid":5,"uuid":"501002"},"geometry":{"type":"Point","coordinates":[100.32751271971361,20.409422089625867]}},{"type":"Feature","properties":{"name_en":"Laoluang","did":501,"pid":5,"uuid":"501007"},"geometry":{"type":"Point","coordinates":[100.35553777987057,20.425366560161063]}},{"type":"Feature","properties":{"name_en":"Pana","did":501,"pid":5,"uuid":"501008"},"geometry":{"type":"Point","coordinates":[100.37920207016798,20.432895359505107]}},{"type":"Feature","properties":{"name_en":"Pakngao","did":501,"pid":5,"uuid":"501012"},"geometry":{"type":"Point","coordinates":[100.36457036964943,20.3677705697695]}},{"type":"Feature","properties":{"name_en":"Donekhoun","did":501,"pid":5,"uuid":"501014"},"geometry":{"type":"Point","coordinates":[100.37444173015658,20.371409909754544]}},{"type":"Feature","properties":{"name_en":"Namsane","did":501,"pid":5,"uuid":"501016"},"geometry":{"type":"Point","coordinates":[100.42241313019247,20.404202009948822]}},{"type":"Feature","properties":{"name_en":"Namle","did":501,"pid":5,"uuid":"501020"},"geometry":{"type":"Point","coordinates":[100.42748225019922,20.401339419884227]}},{"type":"Feature","properties":{"name_en":"Namchom","did":501,"pid":5,"uuid":"501021"},"geometry":{"type":"Point","coordinates":[100.58826475031125,20.429489710119956]}},{"type":"Feature","properties":{"name_en":"Siphoxay","did":501,"pid":5,"uuid":"501025"},"geometry":{"type":"Point","coordinates":[100.56525752006267,20.41710493989473]}},{"type":"Feature","properties":{"name_en":"Nampong","did":501,"pid":5,"uuid":"501026"},"geometry":{"type":"Point","coordinates":[100.53239517995621,20.426108869615057]}},{"type":"Feature","properties":{"name_en":"Phonhphai","did":501,"pid":5,"uuid":"501027"},"geometry":{"type":"Point","coordinates":[100.57682185991968,20.45157760949733]}},{"type":"Feature","properties":{"name_en":"oone","did":501,"pid":5,"uuid":"501031"},"geometry":{"type":"Point","coordinates":[100.60665200007737,20.440942000181273]}},{"type":"Feature","properties":{"name_en":"Namkor","did":501,"pid":5,"uuid":"501033"},"geometry":{"type":"Point","coordinates":[100.6305508701412,20.4606584002877]}},{"type":"Feature","properties":{"name_en":"Chamsi","did":501,"pid":5,"uuid":"501036"},"geometry":{"type":"Point","coordinates":[100.69067375992373,20.50961675990498]}},{"type":"Feature","properties":{"name_en":"Thafa","did":501,"pid":5,"uuid":"501037"},"geometry":{"type":"Point","coordinates":[100.88472302990013,20.432111729987557]}},{"type":"Feature","properties":{"name_en":"Lakonh","did":501,"pid":5,"uuid":"501038"},"geometry":{"type":"Point","coordinates":[100.91966900003798,20.451277000324136]}},{"type":"Feature","properties":{"name_en":"Namzeo","did":501,"pid":5,"uuid":"501039"},"geometry":{"type":"Point","coordinates":[100.83007646031767,20.39658561972824]}},{"type":"Feature","properties":{"name_en":"Zord","did":501,"pid":5,"uuid":"501041"},"geometry":{"type":"Point","coordinates":[100.92845712001532,20.49204996982799]}},{"type":"Feature","properties":{"name_en":"Pangsalao","did":501,"pid":5,"uuid":"501045"},"geometry":{"type":"Point","coordinates":[100.86754163957706,20.426634909887273]}},{"type":"Feature","properties":{"name_en":"Toop","did":501,"pid":5,"uuid":"501047"},"geometry":{"type":"Point","coordinates":[100.8006685503942,20.472489120194066]}},{"type":"Feature","properties":{"name_en":"Donechai","did":501,"pid":5,"uuid":"501049"},"geometry":{"type":"Point","coordinates":[100.85099995032468,20.412800000062834]}},{"type":"Feature","properties":{"name_en":"Nangam","did":501,"pid":5,"uuid":"501051"},"geometry":{"type":"Point","coordinates":[100.7998899596288,20.378939959494474]}},{"type":"Feature","properties":{"name_en":"Namthong","did":501,"pid":5,"uuid":"501053"},"geometry":{"type":"Point","coordinates":[100.74113817983346,20.35693552957929]}},{"type":"Feature","properties":{"name_en":"Naluang","did":501,"pid":5,"uuid":"501054"},"geometry":{"type":"Point","coordinates":[100.67916943028959,20.364468179760664]}},{"type":"Feature","properties":{"name_en":"Pong","did":501,"pid":5,"uuid":"501055"},"geometry":{"type":"Point","coordinates":[100.5910643901168,20.39686080023834]}},{"type":"Feature","properties":{"name_en":"Nongkham","did":501,"pid":5,"uuid":"501056"},"geometry":{"type":"Point","coordinates":[100.58384379966309,20.386142529873226]}},{"type":"Feature","properties":{"name_en":"Namduea","did":501,"pid":5,"uuid":"501057"},"geometry":{"type":"Point","coordinates":[100.55144314003904,20.358072959888744]}},{"type":"Feature","properties":{"name_en":"Donephao","did":501,"pid":5,"uuid":"501058"},"geometry":{"type":"Point","coordinates":[100.564458979884,20.364549649437112]}},{"type":"Feature","properties":{"name_en":"Phokhom","did":501,"pid":5,"uuid":"501060"},"geometry":{"type":"Point","coordinates":[100.56701553983686,20.370697440013984]}},{"type":"Feature","properties":{"name_en":"Namma","did":501,"pid":5,"uuid":"501061"},"geometry":{"type":"Point","coordinates":[100.53018645968,20.338770359684123]}},{"type":"Feature","properties":{"name_en":"Houaidinje","did":501,"pid":5,"uuid":"501062"},"geometry":{"type":"Point","coordinates":[100.54094522032636,20.349222340246175]}},{"type":"Feature","properties":{"name_en":"Nampo","did":501,"pid":5,"uuid":"501063"},"geometry":{"type":"Point","coordinates":[100.52708724952015,20.33215502001037]}},{"type":"Feature","properties":{"name_en":"Namnglao","did":501,"pid":5,"uuid":"501065"},"geometry":{"type":"Point","coordinates":[100.56578875993964,20.394541280081942]}},{"type":"Feature","properties":{"name_en":"Namphad","did":501,"pid":5,"uuid":"501066"},"geometry":{"type":"Point","coordinates":[100.50376008027193,20.366987450114024]}},{"type":"Feature","properties":{"name_en":"Phemonsin","did":501,"pid":5,"uuid":"501067"},"geometry":{"type":"Point","coordinates":[100.57928530009296,20.382710889624526]}},{"type":"Feature","properties":{"name_en":"Numpookkang","did":501,"pid":5,"uuid":"501068"},"geometry":{"type":"Point","coordinates":[100.5715670800285,20.22327945987749]}},{"type":"Feature","properties":{"name_en":"Namsamoktai","did":501,"pid":5,"uuid":"501070"},"geometry":{"type":"Point","coordinates":[100.59288075023478,20.251096319628196]}},{"type":"Feature","properties":{"name_en":"Fay","did":501,"pid":5,"uuid":"501071"},"geometry":{"type":"Point","coordinates":[100.53809520959625,20.221593699885943]}},{"type":"Feature","properties":{"name_en":"Namsamoknuea","did":501,"pid":5,"uuid":"501073"},"geometry":{"type":"Point","coordinates":[100.59907162987655,20.258045919692876]}},{"type":"Feature","properties":{"name_en":"Leng","did":501,"pid":5,"uuid":"501075"},"geometry":{"type":"Point","coordinates":[100.5770297301545,20.274914079937172]}},{"type":"Feature","properties":{"name_en":"Houaixaynoy","did":501,"pid":5,"uuid":"501076"},"geometry":{"type":"Point","coordinates":[100.55171814966775,20.20546021001004]}},{"type":"Feature","properties":{"name_en":"Houaituy","did":501,"pid":5,"uuid":"501078"},"geometry":{"type":"Point","coordinates":[100.4847614895957,20.186473270068184]}},{"type":"Feature","properties":{"name_en":"Houaichord","did":501,"pid":5,"uuid":"501079"},"geometry":{"type":"Point","coordinates":[100.49060603039034,20.183537509890726]}},{"type":"Feature","properties":{"name_en":"Phonexay","did":501,"pid":5,"uuid":"501080"},"geometry":{"type":"Point","coordinates":[100.50078517957408,20.168030569568963]}},{"type":"Feature","properties":{"name_en":"Phonesavang","did":501,"pid":5,"uuid":"501083"},"geometry":{"type":"Point","coordinates":[100.50373996974895,20.162742429454337]}},{"type":"Feature","properties":{"name_en":"Danthin","did":501,"pid":5,"uuid":"501084"},"geometry":{"type":"Point","coordinates":[100.50650624959039,20.16037880990375]}},{"type":"Feature","properties":{"name_en":"Donesavanh","did":501,"pid":5,"uuid":"501086"},"geometry":{"type":"Point","coordinates":[100.55762269996539,20.18308152998294]}},{"type":"Feature","properties":{"name_en":"Khoklouang","did":501,"pid":5,"uuid":"501087"},"geometry":{"type":"Point","coordinates":[100.5730688699676,20.17583202992879]}},{"type":"Feature","properties":{"name_en":"Houaitab","did":501,"pid":5,"uuid":"501088"},"geometry":{"type":"Point","coordinates":[100.38405368010463,20.327628459775767]}},{"type":"Feature","properties":{"name_en":"Houaimone","did":501,"pid":5,"uuid":"501090"},"geometry":{"type":"Point","coordinates":[100.39015244023444,20.308969090112182]}},{"type":"Feature","properties":{"name_en":"Khonekeo","did":501,"pid":5,"uuid":"501091"},"geometry":{"type":"Point","coordinates":[100.40783757974606,20.286825019976725]}},{"type":"Feature","properties":{"name_en":"Nongsay","did":501,"pid":5,"uuid":"501094"},"geometry":{"type":"Point","coordinates":[100.40223645978412,20.29236227021801]}},{"type":"Feature","properties":{"name_en":"Houaisaytai","did":501,"pid":5,"uuid":"501097"},"geometry":{"type":"Point","coordinates":[100.41374272025281,20.270313840060187]}},{"type":"Feature","properties":{"name_en":"Sibounehueang","did":501,"pid":5,"uuid":"501098"},"geometry":{"type":"Point","coordinates":[100.44249441034272,20.2746482099295]}},{"type":"Feature","properties":{"name_en":"Houaisaynuea","did":501,"pid":5,"uuid":"501100"},"geometry":{"type":"Point","coordinates":[100.41574457029088,20.278094349995044]}},{"type":"Feature","properties":{"name_en":"Maiphokha","did":501,"pid":5,"uuid":"501101"},"geometry":{"type":"Point","coordinates":[100.46536048996519,20.274807209749415]}},{"type":"Feature","properties":{"name_en":"Thongsengchan","did":501,"pid":5,"uuid":"501105"},"geometry":{"type":"Point","coordinates":[100.48045972995173,20.276216969595705]}},{"type":"Feature","properties":{"name_en":"Mainiyome","did":501,"pid":5,"uuid":"501106"},"geometry":{"type":"Point","coordinates":[100.49609926970979,20.283610899952077]}},{"type":"Feature","properties":{"name_en":"Namtoy","did":501,"pid":5,"uuid":"501107"},"geometry":{"type":"Point","coordinates":[100.50397458035218,20.288992329885968]}},{"type":"Feature","properties":{"name_en":"Namchang","did":501,"pid":5,"uuid":"501111"},"geometry":{"type":"Point","coordinates":[100.51618373947493,20.298638219854702]}},{"type":"Feature","properties":{"name_en":"Phonhthong","did":501,"pid":5,"uuid":"501113"},"geometry":{"type":"Point","coordinates":[100.51680106986056,20.306347139879858]}},{"type":"Feature","properties":{"name_en":"Borlake","did":501,"pid":5,"uuid":"501114"},"geometry":{"type":"Point","coordinates":[100.51817335028879,20.308787030160754]}},{"type":"Feature","properties":{"name_en":"Pangphrub","did":501,"pid":5,"uuid":"501115"},"geometry":{"type":"Point","coordinates":[100.51351075029322,20.313266489787416]}},{"type":"Feature","properties":{"name_en":"Phouvantai","did":501,"pid":5,"uuid":"501118"},"geometry":{"type":"Point","coordinates":[100.5725946999885,20.26499368019927]}},{"type":"Feature","properties":{"name_en":"Namtin","did":501,"pid":5,"uuid":"501119"},"geometry":{"type":"Point","coordinates":[100.5390464701571,20.302710069520877]}},{"type":"Feature","properties":{"name_en":"Phouvannuea","did":501,"pid":5,"uuid":"501120"},"geometry":{"type":"Point","coordinates":[100.55734324022285,20.300792789924852]}},{"type":"Feature","properties":{"name_en":"Namtongtai","did":501,"pid":5,"uuid":"501121"},"geometry":{"type":"Point","coordinates":[100.56783469997394,20.314706160328903]}},{"type":"Feature","properties":{"name_en":"Houaisala","did":501,"pid":5,"uuid":"501122"},"geometry":{"type":"Point","coordinates":[100.46261666995437,20.338760720268375]}},{"type":"Feature","properties":{"name_en":"Tinthad","did":501,"pid":5,"uuid":"501124"},"geometry":{"type":"Point","coordinates":[100.42464430007344,20.251840549763358]}},{"type":"Feature","properties":{"name_en":"Paooy","did":501,"pid":5,"uuid":"501125"},"geometry":{"type":"Point","coordinates":[100.43334153016664,20.25138575013132]}},{"type":"Feature","properties":{"name_en":"Sioudom","did":501,"pid":5,"uuid":"501126"},"geometry":{"type":"Point","coordinates":[100.4460904097263,20.252371959812407]}},{"type":"Feature","properties":{"name_en":"Pakhaonuea","did":501,"pid":5,"uuid":"501127"},"geometry":{"type":"Point","coordinates":[100.45082257979222,20.25427331021744]}},{"type":"Feature","properties":{"name_en":"Mokkachok","did":501,"pid":5,"uuid":"501128"},"geometry":{"type":"Point","coordinates":[100.45747965946654,20.258172570061696]}},{"type":"Feature","properties":{"name_en":"Namhortai","did":501,"pid":5,"uuid":"501129"},"geometry":{"type":"Point","coordinates":[100.46398199960466,20.263388799452617]}},{"type":"Feature","properties":{"name_en":"Phebounthong","did":501,"pid":5,"uuid":"501130"},"geometry":{"type":"Point","coordinates":[100.45584199952701,20.24894899977292]}},{"type":"Feature","properties":{"name_en":"Pakhaotai","did":501,"pid":5,"uuid":"501132"},"geometry":{"type":"Point","coordinates":[100.46268465035855,20.241457299953975]}},{"type":"Feature","properties":{"name_en":"Viengmai","did":501,"pid":5,"uuid":"501134"},"geometry":{"type":"Point","coordinates":[100.45781451019296,20.229346959853203]}},{"type":"Feature","properties":{"name_en":"Done","did":501,"pid":5,"uuid":"501135"},"geometry":{"type":"Point","coordinates":[100.45665957037897,20.209398529474985]}},{"type":"Feature","properties":{"name_en":"Namkhamtai","did":501,"pid":5,"uuid":"501136"},"geometry":{"type":"Point","coordinates":[100.47412025028437,20.249808360032993]}},{"type":"Feature","properties":{"name_en":"Chormchook","did":501,"pid":5,"uuid":"501137"},"geometry":{"type":"Point","coordinates":[100.474089569835,20.265605139439216]}},{"type":"Feature","properties":{"name_en":"Saychalurn","did":501,"pid":5,"uuid":"501141"},"geometry":{"type":"Point","coordinates":[100.5487887596337,20.217811109480284]}}]}