{"type":"FeatureCollection","features":[{"type":"Feature","properties":{"name_en":"Muangkham","did":502,"pid":5,"uuid":"502001"},"geometry":{"type":"Point","coordinates":[100.10555899973032,20.374253469607254]}},{"type":"Feature","properties":{"name_en":"Kvan","did":502,"pid":5,"uuid":"502002"},"geometry":{"type":"Point","coordinates":[100.11196654015883,20.321354769468094]}},{"type":"Feature","properties":{"name_en":"Sibounhueang","did":502,"pid":5,"uuid":"502003"},"geometry":{"type":"Point","coordinates":[100.09165592944858,20.361488329891614]}},{"type":"Feature","properties":{"name_en":"Phiengngam","did":502,"pid":5,"uuid":"502005"},"geometry":{"type":"Point","coordinates":[100.10296026964004,20.312543460172932]}},{"type":"Feature","properties":{"name_en":"Doonemoon","did":502,"pid":5,"uuid":"502007"},"geometry":{"type":"Point","coordinates":[100.10078777002282,20.30028979007464]}},{"type":"Feature","properties":{"name_en":"Phonhoum","did":502,"pid":5,"uuid":"502008"},"geometry":{"type":"Point","coordinates":[100.1041849497669,20.29345442937644]}},{"type":"Feature","properties":{"name_en":"Tonpherng","did":502,"pid":5,"uuid":"502009"},"geometry":{"type":"Point","coordinates":[100.10178446030574,20.27720284992046]}},{"type":"Feature","properties":{"name_en":"Donesavanh","did":502,"pid":5,"uuid":"502012"},"geometry":{"type":"Point","coordinates":[100.10748105000847,20.26449864994877]}},{"type":"Feature","properties":{"name_en":"Homyaen","did":502,"pid":5,"uuid":"502013"},"geometry":{"type":"Point","coordinates":[100.13815328028211,20.253074449587793]}},{"type":"Feature","properties":{"name_en":"Donethad","did":502,"pid":5,"uuid":"502014"},"geometry":{"type":"Point","coordinates":[100.16560820988593,20.260829969692548]}},{"type":"Feature","properties":{"name_en":"Simueangngamtai","did":502,"pid":5,"uuid":"502017"},"geometry":{"type":"Point","coordinates":[100.17296073025082,20.30859399964065]}},{"type":"Feature","properties":{"name_en":"Sidonekhoon","did":502,"pid":5,"uuid":"502018"},"geometry":{"type":"Point","coordinates":[100.19954711996469,20.315699000063972]}},{"type":"Feature","properties":{"name_en":"Namngaen","did":502,"pid":5,"uuid":"502019"},"geometry":{"type":"Point","coordinates":[100.18496495980145,20.333920249435298]}},{"type":"Feature","properties":{"name_en":"Khoonbong","did":502,"pid":5,"uuid":"502021"},"geometry":{"type":"Point","coordinates":[100.18497920997501,20.345987340082797]}},{"type":"Feature","properties":{"name_en":"Samsib","did":502,"pid":5,"uuid":"502022"},"geometry":{"type":"Point","coordinates":[100.20220485995058,20.362207249662013]}},{"type":"Feature","properties":{"name_en":"Namkerngkao","did":502,"pid":5,"uuid":"502023"},"geometry":{"type":"Point","coordinates":[100.25921939969781,20.40433059026641]}},{"type":"Feature","properties":{"name_en":"Namkerngmai","did":502,"pid":5,"uuid":"502024"},"geometry":{"type":"Point","coordinates":[100.25381869007651,20.394266769701847]}},{"type":"Feature","properties":{"name_en":"Sidonexay","did":502,"pid":5,"uuid":"502027"},"geometry":{"type":"Point","coordinates":[100.22721168012019,20.41022951950722]}},{"type":"Feature","properties":{"name_en":"Sidonenheng","did":502,"pid":5,"uuid":"502029"},"geometry":{"type":"Point","coordinates":[100.23419405020584,20.366585279447584]}},{"type":"Feature","properties":{"name_en":"Sitharth","did":502,"pid":5,"uuid":"502032"},"geometry":{"type":"Point","coordinates":[100.21690545954965,20.3447495900994]}},{"type":"Feature","properties":{"name_en":"Tang or","did":502,"pid":5,"uuid":"502033"},"geometry":{"type":"Point","coordinates":[100.18963057970913,20.65566824017889]}},{"type":"Feature","properties":{"name_en":"Luangsingchai","did":502,"pid":5,"uuid":"502034"},"geometry":{"type":"Point","coordinates":[100.1465499397173,20.506939999480938]}},{"type":"Feature","properties":{"name_en":"Ber one","did":502,"pid":5,"uuid":"502035"},"geometry":{"type":"Point","coordinates":[100.25498175963263,20.51173461954641]}},{"type":"Feature","properties":{"name_en":"Nhangkham","did":502,"pid":5,"uuid":"502036"},"geometry":{"type":"Point","coordinates":[100.14065653958484,20.4842655301949]}},{"type":"Feature","properties":{"name_en":"Sidonelueang","did":502,"pid":5,"uuid":"502038"},"geometry":{"type":"Point","coordinates":[100.1392156096764,20.468558179955632]}},{"type":"Feature","properties":{"name_en":"Houaitang","did":502,"pid":5,"uuid":"502039"},"geometry":{"type":"Point","coordinates":[100.13192946942463,20.451546769610985]}},{"type":"Feature","properties":{"name_en":"Mom","did":502,"pid":5,"uuid":"502040"},"geometry":{"type":"Point","coordinates":[100.12401787965044,20.427883309911678]}},{"type":"Feature","properties":{"name_en":"Siengkham","did":502,"pid":5,"uuid":"502041"},"geometry":{"type":"Point","coordinates":[100.12850663997821,20.414162470112792]}},{"type":"Feature","properties":{"name_en":"Houaihone","did":502,"pid":5,"uuid":"502043"},"geometry":{"type":"Point","coordinates":[100.18090811945925,20.64071692997561]}},{"type":"Feature","properties":{"name_en":"Houailom","did":502,"pid":5,"uuid":"502047"},"geometry":{"type":"Point","coordinates":[100.1588127498615,20.570224709894973]}},{"type":"Feature","properties":{"name_en":"Chacharcho","did":502,"pid":5,"uuid":"502048"},"geometry":{"type":"Point","coordinates":[100.17004047954312,20.610736379706566]}},{"type":"Feature","properties":{"name_en":"Donengeun","did":502,"pid":5,"uuid":"502050"},"geometry":{"type":"Point","coordinates":[100.22379395945792,20.449434779752814]}},{"type":"Feature","properties":{"name_en":"Nakham","did":502,"pid":5,"uuid":"502051"},"geometry":{"type":"Point","coordinates":[100.22641292822156,20.440306323142526]}},{"type":"Feature","properties":{"name_en":"Pasak","did":502,"pid":5,"uuid":"502054"},"geometry":{"type":"Point","coordinates":[100.19697136018996,20.41351422005201]}},{"type":"Feature","properties":{"name_en":"Korsang","did":502,"pid":5,"uuid":"502055"},"geometry":{"type":"Point","coordinates":[100.18566266948781,20.39123871996905]}},{"type":"Feature","properties":{"name_en":"Nhangtai","did":502,"pid":5,"uuid":"502056"},"geometry":{"type":"Point","coordinates":[100.18987482017435,20.40242202942637]}},{"type":"Feature","properties":{"name_en":"Numte","did":502,"pid":5,"uuid":"502057"},"geometry":{"type":"Point","coordinates":[100.22022444013565,20.46417024948395]}},{"type":"Feature","properties":{"name_en":"Numfa","did":502,"pid":5,"uuid":"502059"},"geometry":{"type":"Point","coordinates":[100.22735341001327,20.482811349448987]}},{"type":"Feature","properties":{"name_en":"Special Economic Zone","did":502,"pid":5,"uuid":"502999"},"geometry":{"type":"Point","coordinates":[100.08901189957592,20.352711199877028]}}]}