{"type":"FeatureCollection","features":[{"type":"Feature","properties":{"name_en":"Nummerng","did":503,"pid":5,"uuid":"503001"},"geometry":{"type":"Point","coordinates":[100.45835773958358,20.7256016395738]}},{"type":"Feature","properties":{"name_en":"Phonsavang","did":503,"pid":5,"uuid":"503002"},"geometry":{"type":"Point","coordinates":[100.47330736971539,20.74441683029511]}},{"type":"Feature","properties":{"name_en":"Phoncharlurn","did":503,"pid":5,"uuid":"503004"},"geometry":{"type":"Point","coordinates":[100.43525763959215,20.690802159805834]}},{"type":"Feature","properties":{"name_en":"Houaithath","did":503,"pid":5,"uuid":"503005"},"geometry":{"type":"Point","coordinates":[100.44191663955488,20.710298879736403]}},{"type":"Feature","properties":{"name_en":"Siengdao","did":503,"pid":5,"uuid":"503008"},"geometry":{"type":"Point","coordinates":[100.52594429964523,20.81454285026726]}},{"type":"Feature","properties":{"name_en":"Monelam","did":503,"pid":5,"uuid":"503009"},"geometry":{"type":"Point","coordinates":[100.49698330950478,20.784468669416437]}},{"type":"Feature","properties":{"name_en":"Chorm seng","did":503,"pid":5,"uuid":"503011"},"geometry":{"type":"Point","coordinates":[100.49517827015613,20.811070059898256]}},{"type":"Feature","properties":{"name_en":"Houai or","did":503,"pid":5,"uuid":"503014"},"geometry":{"type":"Point","coordinates":[100.4706932193994,20.782258780131695]}},{"type":"Feature","properties":{"name_en":"Tor lea","did":503,"pid":5,"uuid":"503016"},"geometry":{"type":"Point","coordinates":[100.42972734016135,20.725374740164742]}},{"type":"Feature","properties":{"name_en":"Chormcheng","did":503,"pid":5,"uuid":"503019"},"geometry":{"type":"Point","coordinates":[100.39865352998915,20.802281550257717]}},{"type":"Feature","properties":{"name_en":"Donemoon","did":503,"pid":5,"uuid":"503022"},"geometry":{"type":"Point","coordinates":[100.35699270977508,20.807230979907565]}},{"type":"Feature","properties":{"name_en":"Phadam","did":503,"pid":5,"uuid":"503023"},"geometry":{"type":"Point","coordinates":[100.36494319009753,20.789752709947624]}},{"type":"Feature","properties":{"name_en":"Phakhao","did":503,"pid":5,"uuid":"503025"},"geometry":{"type":"Point","coordinates":[100.34547923989527,20.794210369589365]}},{"type":"Feature","properties":{"name_en":"Houaisan","did":503,"pid":5,"uuid":"503026"},"geometry":{"type":"Point","coordinates":[100.32122796012725,20.780097929768694]}},{"type":"Feature","properties":{"name_en":"Houanumka","did":503,"pid":5,"uuid":"503034"},"geometry":{"type":"Point","coordinates":[100.40300189951198,20.62485258954057]}},{"type":"Feature","properties":{"name_en":"Pungpha","did":503,"pid":5,"uuid":"503038"},"geometry":{"type":"Point","coordinates":[100.40945595989908,20.660374170292236]}},{"type":"Feature","properties":{"name_en":"Larthkhoonmueang","did":503,"pid":5,"uuid":"503044"},"geometry":{"type":"Point","coordinates":[100.45957009959017,20.729749930250204]}},{"type":"Feature","properties":{"name_en":"Punglor","did":503,"pid":5,"uuid":"503046"},"geometry":{"type":"Point","coordinates":[100.23012439009345,20.712994089586672]}},{"type":"Feature","properties":{"name_en":"Numka","did":503,"pid":5,"uuid":"503047"},"geometry":{"type":"Point","coordinates":[100.53751081944264,20.65803042996762]}},{"type":"Feature","properties":{"name_en":"Nangam","did":503,"pid":5,"uuid":"503048"},"geometry":{"type":"Point","coordinates":[100.45962735019849,20.641638269632157]}},{"type":"Feature","properties":{"name_en":"Phousavang","did":503,"pid":5,"uuid":"503049"},"geometry":{"type":"Point","coordinates":[100.56771811014256,20.505721189544634]}},{"type":"Feature","properties":{"name_en":"Sinxay","did":503,"pid":5,"uuid":"503050"},"geometry":{"type":"Point","coordinates":[100.46845433014873,20.559516660006196]}},{"type":"Feature","properties":{"name_en":"Phadeng","did":503,"pid":5,"uuid":"503051"},"geometry":{"type":"Point","coordinates":[100.52295514025018,20.593409719681336]}},{"type":"Feature","properties":{"name_en":"Phou oh","did":503,"pid":5,"uuid":"503052"},"geometry":{"type":"Point","coordinates":[100.59071504028059,20.56584257003548]}},{"type":"Feature","properties":{"name_en":"Thampharbarth","did":503,"pid":5,"uuid":"503053"},"geometry":{"type":"Point","coordinates":[100.58853121002092,20.565988659960563]}},{"type":"Feature","properties":{"name_en":"Houaidokthong","did":503,"pid":5,"uuid":"503054"},"geometry":{"type":"Point","coordinates":[100.58659666974006,20.56465601996898]}},{"type":"Feature","properties":{"name_en":"Xayparthtarna","did":503,"pid":5,"uuid":"503055"},"geometry":{"type":"Point","coordinates":[100.58886933985683,20.583616900256967]}},{"type":"Feature","properties":{"name_en":"Xaycharlurn","did":503,"pid":5,"uuid":"503056"},"geometry":{"type":"Point","coordinates":[100.58046253950836,20.532601779645653]}}]}