{"type":"FeatureCollection","features":[{"type":"Feature","properties":{"name_en":"Harthkham","did":504,"pid":5,"uuid":"504001"},"geometry":{"type":"Point","coordinates":[100.71103238967166,20.153945619562737]}},{"type":"Feature","properties":{"name_en":"Donechai","did":504,"pid":5,"uuid":"504002"},"geometry":{"type":"Point","coordinates":[100.72502414034967,20.174506339956764]}},{"type":"Feature","properties":{"name_en":"Harthli","did":504,"pid":5,"uuid":"504003"},"geometry":{"type":"Point","coordinates":[100.72474804014786,20.18390236982019]}},{"type":"Feature","properties":{"name_en":"Pakharth","did":504,"pid":5,"uuid":"504004"},"geometry":{"type":"Point","coordinates":[100.71927415028695,20.146128239468705]}},{"type":"Feature","properties":{"name_en":"Donekeo","did":504,"pid":5,"uuid":"504005"},"geometry":{"type":"Point","coordinates":[100.72545554990734,20.136728769758015]}},{"type":"Feature","properties":{"name_en":"Pangthong","did":504,"pid":5,"uuid":"504007"},"geometry":{"type":"Point","coordinates":[100.78386979029368,20.11837273952174]}},{"type":"Feature","properties":{"name_en":"vungpom","did":504,"pid":5,"uuid":"504008"},"geometry":{"type":"Point","coordinates":[100.7322573003014,20.209978640168988]}},{"type":"Feature","properties":{"name_en":"Harthmork","did":504,"pid":5,"uuid":"504009"},"geometry":{"type":"Point","coordinates":[100.7202773794885,20.220999080092625]}},{"type":"Feature","properties":{"name_en":"Houaibong","did":504,"pid":5,"uuid":"504010"},"geometry":{"type":"Point","coordinates":[100.73600803955078,20.209971519794802]}},{"type":"Feature","properties":{"name_en":"Lang","did":504,"pid":5,"uuid":"504011"},"geometry":{"type":"Point","coordinates":[100.76451472025556,20.226860129766635]}},{"type":"Feature","properties":{"name_en":"Numnhao","did":504,"pid":5,"uuid":"504013"},"geometry":{"type":"Point","coordinates":[100.77282998982969,20.204029499922875]}},{"type":"Feature","properties":{"name_en":"Nahome","did":504,"pid":5,"uuid":"504017"},"geometry":{"type":"Point","coordinates":[100.7930403499791,20.11204013035909]}},{"type":"Feature","properties":{"name_en":"Houaipaen","did":504,"pid":5,"uuid":"504018"},"geometry":{"type":"Point","coordinates":[100.80793833986155,20.11989849952737]}},{"type":"Feature","properties":{"name_en":"Tinpha","did":504,"pid":5,"uuid":"504019"},"geometry":{"type":"Point","coordinates":[100.84216149027606,20.13578068991195]}},{"type":"Feature","properties":{"name_en":"Harthson","did":504,"pid":5,"uuid":"504021"},"geometry":{"type":"Point","coordinates":[100.7597819598291,20.266470490285357]}},{"type":"Feature","properties":{"name_en":"Harthhorm","did":504,"pid":5,"uuid":"504022"},"geometry":{"type":"Point","coordinates":[100.79720061985252,20.270780050029483]}},{"type":"Feature","properties":{"name_en":"Harthnam","did":504,"pid":5,"uuid":"504023"},"geometry":{"type":"Point","coordinates":[100.8404433596092,20.270995380095105]}},{"type":"Feature","properties":{"name_en":"Vunglake","did":504,"pid":5,"uuid":"504024"},"geometry":{"type":"Point","coordinates":[100.87853709980712,20.284215060197724]}},{"type":"Feature","properties":{"name_en":"Hangdai","did":504,"pid":5,"uuid":"504028"},"geometry":{"type":"Point","coordinates":[100.78001738960437,20.049722099481862]}},{"type":"Feature","properties":{"name_en":"Phasang","did":504,"pid":5,"uuid":"504030"},"geometry":{"type":"Point","coordinates":[100.92138530995949,20.22642711993398]}},{"type":"Feature","properties":{"name_en":"Phonthong","did":504,"pid":5,"uuid":"504039"},"geometry":{"type":"Point","coordinates":[101.06813516016508,20.205087130024623]}},{"type":"Feature","properties":{"name_en":"Homphone","did":504,"pid":5,"uuid":"504040"},"geometry":{"type":"Point","coordinates":[101.17359049018658,20.25124106999377]}},{"type":"Feature","properties":{"name_en":"Chormkeo","did":504,"pid":5,"uuid":"504041"},"geometry":{"type":"Point","coordinates":[101.09592000038103,20.234453879936208]}},{"type":"Feature","properties":{"name_en":"Sarmin","did":504,"pid":5,"uuid":"504042"},"geometry":{"type":"Point","coordinates":[101.09556276042674,20.246133559827115]}},{"type":"Feature","properties":{"name_en":"Chormxay","did":504,"pid":5,"uuid":"504043"},"geometry":{"type":"Point","coordinates":[101.13914397017918,20.243651010096833]}},{"type":"Feature","properties":{"name_en":"Larkoil","did":504,"pid":5,"uuid":"504044"},"geometry":{"type":"Point","coordinates":[101.17530467005359,20.274905699521888]}},{"type":"Feature","properties":{"name_en":"Sookcharlurn","did":504,"pid":5,"uuid":"504046"},"geometry":{"type":"Point","coordinates":[101.18725005984032,20.28506230960057]}},{"type":"Feature","properties":{"name_en":"Tarphou","did":504,"pid":5,"uuid":"504047"},"geometry":{"type":"Point","coordinates":[101.15000406044426,20.194597600132777]}},{"type":"Feature","properties":{"name_en":"Konesord","did":504,"pid":5,"uuid":"504048"},"geometry":{"type":"Point","coordinates":[101.1492734099222,20.177848040362335]}},{"type":"Feature","properties":{"name_en":"Phovilay","did":504,"pid":5,"uuid":"504050"},"geometry":{"type":"Point","coordinates":[101.11629825043416,20.20411366018144]}},{"type":"Feature","properties":{"name_en":"Kurn","did":504,"pid":5,"uuid":"504051"},"geometry":{"type":"Point","coordinates":[101.11059462004518,20.220138679523313]}},{"type":"Feature","properties":{"name_en":"Khamfong","did":504,"pid":5,"uuid":"504052"},"geometry":{"type":"Point","coordinates":[101.08826656984526,20.159470379541556]}},{"type":"Feature","properties":{"name_en":"Karnong","did":504,"pid":5,"uuid":"504053"},"geometry":{"type":"Point","coordinates":[101.14467275016042,20.142724600005934]}},{"type":"Feature","properties":{"name_en":"Karlom","did":504,"pid":5,"uuid":"504054"},"geometry":{"type":"Point","coordinates":[101.014399959778,20.155339949841768]}},{"type":"Feature","properties":{"name_en":"Duea","did":504,"pid":5,"uuid":"504055"},"geometry":{"type":"Point","coordinates":[101.01672049044959,20.144897769629054]}},{"type":"Feature","properties":{"name_en":"Mai","did":504,"pid":5,"uuid":"504056"},"geometry":{"type":"Point","coordinates":[101.0241993196703,20.147706719733204]}},{"type":"Feature","properties":{"name_en":"Thin","did":504,"pid":5,"uuid":"504058"},"geometry":{"type":"Point","coordinates":[100.87853341010744,20.12214476034571]}},{"type":"Feature","properties":{"name_en":"Phang","did":504,"pid":5,"uuid":"504060"},"geometry":{"type":"Point","coordinates":[100.98535717039594,20.205553840257494]}},{"type":"Feature","properties":{"name_en":"Phousung","did":504,"pid":5,"uuid":"504062"},"geometry":{"type":"Point","coordinates":[100.88808995965614,20.252969930063507]}},{"type":"Feature","properties":{"name_en":"Kang","did":504,"pid":5,"uuid":"504065"},"geometry":{"type":"Point","coordinates":[100.92847003467566,20.1233586334387]}},{"type":"Feature","properties":{"name_en":"Larkar","did":504,"pid":5,"uuid":"504066"},"geometry":{"type":"Point","coordinates":[101.18858520983022,20.18604127018978]}},{"type":"Feature","properties":{"name_en":"Xaysavang","did":504,"pid":5,"uuid":"504067"},"geometry":{"type":"Point","coordinates":[100.80720023029758,20.0968581495346]}},{"type":"Feature","properties":{"name_en":"Nakhoon","did":504,"pid":5,"uuid":"504068"},"geometry":{"type":"Point","coordinates":[101.25749443025042,20.17682050039154]}},{"type":"Feature","properties":{"name_en":"Punglarth","did":504,"pid":5,"uuid":"504070"},"geometry":{"type":"Point","coordinates":[100.7951778995225,20.077004360231005]}},{"type":"Feature","properties":{"name_en":"Namka","did":504,"pid":5,"uuid":"504071"},"geometry":{"type":"Point","coordinates":[100.8031796899558,20.0792713299218]}},{"type":"Feature","properties":{"name_en":"Homesook","did":504,"pid":5,"uuid":"504072"},"geometry":{"type":"Point","coordinates":[100.78650691000945,20.0730208597109]}},{"type":"Feature","properties":{"name_en":"Mokxay","did":504,"pid":5,"uuid":"504074"},"geometry":{"type":"Point","coordinates":[100.75773694982819,20.057983809640323]}},{"type":"Feature","properties":{"name_en":"Houaisang","did":504,"pid":5,"uuid":"504076"},"geometry":{"type":"Point","coordinates":[100.78416759956235,20.037893219562022]}},{"type":"Feature","properties":{"name_en":"Houaikon","did":504,"pid":5,"uuid":"504077"},"geometry":{"type":"Point","coordinates":[100.80751136961635,20.047893589897896]}},{"type":"Feature","properties":{"name_en":"Kaenhkam","did":504,"pid":5,"uuid":"504079"},"geometry":{"type":"Point","coordinates":[100.8194657203529,20.06260215022349]}},{"type":"Feature","properties":{"name_en":"Viengkhamhai","did":504,"pid":5,"uuid":"504081"},"geometry":{"type":"Point","coordinates":[100.80548998955793,20.065359549984272]}},{"type":"Feature","properties":{"name_en":"Moksook","did":504,"pid":5,"uuid":"504084"},"geometry":{"type":"Point","coordinates":[100.8854137001337,20.040462030309325]}},{"type":"Feature","properties":{"name_en":"Phouving","did":504,"pid":5,"uuid":"504085"},"geometry":{"type":"Point","coordinates":[101.00374336960985,20.142205669791284]}},{"type":"Feature","properties":{"name_en":"Sibounhueang","did":504,"pid":5,"uuid":"504086"},"geometry":{"type":"Point","coordinates":[100.8210163697469,20.073898019703837]}},{"type":"Feature","properties":{"name_en":"Phonxay","did":504,"pid":5,"uuid":"504087"},"geometry":{"type":"Point","coordinates":[100.82062996982411,20.08617039018249]}},{"type":"Feature","properties":{"name_en":"Donesavanh","did":504,"pid":5,"uuid":"504088"},"geometry":{"type":"Point","coordinates":[100.82140404010568,20.08252217023158]}},{"type":"Feature","properties":{"name_en":"Pha oudome","did":504,"pid":5,"uuid":"504090"},"geometry":{"type":"Point","coordinates":[100.82385776015809,20.086190089588097]}},{"type":"Feature","properties":{"name_en":"Somesavang","did":504,"pid":5,"uuid":"504092"},"geometry":{"type":"Point","coordinates":[100.8164160499074,20.08709860023516]}},{"type":"Feature","properties":{"name_en":"Thinkeonuea","did":504,"pid":5,"uuid":"504095"},"geometry":{"type":"Point","coordinates":[100.83346970034756,20.08496507004685]}},{"type":"Feature","properties":{"name_en":"Phiengkham","did":504,"pid":5,"uuid":"504096"},"geometry":{"type":"Point","coordinates":[100.83446355032417,20.081715739716895]}},{"type":"Feature","properties":{"name_en":"Viengkhamnoy","did":504,"pid":5,"uuid":"504098"},"geometry":{"type":"Point","coordinates":[100.90303413962937,20.090959810352782]}},{"type":"Feature","properties":{"name_en":"Mokkharkang","did":504,"pid":5,"uuid":"504099"},"geometry":{"type":"Point","coordinates":[100.92100142002741,20.07743904025187]}},{"type":"Feature","properties":{"name_en":"Mokporm","did":504,"pid":5,"uuid":"504100"},"geometry":{"type":"Point","coordinates":[100.98033413980677,20.049496630035932]}},{"type":"Feature","properties":{"name_en":"Mokkarteung","did":504,"pid":5,"uuid":"504102"},"geometry":{"type":"Point","coordinates":[100.96390502987386,20.0505523302644]}},{"type":"Feature","properties":{"name_en":"Phiengtharth","did":504,"pid":5,"uuid":"504103"},"geometry":{"type":"Point","coordinates":[101.0080299595741,20.072949950119057]}},{"type":"Feature","properties":{"name_en":"Donekham","did":504,"pid":5,"uuid":"504108"},"geometry":{"type":"Point","coordinates":[101.23401848038498,20.164559960261794]}},{"type":"Feature","properties":{"name_en":"Viengxay","did":504,"pid":5,"uuid":"504110"},"geometry":{"type":"Point","coordinates":[101.1222473100928,20.232809770062307]}},{"type":"Feature","properties":{"name_en":"Viengphadtarna","did":504,"pid":5,"uuid":"504111"},"geometry":{"type":"Point","coordinates":[100.72252992958799,20.03324998993064]}},{"type":"Feature","properties":{"name_en":"Xay oudome","did":504,"pid":5,"uuid":"504113"},"geometry":{"type":"Point","coordinates":[100.81211973970805,20.094983210356435]}},{"type":"Feature","properties":{"name_en":"Sarnook","did":504,"pid":5,"uuid":"504116"},"geometry":{"type":"Point","coordinates":[101.21300319959914,20.303871719779735]}},{"type":"Feature","properties":{"name_en":"Khakkham","did":504,"pid":5,"uuid":"504118"},"geometry":{"type":"Point","coordinates":[100.91353096019371,20.201304209546397]}},{"type":"Feature","properties":{"name_en":"Phouviengxay","did":504,"pid":5,"uuid":"504120"},"geometry":{"type":"Point","coordinates":[100.94591226007948,20.081151719911144]}},{"type":"Feature","properties":{"name_en":"Tomker","did":504,"pid":5,"uuid":"504122"},"geometry":{"type":"Point","coordinates":[100.77190897970424,20.039322169787376]}}]}