{"type":"FeatureCollection","features":[{"type":"Feature","properties":{"name_en":"Harthsar","did":505,"pid":5,"uuid":"505001"},"geometry":{"type":"Point","coordinates":[100.58294384039537,19.924669969931678]}},{"type":"Feature","properties":{"name_en":"Pakthanuea","did":505,"pid":5,"uuid":"505003"},"geometry":{"type":"Point","coordinates":[100.59575473940924,20.106946862666565]}},{"type":"Feature","properties":{"name_en":"Doonesavanh","did":505,"pid":5,"uuid":"505007"},"geometry":{"type":"Point","coordinates":[100.64738550192925,20.13073721861206]}},{"type":"Feature","properties":{"name_en":"Houaithongnuea","did":505,"pid":5,"uuid":"505008"},"geometry":{"type":"Point","coordinates":[100.59220978116853,20.151701113325714]}},{"type":"Feature","properties":{"name_en":"Houaisoua","did":505,"pid":5,"uuid":"505009"},"geometry":{"type":"Point","coordinates":[100.5879642633313,20.024867914568876]}},{"type":"Feature","properties":{"name_en":"Houailamphaen","did":505,"pid":5,"uuid":"505010"},"geometry":{"type":"Point","coordinates":[100.5875966329503,20.013809753614282]}},{"type":"Feature","properties":{"name_en":"Houainorkhom","did":505,"pid":5,"uuid":"505011"},"geometry":{"type":"Point","coordinates":[100.58202761006618,20.011509089569135]}},{"type":"Feature","properties":{"name_en":"Houaisangik","did":505,"pid":5,"uuid":"505013"},"geometry":{"type":"Point","coordinates":[100.57588803966563,19.971753389546098]}},{"type":"Feature","properties":{"name_en":"Houaipharlam","did":505,"pid":5,"uuid":"505014"},"geometry":{"type":"Point","coordinates":[100.58171011013528,19.966227619795887]}},{"type":"Feature","properties":{"name_en":"Houaimeng","did":505,"pid":5,"uuid":"505016"},"geometry":{"type":"Point","coordinates":[100.57365165993441,19.921798670167245]}},{"type":"Feature","properties":{"name_en":"Harthsak","did":505,"pid":5,"uuid":"505018"},"geometry":{"type":"Point","coordinates":[100.60576282006484,19.858254959628123]}},{"type":"Feature","properties":{"name_en":"Pungkhichear","did":505,"pid":5,"uuid":"505019"},"geometry":{"type":"Point","coordinates":[100.67827054994932,19.95847644991138]}},{"type":"Feature","properties":{"name_en":"Harthdonekeo","did":505,"pid":5,"uuid":"505020"},"geometry":{"type":"Point","coordinates":[100.58472591030015,19.888941520252196]}},{"type":"Feature","properties":{"name_en":"Houai an","did":505,"pid":5,"uuid":"505023"},"geometry":{"type":"Point","coordinates":[100.58050965040881,19.830334170228827]}},{"type":"Feature","properties":{"name_en":"Houaihao","did":505,"pid":5,"uuid":"505024"},"geometry":{"type":"Point","coordinates":[100.68430224950222,19.82327877990674]}},{"type":"Feature","properties":{"name_en":"Konetin","did":505,"pid":5,"uuid":"505027"},"geometry":{"type":"Point","coordinates":[100.57464181005076,19.82770283960379]}},{"type":"Feature","properties":{"name_en":"Kengphak","did":505,"pid":5,"uuid":"505029"},"geometry":{"type":"Point","coordinates":[100.57989525972307,19.874037910153874]}},{"type":"Feature","properties":{"name_en":"Houaimaisang","did":505,"pid":5,"uuid":"505031"},"geometry":{"type":"Point","coordinates":[100.58922850962188,19.81210729959277]}},{"type":"Feature","properties":{"name_en":"Paksoua","did":505,"pid":5,"uuid":"505032"},"geometry":{"type":"Point","coordinates":[100.57567799027746,19.813968919764463]}},{"type":"Feature","properties":{"name_en":"Pangsa","did":505,"pid":5,"uuid":"505033"},"geometry":{"type":"Point","coordinates":[100.5430863001138,19.799130440328234]}},{"type":"Feature","properties":{"name_en":"Houaikod","did":505,"pid":5,"uuid":"505034"},"geometry":{"type":"Point","coordinates":[100.5216168901348,19.832781769780556]}},{"type":"Feature","properties":{"name_en":"Chiengtong","did":505,"pid":5,"uuid":"505035"},"geometry":{"type":"Point","coordinates":[100.47345354963608,19.827415089628502]}},{"type":"Feature","properties":{"name_en":"Dongluang","did":505,"pid":5,"uuid":"505036"},"geometry":{"type":"Point","coordinates":[100.51976281020943,19.794008419896297]}},{"type":"Feature","properties":{"name_en":"Mokkarchok","did":505,"pid":5,"uuid":"505037"},"geometry":{"type":"Point","coordinates":[100.69074157005174,19.93874235022554]}},{"type":"Feature","properties":{"name_en":"Phousarthan","did":505,"pid":5,"uuid":"505041"},"geometry":{"type":"Point","coordinates":[100.6916173103504,19.905628469892438]}},{"type":"Feature","properties":{"name_en":"Phakoil","did":505,"pid":5,"uuid":"505043"},"geometry":{"type":"Point","coordinates":[100.70675284965402,20.0648119598501]}},{"type":"Feature","properties":{"name_en":"Houaipharlam","did":505,"pid":5,"uuid":"505044"},"geometry":{"type":"Point","coordinates":[100.7125469996476,20.014015949698507]}},{"type":"Feature","properties":{"name_en":"Donemixay","did":505,"pid":5,"uuid":"505046"},"geometry":{"type":"Point","coordinates":[100.62445294984676,20.120561755670373]}},{"type":"Feature","properties":{"name_en":"Kae","did":505,"pid":5,"uuid":"505048"},"geometry":{"type":"Point","coordinates":[100.64248083021108,19.92616722980312]}},{"type":"Feature","properties":{"name_en":"Phonthong","did":505,"pid":5,"uuid":"505050"},"geometry":{"type":"Point","coordinates":[100.5942281428925,20.115728751286536]}},{"type":"Feature","properties":{"name_en":"Harthsaktheung","did":505,"pid":5,"uuid":"505051"},"geometry":{"type":"Point","coordinates":[100.58765773992396,19.859809879771554]}},{"type":"Feature","properties":{"name_en":"Houaimong","did":505,"pid":5,"uuid":"505053"},"geometry":{"type":"Point","coordinates":[100.69751993041683,19.971229690004265]}},{"type":"Feature","properties":{"name_en":"Houanam","did":505,"pid":5,"uuid":"505055"},"geometry":{"type":"Point","coordinates":[100.53254287040986,19.879972889708103]}},{"type":"Feature","properties":{"name_en":"Houaidaed","did":505,"pid":5,"uuid":"505057"},"geometry":{"type":"Point","coordinates":[100.69790540973088,19.834348759894773]}}]}