{"type":"FeatureCollection","features":[{"type":"Feature","properties":{"name_en":"Xiengthong","did":601,"pid":6,"uuid":"601001"},"geometry":{"type":"Point","coordinates":[102.14254900005004,19.895518999609198]}},{"type":"Feature","properties":{"name_en":"Phonheuang","did":601,"pid":6,"uuid":"601002"},"geometry":{"type":"Point","coordinates":[102.14151992000981,19.89633997961041]}},{"type":"Feature","properties":{"name_en":"Vatsaen","did":601,"pid":6,"uuid":"601004"},"geometry":{"type":"Point","coordinates":[102.14084996021226,19.893989940263186]}},{"type":"Feature","properties":{"name_en":"Vatnong","did":601,"pid":6,"uuid":"601005"},"geometry":{"type":"Point","coordinates":[102.13942998001997,19.895089989662612]}},{"type":"Feature","properties":{"name_en":"Xiengmoun","did":601,"pid":6,"uuid":"601006"},"geometry":{"type":"Point","coordinates":[102.13721991996785,19.893559949681407]}},{"type":"Feature","properties":{"name_en":"Joumkhong","did":601,"pid":6,"uuid":"601007"},"geometry":{"type":"Point","coordinates":[102.13661995014286,19.892349940147415]}},{"type":"Feature","properties":{"name_en":"Phakham","did":601,"pid":6,"uuid":"601008"},"geometry":{"type":"Point","coordinates":[102.13376993005316,19.89064992044305]}},{"type":"Feature","properties":{"name_en":"Khamyong","did":601,"pid":6,"uuid":"601009"},"geometry":{"type":"Point","coordinates":[102.13599063000204,19.88836484985883]}},{"type":"Feature","properties":{"name_en":"Aham","did":601,"pid":6,"uuid":"601010"},"geometry":{"type":"Point","coordinates":[102.13637544996068,19.887505449579198]}},{"type":"Feature","properties":{"name_en":"Aphai","did":601,"pid":6,"uuid":"601011"},"geometry":{"type":"Point","coordinates":[102.13889069019274,19.88932817981702]}},{"type":"Feature","properties":{"name_en":"Visoun","did":601,"pid":6,"uuid":"601012"},"geometry":{"type":"Point","coordinates":[102.13861433975195,19.886908909789046]}},{"type":"Feature","properties":{"name_en":"Meunna","did":601,"pid":6,"uuid":"601013"},"geometry":{"type":"Point","coordinates":[102.14103813023762,19.885294059627697]}},{"type":"Feature","properties":{"name_en":"Thadbosoth","did":601,"pid":6,"uuid":"601014"},"geometry":{"type":"Point","coordinates":[102.14014973046172,19.882830869551217]}},{"type":"Feature","properties":{"name_en":"Viengmay","did":601,"pid":6,"uuid":"601015"},"geometry":{"type":"Point","coordinates":[102.14245082000579,19.88118188992727]}},{"type":"Feature","properties":{"name_en":"Nasangveuy","did":601,"pid":6,"uuid":"601016"},"geometry":{"type":"Point","coordinates":[102.14456314042219,19.87617470999868]}},{"type":"Feature","properties":{"name_en":"Phanom","did":601,"pid":6,"uuid":"601017"},"geometry":{"type":"Point","coordinates":[102.16034994961811,19.88512994004217]}},{"type":"Feature","properties":{"name_en":"Donekheo","did":601,"pid":6,"uuid":"601018"},"geometry":{"type":"Point","coordinates":[102.12515458972958,19.88157969969846]}},{"type":"Feature","properties":{"name_en":"Mueangga","did":601,"pid":6,"uuid":"601019"},"geometry":{"type":"Point","coordinates":[102.14634270000727,19.887255420376654]}},{"type":"Feature","properties":{"name_en":"Phanluang","did":601,"pid":6,"uuid":"601020"},"geometry":{"type":"Point","coordinates":[102.14529554975712,19.889155849578604]}},{"type":"Feature","properties":{"name_en":"Phasouk","did":601,"pid":6,"uuid":"601021"},"geometry":{"type":"Point","coordinates":[102.156822509676,19.890154890204737]}},{"type":"Feature","properties":{"name_en":"Hardhiang","did":601,"pid":6,"uuid":"601022"},"geometry":{"type":"Point","coordinates":[102.16762008009275,19.89724422018236]}},{"type":"Feature","properties":{"name_en":"Tongjalern","did":601,"pid":6,"uuid":"601023"},"geometry":{"type":"Point","coordinates":[102.13359869037853,19.886640519587313]}},{"type":"Feature","properties":{"name_en":"Houaxieng","did":601,"pid":6,"uuid":"601024"},"geometry":{"type":"Point","coordinates":[102.13240243045408,19.88896399023415]}},{"type":"Feature","properties":{"name_en":"Vatthath","did":601,"pid":6,"uuid":"601025"},"geometry":{"type":"Point","coordinates":[102.13126264973558,19.887416599879135]}},{"type":"Feature","properties":{"name_en":"Tatluang","did":601,"pid":6,"uuid":"601026"},"geometry":{"type":"Point","coordinates":[102.13102703954449,19.884439939712106]}},{"type":"Feature","properties":{"name_en":"Pharbath","did":601,"pid":6,"uuid":"601027"},"geometry":{"type":"Point","coordinates":[102.1263800303065,19.8806413403539]}},{"type":"Feature","properties":{"name_en":"Phosi","did":601,"pid":6,"uuid":"601028"},"geometry":{"type":"Point","coordinates":[102.12480415014704,19.87808553982215]}},{"type":"Feature","properties":{"name_en":"Saylom","did":601,"pid":6,"uuid":"601029"},"geometry":{"type":"Point","coordinates":[102.12235738998734,19.87951573980739]}},{"type":"Feature","properties":{"name_en":"Nongkham","did":601,"pid":6,"uuid":"601030"},"geometry":{"type":"Point","coordinates":[102.11797272994903,19.874024419846005]}},{"type":"Feature","properties":{"name_en":"Phonphang","did":601,"pid":6,"uuid":"601031"},"geometry":{"type":"Point","coordinates":[102.1251726202928,19.88158078997687]}},{"type":"Feature","properties":{"name_en":"Pongkham","did":601,"pid":6,"uuid":"601032"},"geometry":{"type":"Point","coordinates":[102.13469596981875,19.8804077401059]}},{"type":"Feature","properties":{"name_en":"Mano","did":601,"pid":6,"uuid":"601033"},"geometry":{"type":"Point","coordinates":[102.13366994001824,19.883129930062307]}},{"type":"Feature","properties":{"name_en":"Viengsay","did":601,"pid":6,"uuid":"601034"},"geometry":{"type":"Point","coordinates":[102.13545997951955,19.88568993038574]}},{"type":"Feature","properties":{"name_en":"Viengkheo","did":601,"pid":6,"uuid":"601035"},"geometry":{"type":"Point","coordinates":[102.13816992979407,19.883849940202026]}},{"type":"Feature","properties":{"name_en":"Naviengkham","did":601,"pid":6,"uuid":"601036"},"geometry":{"type":"Point","coordinates":[102.13964012013854,19.877609860055077]}},{"type":"Feature","properties":{"name_en":"Nasarmphan","did":601,"pid":6,"uuid":"601037"},"geometry":{"type":"Point","coordinates":[102.1341299403596,19.87343994966065]}},{"type":"Feature","properties":{"name_en":"Naluang","did":601,"pid":6,"uuid":"601038"},"geometry":{"type":"Point","coordinates":[102.13268991977911,19.869669939742163]}},{"type":"Feature","properties":{"name_en":"Khouaty 1","did":601,"pid":6,"uuid":"601039"},"geometry":{"type":"Point","coordinates":[102.12886928979374,19.859654320087113]}},{"type":"Feature","properties":{"name_en":"Donekhang","did":601,"pid":6,"uuid":"601040"},"geometry":{"type":"Point","coordinates":[102.14548992954651,19.84717994965619]}},{"type":"Feature","properties":{"name_en":"Mar","did":601,"pid":6,"uuid":"601041"},"geometry":{"type":"Point","coordinates":[102.1248039802124,19.8651018795666]}},{"type":"Feature","properties":{"name_en":"Naxang","did":601,"pid":6,"uuid":"601042"},"geometry":{"type":"Point","coordinates":[102.1264199296118,19.87137993032257]}},{"type":"Feature","properties":{"name_en":"Phoumork","did":601,"pid":6,"uuid":"601043"},"geometry":{"type":"Point","coordinates":[102.11836130981712,19.86506827041119]}},{"type":"Feature","properties":{"name_en":"Khoy","did":601,"pid":6,"uuid":"601044"},"geometry":{"type":"Point","coordinates":[102.128039730305,19.87704006043882]}},{"type":"Feature","properties":{"name_en":"Sangkhalock","did":601,"pid":6,"uuid":"601045"},"geometry":{"type":"Point","coordinates":[102.11326998034193,19.870449959874023]}},{"type":"Feature","properties":{"name_en":"Xiengkheo","did":601,"pid":6,"uuid":"601046"},"geometry":{"type":"Point","coordinates":[102.10287994045373,19.869169960183143]}},{"type":"Feature","properties":{"name_en":"Phonsay","did":601,"pid":6,"uuid":"601047"},"geometry":{"type":"Point","coordinates":[102.09565992966716,19.869459970058788]}},{"type":"Feature","properties":{"name_en":"Jormgoua","did":601,"pid":6,"uuid":"601048"},"geometry":{"type":"Point","coordinates":[102.07357999037932,19.876659940029068]}},{"type":"Feature","properties":{"name_en":"Nadeuoy","did":601,"pid":6,"uuid":"601049"},"geometry":{"type":"Point","coordinates":[102.11130995043125,19.856809919772473]}},{"type":"Feature","properties":{"name_en":"Pongvanh","did":601,"pid":6,"uuid":"601050"},"geometry":{"type":"Point","coordinates":[102.10170998986118,19.8603599895427]}},{"type":"Feature","properties":{"name_en":"Hoieuod","did":601,"pid":6,"uuid":"601051"},"geometry":{"type":"Point","coordinates":[102.08093996987238,19.85634991961713]}},{"type":"Feature","properties":{"name_en":"Lack 8","did":601,"pid":6,"uuid":"601052"},"geometry":{"type":"Point","coordinates":[102.07903996045759,19.846279979684617]}},{"type":"Feature","properties":{"name_en":"Phonsaard","did":601,"pid":6,"uuid":"601053"},"geometry":{"type":"Point","coordinates":[102.14815369976165,19.896671730333974]}},{"type":"Feature","properties":{"name_en":"Xiengleck","did":601,"pid":6,"uuid":"601054"},"geometry":{"type":"Point","coordinates":[102.15042317986918,19.90105932986638]}},{"type":"Feature","properties":{"name_en":"Xangkhong","did":601,"pid":6,"uuid":"601055"},"geometry":{"type":"Point","coordinates":[102.15239335025986,19.90165200981046]}},{"type":"Feature","properties":{"name_en":"Nongsay","did":601,"pid":6,"uuid":"601056"},"geometry":{"type":"Point","coordinates":[102.15538300969651,19.902678879955175]}},{"type":"Feature","properties":{"name_en":"Khomkoang","did":601,"pid":6,"uuid":"601057"},"geometry":{"type":"Point","coordinates":[102.15765718007643,19.90509730973492]}},{"type":"Feature","properties":{"name_en":"Phakhom","did":601,"pid":6,"uuid":"601058"},"geometry":{"type":"Point","coordinates":[102.16295185961786,19.90750584971255]}},{"type":"Feature","properties":{"name_en":"Khokvar","did":601,"pid":6,"uuid":"601059"},"geometry":{"type":"Point","coordinates":[102.16684375028221,19.909183070403863]}},{"type":"Feature","properties":{"name_en":"Donkao","did":601,"pid":6,"uuid":"601060"},"geometry":{"type":"Point","coordinates":[102.1708378898903,19.91459928019834]}},{"type":"Feature","properties":{"name_en":"Donmai","did":601,"pid":6,"uuid":"601061"},"geometry":{"type":"Point","coordinates":[102.1758349298036,19.919249399890337]}},{"type":"Feature","properties":{"name_en":"Phonesay","did":601,"pid":6,"uuid":"601062"},"geometry":{"type":"Point","coordinates":[102.20324124040388,19.929313799602113]}},{"type":"Feature","properties":{"name_en":"Phaoo","did":601,"pid":6,"uuid":"601063"},"geometry":{"type":"Point","coordinates":[102.22189902000092,19.940735230244055]}},{"type":"Feature","properties":{"name_en":"Sanesouk","did":601,"pid":6,"uuid":"601064"},"geometry":{"type":"Point","coordinates":[102.23621733045444,19.94887775015271]}},{"type":"Feature","properties":{"name_en":"Parkseuang","did":601,"pid":6,"uuid":"601065"},"geometry":{"type":"Point","coordinates":[102.24486601168955,19.957779898161572]}},{"type":"Feature","properties":{"name_en":"Viengsavanh","did":601,"pid":6,"uuid":"601066"},"geometry":{"type":"Point","coordinates":[102.24634786016067,19.98001433957245]}},{"type":"Feature","properties":{"name_en":"Phonngam","did":601,"pid":6,"uuid":"601067"},"geometry":{"type":"Point","coordinates":[102.26058670348104,19.960894511524806]}},{"type":"Feature","properties":{"name_en":"Parkpa","did":601,"pid":6,"uuid":"601068"},"geometry":{"type":"Point","coordinates":[102.27029017965762,19.959787209771193]}},{"type":"Feature","properties":{"name_en":"Kockvan","did":601,"pid":6,"uuid":"601069"},"geometry":{"type":"Point","coordinates":[102.29009922020988,19.951620980127164]}},{"type":"Feature","properties":{"name_en":"Nadonekhoun","did":601,"pid":6,"uuid":"601070"},"geometry":{"type":"Point","coordinates":[102.28076235986909,19.939317349880888]}},{"type":"Feature","properties":{"name_en":"Natane","did":601,"pid":6,"uuid":"601071"},"geometry":{"type":"Point","coordinates":[102.2775104398964,19.932730010373497]}},{"type":"Feature","properties":{"name_en":"Borheo","did":601,"pid":6,"uuid":"601072"},"geometry":{"type":"Point","coordinates":[102.31896715960438,19.968589890097903]}},{"type":"Feature","properties":{"name_en":"thaouy","did":601,"pid":6,"uuid":"601074"},"geometry":{"type":"Point","coordinates":[102.3442157200992,19.980115089908573]}},{"type":"Feature","properties":{"name_en":"houay","did":601,"pid":6,"uuid":"601075"},"geometry":{"type":"Point","coordinates":[102.36169474972503,19.985429889928348]}},{"type":"Feature","properties":{"name_en":"Phadang","did":601,"pid":6,"uuid":"601076"},"geometry":{"type":"Point","coordinates":[102.36605728012717,19.99104375001291]}},{"type":"Feature","properties":{"name_en":"Phavieng","did":601,"pid":6,"uuid":"601077"},"geometry":{"type":"Point","coordinates":[102.38040332959028,19.99311960988877]}},{"type":"Feature","properties":{"name_en":"Longlan","did":601,"pid":6,"uuid":"601080"},"geometry":{"type":"Point","coordinates":[102.35270684013742,19.938161399957774]}},{"type":"Feature","properties":{"name_en":"Luck10","did":601,"pid":6,"uuid":"601085"},"geometry":{"type":"Point","coordinates":[102.16888993987219,19.84911994005877]}},{"type":"Feature","properties":{"name_en":"Phonsaard","did":601,"pid":6,"uuid":"601091"},"geometry":{"type":"Point","coordinates":[102.26215999046552,19.880759950451957]}},{"type":"Feature","properties":{"name_en":"Dansavane","did":601,"pid":6,"uuid":"601092"},"geometry":{"type":"Point","coordinates":[102.22826993997502,19.906549980186742]}},{"type":"Feature","properties":{"name_en":"Xienglorm","did":601,"pid":6,"uuid":"601093"},"geometry":{"type":"Point","coordinates":[102.23575993038118,19.873049940397234]}},{"type":"Feature","properties":{"name_en":"Phickyai","did":601,"pid":6,"uuid":"601094"},"geometry":{"type":"Point","coordinates":[102.2282799999192,19.905679929917742]}},{"type":"Feature","properties":{"name_en":"Phicknoy","did":601,"pid":6,"uuid":"601095"},"geometry":{"type":"Point","coordinates":[102.22314994029844,19.892639960125646]}},{"type":"Feature","properties":{"name_en":"noonsavarth","did":601,"pid":6,"uuid":"601096"},"geometry":{"type":"Point","coordinates":[102.1998599798804,19.88111994988852]}},{"type":"Feature","properties":{"name_en":"Kocknguve","did":601,"pid":6,"uuid":"601097"},"geometry":{"type":"Point","coordinates":[102.20116998999032,19.84279998954731]}},{"type":"Feature","properties":{"name_en":"Nasay","did":601,"pid":6,"uuid":"601100"},"geometry":{"type":"Point","coordinates":[102.11629995001965,19.84020997960129]}},{"type":"Feature","properties":{"name_en":"Sarth","did":601,"pid":6,"uuid":"601101"},"geometry":{"type":"Point","coordinates":[102.16449991955278,19.829869979778675]}},{"type":"Feature","properties":{"name_en":"Houaythong","did":601,"pid":6,"uuid":"601102"},"geometry":{"type":"Point","coordinates":[102.12785993952934,19.83193000027615]}},{"type":"Feature","properties":{"name_en":"Xiengmock","did":601,"pid":6,"uuid":"601103"},"geometry":{"type":"Point","coordinates":[102.10563993006102,19.81560992976381]}},{"type":"Feature","properties":{"name_en":"Parnor","did":601,"pid":6,"uuid":"601104"},"geometry":{"type":"Point","coordinates":[102.07850000008368,19.79758992990093]}},{"type":"Feature","properties":{"name_en":"Teenpha","did":601,"pid":6,"uuid":"601105"},"geometry":{"type":"Point","coordinates":[102.07044993953836,19.79181998994005]}},{"type":"Feature","properties":{"name_en":"Nongtok","did":601,"pid":6,"uuid":"601106"},"geometry":{"type":"Point","coordinates":[102.0619999698993,19.786349960023813]}},{"type":"Feature","properties":{"name_en":"Nasao","did":601,"pid":6,"uuid":"601107"},"geometry":{"type":"Point","coordinates":[102.05109997956635,19.824699940242905]}},{"type":"Feature","properties":{"name_en":"Napho","did":601,"pid":6,"uuid":"601108"},"geometry":{"type":"Point","coordinates":[102.04522995952281,19.821690000421434]}},{"type":"Feature","properties":{"name_en":"Sing","did":601,"pid":6,"uuid":"601109"},"geometry":{"type":"Point","coordinates":[102.01005999960283,19.831589939816634]}},{"type":"Feature","properties":{"name_en":"Tinsom","did":601,"pid":6,"uuid":"601110"},"geometry":{"type":"Point","coordinates":[102.00093999024887,19.806249940344646]}},{"type":"Feature","properties":{"name_en":"Mueangkay","did":601,"pid":6,"uuid":"601111"},"geometry":{"type":"Point","coordinates":[101.9824999699132,19.792379989683166]}},{"type":"Feature","properties":{"name_en":"ou","did":601,"pid":6,"uuid":"601112"},"geometry":{"type":"Point","coordinates":[101.97736999030337,19.778099989828807]}},{"type":"Feature","properties":{"name_en":"Parksee","did":601,"pid":6,"uuid":"601113"},"geometry":{"type":"Point","coordinates":[101.96731991970798,19.76838998014195]}},{"type":"Feature","properties":{"name_en":"Khokmane","did":601,"pid":6,"uuid":"601114"},"geometry":{"type":"Point","coordinates":[101.9563799400765,19.76026991990428]}},{"type":"Feature","properties":{"name_en":"Tharpain","did":601,"pid":6,"uuid":"601115"},"geometry":{"type":"Point","coordinates":[101.99723996019598,19.753679990368916]}},{"type":"Feature","properties":{"name_en":"Teenkeo","did":601,"pid":6,"uuid":"601116"},"geometry":{"type":"Point","coordinates":[101.99282999037881,19.797329920385135]}},{"type":"Feature","properties":{"name_en":"Nonsaarth","did":601,"pid":6,"uuid":"601117"},"geometry":{"type":"Point","coordinates":[102.0053299198012,19.809889950391437]}},{"type":"Feature","properties":{"name_en":"Nonghaeo","did":601,"pid":6,"uuid":"601118"},"geometry":{"type":"Point","coordinates":[102.01780999027856,19.77873994989109]}},{"type":"Feature","properties":{"name_en":"Longlao 1","did":601,"pid":6,"uuid":"601119"},"geometry":{"type":"Point","coordinates":[102.03686994037987,19.76873991981085]}},{"type":"Feature","properties":{"name_en":"Longlao 2","did":601,"pid":6,"uuid":"601120"},"geometry":{"type":"Point","coordinates":[102.03547995996635,19.763919989832846]}},{"type":"Feature","properties":{"name_en":"Naouan","did":601,"pid":6,"uuid":"601121"},"geometry":{"type":"Point","coordinates":[102.02984992046007,19.829249970078557]}},{"type":"Feature","properties":{"name_en":"Yang","did":601,"pid":6,"uuid":"601122"},"geometry":{"type":"Point","coordinates":[101.9571299596514,19.70066998004807]}},{"type":"Feature","properties":{"name_en":"Sainkhalork","did":601,"pid":6,"uuid":"601126"},"geometry":{"type":"Point","coordinates":[101.89526409294395,19.700948870943968]}},{"type":"Feature","properties":{"name_en":"Parkpor","did":601,"pid":6,"uuid":"601127"},"geometry":{"type":"Point","coordinates":[101.86264691121383,19.671896191379552]}},{"type":"Feature","properties":{"name_en":"Nongsay","did":601,"pid":6,"uuid":"601128"},"geometry":{"type":"Point","coordinates":[101.85117994023193,19.666839949941398]}},{"type":"Feature","properties":{"name_en":"Khorkpa","did":601,"pid":6,"uuid":"601129"},"geometry":{"type":"Point","coordinates":[101.81480993969275,19.648789939594987]}},{"type":"Feature","properties":{"name_en":"Phouchangkham","did":601,"pid":6,"uuid":"601133"},"geometry":{"type":"Point","coordinates":[102.20943859855122,19.931832946168996]}},{"type":"Feature","properties":{"name_en":"Phoulekchalern","did":601,"pid":6,"uuid":"601134"},"geometry":{"type":"Point","coordinates":[102.21578291519812,19.935110970954913]}},{"type":"Feature","properties":{"name_en":"Nongbouakham","did":601,"pid":6,"uuid":"601135"},"geometry":{"type":"Point","coordinates":[101.90978996964579,19.72642992039506]}}]}