{"type":"FeatureCollection","features":[{"type":"Feature","properties":{"name_en":"Ansavane","did":602,"pid":6,"uuid":"602001"},"geometry":{"type":"Point","coordinates":[102.21300893010041,19.834302579990112]}},{"type":"Feature","properties":{"name_en":"Longor","did":602,"pid":6,"uuid":"602003"},"geometry":{"type":"Point","coordinates":[102.203181560102,19.815527539591123]}},{"type":"Feature","properties":{"name_en":"Souandala","did":602,"pid":6,"uuid":"602004"},"geometry":{"type":"Point","coordinates":[102.21013913046461,19.8205751999388]}},{"type":"Feature","properties":{"name_en":"Houayfay","did":602,"pid":6,"uuid":"602006"},"geometry":{"type":"Point","coordinates":[102.24351997019315,19.834529979870396]}},{"type":"Feature","properties":{"name_en":"Souanluang","did":602,"pid":6,"uuid":"602007"},"geometry":{"type":"Point","coordinates":[102.19839683975017,19.805947099952267]}},{"type":"Feature","properties":{"name_en":"Bouamor","did":602,"pid":6,"uuid":"602013"},"geometry":{"type":"Point","coordinates":[102.19604999016858,19.792189969871842]}},{"type":"Feature","properties":{"name_en":"Houaiyen1","did":602,"pid":6,"uuid":"602015"},"geometry":{"type":"Point","coordinates":[102.1961738700936,19.792107069988617]}},{"type":"Feature","properties":{"name_en":"Mouth","did":602,"pid":6,"uuid":"602016"},"geometry":{"type":"Point","coordinates":[102.18718990027628,19.790014870116583]}},{"type":"Feature","properties":{"name_en":"Parkveath","did":602,"pid":6,"uuid":"602017"},"geometry":{"type":"Point","coordinates":[102.17889658987647,19.76712397042855]}},{"type":"Feature","properties":{"name_en":"Houaithao","did":602,"pid":6,"uuid":"602018"},"geometry":{"type":"Point","coordinates":[102.15811994985975,19.787439950068592]}},{"type":"Feature","properties":{"name_en":"Parkkhan","did":602,"pid":6,"uuid":"602019"},"geometry":{"type":"Point","coordinates":[102.18044724045603,19.761232579624338]}},{"type":"Feature","properties":{"name_en":"Parkthor","did":602,"pid":6,"uuid":"602020"},"geometry":{"type":"Point","coordinates":[102.1656932501586,19.759726520268654]}},{"type":"Feature","properties":{"name_en":"Nakhar","did":602,"pid":6,"uuid":"602021"},"geometry":{"type":"Point","coordinates":[102.16389591953927,19.74520689030001]}},{"type":"Feature","properties":{"name_en":"Nongkhouay","did":602,"pid":6,"uuid":"602022"},"geometry":{"type":"Point","coordinates":[102.07420846045436,19.724275260229387]}},{"type":"Feature","properties":{"name_en":"Longsan","did":602,"pid":6,"uuid":"602023"},"geometry":{"type":"Point","coordinates":[102.16066996993908,19.773489939761866]}},{"type":"Feature","properties":{"name_en":"Houaiphang","did":602,"pid":6,"uuid":"602024"},"geometry":{"type":"Point","coordinates":[102.09559589971384,19.735783620330167]}},{"type":"Feature","properties":{"name_en":"Houaikhork","did":602,"pid":6,"uuid":"602025"},"geometry":{"type":"Point","coordinates":[102.1543786904101,19.73068456978552]}},{"type":"Feature","properties":{"name_en":"Phonsavang","did":602,"pid":6,"uuid":"602027"},"geometry":{"type":"Point","coordinates":[102.14231997997697,19.711809949661976]}},{"type":"Feature","properties":{"name_en":"Phonsay","did":602,"pid":6,"uuid":"602028"},"geometry":{"type":"Point","coordinates":[102.12775684039225,19.695252930428698]}},{"type":"Feature","properties":{"name_en":"Houaikhong","did":602,"pid":6,"uuid":"602029"},"geometry":{"type":"Point","coordinates":[102.16028340038282,19.759530970405862]}},{"type":"Feature","properties":{"name_en":"Xiengkgern","did":602,"pid":6,"uuid":"602030"},"geometry":{"type":"Point","coordinates":[102.18293037999213,19.757488720261737]}},{"type":"Feature","properties":{"name_en":"Donemo","did":602,"pid":6,"uuid":"602031"},"geometry":{"type":"Point","coordinates":[102.19297634024497,19.762258029554857]}},{"type":"Feature","properties":{"name_en":"Houaiheer","did":602,"pid":6,"uuid":"602034"},"geometry":{"type":"Point","coordinates":[102.19975520964543,19.721888350395574]}},{"type":"Feature","properties":{"name_en":"Kuvejaluang","did":602,"pid":6,"uuid":"602035"},"geometry":{"type":"Point","coordinates":[102.21072527962082,19.714658960373352]}},{"type":"Feature","properties":{"name_en":"Phoukhoua","did":602,"pid":6,"uuid":"602036"},"geometry":{"type":"Point","coordinates":[102.24351084009466,19.708331540103973]}},{"type":"Feature","properties":{"name_en":"Kuveyar","did":602,"pid":6,"uuid":"602037"},"geometry":{"type":"Point","coordinates":[102.1893050697548,19.709995099800842]}},{"type":"Feature","properties":{"name_en":"Kuvemarknow","did":602,"pid":6,"uuid":"602038"},"geometry":{"type":"Point","coordinates":[102.20017179009875,19.680005319700765]}},{"type":"Feature","properties":{"name_en":"Sainoudom","did":602,"pid":6,"uuid":"602043"},"geometry":{"type":"Point","coordinates":[102.15450994961921,19.686749990316795]}},{"type":"Feature","properties":{"name_en":"Theenkeo","did":602,"pid":6,"uuid":"602045"},"geometry":{"type":"Point","coordinates":[102.117990920426,19.682901940337352]}},{"type":"Feature","properties":{"name_en":"Ber 10","did":602,"pid":6,"uuid":"602046"},"geometry":{"type":"Point","coordinates":[102.097240089908,19.657483820078227]}},{"type":"Feature","properties":{"name_en":"Ber 11","did":602,"pid":6,"uuid":"602047"},"geometry":{"type":"Point","coordinates":[102.08442951996055,19.647223699720147]}},{"type":"Feature","properties":{"name_en":"Silaleck","did":602,"pid":6,"uuid":"602053"},"geometry":{"type":"Point","coordinates":[102.05199684027238,19.617964899950223]}},{"type":"Feature","properties":{"name_en":"Parkfane","did":602,"pid":6,"uuid":"602065"},"geometry":{"type":"Point","coordinates":[102.35939602638575,19.79719145142966]}},{"type":"Feature","properties":{"name_en":"Kouanamming","did":602,"pid":6,"uuid":"602090"},"geometry":{"type":"Point","coordinates":[102.18728998015419,19.63809999991236]}},{"type":"Feature","properties":{"name_en":"Parksanane","did":602,"pid":6,"uuid":"602091"},"geometry":{"type":"Point","coordinates":[102.14321994007102,19.607009919794123]}},{"type":"Feature","properties":{"name_en":"Houaihao","did":602,"pid":6,"uuid":"602092"},"geometry":{"type":"Point","coordinates":[102.16637998042394,19.590919940106637]}},{"type":"Feature","properties":{"name_en":"Kuvetaloon","did":602,"pid":6,"uuid":"602093"},"geometry":{"type":"Point","coordinates":[102.19828996973781,19.60844993981592]}},{"type":"Feature","properties":{"name_en":"Poodam","did":602,"pid":6,"uuid":"602095"},"geometry":{"type":"Point","coordinates":[102.22596994964105,19.561429969688835]}},{"type":"Feature","properties":{"name_en":"Kuvekajam","did":602,"pid":6,"uuid":"602096"},"geometry":{"type":"Point","coordinates":[102.2314299196116,19.556869970203152]}},{"type":"Feature","properties":{"name_en":"Kuvetaloon1","did":602,"pid":6,"uuid":"602097"},"geometry":{"type":"Point","coordinates":[102.22785997989946,19.58727992970636]}},{"type":"Feature","properties":{"name_en":"Nongoun","did":602,"pid":6,"uuid":"602099"},"geometry":{"type":"Point","coordinates":[102.27052999042759,19.5637999601221]}},{"type":"Feature","properties":{"name_en":"Kuvekamporm","did":602,"pid":6,"uuid":"602100"},"geometry":{"type":"Point","coordinates":[102.32651993041449,19.557339940345617]}},{"type":"Feature","properties":{"name_en":"Pootharth","did":602,"pid":6,"uuid":"602104"},"geometry":{"type":"Point","coordinates":[102.2314599203786,19.557339940420164]}},{"type":"Feature","properties":{"name_en":"Phasanine","did":602,"pid":6,"uuid":"602105"},"geometry":{"type":"Point","coordinates":[102.35483000028391,19.594280000438427]}},{"type":"Feature","properties":{"name_en":"Kuvemailor","did":602,"pid":6,"uuid":"602106"},"geometry":{"type":"Point","coordinates":[102.29964998045682,19.557989960357226]}},{"type":"Feature","properties":{"name_en":"Longkao","did":602,"pid":6,"uuid":"602109"},"geometry":{"type":"Point","coordinates":[102.17521995020435,19.55087992019485]}},{"type":"Feature","properties":{"name_en":"Huoixieng","did":602,"pid":6,"uuid":"602113"},"geometry":{"type":"Point","coordinates":[102.19642281961112,19.826697340074222]}},{"type":"Feature","properties":{"name_en":"Phouxang","did":602,"pid":6,"uuid":"602114"},"geometry":{"type":"Point","coordinates":[102.37179999958825,19.65067000028236]}},{"type":"Feature","properties":{"name_en":"Samukkheexai","did":602,"pid":6,"uuid":"602115"},"geometry":{"type":"Point","coordinates":[102.18500999994502,19.76439000001574]}}]}