{"type":"FeatureCollection","features":[{"type":"Feature","properties":{"name_en":"Simoungkhoune","did":603,"pid":6,"uuid":"603001"},"geometry":{"type":"Point","coordinates":[101.87846453961753,19.494317670136823]}},{"type":"Feature","properties":{"name_en":"Sibounhueang","did":603,"pid":6,"uuid":"603002"},"geometry":{"type":"Point","coordinates":[101.87745326027455,19.496231420195326]}},{"type":"Feature","properties":{"name_en":"Parphai","did":603,"pid":6,"uuid":"603003"},"geometry":{"type":"Point","coordinates":[101.8813992901729,19.497183359571515]}},{"type":"Feature","properties":{"name_en":"Phonhin","did":603,"pid":6,"uuid":"603004"},"geometry":{"type":"Point","coordinates":[101.87961697027485,19.49644021983448]}},{"type":"Feature","properties":{"name_en":"Tharth","did":603,"pid":6,"uuid":"603005"},"geometry":{"type":"Point","coordinates":[101.86769160953385,19.493324410381334]}},{"type":"Feature","properties":{"name_en":"Phon","did":603,"pid":6,"uuid":"603006"},"geometry":{"type":"Point","coordinates":[101.86269701039856,19.493643430299798]}},{"type":"Feature","properties":{"name_en":"Nakuea","did":603,"pid":6,"uuid":"603007"},"geometry":{"type":"Point","coordinates":[101.86413458980951,19.48246943032764]}},{"type":"Feature","properties":{"name_en":"Parkkhone","did":603,"pid":6,"uuid":"603009"},"geometry":{"type":"Point","coordinates":[101.84177846022672,19.433679459722992]}},{"type":"Feature","properties":{"name_en":"Houailar","did":603,"pid":6,"uuid":"603010"},"geometry":{"type":"Point","coordinates":[101.87200595005811,19.44272982030614]}},{"type":"Feature","properties":{"name_en":"Thongphiengvilay","did":603,"pid":6,"uuid":"603011"},"geometry":{"type":"Point","coordinates":[101.83959094964058,19.450655829653908]}},{"type":"Feature","properties":{"name_en":"Sivilay","did":603,"pid":6,"uuid":"603012"},"geometry":{"type":"Point","coordinates":[101.85777725022221,19.472219280307012]}},{"type":"Feature","properties":{"name_en":"Donethoom","did":603,"pid":6,"uuid":"603013"},"geometry":{"type":"Point","coordinates":[101.87769708956564,19.48709414010422]}},{"type":"Feature","properties":{"name_en":"Parfurm","did":603,"pid":6,"uuid":"603014"},"geometry":{"type":"Point","coordinates":[101.88447805013637,19.483235370250156]}},{"type":"Feature","properties":{"name_en":"Nalao","did":603,"pid":6,"uuid":"603016"},"geometry":{"type":"Point","coordinates":[101.88037804035629,19.509222789980438]}},{"type":"Feature","properties":{"name_en":"Nafai","did":603,"pid":6,"uuid":"603017"},"geometry":{"type":"Point","coordinates":[101.89239098961237,19.515489599641818]}},{"type":"Feature","properties":{"name_en":"fayyouak","did":603,"pid":6,"uuid":"603018"},"geometry":{"type":"Point","coordinates":[101.9453113901222,19.522222200216312]}},{"type":"Feature","properties":{"name_en":"Houaiheer","did":603,"pid":6,"uuid":"603020"},"geometry":{"type":"Point","coordinates":[101.88078666010338,19.551710320043128]}},{"type":"Feature","properties":{"name_en":"Phaneep","did":603,"pid":6,"uuid":"603021"},"geometry":{"type":"Point","coordinates":[101.96255932967574,19.528007299929584]}},{"type":"Feature","properties":{"name_en":"Pongdong","did":603,"pid":6,"uuid":"603023"},"geometry":{"type":"Point","coordinates":[101.97697922981523,19.522502400110284]}},{"type":"Feature","properties":{"name_en":"Nameungyai","did":603,"pid":6,"uuid":"603024"},"geometry":{"type":"Point","coordinates":[102.01366556048346,19.50724976963661]}},{"type":"Feature","properties":{"name_en":"Nameungkang","did":603,"pid":6,"uuid":"603025"},"geometry":{"type":"Point","coordinates":[102.0115865102716,19.48685449986847]}},{"type":"Feature","properties":{"name_en":"Houaylard","did":603,"pid":6,"uuid":"603027"},"geometry":{"type":"Point","coordinates":[102.0097591702404,19.445903119736755]}},{"type":"Feature","properties":{"name_en":"Thongkhang","did":603,"pid":6,"uuid":"603028"},"geometry":{"type":"Point","coordinates":[101.96546726985636,19.58315435994364]}},{"type":"Feature","properties":{"name_en":"Phatonglom","did":603,"pid":6,"uuid":"603029"},"geometry":{"type":"Point","coordinates":[101.9619081402562,19.588649200291837]}},{"type":"Feature","properties":{"name_en":"Dan","did":603,"pid":6,"uuid":"603030"},"geometry":{"type":"Point","coordinates":[101.99884401034437,19.564291389687057]}},{"type":"Feature","properties":{"name_en":"Huoyhoy","did":603,"pid":6,"uuid":"603031"},"geometry":{"type":"Point","coordinates":[101.99732411965628,19.54966270033869]}},{"type":"Feature","properties":{"name_en":"Namphak","did":603,"pid":6,"uuid":"603032"},"geometry":{"type":"Point","coordinates":[102.00688752977446,19.576341880377225]}},{"type":"Feature","properties":{"name_en":"Huoymae","did":603,"pid":6,"uuid":"603033"},"geometry":{"type":"Point","coordinates":[102.00643072041781,19.579403959778443]}},{"type":"Feature","properties":{"name_en":"Huay oun","did":603,"pid":6,"uuid":"603035"},"geometry":{"type":"Point","coordinates":[101.95204860013015,19.622961110023407]}},{"type":"Feature","properties":{"name_en":"Touhor","did":603,"pid":6,"uuid":"603036"},"geometry":{"type":"Point","coordinates":[101.94446682996833,19.639802440205454]}},{"type":"Feature","properties":{"name_en":"Thalie","did":603,"pid":6,"uuid":"603039"},"geometry":{"type":"Point","coordinates":[101.91868041037601,19.543625050255688]}},{"type":"Feature","properties":{"name_en":"Phakouang","did":603,"pid":6,"uuid":"603041"},"geometry":{"type":"Point","coordinates":[101.92388355974818,19.59678660028421]}},{"type":"Feature","properties":{"name_en":"Houaysala","did":603,"pid":6,"uuid":"603042"},"geometry":{"type":"Point","coordinates":[102.02330911011028,19.589703139548202]}},{"type":"Feature","properties":{"name_en":"Khoktom","did":603,"pid":6,"uuid":"603043"},"geometry":{"type":"Point","coordinates":[101.82107867981397,19.53731222016135]}},{"type":"Feature","properties":{"name_en":"Hatxaikam","did":603,"pid":6,"uuid":"603045"},"geometry":{"type":"Point","coordinates":[101.8120621004246,19.56126970965185]}},{"type":"Feature","properties":{"name_en":"Khorlae","did":603,"pid":6,"uuid":"603046"},"geometry":{"type":"Point","coordinates":[101.80404506012606,19.603983140414293]}},{"type":"Feature","properties":{"name_en":"Nalin","did":603,"pid":6,"uuid":"603047"},"geometry":{"type":"Point","coordinates":[101.83120963009658,19.56985009989969]}},{"type":"Feature","properties":{"name_en":"Nanouan","did":603,"pid":6,"uuid":"603048"},"geometry":{"type":"Point","coordinates":[101.88362091974302,19.613034750076125]}},{"type":"Feature","properties":{"name_en":"Phoujong","did":603,"pid":6,"uuid":"603049"},"geometry":{"type":"Point","coordinates":[101.84939827977956,19.57682174957753]}},{"type":"Feature","properties":{"name_en":"Houaykhong","did":603,"pid":6,"uuid":"603051"},"geometry":{"type":"Point","coordinates":[101.83104743985646,19.64142266992413]}},{"type":"Feature","properties":{"name_en":"Pakmouan","did":603,"pid":6,"uuid":"603054"},"geometry":{"type":"Point","coordinates":[101.89772129997182,19.414994499994563]}},{"type":"Feature","properties":{"name_en":"Paklane","did":603,"pid":6,"uuid":"603055"},"geometry":{"type":"Point","coordinates":[101.89311049997163,19.394626499994533]}},{"type":"Feature","properties":{"name_en":"Keomany","did":603,"pid":6,"uuid":"603057"},"geometry":{"type":"Point","coordinates":[101.89471142997637,19.442346010368045]}},{"type":"Feature","properties":{"name_en":"Phonsai","did":603,"pid":6,"uuid":"603059"},"geometry":{"type":"Point","coordinates":[101.92962565999464,19.40026809992805]}},{"type":"Feature","properties":{"name_en":"Phonsi","did":603,"pid":6,"uuid":"603065"},"geometry":{"type":"Point","coordinates":[101.90531672038523,19.30502336031458]}},{"type":"Feature","properties":{"name_en":"Phonesavan","did":603,"pid":6,"uuid":"603066"},"geometry":{"type":"Point","coordinates":[101.84906967349505,19.351378796021972]}},{"type":"Feature","properties":{"name_en":"Houayfucknow","did":603,"pid":6,"uuid":"603067"},"geometry":{"type":"Point","coordinates":[101.90116743025116,19.3612830296221]}},{"type":"Feature","properties":{"name_en":"Pakbor","did":603,"pid":6,"uuid":"603072"},"geometry":{"type":"Point","coordinates":[101.80946806012014,19.108965620147526]}},{"type":"Feature","properties":{"name_en":"Pakphee","did":603,"pid":6,"uuid":"603073"},"geometry":{"type":"Point","coordinates":[101.80202216971702,19.03932884966946]}},{"type":"Feature","properties":{"name_en":"Kang","did":603,"pid":6,"uuid":"603075"},"geometry":{"type":"Point","coordinates":[101.84869068017046,19.255927790088563]}},{"type":"Feature","properties":{"name_en":"Houayhip","did":603,"pid":6,"uuid":"603078"},"geometry":{"type":"Point","coordinates":[101.83332530980316,19.308512250367944]}}]}