{"type":"FeatureCollection","features":[{"type":"Feature","properties":{"name_en":"Houaykang","did":604,"pid":6,"uuid":"604001"},"geometry":{"type":"Point","coordinates":[102.42201972965732,20.312621750226295]}},{"type":"Feature","properties":{"name_en":"Hadkae","did":604,"pid":6,"uuid":"604002"},"geometry":{"type":"Point","coordinates":[102.42543301011834,20.297065189727125]}},{"type":"Feature","properties":{"name_en":"Kiad","did":604,"pid":6,"uuid":"604003"},"geometry":{"type":"Point","coordinates":[102.4199272696905,20.291743859808413]}},{"type":"Feature","properties":{"name_en":"Thadpang","did":604,"pid":6,"uuid":"604009"},"geometry":{"type":"Point","coordinates":[102.39292898970848,20.27800960019962]}},{"type":"Feature","properties":{"name_en":"Houaymark","did":604,"pid":6,"uuid":"604013"},"geometry":{"type":"Point","coordinates":[102.3325318499142,20.286301909965694]}},{"type":"Feature","properties":{"name_en":"Houaylae","did":604,"pid":6,"uuid":"604014"},"geometry":{"type":"Point","coordinates":[102.31485039004706,20.274119400385686]}},{"type":"Feature","properties":{"name_en":"Khokhan","did":604,"pid":6,"uuid":"604015"},"geometry":{"type":"Point","coordinates":[102.37479013037385,20.259215619929325]}},{"type":"Feature","properties":{"name_en":"Houaypaen","did":604,"pid":6,"uuid":"604016"},"geometry":{"type":"Point","coordinates":[102.35543347001028,20.255312999835954]}},{"type":"Feature","properties":{"name_en":"Latkork","did":604,"pid":6,"uuid":"604017"},"geometry":{"type":"Point","coordinates":[102.35632832002058,20.250717120304238]}},{"type":"Feature","properties":{"name_en":"Fai","did":604,"pid":6,"uuid":"604019"},"geometry":{"type":"Point","coordinates":[102.34282347969875,20.241537929724874]}},{"type":"Feature","properties":{"name_en":"Houaylueang","did":604,"pid":6,"uuid":"604021"},"geometry":{"type":"Point","coordinates":[102.33671206980267,20.225699989902992]}},{"type":"Feature","properties":{"name_en":"Hatxoi","did":604,"pid":6,"uuid":"604022"},"geometry":{"type":"Point","coordinates":[102.33078974977143,20.209972270367125]}},{"type":"Feature","properties":{"name_en":"Parkjeng","did":604,"pid":6,"uuid":"604023"},"geometry":{"type":"Point","coordinates":[102.3289619902144,20.19793594035962]}},{"type":"Feature","properties":{"name_en":"Yanang","did":604,"pid":6,"uuid":"604026"},"geometry":{"type":"Point","coordinates":[102.41727423044283,20.195350380257857]}},{"type":"Feature","properties":{"name_en":"Bouakkhoay","did":604,"pid":6,"uuid":"604027"},"geometry":{"type":"Point","coordinates":[102.47758923006387,20.183671119772978]}},{"type":"Feature","properties":{"name_en":"Phapin","did":604,"pid":6,"uuid":"604029"},"geometry":{"type":"Point","coordinates":[102.40053398009907,20.150209640307356]}},{"type":"Feature","properties":{"name_en":"Houayorth","did":604,"pid":6,"uuid":"604030"},"geometry":{"type":"Point","coordinates":[102.38368860996584,20.146337869964203]}},{"type":"Feature","properties":{"name_en":"Houayleun","did":604,"pid":6,"uuid":"604033"},"geometry":{"type":"Point","coordinates":[102.33771596994686,20.095101049896144]}},{"type":"Feature","properties":{"name_en":"Khonekham","did":604,"pid":6,"uuid":"604034"},"geometry":{"type":"Point","coordinates":[102.3133636097759,20.141945670388903]}},{"type":"Feature","properties":{"name_en":"Phatheung","did":604,"pid":6,"uuid":"604037"},"geometry":{"type":"Point","coordinates":[102.29999380021151,20.1274676098015]}},{"type":"Feature","properties":{"name_en":"Latthahae","did":604,"pid":6,"uuid":"604038"},"geometry":{"type":"Point","coordinates":[102.31558975976716,20.176379870331758]}},{"type":"Feature","properties":{"name_en":"Houaykhar","did":604,"pid":6,"uuid":"604039"},"geometry":{"type":"Point","coordinates":[102.28558984030437,20.197111330372607]}},{"type":"Feature","properties":{"name_en":"Nasavang","did":604,"pid":6,"uuid":"604040"},"geometry":{"type":"Point","coordinates":[102.25997934975656,20.206497130205808]}},{"type":"Feature","properties":{"name_en":"Houaykork","did":604,"pid":6,"uuid":"604041"},"geometry":{"type":"Point","coordinates":[102.23904530026516,20.219061690101373]}},{"type":"Feature","properties":{"name_en":"Nanoy","did":604,"pid":6,"uuid":"604043"},"geometry":{"type":"Point","coordinates":[102.22321883970885,20.258225630047686]}},{"type":"Feature","properties":{"name_en":"Houaykeun","did":604,"pid":6,"uuid":"604044"},"geometry":{"type":"Point","coordinates":[102.20258887956523,20.222171289688983]}},{"type":"Feature","properties":{"name_en":"Mokjok","did":604,"pid":6,"uuid":"604046"},"geometry":{"type":"Point","coordinates":[102.27185222994716,20.168788289756627]}},{"type":"Feature","properties":{"name_en":"Houaykor","did":604,"pid":6,"uuid":"604048"},"geometry":{"type":"Point","coordinates":[102.26576320007999,20.11885252022129]}},{"type":"Feature","properties":{"name_en":"Houaylonork","did":604,"pid":6,"uuid":"604050"},"geometry":{"type":"Point","coordinates":[102.31499976023238,20.15862824960572]}},{"type":"Feature","properties":{"name_en":"Hartkor","did":604,"pid":6,"uuid":"604051"},"geometry":{"type":"Point","coordinates":[102.27811728968615,20.103177269880632]}},{"type":"Feature","properties":{"name_en":"Somsanook","did":604,"pid":6,"uuid":"604052"},"geometry":{"type":"Point","coordinates":[102.26090194997522,20.081928389612386]}},{"type":"Feature","properties":{"name_en":"Hartya","did":604,"pid":6,"uuid":"604053"},"geometry":{"type":"Point","coordinates":[102.25966696036033,20.08631991959904]}},{"type":"Feature","properties":{"name_en":"Houaykhang","did":604,"pid":6,"uuid":"604055"},"geometry":{"type":"Point","coordinates":[102.1683735298665,20.11093245981169]}},{"type":"Feature","properties":{"name_en":"Kokkam","did":604,"pid":6,"uuid":"604057"},"geometry":{"type":"Point","coordinates":[102.16109142010868,20.08676859980509]}},{"type":"Feature","properties":{"name_en":"Khok","did":604,"pid":6,"uuid":"604059"},"geometry":{"type":"Point","coordinates":[102.2078683003677,20.058324360203464]}},{"type":"Feature","properties":{"name_en":"Vanglae","did":604,"pid":6,"uuid":"604060"},"geometry":{"type":"Point","coordinates":[102.24533440977545,20.079751020333315]}},{"type":"Feature","properties":{"name_en":"Houaymarth","did":604,"pid":6,"uuid":"604061"},"geometry":{"type":"Point","coordinates":[102.2670575300089,20.041694420213712]}},{"type":"Feature","properties":{"name_en":"Parkou","did":604,"pid":6,"uuid":"604062"},"geometry":{"type":"Point","coordinates":[102.21397108019012,20.054103489785316]}},{"type":"Feature","properties":{"name_en":"Xanghay","did":604,"pid":6,"uuid":"604063"},"geometry":{"type":"Point","coordinates":[102.23155823958302,20.004012309871463]}},{"type":"Feature","properties":{"name_en":"Thartkhang","did":604,"pid":6,"uuid":"604064"},"geometry":{"type":"Point","coordinates":[102.30325251985008,20.045716050342683]}},{"type":"Feature","properties":{"name_en":"Khialouang","did":604,"pid":6,"uuid":"604065"},"geometry":{"type":"Point","coordinates":[102.30241750986778,20.03557947987116]}},{"type":"Feature","properties":{"name_en":"Laesivilay","did":604,"pid":6,"uuid":"604066"},"geometry":{"type":"Point","coordinates":[102.29336924957893,20.024923069698346]}},{"type":"Feature","properties":{"name_en":"Phonhorm","did":604,"pid":6,"uuid":"604067"},"geometry":{"type":"Point","coordinates":[102.28471207976531,20.006917899941495]}},{"type":"Feature","properties":{"name_en":"Phonsavang","did":604,"pid":6,"uuid":"604070"},"geometry":{"type":"Point","coordinates":[102.27808475983558,19.993681540424028]}},{"type":"Feature","properties":{"name_en":"Siaw","did":604,"pid":6,"uuid":"604073"},"geometry":{"type":"Point","coordinates":[102.27362115011238,19.96668668997074]}},{"type":"Feature","properties":{"name_en":"Thinjaleun","did":604,"pid":6,"uuid":"604074"},"geometry":{"type":"Point","coordinates":[102.26992423002281,19.968864730000824]}},{"type":"Feature","properties":{"name_en":"Thatmarth","did":604,"pid":6,"uuid":"604075"},"geometry":{"type":"Point","coordinates":[102.23806478001708,20.055506960204298]}},{"type":"Feature","properties":{"name_en":"Thartkam","did":604,"pid":6,"uuid":"604076"},"geometry":{"type":"Point","coordinates":[102.2441849100007,20.08565506999982]}},{"type":"Feature","properties":{"name_en":"Nonsavane","did":604,"pid":6,"uuid":"604078"},"geometry":{"type":"Point","coordinates":[102.23109000027955,20.13036999991916]}},{"type":"Feature","properties":{"name_en":"Nonsavane","did":604,"pid":6,"uuid":"604079"},"geometry":{"type":"Point","coordinates":[102.33771244975424,20.271955439958564]}},{"type":"Feature","properties":{"name_en":"Phadang","did":604,"pid":6,"uuid":"604080"},"geometry":{"type":"Point","coordinates":[102.35519994953651,20.12011995036373]}}]}