{"type":"FeatureCollection","features":[{"type":"Feature","properties":{"name_en":"Phathong","did":605,"pid":6,"uuid":"605002"},"geometry":{"type":"Point","coordinates":[102.51920127045446,20.87322565037152]}},{"type":"Feature","properties":{"name_en":"Lankang","did":605,"pid":6,"uuid":"605012"},"geometry":{"type":"Point","coordinates":[102.51884202028394,20.786104980368734]}},{"type":"Feature","properties":{"name_en":"Bouam","did":605,"pid":6,"uuid":"605015"},"geometry":{"type":"Point","coordinates":[102.54946698042178,20.881766970038196]}},{"type":"Feature","properties":{"name_en":"kingkang","did":605,"pid":6,"uuid":"605021"},"geometry":{"type":"Point","coordinates":[102.5638629896063,20.84595965036658]}},{"type":"Feature","properties":{"name_en":"Parkkan","did":605,"pid":6,"uuid":"605023"},"geometry":{"type":"Point","coordinates":[102.5842345303813,20.85240164965519]}},{"type":"Feature","properties":{"name_en":"Kanloum","did":605,"pid":6,"uuid":"605024"},"geometry":{"type":"Point","coordinates":[102.5713202804132,20.825258529613176]}},{"type":"Feature","properties":{"name_en":"Kantheung","did":605,"pid":6,"uuid":"605025"},"geometry":{"type":"Point","coordinates":[102.53751522953046,20.796329650136272]}},{"type":"Feature","properties":{"name_en":"Douantay","did":605,"pid":6,"uuid":"605031"},"geometry":{"type":"Point","coordinates":[102.6090731297926,20.871680109962]}},{"type":"Feature","properties":{"name_en":"Pungjong","did":605,"pid":6,"uuid":"605034"},"geometry":{"type":"Point","coordinates":[102.52824375046075,20.774298820068502]}},{"type":"Feature","properties":{"name_en":"Yalo","did":605,"pid":6,"uuid":"605040"},"geometry":{"type":"Point","coordinates":[102.25429483039333,20.605786110260905]}},{"type":"Feature","properties":{"name_en":"Houaykong","did":605,"pid":6,"uuid":"605045"},"geometry":{"type":"Point","coordinates":[102.5335522603934,20.756539829883245]}},{"type":"Feature","properties":{"name_en":"Vienghinsung","did":605,"pid":6,"uuid":"605046"},"geometry":{"type":"Point","coordinates":[102.55627527041266,20.714630570054076]}},{"type":"Feature","properties":{"name_en":"Namay","did":605,"pid":6,"uuid":"605047"},"geometry":{"type":"Point","coordinates":[102.50753425043543,20.73013172041374]}},{"type":"Feature","properties":{"name_en":"Phonhorm1","did":605,"pid":6,"uuid":"605050"},"geometry":{"type":"Point","coordinates":[102.39570741975422,20.639730640167816]}},{"type":"Feature","properties":{"name_en":"Donelao","did":605,"pid":6,"uuid":"605051"},"geometry":{"type":"Point","coordinates":[102.31957199997468,20.60556876000221]}},{"type":"Feature","properties":{"name_en":"Houayheedloum","did":605,"pid":6,"uuid":"605053"},"geometry":{"type":"Point","coordinates":[102.47704189013385,20.693358559621625]}},{"type":"Feature","properties":{"name_en":"Nagnangnuea","did":605,"pid":6,"uuid":"605054"},"geometry":{"type":"Point","coordinates":[102.49194902033847,20.703205779590547]}},{"type":"Feature","properties":{"name_en":"Houayhar","did":605,"pid":6,"uuid":"605056"},"geometry":{"type":"Point","coordinates":[102.50322502966813,20.689370109835153]}},{"type":"Feature","properties":{"name_en":"Nagnangtay","did":605,"pid":6,"uuid":"605057"},"geometry":{"type":"Point","coordinates":[102.4891710095913,20.698761949854948]}},{"type":"Feature","properties":{"name_en":"Houayyan","did":605,"pid":6,"uuid":"605058"},"geometry":{"type":"Point","coordinates":[102.48219928008939,20.664787829804528]}},{"type":"Feature","properties":{"name_en":"Phonsai 1","did":605,"pid":6,"uuid":"605059"},"geometry":{"type":"Point","coordinates":[102.44182439991194,20.62228471007566]}},{"type":"Feature","properties":{"name_en":"Parkmong","did":605,"pid":6,"uuid":"605060"},"geometry":{"type":"Point","coordinates":[102.40789337035288,20.576708529989098]}},{"type":"Feature","properties":{"name_en":"Vanghin","did":605,"pid":6,"uuid":"605062"},"geometry":{"type":"Point","coordinates":[102.37673021011281,20.575002309622793]}},{"type":"Feature","properties":{"name_en":"Nammong","did":605,"pid":6,"uuid":"605064"},"geometry":{"type":"Point","coordinates":[102.35485435957109,20.570808089708763]}},{"type":"Feature","properties":{"name_en":"Namjerth","did":605,"pid":6,"uuid":"605065"},"geometry":{"type":"Point","coordinates":[102.3158138101854,20.575919630003508]}},{"type":"Feature","properties":{"name_en":"Markphouk","did":605,"pid":6,"uuid":"605066"},"geometry":{"type":"Point","coordinates":[102.27703066033253,20.57947882964318]}},{"type":"Feature","properties":{"name_en":"Xongjar","did":605,"pid":6,"uuid":"605067"},"geometry":{"type":"Point","coordinates":[102.24767002012631,20.56602243986711]}},{"type":"Feature","properties":{"name_en":"Kang","did":605,"pid":6,"uuid":"605071"},"geometry":{"type":"Point","coordinates":[102.3112302495834,20.527855779814097]}},{"type":"Feature","properties":{"name_en":"Vangkham","did":605,"pid":6,"uuid":"605073"},"geometry":{"type":"Point","coordinates":[102.42208962997525,20.583549420323568]}},{"type":"Feature","properties":{"name_en":"Khorng","did":605,"pid":6,"uuid":"605074"},"geometry":{"type":"Point","coordinates":[102.45203339044613,20.628219850130794]}},{"type":"Feature","properties":{"name_en":"Namla","did":605,"pid":6,"uuid":"605075"},"geometry":{"type":"Point","coordinates":[102.45509077968987,20.637347069898645]}},{"type":"Feature","properties":{"name_en":"Viengkham","did":605,"pid":6,"uuid":"605080"},"geometry":{"type":"Point","coordinates":[102.5736633601135,20.60629236986211]}},{"type":"Feature","properties":{"name_en":"NaKhone","did":605,"pid":6,"uuid":"605081"},"geometry":{"type":"Point","coordinates":[102.55906945996985,20.601595990367702]}},{"type":"Feature","properties":{"name_en":"ly","did":605,"pid":6,"uuid":"605082"},"geometry":{"type":"Point","coordinates":[102.52585004988234,20.616642940014188]}},{"type":"Feature","properties":{"name_en":"Donekham","did":605,"pid":6,"uuid":"605083"},"geometry":{"type":"Point","coordinates":[102.514108759978,20.62534979995765]}},{"type":"Feature","properties":{"name_en":"Bom","did":605,"pid":6,"uuid":"605084"},"geometry":{"type":"Point","coordinates":[102.48193339967703,20.636635700370995]}},{"type":"Feature","properties":{"name_en":"Phonsaat","did":605,"pid":6,"uuid":"605085"},"geometry":{"type":"Point","coordinates":[102.46292550982925,20.631268940140906]}},{"type":"Feature","properties":{"name_en":"Far","did":605,"pid":6,"uuid":"605086"},"geometry":{"type":"Point","coordinates":[102.45841613046788,20.629725409775748]}},{"type":"Feature","properties":{"name_en":"Thalytai","did":605,"pid":6,"uuid":"605087"},"geometry":{"type":"Point","coordinates":[102.4566594495814,20.616352839606513]}},{"type":"Feature","properties":{"name_en":"Thalynuea","did":605,"pid":6,"uuid":"605088"},"geometry":{"type":"Point","coordinates":[102.46049241044734,20.62526681976088]}},{"type":"Feature","properties":{"name_en":"Nakork","did":605,"pid":6,"uuid":"605089"},"geometry":{"type":"Point","coordinates":[102.39854746003164,20.559067809815865]}},{"type":"Feature","properties":{"name_en":"Phouker","did":605,"pid":6,"uuid":"605092"},"geometry":{"type":"Point","coordinates":[102.2581260299948,20.507321630395385]}},{"type":"Feature","properties":{"name_en":"Longjork","did":605,"pid":6,"uuid":"605093"},"geometry":{"type":"Point","coordinates":[102.24143354970238,20.503084659971805]}},{"type":"Feature","properties":{"name_en":"Kiewjaly","did":605,"pid":6,"uuid":"605095"},"geometry":{"type":"Point","coordinates":[102.17267402956617,20.498909550370815]}},{"type":"Feature","properties":{"name_en":"Tharbou","did":605,"pid":6,"uuid":"605098"},"geometry":{"type":"Point","coordinates":[102.37259433017294,20.535751870390246]}},{"type":"Feature","properties":{"name_en":"Phonxieng","did":605,"pid":6,"uuid":"605099"},"geometry":{"type":"Point","coordinates":[102.38214266007301,20.54290532011942]}},{"type":"Feature","properties":{"name_en":"Mokluck","did":605,"pid":6,"uuid":"605101"},"geometry":{"type":"Point","coordinates":[102.52895982017706,20.54449880023189]}},{"type":"Feature","properties":{"name_en":"Huoinhang","did":605,"pid":6,"uuid":"605102"},"geometry":{"type":"Point","coordinates":[102.52410669962421,20.576549110120872]}},{"type":"Feature","properties":{"name_en":"Houayver","did":605,"pid":6,"uuid":"605106"},"geometry":{"type":"Point","coordinates":[102.45021996994232,20.51024993015434]}},{"type":"Feature","properties":{"name_en":"Namkham 2","did":605,"pid":6,"uuid":"605109"},"geometry":{"type":"Point","coordinates":[102.37063154045592,20.530000119686438]}},{"type":"Feature","properties":{"name_en":"Phonsavanh","did":605,"pid":6,"uuid":"605117"},"geometry":{"type":"Point","coordinates":[102.36214259957109,20.504724750419093]}},{"type":"Feature","properties":{"name_en":"Phonmany","did":605,"pid":6,"uuid":"605118"},"geometry":{"type":"Point","coordinates":[102.36590708020377,20.491783090443764]}},{"type":"Feature","properties":{"name_en":"Namthouamnuea","did":605,"pid":6,"uuid":"605119"},"geometry":{"type":"Point","coordinates":[102.35812992999878,20.49650268994761]}},{"type":"Feature","properties":{"name_en":"Xang","did":605,"pid":6,"uuid":"605120"},"geometry":{"type":"Point","coordinates":[102.34372905963711,20.48343522038857]}},{"type":"Feature","properties":{"name_en":"Nongnuea","did":605,"pid":6,"uuid":"605122"},"geometry":{"type":"Point","coordinates":[102.24101370015273,20.42779680969692]}},{"type":"Feature","properties":{"name_en":"Sainloung","did":605,"pid":6,"uuid":"605123"},"geometry":{"type":"Point","coordinates":[102.18298695993856,20.40040526001048]}},{"type":"Feature","properties":{"name_en":"Pongtai","did":605,"pid":6,"uuid":"605125"},"geometry":{"type":"Point","coordinates":[102.26296699955405,20.400335000012102]}},{"type":"Feature","properties":{"name_en":"Houaykhuea","did":605,"pid":6,"uuid":"605129"},"geometry":{"type":"Point","coordinates":[102.39448139989356,20.484334339570623]}},{"type":"Feature","properties":{"name_en":"Phalouang","did":605,"pid":6,"uuid":"605130"},"geometry":{"type":"Point","coordinates":[102.38876696026713,20.470894459556213]}},{"type":"Feature","properties":{"name_en":"Phonsavang","did":605,"pid":6,"uuid":"605132"},"geometry":{"type":"Point","coordinates":[102.33886604966203,20.47124424003768]}},{"type":"Feature","properties":{"name_en":"Namkhar","did":605,"pid":6,"uuid":"605133"},"geometry":{"type":"Point","coordinates":[102.34802654991098,20.457580399552995]}},{"type":"Feature","properties":{"name_en":"Xiengda","did":605,"pid":6,"uuid":"605134"},"geometry":{"type":"Point","coordinates":[102.33618594025555,20.45245335010655]}},{"type":"Feature","properties":{"name_en":"Houana","did":605,"pid":6,"uuid":"605135"},"geometry":{"type":"Point","coordinates":[102.33744330990498,20.463439349550086]}},{"type":"Feature","properties":{"name_en":"Kiewha","did":605,"pid":6,"uuid":"605136"},"geometry":{"type":"Point","coordinates":[102.3073308198832,20.441042819821607]}},{"type":"Feature","properties":{"name_en":"Thongtheung","did":605,"pid":6,"uuid":"605137"},"geometry":{"type":"Point","coordinates":[102.23071258999506,20.371294240110636]}},{"type":"Feature","properties":{"name_en":"Laolow","did":605,"pid":6,"uuid":"605138"},"geometry":{"type":"Point","coordinates":[102.17870406004002,20.36856516994419]}},{"type":"Feature","properties":{"name_en":"Houaygnim","did":605,"pid":6,"uuid":"605140"},"geometry":{"type":"Point","coordinates":[102.21946952983727,20.326297159954645]}},{"type":"Feature","properties":{"name_en":"Phoukou","did":605,"pid":6,"uuid":"605141"},"geometry":{"type":"Point","coordinates":[102.36825995973943,20.42822999025253]}},{"type":"Feature","properties":{"name_en":"Naxiengdy","did":605,"pid":6,"uuid":"605142"},"geometry":{"type":"Point","coordinates":[102.3294301199986,20.43535761955439]}},{"type":"Feature","properties":{"name_en":"Mueangtang","did":605,"pid":6,"uuid":"605146"},"geometry":{"type":"Point","coordinates":[102.19145000044972,20.290199989770596]}},{"type":"Feature","properties":{"name_en":"Korknang","did":605,"pid":6,"uuid":"605147"},"geometry":{"type":"Point","coordinates":[102.25092472015065,20.29395358001803]}},{"type":"Feature","properties":{"name_en":"Nongkeo","did":605,"pid":6,"uuid":"605148"},"geometry":{"type":"Point","coordinates":[102.28388362045973,20.3311881697016]}},{"type":"Feature","properties":{"name_en":"Simungkhun","did":605,"pid":6,"uuid":"605150"},"geometry":{"type":"Point","coordinates":[102.31871997976488,20.358373950214602]}},{"type":"Feature","properties":{"name_en":"Namgna","did":605,"pid":6,"uuid":"605153"},"geometry":{"type":"Point","coordinates":[102.32532198980248,20.372395870394133]}},{"type":"Feature","properties":{"name_en":"Sibounheuang","did":605,"pid":6,"uuid":"605154"},"geometry":{"type":"Point","coordinates":[102.34596442993826,20.36666625018142]}},{"type":"Feature","properties":{"name_en":"Mae","did":605,"pid":6,"uuid":"605157"},"geometry":{"type":"Point","coordinates":[102.37606511024977,20.372154049863283]}},{"type":"Feature","properties":{"name_en":"Houayhia","did":605,"pid":6,"uuid":"605159"},"geometry":{"type":"Point","coordinates":[102.36784295984795,20.34563404980841]}},{"type":"Feature","properties":{"name_en":"Houayhok","did":605,"pid":6,"uuid":"605160"},"geometry":{"type":"Point","coordinates":[102.39366425017043,20.35914693029877]}},{"type":"Feature","properties":{"name_en":"Naham","did":605,"pid":6,"uuid":"605161"},"geometry":{"type":"Point","coordinates":[102.41137336969585,20.348702660238985]}},{"type":"Feature","properties":{"name_en":"Namthouamtai","did":605,"pid":6,"uuid":"605164"},"geometry":{"type":"Point","coordinates":[102.35311344030144,20.490350119690543]}},{"type":"Feature","properties":{"name_en":"Lak 50","did":605,"pid":6,"uuid":"605165"},"geometry":{"type":"Point","coordinates":[102.21439528973191,20.559082389771373]}}]}