{"type":"FeatureCollection","features":[{"type":"Feature","properties":{"name_en":"Hardsa","did":606,"pid":6,"uuid":"606033"},"geometry":{"type":"Point","coordinates":[102.7633519495611,20.927559660240743]}},{"type":"Feature","properties":{"name_en":"Houaylorsung","did":606,"pid":6,"uuid":"606035"},"geometry":{"type":"Point","coordinates":[102.7000855097748,20.93592370998965]}},{"type":"Feature","properties":{"name_en":"Houaylortheung","did":606,"pid":6,"uuid":"606038"},"geometry":{"type":"Point","coordinates":[102.69212814977448,20.95129587043305]}},{"type":"Feature","properties":{"name_en":"Parklong","did":606,"pid":6,"uuid":"606039"},"geometry":{"type":"Point","coordinates":[102.75609673990473,20.9439413302182]}},{"type":"Feature","properties":{"name_en":"Jaengkang","did":606,"pid":6,"uuid":"606041"},"geometry":{"type":"Point","coordinates":[102.74940227988476,20.99184877020025]}},{"type":"Feature","properties":{"name_en":"Vangngou","did":606,"pid":6,"uuid":"606052"},"geometry":{"type":"Point","coordinates":[102.639338249783,20.921917210083734]}},{"type":"Feature","properties":{"name_en":"Sobkhing","did":606,"pid":6,"uuid":"606055"},"geometry":{"type":"Point","coordinates":[102.71621086955383,20.859584100101234]}},{"type":"Feature","properties":{"name_en":"Phonsana","did":606,"pid":6,"uuid":"606059"},"geometry":{"type":"Point","coordinates":[102.76557156011845,20.889342039651414]}},{"type":"Feature","properties":{"name_en":"Hardkham","did":606,"pid":6,"uuid":"606061"},"geometry":{"type":"Point","coordinates":[102.68731978960552,20.826360670396646]}},{"type":"Feature","properties":{"name_en":"Phonxai","did":606,"pid":6,"uuid":"606062"},"geometry":{"type":"Point","coordinates":[102.76909949999563,20.870521199999096]}},{"type":"Feature","properties":{"name_en":"Phon","did":606,"pid":6,"uuid":"606063"},"geometry":{"type":"Point","coordinates":[102.77558231976465,20.707562359960356]}},{"type":"Feature","properties":{"name_en":"Phonkham","did":606,"pid":6,"uuid":"606064"},"geometry":{"type":"Point","coordinates":[102.80591893990275,20.765349880103535]}},{"type":"Feature","properties":{"name_en":"Don","did":606,"pid":6,"uuid":"606067"},"geometry":{"type":"Point","coordinates":[102.82916757031833,20.677222550161037]}},{"type":"Feature","properties":{"name_en":"Xang","did":606,"pid":6,"uuid":"606068"},"geometry":{"type":"Point","coordinates":[102.79446397973074,20.732264750407968]}},{"type":"Feature","properties":{"name_en":"Houayna","did":606,"pid":6,"uuid":"606069"},"geometry":{"type":"Point","coordinates":[102.84628845001907,20.683750719683818]}},{"type":"Feature","properties":{"name_en":"Hadjun","did":606,"pid":6,"uuid":"606076"},"geometry":{"type":"Point","coordinates":[102.6630960001047,20.68065845965618]}},{"type":"Feature","properties":{"name_en":"Sobkong","did":606,"pid":6,"uuid":"606077"},"geometry":{"type":"Point","coordinates":[102.66017256009972,20.652097629715065]}},{"type":"Feature","properties":{"name_en":"Kiewkhan","did":606,"pid":6,"uuid":"606078"},"geometry":{"type":"Point","coordinates":[102.7217899999876,20.76570000032187]}},{"type":"Feature","properties":{"name_en":"Viengxai","did":606,"pid":6,"uuid":"606080"},"geometry":{"type":"Point","coordinates":[102.65736404030201,20.67499606992712]}},{"type":"Feature","properties":{"name_en":"Hadsapheui","did":606,"pid":6,"uuid":"606081"},"geometry":{"type":"Point","coordinates":[102.65957032040099,20.78444896983832]}},{"type":"Feature","properties":{"name_en":"Meuangngoy","did":606,"pid":6,"uuid":"606085"},"geometry":{"type":"Point","coordinates":[102.67514315005079,20.710277849802413]}},{"type":"Feature","properties":{"name_en":"Nakang","did":606,"pid":6,"uuid":"606086"},"geometry":{"type":"Point","coordinates":[102.71101844024291,20.69572753039869]}},{"type":"Feature","properties":{"name_en":"Houaybo","did":606,"pid":6,"uuid":"606087"},"geometry":{"type":"Point","coordinates":[102.71203457992094,20.678887699586145]}},{"type":"Feature","properties":{"name_en":"Houaysain","did":606,"pid":6,"uuid":"606088"},"geometry":{"type":"Point","coordinates":[102.72217559955371,20.714339720126432]}},{"type":"Feature","properties":{"name_en":"Phayong","did":606,"pid":6,"uuid":"606090"},"geometry":{"type":"Point","coordinates":[102.61860317973388,20.66656144033074]}},{"type":"Feature","properties":{"name_en":"Sobjaim","did":606,"pid":6,"uuid":"606092"},"geometry":{"type":"Point","coordinates":[102.65079706957488,20.77777388021264]}},{"type":"Feature","properties":{"name_en":"Donelorm","did":606,"pid":6,"uuid":"606093"},"geometry":{"type":"Point","coordinates":[102.65668174980425,20.803318559686293]}},{"type":"Feature","properties":{"name_en":"Houaylan","did":606,"pid":6,"uuid":"606094"},"geometry":{"type":"Point","coordinates":[102.66955282967434,20.591699559962954]}},{"type":"Feature","properties":{"name_en":"Mokdu","did":606,"pid":6,"uuid":"606095"},"geometry":{"type":"Point","coordinates":[102.67676571017392,20.589933580021007]}},{"type":"Feature","properties":{"name_en":"Chormgning","did":606,"pid":6,"uuid":"606096"},"geometry":{"type":"Point","coordinates":[102.81060467015001,20.601506309794253]}},{"type":"Feature","properties":{"name_en":"Hoauythong","did":606,"pid":6,"uuid":"606098"},"geometry":{"type":"Point","coordinates":[102.8173032397238,20.629792719776418]}},{"type":"Feature","properties":{"name_en":"Kiewkan","did":606,"pid":6,"uuid":"606103"},"geometry":{"type":"Point","coordinates":[102.80095828028317,20.58002408025214]}},{"type":"Feature","properties":{"name_en":"Hinpaen","did":606,"pid":6,"uuid":"606104"},"geometry":{"type":"Point","coordinates":[102.76732404975178,20.467132249983475]}},{"type":"Feature","properties":{"name_en":"Laosao","did":606,"pid":6,"uuid":"606105"},"geometry":{"type":"Point","coordinates":[102.71748407961948,20.41843917005597]}},{"type":"Feature","properties":{"name_en":"Houaykeung","did":606,"pid":6,"uuid":"606106"},"geometry":{"type":"Point","coordinates":[102.73073955011506,20.44337533002252]}},{"type":"Feature","properties":{"name_en":"Phouvieng","did":606,"pid":6,"uuid":"606107"},"geometry":{"type":"Point","coordinates":[102.75201114958344,20.45176787985449]}},{"type":"Feature","properties":{"name_en":"Houayxaew","did":606,"pid":6,"uuid":"606108"},"geometry":{"type":"Point","coordinates":[102.79855702958575,20.527290000091504]}},{"type":"Feature","properties":{"name_en":"Longkham","did":606,"pid":6,"uuid":"606109"},"geometry":{"type":"Point","coordinates":[102.71198186024078,20.524597400396214]}},{"type":"Feature","properties":{"name_en":"Houaylak","did":606,"pid":6,"uuid":"606110"},"geometry":{"type":"Point","coordinates":[102.66994561041822,20.533945739649305]}},{"type":"Feature","properties":{"name_en":"Houaypung","did":606,"pid":6,"uuid":"606112"},"geometry":{"type":"Point","coordinates":[102.70774816039143,20.53504427014243]}},{"type":"Feature","properties":{"name_en":"Phoulouang","did":606,"pid":6,"uuid":"606114"},"geometry":{"type":"Point","coordinates":[102.73690579013301,20.5208034197681]}},{"type":"Feature","properties":{"name_en":"Phoutipheung","did":606,"pid":6,"uuid":"606115"},"geometry":{"type":"Point","coordinates":[102.7863901900585,20.518432590391114]}},{"type":"Feature","properties":{"name_en":"Pakbak","did":606,"pid":6,"uuid":"606116"},"geometry":{"type":"Point","coordinates":[102.58484808987146,20.585355220121343]}},{"type":"Feature","properties":{"name_en":"Nongien","did":606,"pid":6,"uuid":"606117"},"geometry":{"type":"Point","coordinates":[102.64664081978127,20.544956960111396]}},{"type":"Feature","properties":{"name_en":"Sopvan","did":606,"pid":6,"uuid":"606119"},"geometry":{"type":"Point","coordinates":[102.64837336041661,20.608147290237802]}},{"type":"Feature","properties":{"name_en":"Hadxao","did":606,"pid":6,"uuid":"606121"},"geometry":{"type":"Point","coordinates":[102.6359945400657,20.584674109674523]}},{"type":"Feature","properties":{"name_en":"Sobhoune","did":606,"pid":6,"uuid":"606122"},"geometry":{"type":"Point","coordinates":[102.61667877962142,20.56903807996727]}},{"type":"Feature","properties":{"name_en":"Hadhouan","did":606,"pid":6,"uuid":"606123"},"geometry":{"type":"Point","coordinates":[102.57291385043847,20.550049390067198]}},{"type":"Feature","properties":{"name_en":"Nongkhiawneua","did":606,"pid":6,"uuid":"606124"},"geometry":{"type":"Point","coordinates":[102.609049239974,20.571519630386536]}},{"type":"Feature","properties":{"name_en":"Lad aen","did":606,"pid":6,"uuid":"606125"},"geometry":{"type":"Point","coordinates":[102.57694630000864,20.488262350000532]}},{"type":"Feature","properties":{"name_en":"Thaenkhaen","did":606,"pid":6,"uuid":"606126"},"geometry":{"type":"Point","coordinates":[102.52705159990201,20.463772359861714]}},{"type":"Feature","properties":{"name_en":"Nongkham","did":606,"pid":6,"uuid":"606127"},"geometry":{"type":"Point","coordinates":[102.51333755047357,20.446887439976763]}},{"type":"Feature","properties":{"name_en":"Houaykung","did":606,"pid":6,"uuid":"606130"},"geometry":{"type":"Point","coordinates":[102.55156966980061,20.45628354958672]}},{"type":"Feature","properties":{"name_en":"Donekhoun","did":606,"pid":6,"uuid":"606131"},"geometry":{"type":"Point","coordinates":[102.57334376007303,20.51109675021911]}},{"type":"Feature","properties":{"name_en":"Houayhang","did":606,"pid":6,"uuid":"606133"},"geometry":{"type":"Point","coordinates":[102.57674706045384,20.501686980092416]}},{"type":"Feature","properties":{"name_en":"Houaykhaen","did":606,"pid":6,"uuid":"606134"},"geometry":{"type":"Point","coordinates":[102.50093174016871,20.48695879969552]}},{"type":"Feature","properties":{"name_en":"Katangxieng","did":606,"pid":6,"uuid":"606138"},"geometry":{"type":"Point","coordinates":[102.60472200020013,20.407905049965272]}},{"type":"Feature","properties":{"name_en":"Toupnai","did":606,"pid":6,"uuid":"606139"},"geometry":{"type":"Point","coordinates":[102.61894198022344,20.475114159975277]}},{"type":"Feature","properties":{"name_en":"Donengeun","did":606,"pid":6,"uuid":"606141"},"geometry":{"type":"Point","coordinates":[102.42635409024246,20.333794440093254]}},{"type":"Feature","properties":{"name_en":"Khoneking","did":606,"pid":6,"uuid":"606142"},"geometry":{"type":"Point","coordinates":[102.49595682987541,20.43073533983682]}},{"type":"Feature","properties":{"name_en":"Pakjim","did":606,"pid":6,"uuid":"606146"},"geometry":{"type":"Point","coordinates":[102.49134519012173,20.43392935014777]}},{"type":"Feature","properties":{"name_en":"Hadkhip","did":606,"pid":6,"uuid":"606148"},"geometry":{"type":"Point","coordinates":[102.42377000045062,20.353610000030045]}},{"type":"Feature","properties":{"name_en":"Hadphang","did":606,"pid":6,"uuid":"606149"},"geometry":{"type":"Point","coordinates":[102.4618536999909,20.399264499998168]}},{"type":"Feature","properties":{"name_en":"Paknga","did":606,"pid":6,"uuid":"606150"},"geometry":{"type":"Point","coordinates":[102.42049296045997,20.345499180040594]}},{"type":"Feature","properties":{"name_en":"Houayphang","did":606,"pid":6,"uuid":"606153"},"geometry":{"type":"Point","coordinates":[102.45194294980715,20.40208842981751]}},{"type":"Feature","properties":{"name_en":"Houaypha","did":606,"pid":6,"uuid":"606157"},"geometry":{"type":"Point","coordinates":[102.4914019401756,20.359311549880125]}},{"type":"Feature","properties":{"name_en":"Nalae","did":606,"pid":6,"uuid":"606158"},"geometry":{"type":"Point","coordinates":[102.44257768958634,20.333930389855237]}},{"type":"Feature","properties":{"name_en":"Phousoung","did":606,"pid":6,"uuid":"606159"},"geometry":{"type":"Point","coordinates":[102.54309481038528,20.297971440293235]}},{"type":"Feature","properties":{"name_en":"Meuangxeun","did":606,"pid":6,"uuid":"606160"},"geometry":{"type":"Point","coordinates":[102.43480942038724,20.32351411968505]}},{"type":"Feature","properties":{"name_en":"Houaylae","did":606,"pid":6,"uuid":"606161"},"geometry":{"type":"Point","coordinates":[102.46517890021758,20.339646260052184]}},{"type":"Feature","properties":{"name_en":"Mai","did":606,"pid":6,"uuid":"606162"},"geometry":{"type":"Point","coordinates":[102.47098530017085,20.318530659913403]}},{"type":"Feature","properties":{"name_en":"Houayngone","did":606,"pid":6,"uuid":"606165"},"geometry":{"type":"Point","coordinates":[102.81924826019494,20.65024699035031]}},{"type":"Feature","properties":{"name_en":"Houayhoy","did":606,"pid":6,"uuid":"606166"},"geometry":{"type":"Point","coordinates":[102.6572555796946,20.643329990296905]}},{"type":"Feature","properties":{"name_en":"Moklaeb","did":606,"pid":6,"uuid":"606167"},"geometry":{"type":"Point","coordinates":[102.74428319989276,20.920739389779687]}},{"type":"Feature","properties":{"name_en":"Phonesavanh","did":606,"pid":6,"uuid":"606169"},"geometry":{"type":"Point","coordinates":[102.81166038028147,20.740941280283213]}},{"type":"Feature","properties":{"name_en":"Houyjim","did":606,"pid":6,"uuid":"606170"},"geometry":{"type":"Point","coordinates":[102.4675847601001,20.454720910018487]}},{"type":"Feature","properties":{"name_en":"Mokluck","did":606,"pid":6,"uuid":"606171"},"geometry":{"type":"Point","coordinates":[102.59436221999863,20.402678090321924]}}]}