{"type":"FeatureCollection","features":[{"type":"Feature","properties":{"name_en":"Ngiew","did":607,"pid":6,"uuid":"607003"},"geometry":{"type":"Point","coordinates":[102.92025194992169,20.11221724007475]}},{"type":"Feature","properties":{"name_en":"Hadkeo","did":607,"pid":6,"uuid":"607006"},"geometry":{"type":"Point","coordinates":[102.75660544006942,20.31791089971436]}},{"type":"Feature","properties":{"name_en":"Mouangkham","did":607,"pid":6,"uuid":"607007"},"geometry":{"type":"Point","coordinates":[102.75345551992268,20.296291960145457]}},{"type":"Feature","properties":{"name_en":"Namai","did":607,"pid":6,"uuid":"607009"},"geometry":{"type":"Point","coordinates":[102.62289722995239,20.30308959995299]}},{"type":"Feature","properties":{"name_en":"Phonthong","did":607,"pid":6,"uuid":"607011"},"geometry":{"type":"Point","coordinates":[102.70641057996637,20.283787329642635]}},{"type":"Feature","properties":{"name_en":"Hadkhaen","did":607,"pid":6,"uuid":"607013"},"geometry":{"type":"Point","coordinates":[102.7367087299202,20.272361210274756]}},{"type":"Feature","properties":{"name_en":"Hadyen","did":607,"pid":6,"uuid":"607014"},"geometry":{"type":"Point","coordinates":[102.73585561999025,20.263911160400824]}},{"type":"Feature","properties":{"name_en":"Phabak","did":607,"pid":6,"uuid":"607016"},"geometry":{"type":"Point","coordinates":[102.63776077995838,20.276473119906473]}},{"type":"Feature","properties":{"name_en":"Hadteun","did":607,"pid":6,"uuid":"607018"},"geometry":{"type":"Point","coordinates":[102.7350049404193,20.249690929987864]}},{"type":"Feature","properties":{"name_en":"Vangphom","did":607,"pid":6,"uuid":"607023"},"geometry":{"type":"Point","coordinates":[102.71184816998674,20.179427780146316]}},{"type":"Feature","properties":{"name_en":"Bormpasang","did":607,"pid":6,"uuid":"607024"},"geometry":{"type":"Point","coordinates":[102.68223666982838,20.173211839562473]}},{"type":"Feature","properties":{"name_en":"Pakxaeng","did":607,"pid":6,"uuid":"607025"},"geometry":{"type":"Point","coordinates":[102.6701566704509,20.165528400075114]}},{"type":"Feature","properties":{"name_en":"Hadpha ot","did":607,"pid":6,"uuid":"607026"},"geometry":{"type":"Point","coordinates":[102.6164772803757,20.160605460248643]}},{"type":"Feature","properties":{"name_en":"Donekhoun","did":607,"pid":6,"uuid":"607027"},"geometry":{"type":"Point","coordinates":[102.60199217995334,20.2060022697714]}},{"type":"Feature","properties":{"name_en":"Sobjaek","did":607,"pid":6,"uuid":"607028"},"geometry":{"type":"Point","coordinates":[102.55775978968346,20.135007380397887]}},{"type":"Feature","properties":{"name_en":"Sobjo","did":607,"pid":6,"uuid":"607029"},"geometry":{"type":"Point","coordinates":[102.76415132960548,20.327233340416758]}},{"type":"Feature","properties":{"name_en":"Houaypho","did":607,"pid":6,"uuid":"607030"},"geometry":{"type":"Point","coordinates":[102.523717610453,20.1237668299145]}},{"type":"Feature","properties":{"name_en":"Hadhid","did":607,"pid":6,"uuid":"607032"},"geometry":{"type":"Point","coordinates":[102.48956680044418,20.122495130247856]}},{"type":"Feature","properties":{"name_en":"Houasakhing","did":607,"pid":6,"uuid":"607033"},"geometry":{"type":"Point","coordinates":[102.4731912503785,20.112644960028884]}},{"type":"Feature","properties":{"name_en":"Hadhouay","did":607,"pid":6,"uuid":"607036"},"geometry":{"type":"Point","coordinates":[102.4168070196937,20.09607822035584]}},{"type":"Feature","properties":{"name_en":"Pakkeng","did":607,"pid":6,"uuid":"607038"},"geometry":{"type":"Point","coordinates":[102.39452734018217,20.074226600117996]}},{"type":"Feature","properties":{"name_en":"Hadsangorn","did":607,"pid":6,"uuid":"607039"},"geometry":{"type":"Point","coordinates":[102.36894626973528,20.053925539580103]}},{"type":"Feature","properties":{"name_en":"Houakaeng","did":607,"pid":6,"uuid":"607040"},"geometry":{"type":"Point","coordinates":[102.34821304963174,20.051142499607714]}},{"type":"Feature","properties":{"name_en":"Napho","did":607,"pid":6,"uuid":"607054"},"geometry":{"type":"Point","coordinates":[102.54564399990862,20.129247169912073]}},{"type":"Feature","properties":{"name_en":"Hadsam","did":607,"pid":6,"uuid":"607055"},"geometry":{"type":"Point","coordinates":[102.59370290044693,20.16506094032244]}},{"type":"Feature","properties":{"name_en":"Vangngeun","did":607,"pid":6,"uuid":"607058"},"geometry":{"type":"Point","coordinates":[102.6278832103186,20.147658770141078]}},{"type":"Feature","properties":{"name_en":"Houaython","did":607,"pid":6,"uuid":"607059"},"geometry":{"type":"Point","coordinates":[102.65833533007026,20.112719899802023]}},{"type":"Feature","properties":{"name_en":"Hadngam","did":607,"pid":6,"uuid":"607061"},"geometry":{"type":"Point","coordinates":[102.68464194037263,20.160552240366993]}},{"type":"Feature","properties":{"name_en":"Houaysa ou","did":607,"pid":6,"uuid":"607062"},"geometry":{"type":"Point","coordinates":[102.74292935960555,20.1428379202216]}},{"type":"Feature","properties":{"name_en":"Hadphouan","did":607,"pid":6,"uuid":"607068"},"geometry":{"type":"Point","coordinates":[102.78111638962658,20.139479379988767]}},{"type":"Feature","properties":{"name_en":"Long euang","did":607,"pid":6,"uuid":"607072"},"geometry":{"type":"Point","coordinates":[102.80996421004342,20.081832080426736]}},{"type":"Feature","properties":{"name_en":"Houayyen","did":607,"pid":6,"uuid":"607073"},"geometry":{"type":"Point","coordinates":[102.76419014018623,20.092551109903305]}},{"type":"Feature","properties":{"name_en":"Hadjang","did":607,"pid":6,"uuid":"607083"},"geometry":{"type":"Point","coordinates":[102.93896715007197,20.109379120060638]}},{"type":"Feature","properties":{"name_en":"Sanaeb","did":607,"pid":6,"uuid":"607084"},"geometry":{"type":"Point","coordinates":[102.93906757019441,20.063297600332326]}},{"type":"Feature","properties":{"name_en":"Houaythong","did":607,"pid":6,"uuid":"607086"},"geometry":{"type":"Point","coordinates":[103.03230828007145,20.0221310597563]}},{"type":"Feature","properties":{"name_en":"Bouamkhoun","did":607,"pid":6,"uuid":"607087"},"geometry":{"type":"Point","coordinates":[103.04964917957732,20.06833864027816]}},{"type":"Feature","properties":{"name_en":"Hadwan.","did":607,"pid":6,"uuid":"607090"},"geometry":{"type":"Point","coordinates":[102.97620408984767,20.127862309720257]}},{"type":"Feature","properties":{"name_en":"Bouamkok","did":607,"pid":6,"uuid":"607092"},"geometry":{"type":"Point","coordinates":[102.91472333027683,20.11533463042233]}},{"type":"Feature","properties":{"name_en":"Kiewkhouang","did":607,"pid":6,"uuid":"607098"},"geometry":{"type":"Point","coordinates":[102.83845229020388,20.149274219958816]}},{"type":"Feature","properties":{"name_en":"Nongfardaed","did":607,"pid":6,"uuid":"607101"},"geometry":{"type":"Point","coordinates":[102.58260995016708,20.15395039964596]}},{"type":"Feature","properties":{"name_en":"Sopvath","did":607,"pid":6,"uuid":"607102"},"geometry":{"type":"Point","coordinates":[102.80145708000184,20.145005569750083]}},{"type":"Feature","properties":{"name_en":"Pho","did":607,"pid":6,"uuid":"607103"},"geometry":{"type":"Point","coordinates":[102.7587872496729,20.140412450236276]}},{"type":"Feature","properties":{"name_en":"Vang or","did":607,"pid":6,"uuid":"607104"},"geometry":{"type":"Point","coordinates":[102.72707741987578,20.147759690324435]}},{"type":"Feature","properties":{"name_en":"Nadkham","did":607,"pid":6,"uuid":"607106"},"geometry":{"type":"Point","coordinates":[102.76050108966717,20.16821480001957]}},{"type":"Feature","properties":{"name_en":"Houayvath","did":607,"pid":6,"uuid":"607107"},"geometry":{"type":"Point","coordinates":[102.78791738036738,20.20430534994081]}},{"type":"Feature","properties":{"name_en":"Thangly","did":607,"pid":6,"uuid":"607108"},"geometry":{"type":"Point","coordinates":[102.73169501043915,20.21137565005731]}},{"type":"Feature","properties":{"name_en":"Nongkham","did":607,"pid":6,"uuid":"607110"},"geometry":{"type":"Point","coordinates":[102.79143551025588,20.215241050397353]}},{"type":"Feature","properties":{"name_en":"Houaymod","did":607,"pid":6,"uuid":"607118"},"geometry":{"type":"Point","coordinates":[102.90175082976161,20.162157960070065]}},{"type":"Feature","properties":{"name_en":"Kiew euad","did":607,"pid":6,"uuid":"607119"},"geometry":{"type":"Point","coordinates":[103.0244848596596,20.07172921020539]}},{"type":"Feature","properties":{"name_en":"Hadsang","did":607,"pid":6,"uuid":"607124"},"geometry":{"type":"Point","coordinates":[102.45628914047185,20.11336950005152]}},{"type":"Feature","properties":{"name_en":"phounorwanh","did":607,"pid":6,"uuid":"607125"},"geometry":{"type":"Point","coordinates":[102.48326638018055,20.11531770015644]}},{"type":"Feature","properties":{"name_en":"Tardsaeng","did":607,"pid":6,"uuid":"607126"},"geometry":{"type":"Point","coordinates":[102.74350066998794,20.091392399587004]}},{"type":"Feature","properties":{"name_en":"Nong","did":607,"pid":6,"uuid":"607127"},"geometry":{"type":"Point","coordinates":[102.83094999984598,20.142740000240586]}},{"type":"Feature","properties":{"name_en":"Pounglan","did":607,"pid":6,"uuid":"607128"},"geometry":{"type":"Point","coordinates":[102.87381101008413,20.198896840189285]}}]}