{"type":"FeatureCollection","features":[{"type":"Feature","properties":{"name_en":"Phackhok","did":608,"pid":6,"uuid":"608001"},"geometry":{"type":"Point","coordinates":[102.67480326031445,19.974471469645543]}},{"type":"Feature","properties":{"name_en":"Phackbong","did":608,"pid":6,"uuid":"608003"},"geometry":{"type":"Point","coordinates":[102.72608566959833,19.978296049946728]}},{"type":"Feature","properties":{"name_en":"Naphieng","did":608,"pid":6,"uuid":"608011"},"geometry":{"type":"Point","coordinates":[102.71054110047254,19.871315470276986]}},{"type":"Feature","properties":{"name_en":"Houaydong","did":608,"pid":6,"uuid":"608012"},"geometry":{"type":"Point","coordinates":[102.61998577952939,19.905254470087815]}},{"type":"Feature","properties":{"name_en":"Chomchieng","did":608,"pid":6,"uuid":"608013"},"geometry":{"type":"Point","coordinates":[102.6214011501993,19.844339489803115]}},{"type":"Feature","properties":{"name_en":"Longlath","did":608,"pid":6,"uuid":"608015"},"geometry":{"type":"Point","coordinates":[102.74872954974288,19.953823910252662]}},{"type":"Feature","properties":{"name_en":"Katangsaleung","did":608,"pid":6,"uuid":"608021"},"geometry":{"type":"Point","coordinates":[102.43833459999811,19.8263142898471]}},{"type":"Feature","properties":{"name_en":"Paksim","did":608,"pid":6,"uuid":"608022"},"geometry":{"type":"Point","coordinates":[102.42215426038015,19.807012029790663]}},{"type":"Feature","properties":{"name_en":"Supphoulouang","did":608,"pid":6,"uuid":"608024"},"geometry":{"type":"Point","coordinates":[102.47511883001891,19.718356550254786]}},{"type":"Feature","properties":{"name_en":"Hintang","did":608,"pid":6,"uuid":"608025"},"geometry":{"type":"Point","coordinates":[102.50117834010616,19.745659260314934]}},{"type":"Feature","properties":{"name_en":"Pounglak","did":608,"pid":6,"uuid":"608028"},"geometry":{"type":"Point","coordinates":[102.46890096961712,19.861919529835713]}},{"type":"Feature","properties":{"name_en":"Kangsanh","did":608,"pid":6,"uuid":"608030"},"geometry":{"type":"Point","coordinates":[102.52919041014046,19.813712269724075]}},{"type":"Feature","properties":{"name_en":"Houayhao","did":608,"pid":6,"uuid":"608032"},"geometry":{"type":"Point","coordinates":[102.53537097013864,19.76224427994983]}},{"type":"Feature","properties":{"name_en":"Done ngeun","did":608,"pid":6,"uuid":"608035"},"geometry":{"type":"Point","coordinates":[102.7821188599969,19.764209329796735]}},{"type":"Feature","properties":{"name_en":"Sakouan","did":608,"pid":6,"uuid":"608036"},"geometry":{"type":"Point","coordinates":[102.86140830993679,19.98688063000066]}},{"type":"Feature","properties":{"name_en":"Hadchong","did":608,"pid":6,"uuid":"608037"},"geometry":{"type":"Point","coordinates":[102.92523525009356,19.848101959878736]}},{"type":"Feature","properties":{"name_en":"Houaypha","did":608,"pid":6,"uuid":"608038"},"geometry":{"type":"Point","coordinates":[102.71978298012378,19.81040728009462]}},{"type":"Feature","properties":{"name_en":"Sobhout","did":608,"pid":6,"uuid":"608039"},"geometry":{"type":"Point","coordinates":[102.81289955988757,19.85371464987582]}},{"type":"Feature","properties":{"name_en":"Donekham","did":608,"pid":6,"uuid":"608040"},"geometry":{"type":"Point","coordinates":[102.82804665968924,19.825071930315328]}},{"type":"Feature","properties":{"name_en":"Viengjaleun","did":608,"pid":6,"uuid":"608045"},"geometry":{"type":"Point","coordinates":[102.98041918037754,19.972853599602594]}},{"type":"Feature","properties":{"name_en":"Kiewlai","did":608,"pid":6,"uuid":"608046"},"geometry":{"type":"Point","coordinates":[102.86406655004895,19.94135657957501]}},{"type":"Feature","properties":{"name_en":"Vangkhone","did":608,"pid":6,"uuid":"608047"},"geometry":{"type":"Point","coordinates":[102.96279045002846,19.96767407983946]}},{"type":"Feature","properties":{"name_en":"Houyha","did":608,"pid":6,"uuid":"608048"},"geometry":{"type":"Point","coordinates":[102.79973568995037,19.97871430968407]}},{"type":"Feature","properties":{"name_en":"Phonthong","did":608,"pid":6,"uuid":"608050"},"geometry":{"type":"Point","coordinates":[102.91220399040309,19.936107159720862]}},{"type":"Feature","properties":{"name_en":"Na ngoy","did":608,"pid":6,"uuid":"608051"},"geometry":{"type":"Point","coordinates":[102.88364944004395,19.934347890157408]}},{"type":"Feature","properties":{"name_en":"Bouakkham","did":608,"pid":6,"uuid":"608052"},"geometry":{"type":"Point","coordinates":[102.94784401043597,19.96382017022736]}},{"type":"Feature","properties":{"name_en":"Houaykhing","did":608,"pid":6,"uuid":"608053"},"geometry":{"type":"Point","coordinates":[102.78157881043627,19.92129592005706]}},{"type":"Feature","properties":{"name_en":"Phatoupneua","did":608,"pid":6,"uuid":"608056"},"geometry":{"type":"Point","coordinates":[102.54402293960817,20.013490989639816]}},{"type":"Feature","properties":{"name_en":"Houayloungtheung","did":608,"pid":6,"uuid":"608058"},"geometry":{"type":"Point","coordinates":[102.56600481046449,19.951660710315895]}},{"type":"Feature","properties":{"name_en":"Thakham","did":608,"pid":6,"uuid":"608060"},"geometry":{"type":"Point","coordinates":[102.52997353038812,19.955062500282853]}},{"type":"Feature","properties":{"name_en":"Houaychia","did":608,"pid":6,"uuid":"608061"},"geometry":{"type":"Point","coordinates":[102.63363403040266,19.9358742303027]}},{"type":"Feature","properties":{"name_en":"Houaynga","did":608,"pid":6,"uuid":"608062"},"geometry":{"type":"Point","coordinates":[102.51876751011918,19.930601509754936]}},{"type":"Feature","properties":{"name_en":"Houayloungsoung","did":608,"pid":6,"uuid":"608063"},"geometry":{"type":"Point","coordinates":[102.59345077014827,19.914242889719404]}},{"type":"Feature","properties":{"name_en":"Houaysiboua","did":608,"pid":6,"uuid":"608064"},"geometry":{"type":"Point","coordinates":[102.62274996015162,19.978168390049007]}},{"type":"Feature","properties":{"name_en":"Houaymaha","did":608,"pid":6,"uuid":"608066"},"geometry":{"type":"Point","coordinates":[102.4979290104386,19.960429019822328]}},{"type":"Feature","properties":{"name_en":"Houaypian","did":608,"pid":6,"uuid":"608068"},"geometry":{"type":"Point","coordinates":[102.53128295018942,19.89804721007626]}},{"type":"Feature","properties":{"name_en":"Paknga","did":608,"pid":6,"uuid":"608069"},"geometry":{"type":"Point","coordinates":[102.54471403030583,19.94720555961725]}},{"type":"Feature","properties":{"name_en":"Phatoubtai","did":608,"pid":6,"uuid":"608070"},"geometry":{"type":"Point","coordinates":[102.518974630187,20.00183797043627]}},{"type":"Feature","properties":{"name_en":"Sankang","did":608,"pid":6,"uuid":"608073"},"geometry":{"type":"Point","coordinates":[102.48675853029312,19.893811240404418]}},{"type":"Feature","properties":{"name_en":"Sobchia","did":608,"pid":6,"uuid":"608074"},"geometry":{"type":"Point","coordinates":[102.61881867952567,19.970086229995456]}},{"type":"Feature","properties":{"name_en":"Houameung","did":608,"pid":6,"uuid":"608075"},"geometry":{"type":"Point","coordinates":[102.6488664700218,19.97617350040136]}},{"type":"Feature","properties":{"name_en":"Houayman","did":608,"pid":6,"uuid":"608080"},"geometry":{"type":"Point","coordinates":[102.42292647984496,19.97137846014698]}},{"type":"Feature","properties":{"name_en":"Long gnom gnai","did":608,"pid":6,"uuid":"608082"},"geometry":{"type":"Point","coordinates":[102.41186362963643,20.035992879778494]}},{"type":"Feature","properties":{"name_en":"Houaylone","did":608,"pid":6,"uuid":"608084"},"geometry":{"type":"Point","coordinates":[102.44834972014267,19.893603460093352]}},{"type":"Feature","properties":{"name_en":"Thapho","did":608,"pid":6,"uuid":"608085"},"geometry":{"type":"Point","coordinates":[102.4398845799735,19.944779419906148]}},{"type":"Feature","properties":{"name_en":"Nongkham","did":608,"pid":6,"uuid":"608087"},"geometry":{"type":"Point","coordinates":[102.40315609008336,19.865754750040043]}},{"type":"Feature","properties":{"name_en":"Nambor","did":608,"pid":6,"uuid":"608089"},"geometry":{"type":"Point","coordinates":[102.43268595016188,19.948114660308303]}},{"type":"Feature","properties":{"name_en":"Heuadoeui","did":608,"pid":6,"uuid":"608091"},"geometry":{"type":"Point","coordinates":[102.58312861993998,19.85069673977952]}},{"type":"Feature","properties":{"name_en":"Donxai","did":608,"pid":6,"uuid":"608092"},"geometry":{"type":"Point","coordinates":[102.6004149603574,19.960079319727786]}},{"type":"Feature","properties":{"name_en":"Pakvang","did":608,"pid":6,"uuid":"608094"},"geometry":{"type":"Point","coordinates":[102.98637083985457,19.829062879829475]}},{"type":"Feature","properties":{"name_en":"Na ngiew","did":608,"pid":6,"uuid":"608095"},"geometry":{"type":"Point","coordinates":[102.92544471015486,19.94463332000721]}},{"type":"Feature","properties":{"name_en":"Huoisala","did":608,"pid":6,"uuid":"608096"},"geometry":{"type":"Point","coordinates":[102.3639352296647,19.853536699808778]}},{"type":"Feature","properties":{"name_en":"Longnhourk","did":608,"pid":6,"uuid":"608098"},"geometry":{"type":"Point","coordinates":[102.45885952957214,20.06109633971612]}},{"type":"Feature","properties":{"name_en":"Longngad","did":608,"pid":6,"uuid":"608099"},"geometry":{"type":"Point","coordinates":[102.4418135898336,20.054013550443518]}},{"type":"Feature","properties":{"name_en":"Kalongkong","did":608,"pid":6,"uuid":"608100"},"geometry":{"type":"Point","coordinates":[102.5176602598718,20.065304810187698]}},{"type":"Feature","properties":{"name_en":"Tathong","did":608,"pid":6,"uuid":"608102"},"geometry":{"type":"Point","coordinates":[102.72614049005199,19.905622010052195]}},{"type":"Feature","properties":{"name_en":"Houainor","did":608,"pid":6,"uuid":"608103"},"geometry":{"type":"Point","coordinates":[102.45276522010343,19.94447415027229]}},{"type":"Feature","properties":{"name_en":"Pungpao","did":608,"pid":6,"uuid":"608104"},"geometry":{"type":"Point","coordinates":[102.45416617031977,19.94509758972219]}},{"type":"Feature","properties":{"name_en":"Tardthong","did":608,"pid":6,"uuid":"608105"},"geometry":{"type":"Point","coordinates":[102.68002535036288,20.028475819896947]}},{"type":"Feature","properties":{"name_en":"Kokngiew","did":608,"pid":6,"uuid":"608106"},"geometry":{"type":"Point","coordinates":[102.46657205971742,19.7931999902517]}}]}