{"type":"FeatureCollection","features":[{"type":"Feature","properties":{"name_en":"Kaenghang","did":609,"pid":6,"uuid":"609001"},"geometry":{"type":"Point","coordinates":[101.81079542038275,19.941497729757007]}},{"type":"Feature","properties":{"name_en":"Houayhak","did":609,"pid":6,"uuid":"609006"},"geometry":{"type":"Point","coordinates":[101.91297619009833,19.869462400172743]}},{"type":"Feature","properties":{"name_en":"Nangkang","did":609,"pid":6,"uuid":"609007"},"geometry":{"type":"Point","coordinates":[101.88854906006871,19.948668279601975]}},{"type":"Feature","properties":{"name_en":"Lae","did":609,"pid":6,"uuid":"609009"},"geometry":{"type":"Point","coordinates":[101.89173585974015,19.968570950258847]}},{"type":"Feature","properties":{"name_en":"Na ang","did":609,"pid":6,"uuid":"609010"},"geometry":{"type":"Point","coordinates":[101.93377119023843,19.877450190405057]}},{"type":"Feature","properties":{"name_en":"Pak houay khor","did":609,"pid":6,"uuid":"609012"},"geometry":{"type":"Point","coordinates":[101.98198162977101,19.886077429786035]}},{"type":"Feature","properties":{"name_en":"Houaytham","did":609,"pid":6,"uuid":"609014"},"geometry":{"type":"Point","coordinates":[102.00332036044473,19.938680409964192]}},{"type":"Feature","properties":{"name_en":"Tone","did":609,"pid":6,"uuid":"609015"},"geometry":{"type":"Point","coordinates":[101.92539674044819,19.99752933016408]}},{"type":"Feature","properties":{"name_en":"Khoklouang","did":609,"pid":6,"uuid":"609017"},"geometry":{"type":"Point","coordinates":[101.96279276988875,20.032534510415033]}},{"type":"Feature","properties":{"name_en":"Houaymiang","did":609,"pid":6,"uuid":"609019"},"geometry":{"type":"Point","coordinates":[102.0241581897779,19.95530960035589]}},{"type":"Feature","properties":{"name_en":"Chok","did":609,"pid":6,"uuid":"609020"},"geometry":{"type":"Point","coordinates":[102.03372336973882,19.945789270100608]}},{"type":"Feature","properties":{"name_en":"Keuab","did":609,"pid":6,"uuid":"609021"},"geometry":{"type":"Point","coordinates":[102.05138563026341,19.933111559662454]}},{"type":"Feature","properties":{"name_en":"Houay orn","did":609,"pid":6,"uuid":"609022"},"geometry":{"type":"Point","coordinates":[102.07838918969384,19.929068460432774]}},{"type":"Feature","properties":{"name_en":"Xam or","did":609,"pid":6,"uuid":"609023"},"geometry":{"type":"Point","coordinates":[102.10063685966848,19.948408699902952]}},{"type":"Feature","properties":{"name_en":"Na","did":609,"pid":6,"uuid":"609024"},"geometry":{"type":"Point","coordinates":[102.11633489956496,19.9678765103782]}},{"type":"Feature","properties":{"name_en":"Houaymath","did":609,"pid":6,"uuid":"609026"},"geometry":{"type":"Point","coordinates":[102.06759647970983,19.953458880415766]}},{"type":"Feature","properties":{"name_en":"Longxieng","did":609,"pid":6,"uuid":"609029"},"geometry":{"type":"Point","coordinates":[102.03860541005128,19.999392709918165]}},{"type":"Feature","properties":{"name_en":"Kangkhan","did":609,"pid":6,"uuid":"609030"},"geometry":{"type":"Point","coordinates":[102.05681894969503,20.04708481974699]}},{"type":"Feature","properties":{"name_en":"Houaytanh","did":609,"pid":6,"uuid":"609031"},"geometry":{"type":"Point","coordinates":[102.1342729300642,19.94609529036002]}},{"type":"Feature","properties":{"name_en":"Som","did":609,"pid":6,"uuid":"609032"},"geometry":{"type":"Point","coordinates":[102.12576513020062,19.9754808196387]}},{"type":"Feature","properties":{"name_en":"Houaykhae","did":609,"pid":6,"uuid":"609036"},"geometry":{"type":"Point","coordinates":[102.12174198987046,20.08488980014975]}},{"type":"Feature","properties":{"name_en":"Phonhong","did":609,"pid":6,"uuid":"609038"},"geometry":{"type":"Point","coordinates":[102.14788053009724,20.033432539647006]}},{"type":"Feature","properties":{"name_en":"Nasang","did":609,"pid":6,"uuid":"609039"},"geometry":{"type":"Point","coordinates":[102.16622843030926,20.0463530800173]}},{"type":"Feature","properties":{"name_en":"Houaygnor","did":609,"pid":6,"uuid":"609040"},"geometry":{"type":"Point","coordinates":[102.1863821299215,20.070093810013823]}},{"type":"Feature","properties":{"name_en":"Mouangkeo","did":609,"pid":6,"uuid":"609041"},"geometry":{"type":"Point","coordinates":[102.20371784023453,20.05381757963541]}},{"type":"Feature","properties":{"name_en":"Phoulouangtai","did":609,"pid":6,"uuid":"609042"},"geometry":{"type":"Point","coordinates":[102.14742640039344,19.999012259678995]}},{"type":"Feature","properties":{"name_en":"Houaykor","did":609,"pid":6,"uuid":"609043"},"geometry":{"type":"Point","coordinates":[102.21418900989318,20.038404270155468]}},{"type":"Feature","properties":{"name_en":"Thinhong","did":609,"pid":6,"uuid":"609044"},"geometry":{"type":"Point","coordinates":[102.2215260303447,20.011498189856308]}},{"type":"Feature","properties":{"name_en":"Sanok","did":609,"pid":6,"uuid":"609046"},"geometry":{"type":"Point","coordinates":[102.20969714960606,19.94009518974257]}},{"type":"Feature","properties":{"name_en":"Mouangkham","did":609,"pid":6,"uuid":"609047"},"geometry":{"type":"Point","coordinates":[102.18056768974729,19.9293142996805]}},{"type":"Feature","properties":{"name_en":"Naxaichaleun","did":609,"pid":6,"uuid":"609049"},"geometry":{"type":"Point","coordinates":[102.1501147301816,19.935982269944187]}},{"type":"Feature","properties":{"name_en":"Nakham","did":609,"pid":6,"uuid":"609050"},"geometry":{"type":"Point","coordinates":[102.13557472006157,19.91378808003568]}},{"type":"Feature","properties":{"name_en":"Xiengmain","did":609,"pid":6,"uuid":"609051"},"geometry":{"type":"Point","coordinates":[102.1341617003928,19.89898999974738]}},{"type":"Feature","properties":{"name_en":"Thapho","did":609,"pid":6,"uuid":"609053"},"geometry":{"type":"Point","coordinates":[102.10404762032492,19.896718250393114]}},{"type":"Feature","properties":{"name_en":"Bouamlao","did":609,"pid":6,"uuid":"609055"},"geometry":{"type":"Point","coordinates":[102.07460056985674,19.91590702995077]}},{"type":"Feature","properties":{"name_en":"Bouamxieng","did":609,"pid":6,"uuid":"609056"},"geometry":{"type":"Point","coordinates":[102.0658067798692,19.922872469630633]}},{"type":"Feature","properties":{"name_en":"Channeua","did":609,"pid":6,"uuid":"609058"},"geometry":{"type":"Point","coordinates":[102.11049532018247,19.87781261966555]}},{"type":"Feature","properties":{"name_en":"Chantai","did":609,"pid":6,"uuid":"609059"},"geometry":{"type":"Point","coordinates":[102.1045021702496,19.876194490002224]}},{"type":"Feature","properties":{"name_en":"Pakleung","did":609,"pid":6,"uuid":"609060"},"geometry":{"type":"Point","coordinates":[102.0374469500371,19.864629729807074]}},{"type":"Feature","properties":{"name_en":"Nongphu","did":609,"pid":6,"uuid":"609061"},"geometry":{"type":"Point","coordinates":[101.99996802009588,19.88133728979598]}},{"type":"Feature","properties":{"name_en":"Donexai","did":609,"pid":6,"uuid":"609064"},"geometry":{"type":"Point","coordinates":[101.95650651006535,19.890673639620488]}},{"type":"Feature","properties":{"name_en":"Saleuam","did":609,"pid":6,"uuid":"609066"},"geometry":{"type":"Point","coordinates":[102.00758172003782,19.83790025992663]}},{"type":"Feature","properties":{"name_en":"Pakleun","did":609,"pid":6,"uuid":"609067"},"geometry":{"type":"Point","coordinates":[101.98706784955607,19.804539530273875]}},{"type":"Feature","properties":{"name_en":"Nakeua","did":609,"pid":6,"uuid":"609068"},"geometry":{"type":"Point","coordinates":[101.96141017959233,19.829474599542454]}},{"type":"Feature","properties":{"name_en":"Nakhaeng","did":609,"pid":6,"uuid":"609069"},"geometry":{"type":"Point","coordinates":[101.93696670045077,19.82986218012287]}},{"type":"Feature","properties":{"name_en":"Houaykhanh","did":609,"pid":6,"uuid":"609070"},"geometry":{"type":"Point","coordinates":[101.90462604957574,19.838564269840752]}},{"type":"Feature","properties":{"name_en":"Nangiew","did":609,"pid":6,"uuid":"609071"},"geometry":{"type":"Point","coordinates":[101.88819610047827,19.81698304972301]}},{"type":"Feature","properties":{"name_en":"Xongneua","did":609,"pid":6,"uuid":"609073"},"geometry":{"type":"Point","coordinates":[101.93711188032971,19.751498759999947]}},{"type":"Feature","properties":{"name_en":"Xongtai","did":609,"pid":6,"uuid":"609074"},"geometry":{"type":"Point","coordinates":[101.92484101996857,19.745667219572514]}},{"type":"Feature","properties":{"name_en":"Houaytao","did":609,"pid":6,"uuid":"609075"},"geometry":{"type":"Point","coordinates":[101.87914456004941,19.772799279921657]}},{"type":"Feature","properties":{"name_en":"Nahai","did":609,"pid":6,"uuid":"609076"},"geometry":{"type":"Point","coordinates":[101.86909609003905,19.800961550060062]}},{"type":"Feature","properties":{"name_en":"Poulouangtai","did":609,"pid":6,"uuid":"609077"},"geometry":{"type":"Point","coordinates":[101.84343303981113,19.76602066009271]}},{"type":"Feature","properties":{"name_en":"Phoupord","did":609,"pid":6,"uuid":"609078"},"geometry":{"type":"Point","coordinates":[101.82062579974371,19.720356559931048]}},{"type":"Feature","properties":{"name_en":"Vangsa","did":609,"pid":6,"uuid":"609080"},"geometry":{"type":"Point","coordinates":[101.80479566037452,19.665096680296134]}},{"type":"Feature","properties":{"name_en":"Houaykatay","did":609,"pid":6,"uuid":"609081"},"geometry":{"type":"Point","coordinates":[101.81978769986405,19.734586350062276]}},{"type":"Feature","properties":{"name_en":"Houaysae","did":609,"pid":6,"uuid":"609082"},"geometry":{"type":"Point","coordinates":[101.79111639024453,19.75274942982852]}},{"type":"Feature","properties":{"name_en":"Vangmouang","did":609,"pid":6,"uuid":"609083"},"geometry":{"type":"Point","coordinates":[101.77632140976021,19.68322547968555]}},{"type":"Feature","properties":{"name_en":"Namhang","did":609,"pid":6,"uuid":"609085"},"geometry":{"type":"Point","coordinates":[101.75585423037082,19.656131400152763]}},{"type":"Feature","properties":{"name_en":"Houayxaykhao","did":609,"pid":6,"uuid":"609087"},"geometry":{"type":"Point","coordinates":[101.81401667030015,19.806847659757093]}},{"type":"Feature","properties":{"name_en":"Natha","did":609,"pid":6,"uuid":"609090"},"geometry":{"type":"Point","coordinates":[102.12611533013092,19.898367809741128]}},{"type":"Feature","properties":{"name_en":"Khoksavang","did":609,"pid":6,"uuid":"609092"},"geometry":{"type":"Point","coordinates":[102.06954820976294,19.897695919710475]}},{"type":"Feature","properties":{"name_en":"Houayxaeng","did":609,"pid":6,"uuid":"609093"},"geometry":{"type":"Point","coordinates":[102.105403730333,19.97338065040879]}},{"type":"Feature","properties":{"name_en":"Samphanxai","did":609,"pid":6,"uuid":"609094"},"geometry":{"type":"Point","coordinates":[101.83781012989488,19.808778339682043]}},{"type":"Feature","properties":{"name_en":"Kiewthang","did":609,"pid":6,"uuid":"609095"},"geometry":{"type":"Point","coordinates":[101.76441658998085,19.79461033038399]}},{"type":"Feature","properties":{"name_en":"Phoumieng","did":609,"pid":6,"uuid":"609096"},"geometry":{"type":"Point","coordinates":[101.86975582962819,19.88330393962144]}},{"type":"Feature","properties":{"name_en":"Pakkon","did":609,"pid":6,"uuid":"609097"},"geometry":{"type":"Point","coordinates":[101.86340117040334,19.953160480442925]}},{"type":"Feature","properties":{"name_en":"Houypong","did":609,"pid":6,"uuid":"609098"},"geometry":{"type":"Point","coordinates":[102.16372610042971,19.958467899850536]}},{"type":"Feature","properties":{"name_en":"Tardlae","did":609,"pid":6,"uuid":"609099"},"geometry":{"type":"Point","coordinates":[101.85601193026962,19.802061590075667]}},{"type":"Feature","properties":{"name_en":"Houynathong","did":609,"pid":6,"uuid":"609100"},"geometry":{"type":"Point","coordinates":[101.71101993031289,19.687679960354565]}}]}