{"type":"FeatureCollection","features":[{"type":"Feature","properties":{"name_en":"Sobxang","did":610,"pid":6,"uuid":"610044"},"geometry":{"type":"Point","coordinates":[102.99451629043799,20.605969500259135]}},{"type":"Feature","properties":{"name_en":"Nakang","did":610,"pid":6,"uuid":"610048"},"geometry":{"type":"Point","coordinates":[103.03060231003575,20.54753816960307]}},{"type":"Feature","properties":{"name_en":"Vangbong","did":610,"pid":6,"uuid":"610050"},"geometry":{"type":"Point","coordinates":[102.98453863963358,20.54358861034366]}},{"type":"Feature","properties":{"name_en":"Nammee","did":610,"pid":6,"uuid":"610051"},"geometry":{"type":"Point","coordinates":[102.88410700968173,20.633933799708835]}},{"type":"Feature","properties":{"name_en":"Mai","did":610,"pid":6,"uuid":"610053"},"geometry":{"type":"Point","coordinates":[102.87727189995266,20.597128439562557]}},{"type":"Feature","properties":{"name_en":"Kiewlai","did":610,"pid":6,"uuid":"610055"},"geometry":{"type":"Point","coordinates":[102.84207233148138,20.520187981353047]}},{"type":"Feature","properties":{"name_en":"Longgnar","did":610,"pid":6,"uuid":"610057"},"geometry":{"type":"Point","coordinates":[102.84208307988384,20.52018852042311]}},{"type":"Feature","properties":{"name_en":"Donekhoun","did":610,"pid":6,"uuid":"610059"},"geometry":{"type":"Point","coordinates":[102.8905895701405,20.527224880090507]}},{"type":"Feature","properties":{"name_en":"Hadhung","did":610,"pid":6,"uuid":"610063"},"geometry":{"type":"Point","coordinates":[102.87740165041896,20.49541194984352]}},{"type":"Feature","properties":{"name_en":"Houaykouang","did":610,"pid":6,"uuid":"610064"},"geometry":{"type":"Point","coordinates":[102.91660759010408,20.49821753987501]}},{"type":"Feature","properties":{"name_en":"Houaysoy","did":610,"pid":6,"uuid":"610066"},"geometry":{"type":"Point","coordinates":[102.86452847972114,20.506027960258447]}},{"type":"Feature","properties":{"name_en":"Nanoy","did":610,"pid":6,"uuid":"610069"},"geometry":{"type":"Point","coordinates":[102.87109100041461,20.432959229612912]}},{"type":"Feature","properties":{"name_en":"Houaychanh","did":610,"pid":6,"uuid":"610072"},"geometry":{"type":"Point","coordinates":[103.03857458982642,20.49838844969117]}},{"type":"Feature","properties":{"name_en":"Bouamwanh","did":610,"pid":6,"uuid":"610073"},"geometry":{"type":"Point","coordinates":[102.94789220031122,20.479351049622522]}},{"type":"Feature","properties":{"name_en":"Hadgnaw","did":610,"pid":6,"uuid":"610074"},"geometry":{"type":"Point","coordinates":[102.88267855961669,20.487302289902026]}},{"type":"Feature","properties":{"name_en":"Vangtheung","did":610,"pid":6,"uuid":"610075"},"geometry":{"type":"Point","coordinates":[102.87843145036248,20.47692515987958]}},{"type":"Feature","properties":{"name_en":"Vangbai","did":610,"pid":6,"uuid":"610076"},"geometry":{"type":"Point","coordinates":[102.87960811018323,20.470125260109036]}},{"type":"Feature","properties":{"name_en":"Sae","did":610,"pid":6,"uuid":"610077"},"geometry":{"type":"Point","coordinates":[102.8751491003178,20.45990712990359]}},{"type":"Feature","properties":{"name_en":"Viengkham","did":610,"pid":6,"uuid":"610079"},"geometry":{"type":"Point","coordinates":[102.87730458995489,20.453355579850335]}},{"type":"Feature","properties":{"name_en":"Hadko","did":610,"pid":6,"uuid":"610080"},"geometry":{"type":"Point","coordinates":[102.87691265007022,20.450744870021587]}},{"type":"Feature","properties":{"name_en":"Thavan","did":610,"pid":6,"uuid":"610081"},"geometry":{"type":"Point","coordinates":[102.86405128989679,20.417962329649736]}},{"type":"Feature","properties":{"name_en":"Phon ngam","did":610,"pid":6,"uuid":"610083"},"geometry":{"type":"Point","coordinates":[102.85307091992789,20.402165790353596]}},{"type":"Feature","properties":{"name_en":"Phonkham","did":610,"pid":6,"uuid":"610084"},"geometry":{"type":"Point","coordinates":[102.91722014013922,20.418320229868858]}},{"type":"Feature","properties":{"name_en":"Samton","did":610,"pid":6,"uuid":"610085"},"geometry":{"type":"Point","coordinates":[102.93882582992819,20.44498474016674]}},{"type":"Feature","properties":{"name_en":"Houaychor","did":610,"pid":6,"uuid":"610086"},"geometry":{"type":"Point","coordinates":[102.94842511988134,20.440917680445395]}},{"type":"Feature","properties":{"name_en":"Omping","did":610,"pid":6,"uuid":"610088"},"geometry":{"type":"Point","coordinates":[102.96212969989644,20.409462069752543]}},{"type":"Feature","properties":{"name_en":"Poukong","did":610,"pid":6,"uuid":"610089"},"geometry":{"type":"Point","coordinates":[102.99173131960919,20.40802213987635]}},{"type":"Feature","properties":{"name_en":"Houayxong","did":610,"pid":6,"uuid":"610094"},"geometry":{"type":"Point","coordinates":[103.01403238033535,20.425878529922265]}},{"type":"Feature","properties":{"name_en":"samsoum","did":610,"pid":6,"uuid":"610096"},"geometry":{"type":"Point","coordinates":[102.89590713984434,20.40432279017559]}},{"type":"Feature","properties":{"name_en":"Houayxay","did":610,"pid":6,"uuid":"610097"},"geometry":{"type":"Point","coordinates":[102.96730972032108,20.38464727983022]}},{"type":"Feature","properties":{"name_en":"Houaythong","did":610,"pid":6,"uuid":"610098"},"geometry":{"type":"Point","coordinates":[102.9400477495554,20.357250359690955]}},{"type":"Feature","properties":{"name_en":"Viengxai","did":610,"pid":6,"uuid":"610100"},"geometry":{"type":"Point","coordinates":[102.98611485000052,20.364642359999134]}},{"type":"Feature","properties":{"name_en":"Poukeo","did":610,"pid":6,"uuid":"610101"},"geometry":{"type":"Point","coordinates":[102.9550891599285,20.33517795975025]}},{"type":"Feature","properties":{"name_en":"Paklao","did":610,"pid":6,"uuid":"610103"},"geometry":{"type":"Point","coordinates":[103.00465218971013,20.35501205029183]}},{"type":"Feature","properties":{"name_en":"Namlao","did":610,"pid":6,"uuid":"610104"},"geometry":{"type":"Point","coordinates":[103.06939049031239,20.354813569948373]}},{"type":"Feature","properties":{"name_en":"Phonhom","did":610,"pid":6,"uuid":"610105"},"geometry":{"type":"Point","coordinates":[103.04832500024713,20.374327230203846]}},{"type":"Feature","properties":{"name_en":"Phonkeo","did":610,"pid":6,"uuid":"610107"},"geometry":{"type":"Point","coordinates":[102.90340608956006,20.321482430319072]}},{"type":"Feature","properties":{"name_en":"Phoukang","did":610,"pid":6,"uuid":"610108"},"geometry":{"type":"Point","coordinates":[102.9186608201502,20.29859220988143]}},{"type":"Feature","properties":{"name_en":"Donekeo","did":610,"pid":6,"uuid":"610109"},"geometry":{"type":"Point","coordinates":[103.00249861964171,20.335204110289393]}},{"type":"Feature","properties":{"name_en":"Bouammee","did":610,"pid":6,"uuid":"610110"},"geometry":{"type":"Point","coordinates":[103.01490393027474,20.317611829809604]}},{"type":"Feature","properties":{"name_en":"Mokvath","did":610,"pid":6,"uuid":"610111"},"geometry":{"type":"Point","coordinates":[103.07382509996229,20.32443009020632]}},{"type":"Feature","properties":{"name_en":"Pousali","did":610,"pid":6,"uuid":"610112"},"geometry":{"type":"Point","coordinates":[102.82829200037801,20.282547150436923]}},{"type":"Feature","properties":{"name_en":"Phousanam","did":610,"pid":6,"uuid":"610113"},"geometry":{"type":"Point","coordinates":[102.8503180496815,20.287819110291412]}},{"type":"Feature","properties":{"name_en":"Mokchali","did":610,"pid":6,"uuid":"610114"},"geometry":{"type":"Point","coordinates":[102.8384088697429,20.259159539880027]}},{"type":"Feature","properties":{"name_en":"Pungkao","did":610,"pid":6,"uuid":"610115"},"geometry":{"type":"Point","coordinates":[102.92860300983808,20.273812029623627]}},{"type":"Feature","properties":{"name_en":"Mueangnoy","did":610,"pid":6,"uuid":"610116"},"geometry":{"type":"Point","coordinates":[102.92340538997038,20.221210730263962]}},{"type":"Feature","properties":{"name_en":"Houayton","did":610,"pid":6,"uuid":"610117"},"geometry":{"type":"Point","coordinates":[103.04888993968274,20.271916460053337]}},{"type":"Feature","properties":{"name_en":"Viengthong","did":610,"pid":6,"uuid":"610118"},"geometry":{"type":"Point","coordinates":[103.08322079004968,20.281933089632798]}},{"type":"Feature","properties":{"name_en":"Phoutong","did":610,"pid":6,"uuid":"610119"},"geometry":{"type":"Point","coordinates":[103.0523626496019,20.216469759718432]}},{"type":"Feature","properties":{"name_en":"Moktameth","did":610,"pid":6,"uuid":"610121"},"geometry":{"type":"Point","coordinates":[102.82446766994232,20.22781348985239]}},{"type":"Feature","properties":{"name_en":"Mokseuk","did":610,"pid":6,"uuid":"610122"},"geometry":{"type":"Point","coordinates":[102.81768763001907,20.215660820153644]}},{"type":"Feature","properties":{"name_en":"Sa","did":610,"pid":6,"uuid":"610124"},"geometry":{"type":"Point","coordinates":[102.8203108302572,20.201364979874707]}},{"type":"Feature","properties":{"name_en":"Mokkha","did":610,"pid":6,"uuid":"610125"},"geometry":{"type":"Point","coordinates":[102.87458290025927,20.218105740329207]}},{"type":"Feature","properties":{"name_en":"Pakxang","did":610,"pid":6,"uuid":"610126"},"geometry":{"type":"Point","coordinates":[102.95022245014484,20.22423450014457]}},{"type":"Feature","properties":{"name_en":"Phoukham","did":610,"pid":6,"uuid":"610127"},"geometry":{"type":"Point","coordinates":[102.93992755003741,20.19841220034853]}},{"type":"Feature","properties":{"name_en":"Houaykai","did":610,"pid":6,"uuid":"610128"},"geometry":{"type":"Point","coordinates":[102.8625754102036,20.23124888992961]}},{"type":"Feature","properties":{"name_en":"Vangkham","did":610,"pid":6,"uuid":"610129"},"geometry":{"type":"Point","coordinates":[102.88331861042644,20.283898140059094]}},{"type":"Feature","properties":{"name_en":"Toumming","did":610,"pid":6,"uuid":"610130"},"geometry":{"type":"Point","coordinates":[103.05103261037668,20.249445759594835]}},{"type":"Feature","properties":{"name_en":"Sobhueang","did":610,"pid":6,"uuid":"610134"},"geometry":{"type":"Point","coordinates":[103.05493355012017,20.224984510122834]}},{"type":"Feature","properties":{"name_en":"Paphai","did":610,"pid":6,"uuid":"610135"},"geometry":{"type":"Point","coordinates":[103.05228554013996,20.209100470445687]}},{"type":"Feature","properties":{"name_en":"Hadhian","did":610,"pid":6,"uuid":"610137"},"geometry":{"type":"Point","coordinates":[103.04819030959132,20.186015789711373]}},{"type":"Feature","properties":{"name_en":"Nongkham","did":610,"pid":6,"uuid":"610142"},"geometry":{"type":"Point","coordinates":[103.06223535997597,20.135982529746133]}},{"type":"Feature","properties":{"name_en":"Houayvieng","did":610,"pid":6,"uuid":"610143"},"geometry":{"type":"Point","coordinates":[103.08117594957572,20.155640019909605]}},{"type":"Feature","properties":{"name_en":"Chongtai","did":610,"pid":6,"uuid":"610144"},"geometry":{"type":"Point","coordinates":[103.08113067998758,20.122227989991604]}},{"type":"Feature","properties":{"name_en":"Chakkang","did":610,"pid":6,"uuid":"610145"},"geometry":{"type":"Point","coordinates":[102.79767073009783,20.41682741983196]}},{"type":"Feature","properties":{"name_en":"Namxoy","did":610,"pid":6,"uuid":"610146"},"geometry":{"type":"Point","coordinates":[102.83790269015796,20.389315409882173]}},{"type":"Feature","properties":{"name_en":"Navaen","did":610,"pid":6,"uuid":"610147"},"geometry":{"type":"Point","coordinates":[103.08553318966793,20.188985909788958]}},{"type":"Feature","properties":{"name_en":"Hadlao","did":610,"pid":6,"uuid":"610148"},"geometry":{"type":"Point","coordinates":[103.10862466954906,20.224495430399067]}},{"type":"Feature","properties":{"name_en":"Phouphakpheo","did":610,"pid":6,"uuid":"610149"},"geometry":{"type":"Point","coordinates":[103.03561000004784,20.4769580001461]}}]}