{"type":"FeatureCollection","features":[{"type":"Feature","properties":{"name_en":"Phouleuy","did":611,"pid":6,"uuid":"611001"},"geometry":{"type":"Point","coordinates":[102.38141862987875,19.53392684985787]}},{"type":"Feature","properties":{"name_en":"Houaysataen","did":611,"pid":6,"uuid":"611002"},"geometry":{"type":"Point","coordinates":[102.3561791197346,19.542780069578367]}},{"type":"Feature","properties":{"name_en":"Thingsata","did":611,"pid":6,"uuid":"611004"},"geometry":{"type":"Point","coordinates":[102.41543708006635,19.544543200404277]}},{"type":"Feature","properties":{"name_en":"Phalangnou","did":611,"pid":6,"uuid":"611005"},"geometry":{"type":"Point","coordinates":[102.40832344993696,19.574366690051146]}},{"type":"Feature","properties":{"name_en":"Phonxai","did":611,"pid":6,"uuid":"611006"},"geometry":{"type":"Point","coordinates":[102.40316186973791,19.523519969953174]}},{"type":"Feature","properties":{"name_en":"Phakangnoy","did":611,"pid":6,"uuid":"611007"},"geometry":{"type":"Point","coordinates":[102.41595935967818,19.506337150231758]}},{"type":"Feature","properties":{"name_en":"Phakaengnhai","did":611,"pid":6,"uuid":"611008"},"geometry":{"type":"Point","coordinates":[102.40648848038495,19.490889219817863]}},{"type":"Feature","properties":{"name_en":"Phoukhoun","did":611,"pid":6,"uuid":"611010"},"geometry":{"type":"Point","coordinates":[102.42385520006648,19.454078749585488]}},{"type":"Feature","properties":{"name_en":"Changuean","did":611,"pid":6,"uuid":"611012"},"geometry":{"type":"Point","coordinates":[102.38054220979099,19.48138657038679]}},{"type":"Feature","properties":{"name_en":"Xaythong","did":611,"pid":6,"uuid":"611013"},"geometry":{"type":"Point","coordinates":[102.39371445979485,19.48514258010895]}},{"type":"Feature","properties":{"name_en":"Tang uy","did":611,"pid":6,"uuid":"611014"},"geometry":{"type":"Point","coordinates":[102.44047902991363,19.511374670308225]}},{"type":"Feature","properties":{"name_en":"Namsouan","did":611,"pid":6,"uuid":"611015"},"geometry":{"type":"Point","coordinates":[102.46996597011731,19.52914363976496]}},{"type":"Feature","properties":{"name_en":"Bouamphor","did":611,"pid":6,"uuid":"611022"},"geometry":{"type":"Point","coordinates":[102.62276538999085,19.62018249974596]}},{"type":"Feature","properties":{"name_en":"Nakeun","did":611,"pid":6,"uuid":"611024"},"geometry":{"type":"Point","coordinates":[102.65723999005846,19.642525889710996]}},{"type":"Feature","properties":{"name_en":"Hintang","did":611,"pid":6,"uuid":"611027"},"geometry":{"type":"Point","coordinates":[102.55362709026441,19.657858319732533]}},{"type":"Feature","properties":{"name_en":"Phonkham","did":611,"pid":6,"uuid":"611032"},"geometry":{"type":"Point","coordinates":[102.62485835003959,19.515216099789168]}},{"type":"Feature","properties":{"name_en":"Phouvienggnai","did":611,"pid":6,"uuid":"611033"},"geometry":{"type":"Point","coordinates":[102.61845499038145,19.500821940064363]}},{"type":"Feature","properties":{"name_en":"Phouviengnoy","did":611,"pid":6,"uuid":"611034"},"geometry":{"type":"Point","coordinates":[102.59035097007086,19.470058509934457]}},{"type":"Feature","properties":{"name_en":"Nanane","did":611,"pid":6,"uuid":"611035"},"geometry":{"type":"Point","coordinates":[102.5488484003231,19.459451050090717]}},{"type":"Feature","properties":{"name_en":"Somboun","did":611,"pid":6,"uuid":"611036"},"geometry":{"type":"Point","coordinates":[102.5162966104212,19.47433520998562]}},{"type":"Feature","properties":{"name_en":"Phouyang","did":611,"pid":6,"uuid":"611037"},"geometry":{"type":"Point","coordinates":[102.50708086983519,19.481018519665014]}},{"type":"Feature","properties":{"name_en":"SouanMak","did":611,"pid":6,"uuid":"611039"},"geometry":{"type":"Point","coordinates":[102.51477327966468,19.5469094199922]}},{"type":"Feature","properties":{"name_en":"Phousoung","did":611,"pid":6,"uuid":"611042"},"geometry":{"type":"Point","coordinates":[102.48824372038415,19.47164159980451]}},{"type":"Feature","properties":{"name_en":"Longmieng","did":611,"pid":6,"uuid":"611043"},"geometry":{"type":"Point","coordinates":[102.48473547028009,19.455511050391873]}},{"type":"Feature","properties":{"name_en":"Mueangchim","did":611,"pid":6,"uuid":"611044"},"geometry":{"type":"Point","coordinates":[102.54048435001579,19.35337546026557]}},{"type":"Feature","properties":{"name_en":"Saensi","did":611,"pid":6,"uuid":"611045"},"geometry":{"type":"Point","coordinates":[102.4516789203567,19.437187870010455]}},{"type":"Feature","properties":{"name_en":"Samgnaek","did":611,"pid":6,"uuid":"611046"},"geometry":{"type":"Point","coordinates":[102.42552997975602,19.439822049818112]}},{"type":"Feature","properties":{"name_en":"Bangkalo","did":611,"pid":6,"uuid":"611047"},"geometry":{"type":"Point","coordinates":[102.42855535036088,19.41859923977093]}},{"type":"Feature","properties":{"name_en":"Viengkham","did":611,"pid":6,"uuid":"611048"},"geometry":{"type":"Point","coordinates":[102.43460038011992,19.410577009966417]}},{"type":"Feature","properties":{"name_en":"Phouvangchang","did":611,"pid":6,"uuid":"611049"},"geometry":{"type":"Point","coordinates":[102.46658161027071,19.44498824015038]}},{"type":"Feature","properties":{"name_en":"Longpod","did":611,"pid":6,"uuid":"611051"},"geometry":{"type":"Point","coordinates":[102.50544966953811,19.329369019804616]}},{"type":"Feature","properties":{"name_en":"Phakeo","did":611,"pid":6,"uuid":"611052"},"geometry":{"type":"Point","coordinates":[102.48379930047756,19.352290339831463]}},{"type":"Feature","properties":{"name_en":"Nammadao","did":611,"pid":6,"uuid":"611053"},"geometry":{"type":"Point","coordinates":[102.565782190197,19.2946792598213]}},{"type":"Feature","properties":{"name_en":"Lak 5","did":611,"pid":6,"uuid":"611054"},"geometry":{"type":"Point","coordinates":[102.52755309045737,19.379256769637408]}},{"type":"Feature","properties":{"name_en":"Viengsamai","did":611,"pid":6,"uuid":"611055"},"geometry":{"type":"Point","coordinates":[102.43286154959041,19.417913600011616]}},{"type":"Feature","properties":{"name_en":"Phavay","did":611,"pid":6,"uuid":"611056"},"geometry":{"type":"Point","coordinates":[102.64903418965841,19.63399772984788]}},{"type":"Feature","properties":{"name_en":"Namting","did":611,"pid":6,"uuid":"611057"},"geometry":{"type":"Point","coordinates":[102.65414672966963,19.40884404957738]}},{"type":"Feature","properties":{"name_en":"Namchao","did":611,"pid":6,"uuid":"611058"},"geometry":{"type":"Point","coordinates":[102.59386299047908,19.550302659688896]}}]}