{"type":"FeatureCollection","features":[{"type":"Feature","properties":{"name_en":"Vungxieng","did":612,"pid":6,"uuid":"612001"},"geometry":{"type":"Point","coordinates":[103.07635744041175,20.73210868006849]}},{"type":"Feature","properties":{"name_en":"Poungbor","did":612,"pid":6,"uuid":"612002"},"geometry":{"type":"Point","coordinates":[103.09964747974144,20.73272197986637]}},{"type":"Feature","properties":{"name_en":"Done","did":612,"pid":6,"uuid":"612003"},"geometry":{"type":"Point","coordinates":[103.11122624036258,20.773570350259114]}},{"type":"Feature","properties":{"name_en":"Kang","did":612,"pid":6,"uuid":"612004"},"geometry":{"type":"Point","coordinates":[103.04470250979213,20.763069750183945]}},{"type":"Feature","properties":{"name_en":"Pakuem","did":612,"pid":6,"uuid":"612005"},"geometry":{"type":"Point","coordinates":[103.06987990978732,20.751167120391532]}},{"type":"Feature","properties":{"name_en":"Nachan","did":612,"pid":6,"uuid":"612006"},"geometry":{"type":"Point","coordinates":[103.06342290968024,20.719745879973775]}},{"type":"Feature","properties":{"name_en":"Vungpan","did":612,"pid":6,"uuid":"612007"},"geometry":{"type":"Point","coordinates":[103.09173832011075,20.713157449639517]}},{"type":"Feature","properties":{"name_en":"Donengern","did":612,"pid":6,"uuid":"612008"},"geometry":{"type":"Point","coordinates":[103.1034710501626,20.703958060236328]}},{"type":"Feature","properties":{"name_en":"Naberng","did":612,"pid":6,"uuid":"612009"},"geometry":{"type":"Point","coordinates":[103.06650962976238,20.62001228984885]}},{"type":"Feature","properties":{"name_en":"Namai","did":612,"pid":6,"uuid":"612010"},"geometry":{"type":"Point","coordinates":[103.07525388031652,20.803300960210272]}},{"type":"Feature","properties":{"name_en":"Nasone","did":612,"pid":6,"uuid":"612011"},"geometry":{"type":"Point","coordinates":[103.2055830000607,20.86821360956083]}},{"type":"Feature","properties":{"name_en":"Hinsae","did":612,"pid":6,"uuid":"612013"},"geometry":{"type":"Point","coordinates":[103.17404566981021,20.806691189622203]}},{"type":"Feature","properties":{"name_en":"Naluang","did":612,"pid":6,"uuid":"612014"},"geometry":{"type":"Point","coordinates":[103.1802883495633,20.894054259854514]}},{"type":"Feature","properties":{"name_en":"Pounghone","did":612,"pid":6,"uuid":"612015"},"geometry":{"type":"Point","coordinates":[103.14981576993046,20.803513020001294]}},{"type":"Feature","properties":{"name_en":"Houylan","did":612,"pid":6,"uuid":"612016"},"geometry":{"type":"Point","coordinates":[103.0816856496029,20.859091659999454]}},{"type":"Feature","properties":{"name_en":"Thongsy","did":612,"pid":6,"uuid":"612017"},"geometry":{"type":"Point","coordinates":[102.97338819034411,20.742005280358388]}},{"type":"Feature","properties":{"name_en":"Thong-Tai","did":612,"pid":6,"uuid":"612018"},"geometry":{"type":"Point","coordinates":[102.9004953904663,20.71404349965846]}},{"type":"Feature","properties":{"name_en":"Thong-Neua","did":612,"pid":6,"uuid":"612019"},"geometry":{"type":"Point","coordinates":[102.94708468985934,20.756298349558065]}},{"type":"Feature","properties":{"name_en":"Houyhear","did":612,"pid":6,"uuid":"612020"},"geometry":{"type":"Point","coordinates":[102.93963678003745,20.788028799789263]}},{"type":"Feature","properties":{"name_en":"Phouyee","did":612,"pid":6,"uuid":"612023"},"geometry":{"type":"Point","coordinates":[102.90949099956772,20.876230000107014]}},{"type":"Feature","properties":{"name_en":"Kornot","did":612,"pid":6,"uuid":"612024"},"geometry":{"type":"Point","coordinates":[102.93970106998131,20.885718369942314]}},{"type":"Feature","properties":{"name_en":"Houythong","did":612,"pid":6,"uuid":"612025"},"geometry":{"type":"Point","coordinates":[102.9378262095215,20.91664507995457]}},{"type":"Feature","properties":{"name_en":"Meuanghueb","did":612,"pid":6,"uuid":"612026"},"geometry":{"type":"Point","coordinates":[102.930768980078,20.995893290395145]}},{"type":"Feature","properties":{"name_en":"Bomkor","did":612,"pid":6,"uuid":"612027"},"geometry":{"type":"Point","coordinates":[102.97303288025995,20.984567499813895]}},{"type":"Feature","properties":{"name_en":"Khampom","did":612,"pid":6,"uuid":"612028"},"geometry":{"type":"Point","coordinates":[102.85755943003477,20.9608047998021]}},{"type":"Feature","properties":{"name_en":"Sammeun","did":612,"pid":6,"uuid":"612029"},"geometry":{"type":"Point","coordinates":[102.83649435966736,20.920628329629174]}},{"type":"Feature","properties":{"name_en":"Yordsy","did":612,"pid":6,"uuid":"612030"},"geometry":{"type":"Point","coordinates":[102.81653956967672,20.896444190403663]}},{"type":"Feature","properties":{"name_en":"Phonesouk","did":612,"pid":6,"uuid":"612032"},"geometry":{"type":"Point","coordinates":[102.8396019998765,21.05500299972512]}},{"type":"Feature","properties":{"name_en":"Sobphone","did":612,"pid":6,"uuid":"612033"},"geometry":{"type":"Point","coordinates":[102.85206174038085,21.067775489931712]}},{"type":"Feature","properties":{"name_en":"Navat","did":612,"pid":6,"uuid":"612034"},"geometry":{"type":"Point","coordinates":[102.8535603397455,21.090915660252634]}},{"type":"Feature","properties":{"name_en":"Houyvan","did":612,"pid":6,"uuid":"612035"},"geometry":{"type":"Point","coordinates":[102.92052378039594,21.111507480147075]}},{"type":"Feature","properties":{"name_en":"Namluang","did":612,"pid":6,"uuid":"612036"},"geometry":{"type":"Point","coordinates":[102.82482742045228,21.031082279595843]}},{"type":"Feature","properties":{"name_en":"Houytalong","did":612,"pid":6,"uuid":"612037"},"geometry":{"type":"Point","coordinates":[102.84561362032593,20.988347059602386]}},{"type":"Feature","properties":{"name_en":"Longyang","did":612,"pid":6,"uuid":"612503"},"geometry":{"type":"Point","coordinates":[103.20703985968838,20.84212283973407]}},{"type":"Feature","properties":{"name_en":"Nasamphan","did":612,"pid":6,"uuid":"612994"},"geometry":{"type":"Point","coordinates":[103.05298600044219,20.838518000422933]}},{"type":"Feature","properties":{"name_en":"Houyan","did":612,"pid":6,"uuid":"612995"},"geometry":{"type":"Point","coordinates":[102.99533158955136,20.70965045982585]}},{"type":"Feature","properties":{"name_en":"Kiewdokkhae","did":612,"pid":6,"uuid":"612996"},"geometry":{"type":"Point","coordinates":[102.97956040008648,20.685815308139635]}},{"type":"Feature","properties":{"name_en":"Vungnaek","did":612,"pid":6,"uuid":"612997"},"geometry":{"type":"Point","coordinates":[103.05662899971648,20.753659000008895]}},{"type":"Feature","properties":{"name_en":"Houngsy","did":612,"pid":6,"uuid":"612998"},"geometry":{"type":"Point","coordinates":[102.80425194992631,20.924042029886262]}},{"type":"Feature","properties":{"name_en":"kuexsang","did":612,"pid":6,"uuid":"612999"},"geometry":{"type":"Point","coordinates":[102.81901902014441,20.960549149683636]}}]}