{"type":"FeatureCollection","features":[{"type":"Feature","properties":{"name_en":"Misook","did":701,"pid":7,"uuid":"701001"},"geometry":{"type":"Point","coordinates":[104.04861310956737,20.405783420196297]}},{"type":"Feature","properties":{"name_en":"Naang","did":701,"pid":7,"uuid":"701002"},"geometry":{"type":"Point","coordinates":[104.04516102967287,20.390365579810798]}},{"type":"Feature","properties":{"name_en":"Houasieng","did":701,"pid":7,"uuid":"701005"},"geometry":{"type":"Point","coordinates":[103.94342843991743,20.472394150222602]}},{"type":"Feature","properties":{"name_en":"kangti","did":701,"pid":7,"uuid":"701007"},"geometry":{"type":"Point","coordinates":[103.90556930967546,20.50229148012869]}},{"type":"Feature","properties":{"name_en":"Houaiouang","did":701,"pid":7,"uuid":"701010"},"geometry":{"type":"Point","coordinates":[104.03227611013217,20.46730985964524]}},{"type":"Feature","properties":{"name_en":"Mouan","did":701,"pid":7,"uuid":"701011"},"geometry":{"type":"Point","coordinates":[103.99645924002614,20.472149230312905]}},{"type":"Feature","properties":{"name_en":"Houaihom","did":701,"pid":7,"uuid":"701012"},"geometry":{"type":"Point","coordinates":[103.99480548991941,20.477462359927145]}},{"type":"Feature","properties":{"name_en":"ong","did":701,"pid":7,"uuid":"701013"},"geometry":{"type":"Point","coordinates":[103.97359173024618,20.464876930311775]}},{"type":"Feature","properties":{"name_en":"Kang","did":701,"pid":7,"uuid":"701014"},"geometry":{"type":"Point","coordinates":[103.95541137972091,20.47747282972244]}},{"type":"Feature","properties":{"name_en":"Tham","did":701,"pid":7,"uuid":"701015"},"geometry":{"type":"Point","coordinates":[103.96836736958772,20.47114113970342]}},{"type":"Feature","properties":{"name_en":"Nanong","did":701,"pid":7,"uuid":"701016"},"geometry":{"type":"Point","coordinates":[103.93158632004881,20.247895439683784]}},{"type":"Feature","properties":{"name_en":"Sopxine","did":701,"pid":7,"uuid":"701017"},"geometry":{"type":"Point","coordinates":[104.07112800003014,20.145714839664695]}},{"type":"Feature","properties":{"name_en":"Kangnam+Sobxay","did":701,"pid":7,"uuid":"701018"},"geometry":{"type":"Point","coordinates":[104.02883383024603,20.157988460305805]}},{"type":"Feature","properties":{"name_en":"Nasamong+phand","did":701,"pid":7,"uuid":"701019"},"geometry":{"type":"Point","coordinates":[104.01742245983846,20.157763319554164]}},{"type":"Feature","properties":{"name_en":"Huoinhong","did":701,"pid":7,"uuid":"701020"},"geometry":{"type":"Point","coordinates":[104.0300907797197,20.0996757298407]}},{"type":"Feature","properties":{"name_en":"Nasala","did":701,"pid":7,"uuid":"701021"},"geometry":{"type":"Point","coordinates":[103.97329350043904,20.2189906102062]}},{"type":"Feature","properties":{"name_en":"Natang+houainhoun","did":701,"pid":7,"uuid":"701022"},"geometry":{"type":"Point","coordinates":[104.24739488962497,20.18338806031351]}},{"type":"Feature","properties":{"name_en":"Phieng","did":701,"pid":7,"uuid":"701023"},"geometry":{"type":"Point","coordinates":[104.2424739598857,20.18501826029805]}},{"type":"Feature","properties":{"name_en":"Him","did":701,"pid":7,"uuid":"701024"},"geometry":{"type":"Point","coordinates":[104.25520934030907,20.18329266990546]}},{"type":"Feature","properties":{"name_en":"Nadouang","did":701,"pid":7,"uuid":"701026"},"geometry":{"type":"Point","coordinates":[104.22677004998762,20.19013608044598]}},{"type":"Feature","properties":{"name_en":"Nakham+Sumnot","did":701,"pid":7,"uuid":"701027"},"geometry":{"type":"Point","coordinates":[104.18388790000917,20.113278470075244]}},{"type":"Feature","properties":{"name_en":"Phiengdi+houaina","did":701,"pid":7,"uuid":"701028"},"geometry":{"type":"Point","coordinates":[104.12219264986435,20.226929199771078]}},{"type":"Feature","properties":{"name_en":"Nakoon","did":701,"pid":7,"uuid":"701029"},"geometry":{"type":"Point","coordinates":[104.19614366011955,20.231024090193664]}},{"type":"Feature","properties":{"name_en":"Kangko","did":701,"pid":7,"uuid":"701030"},"geometry":{"type":"Point","coordinates":[104.12051659955522,20.398434669735803]}},{"type":"Feature","properties":{"name_en":"Kangkeok","did":701,"pid":7,"uuid":"701031"},"geometry":{"type":"Point","coordinates":[104.10072668045088,20.414190889591083]}},{"type":"Feature","properties":{"name_en":"Houaiko","did":701,"pid":7,"uuid":"701032"},"geometry":{"type":"Point","coordinates":[104.13529665990794,20.402068899815465]}},{"type":"Feature","properties":{"name_en":"Hardkork","did":701,"pid":7,"uuid":"701033"},"geometry":{"type":"Point","coordinates":[104.06933125037841,20.362865139574613]}},{"type":"Feature","properties":{"name_en":"Pacha+Dindeng","did":701,"pid":7,"uuid":"701035"},"geometry":{"type":"Point","coordinates":[104.09140072020412,20.38166642042625]}},{"type":"Feature","properties":{"name_en":"Phoulouang","did":701,"pid":7,"uuid":"701037"},"geometry":{"type":"Point","coordinates":[104.09545831042693,20.401835380269937]}},{"type":"Feature","properties":{"name_en":"Phoulone+Phahin","did":701,"pid":7,"uuid":"701038"},"geometry":{"type":"Point","coordinates":[104.15300427039966,20.38903529015616]}},{"type":"Feature","properties":{"name_en":"Hindum","did":701,"pid":7,"uuid":"701040"},"geometry":{"type":"Point","coordinates":[104.01387054036309,20.384784740358988]}},{"type":"Feature","properties":{"name_en":"Nangeung","did":701,"pid":7,"uuid":"701041"},"geometry":{"type":"Point","coordinates":[104.14218691987541,20.32721750002822]}},{"type":"Feature","properties":{"name_en":"Thumpheug","did":701,"pid":7,"uuid":"701044"},"geometry":{"type":"Point","coordinates":[104.09737642967454,20.171289700178264]}},{"type":"Feature","properties":{"name_en":"Phouvieng(hueaphou)","did":701,"pid":7,"uuid":"701046"},"geometry":{"type":"Point","coordinates":[104.15120534984665,20.218045220303587]}},{"type":"Feature","properties":{"name_en":"houaiBuean+houainhalp","did":701,"pid":7,"uuid":"701048"},"geometry":{"type":"Point","coordinates":[104.20560214036259,20.181815200266907]}},{"type":"Feature","properties":{"name_en":"Mueangvanh+cherekan g","did":701,"pid":7,"uuid":"701049"},"geometry":{"type":"Point","coordinates":[104.17813003004242,20.215975560270884]}},{"type":"Feature","properties":{"name_en":"Naleum","did":701,"pid":7,"uuid":"701050"},"geometry":{"type":"Point","coordinates":[104.16725719035485,20.084597519959978]}},{"type":"Feature","properties":{"name_en":"Nahouai","did":701,"pid":7,"uuid":"701052"},"geometry":{"type":"Point","coordinates":[104.18848587031775,20.201462129867902]}},{"type":"Feature","properties":{"name_en":"Phoudone","did":701,"pid":7,"uuid":"701054"},"geometry":{"type":"Point","coordinates":[104.1525,20.369722]}},{"type":"Feature","properties":{"name_en":"nakang","did":701,"pid":7,"uuid":"701056"},"geometry":{"type":"Point","coordinates":[104.19395413973646,20.221511390223966]}},{"type":"Feature","properties":{"name_en":"Hunhon+Phanhong","did":701,"pid":7,"uuid":"701057"},"geometry":{"type":"Point","coordinates":[104.1667492503866,20.132509240445728]}},{"type":"Feature","properties":{"name_en":"phavanh","did":701,"pid":7,"uuid":"701059"},"geometry":{"type":"Point","coordinates":[104.1173799195854,20.407206499569]}},{"type":"Feature","properties":{"name_en":"Huaysane+Huaylong","did":701,"pid":7,"uuid":"701061"},"geometry":{"type":"Point","coordinates":[104.32868510035102,20.159480019818016]}},{"type":"Feature","properties":{"name_en":"Sombong+Huayhane","did":701,"pid":7,"uuid":"701062"},"geometry":{"type":"Point","coordinates":[104.24117409989103,20.159052289772468]}},{"type":"Feature","properties":{"name_en":"Kong+Na","did":701,"pid":7,"uuid":"701066"},"geometry":{"type":"Point","coordinates":[104.27886181989967,20.17702712001932]}},{"type":"Feature","properties":{"name_en":"Tueamg","did":701,"pid":7,"uuid":"701068"},"geometry":{"type":"Point","coordinates":[104.2923405002563,20.149006080057895]}},{"type":"Feature","properties":{"name_en":"Houaima+houaimoon","did":701,"pid":7,"uuid":"701069"},"geometry":{"type":"Point","coordinates":[103.69428215983308,20.40088813956848]}},{"type":"Feature","properties":{"name_en":"Kormouang+Sobka","did":701,"pid":7,"uuid":"701070"},"geometry":{"type":"Point","coordinates":[103.67512548024851,20.480748399766377]}},{"type":"Feature","properties":{"name_en":"Mueangnhued+Sathone","did":701,"pid":7,"uuid":"701071"},"geometry":{"type":"Point","coordinates":[103.75331212992235,20.403221989739574]}},{"type":"Feature","properties":{"name_en":"Naka","did":701,"pid":7,"uuid":"701076"},"geometry":{"type":"Point","coordinates":[104.35071081988987,20.22487504023223]}},{"type":"Feature","properties":{"name_en":"Haonuea+nabig","did":701,"pid":7,"uuid":"701078"},"geometry":{"type":"Point","coordinates":[104.27815982985523,20.23834493026069]}},{"type":"Feature","properties":{"name_en":"Haotay","did":701,"pid":7,"uuid":"701079"},"geometry":{"type":"Point","coordinates":[104.26314850989846,20.245395029931583]}},{"type":"Feature","properties":{"name_en":"Kanghoua+ Samthang","did":701,"pid":7,"uuid":"701081"},"geometry":{"type":"Point","coordinates":[104.11079149967019,20.459813760377546]}},{"type":"Feature","properties":{"name_en":"Ckaud+Houainhong","did":701,"pid":7,"uuid":"701083"},"geometry":{"type":"Point","coordinates":[104.02248739042705,20.117400689677115]}},{"type":"Feature","properties":{"name_en":"Salurng","did":701,"pid":7,"uuid":"701084"},"geometry":{"type":"Point","coordinates":[103.98710393958763,20.225204200224706]}},{"type":"Feature","properties":{"name_en":"Pand","did":701,"pid":7,"uuid":"701085"},"geometry":{"type":"Point","coordinates":[103.99013416954398,20.11984375999193]}},{"type":"Feature","properties":{"name_en":"Houaithoom","did":701,"pid":7,"uuid":"701087"},"geometry":{"type":"Point","coordinates":[103.92284734962755,20.52969670039423]}},{"type":"Feature","properties":{"name_en":"Nathong","did":701,"pid":7,"uuid":"701089"},"geometry":{"type":"Point","coordinates":[104.0675414602406,20.42111183003118]}},{"type":"Feature","properties":{"name_en":"Or+Bone","did":701,"pid":7,"uuid":"701091"},"geometry":{"type":"Point","coordinates":[104.03359743980421,20.572982439952206]}},{"type":"Feature","properties":{"name_en":"Nam e","did":701,"pid":7,"uuid":"701093"},"geometry":{"type":"Point","coordinates":[103.91275596014836,20.616778639909207]}},{"type":"Feature","properties":{"name_en":"Longauead","did":701,"pid":7,"uuid":"701095"},"geometry":{"type":"Point","coordinates":[104.03301448005472,20.544409449617678]}},{"type":"Feature","properties":{"name_en":"Phachanhay","did":701,"pid":7,"uuid":"701096"},"geometry":{"type":"Point","coordinates":[104.049990179545,20.517823309846673]}},{"type":"Feature","properties":{"name_en":"Naseng+Numkoup","did":701,"pid":7,"uuid":"701098"},"geometry":{"type":"Point","coordinates":[104.08442764951951,20.5465528701639]}},{"type":"Feature","properties":{"name_en":"Nongkang","did":701,"pid":7,"uuid":"701100"},"geometry":{"type":"Point","coordinates":[104.07624003029196,20.62077949027363]}},{"type":"Feature","properties":{"name_en":"Sanand+Phouchang","did":701,"pid":7,"uuid":"701101"},"geometry":{"type":"Point","coordinates":[104.09470896969285,20.65340295037165]}},{"type":"Feature","properties":{"name_en":"Naout+Samord","did":701,"pid":7,"uuid":"701102"},"geometry":{"type":"Point","coordinates":[104.12574431014833,20.625091809642388]}},{"type":"Feature","properties":{"name_en":"Nongdand+Bouay","did":701,"pid":7,"uuid":"701103"},"geometry":{"type":"Point","coordinates":[104.1179089095725,20.60239520964848]}},{"type":"Feature","properties":{"name_en":"Ckouadin","did":701,"pid":7,"uuid":"701105"},"geometry":{"type":"Point","coordinates":[104.06796566999458,20.59597650958905]}},{"type":"Feature","properties":{"name_en":"Longmao+Longkieng","did":701,"pid":7,"uuid":"701106"},"geometry":{"type":"Point","coordinates":[104.04654093971024,20.598267460316524]}},{"type":"Feature","properties":{"name_en":"Hamtay","did":701,"pid":7,"uuid":"701109"},"geometry":{"type":"Point","coordinates":[104.01068341039435,20.322141670249376]}},{"type":"Feature","properties":{"name_en":"Namueang","did":701,"pid":7,"uuid":"701110"},"geometry":{"type":"Point","coordinates":[104.01156979964259,20.314194869717326]}},{"type":"Feature","properties":{"name_en":"Hamnuea + Yath","did":701,"pid":7,"uuid":"701111"},"geometry":{"type":"Point","coordinates":[104.00427528034456,20.324543839789165]}},{"type":"Feature","properties":{"name_en":"Nachong","did":701,"pid":7,"uuid":"701112"},"geometry":{"type":"Point","coordinates":[103.98325488970534,20.334948120418552]}},{"type":"Feature","properties":{"name_en":"Houaisone","did":701,"pid":7,"uuid":"701113"},"geometry":{"type":"Point","coordinates":[103.98134465031625,20.294551630384824]}},{"type":"Feature","properties":{"name_en":"Houaiphek","did":701,"pid":7,"uuid":"701114"},"geometry":{"type":"Point","coordinates":[103.98110476039065,20.360710070300446]}},{"type":"Feature","properties":{"name_en":"Luk 12","did":701,"pid":7,"uuid":"701115"},"geometry":{"type":"Point","coordinates":[104.00407955985779,20.353792990308268]}},{"type":"Feature","properties":{"name_en":"Huoisan","did":701,"pid":7,"uuid":"701116"},"geometry":{"type":"Point","coordinates":[104.02666862013976,20.343411159686394]}},{"type":"Feature","properties":{"name_en":"Sangkam+nakam","did":701,"pid":7,"uuid":"701118"},"geometry":{"type":"Point","coordinates":[103.87683555967723,20.352245359721465]}},{"type":"Feature","properties":{"name_en":"Nakha+Phoupieth","did":701,"pid":7,"uuid":"701120"},"geometry":{"type":"Point","coordinates":[103.90398689977053,20.345015960158168]}},{"type":"Feature","properties":{"name_en":"Naphieng","did":701,"pid":7,"uuid":"701122"},"geometry":{"type":"Point","coordinates":[103.85021731965848,20.353332909830606]}},{"type":"Feature","properties":{"name_en":"Korhay","did":701,"pid":7,"uuid":"701123"},"geometry":{"type":"Point","coordinates":[103.84845771030527,20.434887479689348]}},{"type":"Feature","properties":{"name_en":"Kangkouang","did":701,"pid":7,"uuid":"701124"},"geometry":{"type":"Point","coordinates":[103.85402286987822,20.372300990317182]}},{"type":"Feature","properties":{"name_en":"Phonesay","did":701,"pid":7,"uuid":"701126"},"geometry":{"type":"Point","coordinates":[104.02246567955528,20.235640760252192]}},{"type":"Feature","properties":{"name_en":"Houaisath","did":701,"pid":7,"uuid":"701127"},"geometry":{"type":"Point","coordinates":[104.05566615018674,20.217938180281468]}},{"type":"Feature","properties":{"name_en":"Tabong","did":701,"pid":7,"uuid":"701128"},"geometry":{"type":"Point","coordinates":[104.09346475979908,20.218412349614688]}},{"type":"Feature","properties":{"name_en":"Done+Bang","did":701,"pid":7,"uuid":"701130"},"geometry":{"type":"Point","coordinates":[104.04406601976898,20.27383416026379]}},{"type":"Feature","properties":{"name_en":"Mueangnhueang","did":701,"pid":7,"uuid":"701131"},"geometry":{"type":"Point","coordinates":[104.072687449552,20.273990399818214]}},{"type":"Feature","properties":{"name_en":"Houaykong","did":701,"pid":7,"uuid":"701132"},"geometry":{"type":"Point","coordinates":[104.07674479006356,20.27518397983647]}},{"type":"Feature","properties":{"name_en":"Samnuea","did":701,"pid":7,"uuid":"701136"},"geometry":{"type":"Point","coordinates":[104.04076555992307,20.424347240426385]}},{"type":"Feature","properties":{"name_en":"Phoung","did":701,"pid":7,"uuid":"701137"},"geometry":{"type":"Point","coordinates":[104.02049031989198,20.426472639790642]}},{"type":"Feature","properties":{"name_en":"Kanh","did":701,"pid":7,"uuid":"701138"},"geometry":{"type":"Point","coordinates":[104.00029780990683,20.433543609833883]}},{"type":"Feature","properties":{"name_en":"Kor","did":701,"pid":7,"uuid":"701139"},"geometry":{"type":"Point","coordinates":[104.01653942993278,20.43678354967304]}},{"type":"Feature","properties":{"name_en":"Ngiew","did":701,"pid":7,"uuid":"701140"},"geometry":{"type":"Point","coordinates":[104.00741563969815,20.4413139698373]}},{"type":"Feature","properties":{"name_en":"Lou","did":701,"pid":7,"uuid":"701141"},"geometry":{"type":"Point","coordinates":[103.98646423978686,20.43104061021899]}},{"type":"Feature","properties":{"name_en":"Kaytay+Kaynuea","did":701,"pid":7,"uuid":"701142"},"geometry":{"type":"Point","coordinates":[103.96383988978351,20.434419690221578]}},{"type":"Feature","properties":{"name_en":"Naliew","did":701,"pid":7,"uuid":"701143"},"geometry":{"type":"Point","coordinates":[104.0439111200808,20.430876240350685]}},{"type":"Feature","properties":{"name_en":"Navieng","did":701,"pid":7,"uuid":"701144"},"geometry":{"type":"Point","coordinates":[104.05375139006425,20.4105374703416]}},{"type":"Feature","properties":{"name_en":"Nanongbua","did":701,"pid":7,"uuid":"701145"},"geometry":{"type":"Point","coordinates":[104.05846009047075,20.41663898965852]}},{"type":"Feature","properties":{"name_en":"Nathongchong","did":701,"pid":7,"uuid":"701146"},"geometry":{"type":"Point","coordinates":[104.05219218969134,20.41349694989654]}},{"type":"Feature","properties":{"name_en":"Phunhxay","did":701,"pid":7,"uuid":"701147"},"geometry":{"type":"Point","coordinates":[104.04836593006178,20.414328690422266]}},{"type":"Feature","properties":{"name_en":"Thathmouang","did":701,"pid":7,"uuid":"701148"},"geometry":{"type":"Point","coordinates":[104.04337979025767,20.42023558025457]}},{"type":"Feature","properties":{"name_en":"KeoNongvai","did":701,"pid":7,"uuid":"701149"},"geometry":{"type":"Point","coordinates":[104.04182746016237,20.422748900108164]}},{"type":"Feature","properties":{"name_en":"Nasakang","did":701,"pid":7,"uuid":"701150"},"geometry":{"type":"Point","coordinates":[104.04539086028738,20.407303310306748]}},{"type":"Feature","properties":{"name_en":"Banh+houaisan","did":701,"pid":7,"uuid":"701151"},"geometry":{"type":"Point","coordinates":[104.03806809039355,20.345293070121315]}},{"type":"Feature","properties":{"name_en":"Luck 20","did":701,"pid":7,"uuid":"701152"},"geometry":{"type":"Point","coordinates":[104.02638790977649,20.31414188978362]}},{"type":"Feature","properties":{"name_en":"Sivilay+Samaki","did":701,"pid":7,"uuid":"701155"},"geometry":{"type":"Point","coordinates":[104.00153925960988,20.439106680308363]}},{"type":"Feature","properties":{"name_en":"Yeart+Huoikam","did":701,"pid":7,"uuid":"701157"},"geometry":{"type":"Point","coordinates":[103.9853731601705,20.31513850006768]}},{"type":"Feature","properties":{"name_en":"Phoneckam","did":701,"pid":7,"uuid":"701159"},"geometry":{"type":"Point","coordinates":[104.07371229972073,20.416014120328573]}},{"type":"Feature","properties":{"name_en":"Phonesavang","did":701,"pid":7,"uuid":"701999"},"geometry":{"type":"Point","coordinates":[104.3273399996754,20.23040000044339]}}]}