{"type":"FeatureCollection","features":[{"type":"Feature","properties":{"name_en":"Mongnam","did":702,"pid":7,"uuid":"702001"},"geometry":{"type":"Point","coordinates":[104.32597154987681,20.84844857024111]}},{"type":"Feature","properties":{"name_en":"Phalong","did":702,"pid":7,"uuid":"702002"},"geometry":{"type":"Point","coordinates":[104.28747305011869,20.905422380434292]}},{"type":"Feature","properties":{"name_en":"Thalath","did":702,"pid":7,"uuid":"702003"},"geometry":{"type":"Point","coordinates":[104.2897363298732,20.878769940070285]}},{"type":"Feature","properties":{"name_en":"Boungsadd","did":702,"pid":7,"uuid":"702004"},"geometry":{"type":"Point","coordinates":[104.2878113402524,20.871115419939045]}},{"type":"Feature","properties":{"name_en":"Sobphong","did":702,"pid":7,"uuid":"702006"},"geometry":{"type":"Point","coordinates":[104.29883999974585,20.8364689100378]}},{"type":"Feature","properties":{"name_en":"Houaiphou","did":702,"pid":7,"uuid":"702007"},"geometry":{"type":"Point","coordinates":[104.31970657996261,20.851574189812485]}},{"type":"Feature","properties":{"name_en":"Phackom","did":702,"pid":7,"uuid":"702008"},"geometry":{"type":"Point","coordinates":[104.36980579965017,20.806149640363582]}},{"type":"Feature","properties":{"name_en":"Thandsan","did":702,"pid":7,"uuid":"702009"},"geometry":{"type":"Point","coordinates":[104.13259625990398,20.89655399009986]}},{"type":"Feature","properties":{"name_en":"NaNong","did":702,"pid":7,"uuid":"702010"},"geometry":{"type":"Point","coordinates":[104.07324182971557,20.880300390434392]}},{"type":"Feature","properties":{"name_en":"Naduea","did":702,"pid":7,"uuid":"702011"},"geometry":{"type":"Point","coordinates":[104.07507695959994,20.90435964012652]}},{"type":"Feature","properties":{"name_en":"Natong","did":702,"pid":7,"uuid":"702013"},"geometry":{"type":"Point","coordinates":[104.07466197019122,20.87734434969505]}},{"type":"Feature","properties":{"name_en":"Sobphin","did":702,"pid":7,"uuid":"702014"},"geometry":{"type":"Point","coordinates":[104.1424517902801,20.89693353001495]}},{"type":"Feature","properties":{"name_en":"Siengdand","did":702,"pid":7,"uuid":"702016"},"geometry":{"type":"Point","coordinates":[104.0755741799329,20.897597040378656]}},{"type":"Feature","properties":{"name_en":"Sobdoung","did":702,"pid":7,"uuid":"702017"},"geometry":{"type":"Point","coordinates":[104.14097481038846,20.934651340160396]}},{"type":"Feature","properties":{"name_en":"Kokxai","did":702,"pid":7,"uuid":"702018"},"geometry":{"type":"Point","coordinates":[104.14433185023348,20.73534107998487]}},{"type":"Feature","properties":{"name_en":"Sobmone","did":702,"pid":7,"uuid":"702022"},"geometry":{"type":"Point","coordinates":[104.16606863996694,20.77725101035871]}},{"type":"Feature","properties":{"name_en":"Phiengnham","did":702,"pid":7,"uuid":"702023"},"geometry":{"type":"Point","coordinates":[104.2096315697928,20.759841550357965]}},{"type":"Feature","properties":{"name_en":"Taontay","did":702,"pid":7,"uuid":"702025"},"geometry":{"type":"Point","coordinates":[104.17784504988983,20.769495910384656]}},{"type":"Feature","properties":{"name_en":"Houaipid","did":702,"pid":7,"uuid":"702026"},"geometry":{"type":"Point","coordinates":[104.22582817019835,20.80527624026176]}},{"type":"Feature","properties":{"name_en":"Nahuea","did":702,"pid":7,"uuid":"702027"},"geometry":{"type":"Point","coordinates":[104.18129084982928,20.74273241017863]}},{"type":"Feature","properties":{"name_en":"Houaimone","did":702,"pid":7,"uuid":"702028"},"geometry":{"type":"Point","coordinates":[104.14677660006939,20.748051059555532]}},{"type":"Feature","properties":{"name_en":"Phonhthong","did":702,"pid":7,"uuid":"702029"},"geometry":{"type":"Point","coordinates":[104.22905093014813,20.76310731035126]}},{"type":"Feature","properties":{"name_en":"Navieng","did":702,"pid":7,"uuid":"702030"},"geometry":{"type":"Point","coordinates":[104.18365780996884,20.742254139750465]}},{"type":"Feature","properties":{"name_en":"Phiengsa","did":702,"pid":7,"uuid":"702031"},"geometry":{"type":"Point","coordinates":[104.25264339005587,20.897048439689534]}},{"type":"Feature","properties":{"name_en":"Korhay","did":702,"pid":7,"uuid":"702032"},"geometry":{"type":"Point","coordinates":[104.2602803901563,20.893745049676166]}},{"type":"Feature","properties":{"name_en":"Nakang","did":702,"pid":7,"uuid":"702034"},"geometry":{"type":"Point","coordinates":[104.23391930995366,20.908508259737864]}},{"type":"Feature","properties":{"name_en":"Cherephai","did":702,"pid":7,"uuid":"702038"},"geometry":{"type":"Point","coordinates":[104.2714216996046,20.80788787040928]}},{"type":"Feature","properties":{"name_en":"Phaaout","did":702,"pid":7,"uuid":"702039"},"geometry":{"type":"Point","coordinates":[104.20984496987415,20.896730430035536]}},{"type":"Feature","properties":{"name_en":"Phienghome 1","did":702,"pid":7,"uuid":"702042"},"geometry":{"type":"Point","coordinates":[104.23804437962487,20.82153830963967]}},{"type":"Feature","properties":{"name_en":"Keovand","did":702,"pid":7,"uuid":"702043"},"geometry":{"type":"Point","coordinates":[104.22072435026409,20.874855929720344]}},{"type":"Feature","properties":{"name_en":"Phienghome 2","did":702,"pid":7,"uuid":"702044"},"geometry":{"type":"Point","coordinates":[104.071802149879,20.84170658997879]}},{"type":"Feature","properties":{"name_en":"Dindeng","did":702,"pid":7,"uuid":"702045"},"geometry":{"type":"Point","coordinates":[104.23114331046516,20.870679899817027]}},{"type":"Feature","properties":{"name_en":"Sobpheer","did":702,"pid":7,"uuid":"702046"},"geometry":{"type":"Point","coordinates":[104.277811399748,20.839487479596144]}},{"type":"Feature","properties":{"name_en":"Ckounckam","did":702,"pid":7,"uuid":"702047"},"geometry":{"type":"Point","coordinates":[104.06564798969173,20.861021760016996]}},{"type":"Feature","properties":{"name_en":"Loob","did":702,"pid":7,"uuid":"702049"},"geometry":{"type":"Point","coordinates":[104.07822831047386,20.847063129903592]}},{"type":"Feature","properties":{"name_en":"Phook","did":702,"pid":7,"uuid":"702050"},"geometry":{"type":"Point","coordinates":[104.10132597999214,20.88043583987645]}},{"type":"Feature","properties":{"name_en":"Sere","did":702,"pid":7,"uuid":"702051"},"geometry":{"type":"Point","coordinates":[104.09534238987662,20.846046660419645]}},{"type":"Feature","properties":{"name_en":"Sobsanh","did":702,"pid":7,"uuid":"702052"},"geometry":{"type":"Point","coordinates":[104.08653367956154,20.847284829604163]}},{"type":"Feature","properties":{"name_en":"Siengkor","did":702,"pid":7,"uuid":"702053"},"geometry":{"type":"Point","coordinates":[104.14689008968982,20.81369461013013]}},{"type":"Feature","properties":{"name_en":"Nongkieng","did":702,"pid":7,"uuid":"702054"},"geometry":{"type":"Point","coordinates":[104.11819857977883,20.751310449836687]}},{"type":"Feature","properties":{"name_en":"Nhouam","did":702,"pid":7,"uuid":"702055"},"geometry":{"type":"Point","coordinates":[104.12817916956593,20.76053967993952]}},{"type":"Feature","properties":{"name_en":"Phonhna","did":702,"pid":7,"uuid":"702056"},"geometry":{"type":"Point","coordinates":[104.13924126961629,20.777156969873534]}},{"type":"Feature","properties":{"name_en":"Nanhom","did":702,"pid":7,"uuid":"702057"},"geometry":{"type":"Point","coordinates":[104.1568568400667,20.784668829901115]}},{"type":"Feature","properties":{"name_en":"Houailang","did":702,"pid":7,"uuid":"702058"},"geometry":{"type":"Point","coordinates":[104.1431800901739,20.8264284803754]}},{"type":"Feature","properties":{"name_en":"Bao","did":702,"pid":7,"uuid":"702060"},"geometry":{"type":"Point","coordinates":[104.12635242043035,20.84231125957263]}},{"type":"Feature","properties":{"name_en":"Hub","did":702,"pid":7,"uuid":"702061"},"geometry":{"type":"Point","coordinates":[104.12719597047217,20.839365109955967]}},{"type":"Feature","properties":{"name_en":"Phongsai","did":702,"pid":7,"uuid":"702070"},"geometry":{"type":"Point","coordinates":[104.2829895695462,20.805370620318563]}},{"type":"Feature","properties":{"name_en":"Vangtang","did":702,"pid":7,"uuid":"702071"},"geometry":{"type":"Point","coordinates":[104.31138560994405,20.7817760704326]}},{"type":"Feature","properties":{"name_en":"Sobsai","did":702,"pid":7,"uuid":"702072"},"geometry":{"type":"Point","coordinates":[104.32009868011104,20.752692790305147]}},{"type":"Feature","properties":{"name_en":"Soblong","did":702,"pid":7,"uuid":"702073"},"geometry":{"type":"Point","coordinates":[104.34215515993301,20.7332969799467]}},{"type":"Feature","properties":{"name_en":"Sobkoeuy","did":702,"pid":7,"uuid":"702074"},"geometry":{"type":"Point","coordinates":[104.28469327006397,20.76010364990175]}},{"type":"Feature","properties":{"name_en":"Nackam","did":702,"pid":7,"uuid":"702075"},"geometry":{"type":"Point","coordinates":[104.25659788986702,20.757163030167398]}},{"type":"Feature","properties":{"name_en":"Phiengsang","did":702,"pid":7,"uuid":"702076"},"geometry":{"type":"Point","coordinates":[104.1387489998837,20.918847169658566]}},{"type":"Feature","properties":{"name_en":"Huana","did":702,"pid":7,"uuid":"702077"},"geometry":{"type":"Point","coordinates":[104.1859997997577,20.755220689734468]}},{"type":"Feature","properties":{"name_en":"Phoukong","did":702,"pid":7,"uuid":"702080"},"geometry":{"type":"Point","coordinates":[104.12491541953565,20.756373280138433]}},{"type":"Feature","properties":{"name_en":"Sobvent","did":702,"pid":7,"uuid":"702081"},"geometry":{"type":"Point","coordinates":[104.14687441976953,20.8402990999181]}},{"type":"Feature","properties":{"name_en":"Nongckam","did":702,"pid":7,"uuid":"702082"},"geometry":{"type":"Point","coordinates":[104.32734308002658,20.791417430176505]}},{"type":"Feature","properties":{"name_en":"Mouang","did":702,"pid":7,"uuid":"702083"},"geometry":{"type":"Point","coordinates":[104.32823507993064,20.785414899768696]}},{"type":"Feature","properties":{"name_en":"Keolom","did":702,"pid":7,"uuid":"702086"},"geometry":{"type":"Point","coordinates":[104.26039179014903,20.898908810328972]}}]}