{"type":"FeatureCollection","features":[{"type":"Feature","properties":{"name_en":"Nathouan","did":703,"pid":7,"uuid":"703001"},"geometry":{"type":"Point","coordinates":[103.36967351039539,20.08110050997265]}},{"type":"Feature","properties":{"name_en":"Sobmand","did":703,"pid":7,"uuid":"703002"},"geometry":{"type":"Point","coordinates":[103.3046952404255,19.943281910348098]}},{"type":"Feature","properties":{"name_en":"Konengoua","did":703,"pid":7,"uuid":"703003"},"geometry":{"type":"Point","coordinates":[103.28617768036403,19.93639114036876]}},{"type":"Feature","properties":{"name_en":"Phonhckam","did":703,"pid":7,"uuid":"703004"},"geometry":{"type":"Point","coordinates":[103.30567977029868,19.99538037969614]}},{"type":"Feature","properties":{"name_en":"Phunhlor","did":703,"pid":7,"uuid":"703005"},"geometry":{"type":"Point","coordinates":[103.34080245972308,19.94230659009597]}},{"type":"Feature","properties":{"name_en":"Phiengdi","did":703,"pid":7,"uuid":"703006"},"geometry":{"type":"Point","coordinates":[103.30433716037614,19.983897260001804]}},{"type":"Feature","properties":{"name_en":"Nalere","did":703,"pid":7,"uuid":"703007"},"geometry":{"type":"Point","coordinates":[103.30997223028051,19.973412500144853]}},{"type":"Feature","properties":{"name_en":"Kong","did":703,"pid":7,"uuid":"703008"},"geometry":{"type":"Point","coordinates":[103.36161473016783,20.057503439790096]}},{"type":"Feature","properties":{"name_en":"Hathsa","did":703,"pid":7,"uuid":"703009"},"geometry":{"type":"Point","coordinates":[103.12662278984958,20.17042686996553]}},{"type":"Feature","properties":{"name_en":"Sakok","did":703,"pid":7,"uuid":"703010"},"geometry":{"type":"Point","coordinates":[103.20264304979621,20.18583834037159]}},{"type":"Feature","properties":{"name_en":"Donekoon","did":703,"pid":7,"uuid":"703011"},"geometry":{"type":"Point","coordinates":[103.15685196037951,20.181161580416493]}},{"type":"Feature","properties":{"name_en":"Niumsard","did":703,"pid":7,"uuid":"703021"},"geometry":{"type":"Point","coordinates":[103.33688158047008,20.107727550077083]}},{"type":"Feature","properties":{"name_en":"Phounghay","did":703,"pid":7,"uuid":"703035"},"geometry":{"type":"Point","coordinates":[103.3545534803431,20.041453689863854]}},{"type":"Feature","properties":{"name_en":"Phoulouang","did":703,"pid":7,"uuid":"703036"},"geometry":{"type":"Point","coordinates":[103.36791280976145,20.03630367979573]}},{"type":"Feature","properties":{"name_en":"Korkieng","did":703,"pid":7,"uuid":"703037"},"geometry":{"type":"Point","coordinates":[103.35196807974029,20.026384450222324]}},{"type":"Feature","properties":{"name_en":"Phiengdone","did":703,"pid":7,"uuid":"703038"},"geometry":{"type":"Point","coordinates":[103.38860512995167,20.103585470103095]}},{"type":"Feature","properties":{"name_en":"Naphouak","did":703,"pid":7,"uuid":"703040"},"geometry":{"type":"Point","coordinates":[103.39997550972224,20.131561579572082]}},{"type":"Feature","properties":{"name_en":"Thumlanuea","did":703,"pid":7,"uuid":"703041"},"geometry":{"type":"Point","coordinates":[103.44660713993791,19.92555953961696]}},{"type":"Feature","properties":{"name_en":"Nakood","did":703,"pid":7,"uuid":"703042"},"geometry":{"type":"Point","coordinates":[103.46579960957702,19.965315749752843]}},{"type":"Feature","properties":{"name_en":"Viengthong","did":703,"pid":7,"uuid":"703043"},"geometry":{"type":"Point","coordinates":[103.35858878020616,20.052953490190962]}},{"type":"Feature","properties":{"name_en":"Napho","did":703,"pid":7,"uuid":"703044"},"geometry":{"type":"Point","coordinates":[103.3803499601523,20.10003991981231]}},{"type":"Feature","properties":{"name_en":"Thamlatay","did":703,"pid":7,"uuid":"703046"},"geometry":{"type":"Point","coordinates":[103.44188352025323,19.909479120187445]}},{"type":"Feature","properties":{"name_en":"Navieng","did":703,"pid":7,"uuid":"703052"},"geometry":{"type":"Point","coordinates":[103.36995271045804,20.071863569986025]}},{"type":"Feature","properties":{"name_en":"Thathhiemgh","did":703,"pid":7,"uuid":"703053"},"geometry":{"type":"Point","coordinates":[103.37011758004293,20.08517670993051]}},{"type":"Feature","properties":{"name_en":"Kang","did":703,"pid":7,"uuid":"703054"},"geometry":{"type":"Point","coordinates":[103.34308486001775,20.014149050063782]}},{"type":"Feature","properties":{"name_en":"Mueanghieng","did":703,"pid":7,"uuid":"703057"},"geometry":{"type":"Point","coordinates":[103.37182657024364,20.088342309899378]}},{"type":"Feature","properties":{"name_en":"Sumphunhthong","did":703,"pid":7,"uuid":"703058"},"geometry":{"type":"Point","coordinates":[103.36845234956279,20.088692750264567]}},{"type":"Feature","properties":{"name_en":"Phouvieng","did":703,"pid":7,"uuid":"703059"},"geometry":{"type":"Point","coordinates":[103.39944920956373,20.075698370031226]}},{"type":"Feature","properties":{"name_en":"Phonesaath","did":703,"pid":7,"uuid":"703080"},"geometry":{"type":"Point","coordinates":[103.2702805696235,20.14023987014361]}},{"type":"Feature","properties":{"name_en":"Thandhing","did":703,"pid":7,"uuid":"703081"},"geometry":{"type":"Point","coordinates":[103.36924997032243,20.061185700322643]}},{"type":"Feature","properties":{"name_en":"Numphoung","did":703,"pid":7,"uuid":"703082"},"geometry":{"type":"Point","coordinates":[103.2703689997528,20.14822446970957]}},{"type":"Feature","properties":{"name_en":"Phoudan","did":703,"pid":7,"uuid":"703090"},"geometry":{"type":"Point","coordinates":[103.37072048968257,20.010052649696796]}},{"type":"Feature","properties":{"name_en":"Houaphou","did":703,"pid":7,"uuid":"703091"},"geometry":{"type":"Point","coordinates":[103.30529219020538,20.113520289846893]}},{"type":"Feature","properties":{"name_en":"Houaisa","did":703,"pid":7,"uuid":"703092"},"geometry":{"type":"Point","coordinates":[103.36702164031054,20.075210969622454]}},{"type":"Feature","properties":{"name_en":"Phongphin","did":703,"pid":7,"uuid":"703093"},"geometry":{"type":"Point","coordinates":[103.33731308034572,20.0119673301562]}}]}