{"type":"FeatureCollection","features":[{"type":"Feature","properties":{"name_en":"Buck","did":704,"pid":7,"uuid":"704001"},"geometry":{"type":"Point","coordinates":[104.21074199969998,20.42512232016987]}},{"type":"Feature","properties":{"name_en":"Phousay","did":704,"pid":7,"uuid":"704002"},"geometry":{"type":"Point","coordinates":[104.21994055975198,20.40322342038969]}},{"type":"Feature","properties":{"name_en":"Longkou","did":704,"pid":7,"uuid":"704003"},"geometry":{"type":"Point","coordinates":[104.22868287978062,20.420519900394307]}},{"type":"Feature","properties":{"name_en":"Vangsang","did":704,"pid":7,"uuid":"704005"},"geometry":{"type":"Point","coordinates":[104.32487326957745,20.486003509883822]}},{"type":"Feature","properties":{"name_en":"Naheng","did":704,"pid":7,"uuid":"704006"},"geometry":{"type":"Point","coordinates":[104.22254398006214,20.488561589620296]}},{"type":"Feature","properties":{"name_en":"Kaleum","did":704,"pid":7,"uuid":"704007"},"geometry":{"type":"Point","coordinates":[104.31553481957546,20.48786043987342]}},{"type":"Feature","properties":{"name_en":"Sath","did":704,"pid":7,"uuid":"704008"},"geometry":{"type":"Point","coordinates":[104.25413721011239,20.462503839899856]}},{"type":"Feature","properties":{"name_en":"Phoung","did":704,"pid":7,"uuid":"704009"},"geometry":{"type":"Point","coordinates":[104.28354125978159,20.482411529971735]}},{"type":"Feature","properties":{"name_en":"Muengphoua","did":704,"pid":7,"uuid":"704010"},"geometry":{"type":"Point","coordinates":[104.25477096986579,20.480715709895865]}},{"type":"Feature","properties":{"name_en":"Namao","did":704,"pid":7,"uuid":"704011"},"geometry":{"type":"Point","coordinates":[104.24425906010175,20.484128820230733]}},{"type":"Feature","properties":{"name_en":"Nasa","did":704,"pid":7,"uuid":"704012"},"geometry":{"type":"Point","coordinates":[104.27786881031166,20.482210449998064]}},{"type":"Feature","properties":{"name_en":"Naloung","did":704,"pid":7,"uuid":"704013"},"geometry":{"type":"Point","coordinates":[104.22833310033418,20.470795050412946]}},{"type":"Feature","properties":{"name_en":"Nasant","did":704,"pid":7,"uuid":"704014"},"geometry":{"type":"Point","coordinates":[104.36500976003502,20.337087439562332]}},{"type":"Feature","properties":{"name_en":"Phoungnakao","did":704,"pid":7,"uuid":"704016"},"geometry":{"type":"Point","coordinates":[104.31669327990316,20.347483760393903]}},{"type":"Feature","properties":{"name_en":"Kor","did":704,"pid":7,"uuid":"704017"},"geometry":{"type":"Point","coordinates":[104.35228493980868,20.338007519687302]}},{"type":"Feature","properties":{"name_en":"Naheer","did":704,"pid":7,"uuid":"704018"},"geometry":{"type":"Point","coordinates":[104.32995948990717,20.345155100418637]}},{"type":"Feature","properties":{"name_en":"Borphatay","did":704,"pid":7,"uuid":"704019"},"geometry":{"type":"Point","coordinates":[104.34144328015262,20.37347713042591]}},{"type":"Feature","properties":{"name_en":"Siengman","did":704,"pid":7,"uuid":"704021"},"geometry":{"type":"Point","coordinates":[104.34054114010164,20.341909130380852]}},{"type":"Feature","properties":{"name_en":"Anu","did":704,"pid":7,"uuid":"704022"},"geometry":{"type":"Point","coordinates":[104.2267767496884,20.404457739695836]}},{"type":"Feature","properties":{"name_en":"Sieng","did":704,"pid":7,"uuid":"704023"},"geometry":{"type":"Point","coordinates":[104.57014937969817,20.30200363994994]}},{"type":"Feature","properties":{"name_en":"Phiengkay","did":704,"pid":7,"uuid":"704024"},"geometry":{"type":"Point","coordinates":[104.53654632999245,20.395316270023255]}},{"type":"Feature","properties":{"name_en":"Som","did":704,"pid":7,"uuid":"704025"},"geometry":{"type":"Point","coordinates":[104.56005848999072,20.304498850006997]}},{"type":"Feature","properties":{"name_en":"Phounkao","did":704,"pid":7,"uuid":"704026"},"geometry":{"type":"Point","coordinates":[104.53849621022727,20.319087719692288]}},{"type":"Feature","properties":{"name_en":"Phounmai","did":704,"pid":7,"uuid":"704027"},"geometry":{"type":"Point","coordinates":[104.54873110019732,20.32052303969488]}},{"type":"Feature","properties":{"name_en":"Deer","did":704,"pid":7,"uuid":"704028"},"geometry":{"type":"Point","coordinates":[104.59127387037522,20.3020974300806]}},{"type":"Feature","properties":{"name_en":"Phiengkern","did":704,"pid":7,"uuid":"704029"},"geometry":{"type":"Point","coordinates":[104.53971159044423,20.375052599582503]}},{"type":"Feature","properties":{"name_en":"Phork","did":704,"pid":7,"uuid":"704030"},"geometry":{"type":"Point","coordinates":[104.25765594037645,20.50928601043016]}},{"type":"Feature","properties":{"name_en":"Chath","did":704,"pid":7,"uuid":"704031"},"geometry":{"type":"Point","coordinates":[104.47747847035174,20.243042230138595]}},{"type":"Feature","properties":{"name_en":"Natan","did":704,"pid":7,"uuid":"704032"},"geometry":{"type":"Point","coordinates":[104.48309341996024,20.261624239691542]}},{"type":"Feature","properties":{"name_en":"Sung","did":704,"pid":7,"uuid":"704033"},"geometry":{"type":"Point","coordinates":[104.44503949954657,20.251994269690687]}},{"type":"Feature","properties":{"name_en":"Viengpunh","did":704,"pid":7,"uuid":"704034"},"geometry":{"type":"Point","coordinates":[104.3826716903297,20.2698021302506]}},{"type":"Feature","properties":{"name_en":"Heo","did":704,"pid":7,"uuid":"704035"},"geometry":{"type":"Point","coordinates":[104.42153638961202,20.262361680009462]}},{"type":"Feature","properties":{"name_en":"Nhere","did":704,"pid":7,"uuid":"704036"},"geometry":{"type":"Point","coordinates":[104.35896892045892,20.27909783029242]}},{"type":"Feature","properties":{"name_en":"Nanhang","did":704,"pid":7,"uuid":"704039"},"geometry":{"type":"Point","coordinates":[104.5337129100543,20.21434243017405]}},{"type":"Feature","properties":{"name_en":"Anglung","did":704,"pid":7,"uuid":"704041"},"geometry":{"type":"Point","coordinates":[104.22480540954169,20.28877464997325]}},{"type":"Feature","properties":{"name_en":"Angsang","did":704,"pid":7,"uuid":"704042"},"geometry":{"type":"Point","coordinates":[104.26598838985062,20.305730739972084]}},{"type":"Feature","properties":{"name_en":"Phiengcheer","did":704,"pid":7,"uuid":"704043"},"geometry":{"type":"Point","coordinates":[104.1861522704607,20.30226205018251]}},{"type":"Feature","properties":{"name_en":"Angkouang","did":704,"pid":7,"uuid":"704044"},"geometry":{"type":"Point","coordinates":[104.29313896031542,20.310606320045107]}},{"type":"Feature","properties":{"name_en":"Nakao","did":704,"pid":7,"uuid":"704046"},"geometry":{"type":"Point","coordinates":[104.32258610021078,20.347371450001695]}},{"type":"Feature","properties":{"name_en":"Danpaonuea","did":704,"pid":7,"uuid":"704048"},"geometry":{"type":"Point","coordinates":[104.38623281991335,20.367293890188932]}},{"type":"Feature","properties":{"name_en":"Bor","did":704,"pid":7,"uuid":"704049"},"geometry":{"type":"Point","coordinates":[104.40102637961661,20.409558209735053]}},{"type":"Feature","properties":{"name_en":"Kangthath","did":704,"pid":7,"uuid":"704052"},"geometry":{"type":"Point","coordinates":[104.37727030021699,20.333175349648492]}},{"type":"Feature","properties":{"name_en":"Kangmueang","did":704,"pid":7,"uuid":"704053"},"geometry":{"type":"Point","coordinates":[104.38410917971126,20.332176229747695]}},{"type":"Feature","properties":{"name_en":"Kangmong","did":704,"pid":7,"uuid":"704055"},"geometry":{"type":"Point","coordinates":[104.4074419702028,20.324916159712835]}},{"type":"Feature","properties":{"name_en":"Nathor","did":704,"pid":7,"uuid":"704058"},"geometry":{"type":"Point","coordinates":[104.49266782018027,20.26833663965561]}},{"type":"Feature","properties":{"name_en":"Nanhoua","did":704,"pid":7,"uuid":"704059"},"geometry":{"type":"Point","coordinates":[104.4978185003093,20.2665352804237]}},{"type":"Feature","properties":{"name_en":"Naphoung","did":704,"pid":7,"uuid":"704060"},"geometry":{"type":"Point","coordinates":[104.50968743973397,20.26697515982616]}},{"type":"Feature","properties":{"name_en":"Souy","did":704,"pid":7,"uuid":"704062"},"geometry":{"type":"Point","coordinates":[104.52975295954157,20.26714221980208]}},{"type":"Feature","properties":{"name_en":"Kien","did":704,"pid":7,"uuid":"704063"},"geometry":{"type":"Point","coordinates":[104.55666072008208,20.26617032964851]}},{"type":"Feature","properties":{"name_en":"Thand","did":704,"pid":7,"uuid":"704064"},"geometry":{"type":"Point","coordinates":[104.57519008992627,20.267991390178178]}},{"type":"Feature","properties":{"name_en":"Nhiew","did":704,"pid":7,"uuid":"704065"},"geometry":{"type":"Point","coordinates":[104.58274804975802,20.266191290444088]}},{"type":"Feature","properties":{"name_en":"Dan","did":704,"pid":7,"uuid":"704066"},"geometry":{"type":"Point","coordinates":[104.59477180967355,20.266236889889107]}},{"type":"Feature","properties":{"name_en":"Danxay","did":704,"pid":7,"uuid":"704068"},"geometry":{"type":"Point","coordinates":[104.54750775992962,20.15697156963185]}},{"type":"Feature","properties":{"name_en":"Naview","did":704,"pid":7,"uuid":"704070"},"geometry":{"type":"Point","coordinates":[104.27313797955556,20.379608080379743]}},{"type":"Feature","properties":{"name_en":"Siengluang","did":704,"pid":7,"uuid":"704071"},"geometry":{"type":"Point","coordinates":[104.2883596004039,20.36834456024694]}},{"type":"Feature","properties":{"name_en":"Nalouang","did":704,"pid":7,"uuid":"704072"},"geometry":{"type":"Point","coordinates":[104.28279820997608,20.365243680449286]}},{"type":"Feature","properties":{"name_en":"Namone","did":704,"pid":7,"uuid":"704073"},"geometry":{"type":"Point","coordinates":[104.30053615964233,20.357650339865597]}},{"type":"Feature","properties":{"name_en":"Phonesay","did":704,"pid":7,"uuid":"704074"},"geometry":{"type":"Point","coordinates":[104.20889462994155,20.368565259948134]}},{"type":"Feature","properties":{"name_en":"Namueang","did":704,"pid":7,"uuid":"704076"},"geometry":{"type":"Point","coordinates":[104.24194959005646,20.37359623967545]}},{"type":"Feature","properties":{"name_en":"Siengsue","did":704,"pid":7,"uuid":"704077"},"geometry":{"type":"Point","coordinates":[104.22273683981119,20.376832159868172]}},{"type":"Feature","properties":{"name_en":"Houaimouang","did":704,"pid":7,"uuid":"704079"},"geometry":{"type":"Point","coordinates":[104.19165037982022,20.554501099919342]}},{"type":"Feature","properties":{"name_en":"Loun","did":704,"pid":7,"uuid":"704081"},"geometry":{"type":"Point","coordinates":[104.20121395969134,20.510763820426018]}},{"type":"Feature","properties":{"name_en":"Nachong","did":704,"pid":7,"uuid":"704082"},"geometry":{"type":"Point","coordinates":[104.20669455040431,20.575448399649122]}},{"type":"Feature","properties":{"name_en":"Taand","did":704,"pid":7,"uuid":"704083"},"geometry":{"type":"Point","coordinates":[104.15935306044048,20.58571698022773]}},{"type":"Feature","properties":{"name_en":"Phath","did":704,"pid":7,"uuid":"704084"},"geometry":{"type":"Point","coordinates":[104.16852889953675,20.54422421027861]}},{"type":"Feature","properties":{"name_en":"Muead","did":704,"pid":7,"uuid":"704085"},"geometry":{"type":"Point","coordinates":[104.16662091979929,20.5071094798522]}},{"type":"Feature","properties":{"name_en":"Napho","did":704,"pid":7,"uuid":"704086"},"geometry":{"type":"Point","coordinates":[104.14640703956275,20.538390159747703]}},{"type":"Feature","properties":{"name_en":"Mueangphan","did":704,"pid":7,"uuid":"704087"},"geometry":{"type":"Point","coordinates":[104.1744778698951,20.52290651995519]}},{"type":"Feature","properties":{"name_en":"Nahuea","did":704,"pid":7,"uuid":"704088"},"geometry":{"type":"Point","coordinates":[104.57154110974795,20.357129910276758]}},{"type":"Feature","properties":{"name_en":"Harm","did":704,"pid":7,"uuid":"704090"},"geometry":{"type":"Point","coordinates":[104.65239177023801,20.437923159993726]}},{"type":"Feature","properties":{"name_en":"Namuch","did":704,"pid":7,"uuid":"704091"},"geometry":{"type":"Point","coordinates":[104.57218551002649,20.379170459747115]}},{"type":"Feature","properties":{"name_en":"Ckamnang","did":704,"pid":7,"uuid":"704093"},"geometry":{"type":"Point","coordinates":[104.65502487042801,20.468312080133856]}},{"type":"Feature","properties":{"name_en":"Hindam","did":704,"pid":7,"uuid":"704094"},"geometry":{"type":"Point","coordinates":[104.66419265981665,20.406867120065414]}},{"type":"Feature","properties":{"name_en":"Phongnha","did":704,"pid":7,"uuid":"704095"},"geometry":{"type":"Point","coordinates":[104.56083313964317,20.33291895015975]}},{"type":"Feature","properties":{"name_en":"Phounnuea","did":704,"pid":7,"uuid":"704096"},"geometry":{"type":"Point","coordinates":[104.49189114996193,20.31633376032127]}},{"type":"Feature","properties":{"name_en":"Phounsan","did":704,"pid":7,"uuid":"704097"},"geometry":{"type":"Point","coordinates":[104.46700864031405,20.317076899969468]}},{"type":"Feature","properties":{"name_en":"Phoonkang","did":704,"pid":7,"uuid":"704098"},"geometry":{"type":"Point","coordinates":[104.51276964022605,20.318894770034227]}},{"type":"Feature","properties":{"name_en":"Phongsang","did":704,"pid":7,"uuid":"704099"},"geometry":{"type":"Point","coordinates":[104.50137930042513,20.335377359692686]}},{"type":"Feature","properties":{"name_en":"Phiengsay","did":704,"pid":7,"uuid":"704100"},"geometry":{"type":"Point","coordinates":[104.49284743963644,20.340970100180144]}},{"type":"Feature","properties":{"name_en":"Kangphoon","did":704,"pid":7,"uuid":"704101"},"geometry":{"type":"Point","coordinates":[104.467498390422,20.349800019823956]}},{"type":"Feature","properties":{"name_en":"Chaephay","did":704,"pid":7,"uuid":"704102"},"geometry":{"type":"Point","coordinates":[104.48239545974981,20.34477288983224]}},{"type":"Feature","properties":{"name_en":"Mueanglied","did":704,"pid":7,"uuid":"704103"},"geometry":{"type":"Point","coordinates":[104.14407158988959,20.47272028975828]}},{"type":"Feature","properties":{"name_en":"Naphoung","did":704,"pid":7,"uuid":"704104"},"geometry":{"type":"Point","coordinates":[104.15663280023298,20.471017679683047]}},{"type":"Feature","properties":{"name_en":"Phounnuead","did":704,"pid":7,"uuid":"704105"},"geometry":{"type":"Point","coordinates":[104.15546914010999,20.472944930114252]}},{"type":"Feature","properties":{"name_en":"Hanglong","did":704,"pid":7,"uuid":"704106"},"geometry":{"type":"Point","coordinates":[104.16371500020622,20.465507409973274]}},{"type":"Feature","properties":{"name_en":"Vanghay","did":704,"pid":7,"uuid":"704107"},"geometry":{"type":"Point","coordinates":[104.19773085998696,20.462385829862345]}},{"type":"Feature","properties":{"name_en":"Chakieng","did":704,"pid":7,"uuid":"704108"},"geometry":{"type":"Point","coordinates":[104.15921123981943,20.414740659589647]}},{"type":"Feature","properties":{"name_en":"Mueangnha","did":704,"pid":7,"uuid":"704109"},"geometry":{"type":"Point","coordinates":[104.17711188004004,20.43146180017408]}},{"type":"Feature","properties":{"name_en":"Nathand","did":704,"pid":7,"uuid":"704110"},"geometry":{"type":"Point","coordinates":[104.19075578042936,20.439566179641744]}},{"type":"Feature","properties":{"name_en":"Siengkand","did":704,"pid":7,"uuid":"704111"},"geometry":{"type":"Point","coordinates":[104.32458376029871,20.455746519991575]}},{"type":"Feature","properties":{"name_en":"Phonhthong","did":704,"pid":7,"uuid":"704112"},"geometry":{"type":"Point","coordinates":[104.29699077997827,20.474153099767015]}},{"type":"Feature","properties":{"name_en":"Tongtay","did":704,"pid":7,"uuid":"704113"},"geometry":{"type":"Point","coordinates":[104.30403544038137,20.449064800360787]}},{"type":"Feature","properties":{"name_en":"Phienglieng","did":704,"pid":7,"uuid":"704115"},"geometry":{"type":"Point","coordinates":[104.35128523032982,20.433414200329786]}},{"type":"Feature","properties":{"name_en":"Longlao","did":704,"pid":7,"uuid":"704116"},"geometry":{"type":"Point","coordinates":[104.3448500198448,20.411904390019245]}},{"type":"Feature","properties":{"name_en":"Maung","did":704,"pid":7,"uuid":"704117"},"geometry":{"type":"Point","coordinates":[104.31718597046739,20.415461329979884]}},{"type":"Feature","properties":{"name_en":"Nakai","did":704,"pid":7,"uuid":"704119"},"geometry":{"type":"Point","coordinates":[104.22690097040481,20.41195669010494]}},{"type":"Feature","properties":{"name_en":"Ern","did":704,"pid":7,"uuid":"704121"},"geometry":{"type":"Point","coordinates":[104.25791066023407,20.42923665995148]}},{"type":"Feature","properties":{"name_en":"Berm","did":704,"pid":7,"uuid":"704122"},"geometry":{"type":"Point","coordinates":[104.26968940959887,20.420398019906333]}},{"type":"Feature","properties":{"name_en":"Sumphanhxay","did":704,"pid":7,"uuid":"704125"},"geometry":{"type":"Point","coordinates":[104.17385710001251,20.459162819815536]}},{"type":"Feature","properties":{"name_en":"Phiengka","did":704,"pid":7,"uuid":"704127"},"geometry":{"type":"Point","coordinates":[104.33212210003063,20.296620949631517]}},{"type":"Feature","properties":{"name_en":"Longkan","did":704,"pid":7,"uuid":"704128"},"geometry":{"type":"Point","coordinates":[104.17466779985901,20.587748749864822]}},{"type":"Feature","properties":{"name_en":"Houaiya","did":704,"pid":7,"uuid":"704129"},"geometry":{"type":"Point","coordinates":[104.1497302099841,20.472048480431702]}},{"type":"Feature","properties":{"name_en":"Homephunh","did":704,"pid":7,"uuid":"704130"},"geometry":{"type":"Point","coordinates":[104.2650369598326,20.480840179861605]}},{"type":"Feature","properties":{"name_en":"Danethong","did":704,"pid":7,"uuid":"704131"},"geometry":{"type":"Point","coordinates":[104.1855239997646,20.444383999883296]}}]}