{"type":"FeatureCollection","features":[{"type":"Feature","properties":{"name_en":"Soblapl","did":705,"pid":7,"uuid":"705001"},"geometry":{"type":"Point","coordinates":[103.60754765046597,20.047890570187448]}},{"type":"Feature","properties":{"name_en":"Homethong","did":705,"pid":7,"uuid":"705002"},"geometry":{"type":"Point","coordinates":[103.58000999033457,20.049553709617523]}},{"type":"Feature","properties":{"name_en":"Homephanh","did":705,"pid":7,"uuid":"705003"},"geometry":{"type":"Point","coordinates":[103.57345684993064,20.05559530020998]}},{"type":"Feature","properties":{"name_en":"Naphieng","did":705,"pid":7,"uuid":"705004"},"geometry":{"type":"Point","coordinates":[103.50330695030944,20.064586989576668]}},{"type":"Feature","properties":{"name_en":"Kangkao","did":705,"pid":7,"uuid":"705005"},"geometry":{"type":"Point","coordinates":[103.81471912031,20.169235970276375]}},{"type":"Feature","properties":{"name_en":"Houaithoun","did":705,"pid":7,"uuid":"705006"},"geometry":{"type":"Point","coordinates":[103.72514741991647,20.18129626988049]}},{"type":"Feature","properties":{"name_en":"Phanung","did":705,"pid":7,"uuid":"705007"},"geometry":{"type":"Point","coordinates":[103.82999413962278,20.177953569970462]}},{"type":"Feature","properties":{"name_en":"Longang","did":705,"pid":7,"uuid":"705008"},"geometry":{"type":"Point","coordinates":[103.84564000029785,20.16660000023268]}},{"type":"Feature","properties":{"name_en":"Houaikay+Nakam","did":705,"pid":7,"uuid":"705009"},"geometry":{"type":"Point","coordinates":[103.8457392102108,20.124332100072284]}},{"type":"Feature","properties":{"name_en":"Thadphatang","did":705,"pid":7,"uuid":"705012"},"geometry":{"type":"Point","coordinates":[104.05449101041548,19.949519719800215]}},{"type":"Feature","properties":{"name_en":"Bor","did":705,"pid":7,"uuid":"705013"},"geometry":{"type":"Point","coordinates":[104.08907917961605,19.965940030258935]}},{"type":"Feature","properties":{"name_en":"Bork","did":705,"pid":7,"uuid":"705014"},"geometry":{"type":"Point","coordinates":[104.00525897968588,20.03963473011841]}},{"type":"Feature","properties":{"name_en":"Tham","did":705,"pid":7,"uuid":"705015"},"geometry":{"type":"Point","coordinates":[104.02180149989958,20.045997520218087]}},{"type":"Feature","properties":{"name_en":"Thamlord","did":705,"pid":7,"uuid":"705017"},"geometry":{"type":"Point","coordinates":[104.06318656002284,20.00590988981149]}},{"type":"Feature","properties":{"name_en":"Keoleok","did":705,"pid":7,"uuid":"705018"},"geometry":{"type":"Point","coordinates":[104.10396526961873,19.91054922982487]}},{"type":"Feature","properties":{"name_en":"Keosala","did":705,"pid":7,"uuid":"705019"},"geometry":{"type":"Point","coordinates":[104.07944276023507,19.92166212997312]}},{"type":"Feature","properties":{"name_en":"Songkao","did":705,"pid":7,"uuid":"705021"},"geometry":{"type":"Point","coordinates":[104.11322761040411,20.090091189832243]}},{"type":"Feature","properties":{"name_en":"Namleom","did":705,"pid":7,"uuid":"705022"},"geometry":{"type":"Point","coordinates":[104.12186558023981,20.07318414000991]}},{"type":"Feature","properties":{"name_en":"Pha","did":705,"pid":7,"uuid":"705023"},"geometry":{"type":"Point","coordinates":[104.1246297695916,20.05276422960351]}},{"type":"Feature","properties":{"name_en":"Nanhiew","did":705,"pid":7,"uuid":"705024"},"geometry":{"type":"Point","coordinates":[104.10476146955428,20.097958449785036]}},{"type":"Feature","properties":{"name_en":"Longang","did":705,"pid":7,"uuid":"705025"},"geometry":{"type":"Point","coordinates":[104.0876795698818,20.12351981022034]}},{"type":"Feature","properties":{"name_en":"ounthay","did":705,"pid":7,"uuid":"705026"},"geometry":{"type":"Point","coordinates":[104.08904112997881,20.127602220079684]}},{"type":"Feature","properties":{"name_en":"Samone","did":705,"pid":7,"uuid":"705027"},"geometry":{"type":"Point","coordinates":[104.1225647199555,20.119329109724355]}},{"type":"Feature","properties":{"name_en":"Talieng","did":705,"pid":7,"uuid":"705028"},"geometry":{"type":"Point","coordinates":[104.15522933003184,20.11732122978156]}},{"type":"Feature","properties":{"name_en":"Nanoun","did":705,"pid":7,"uuid":"705030"},"geometry":{"type":"Point","coordinates":[104.12799904027383,20.09987229024015]}},{"type":"Feature","properties":{"name_en":"Hathkay","did":705,"pid":7,"uuid":"705031"},"geometry":{"type":"Point","coordinates":[103.78179911994103,20.035925410050147]}},{"type":"Feature","properties":{"name_en":"Houaimay","did":705,"pid":7,"uuid":"705032"},"geometry":{"type":"Point","coordinates":[103.80766399045896,20.015201230140768]}},{"type":"Feature","properties":{"name_en":"Nok aen","did":705,"pid":7,"uuid":"705033"},"geometry":{"type":"Point","coordinates":[103.8248548601335,20.011463739745512]}},{"type":"Feature","properties":{"name_en":"Korhay","did":705,"pid":7,"uuid":"705038"},"geometry":{"type":"Point","coordinates":[103.93380543030392,20.12740389965785]}},{"type":"Feature","properties":{"name_en":"Phonhkang","did":705,"pid":7,"uuid":"705039"},"geometry":{"type":"Point","coordinates":[103.91924548032303,20.113773760332684]}},{"type":"Feature","properties":{"name_en":"Phacha","did":705,"pid":7,"uuid":"705043"},"geometry":{"type":"Point","coordinates":[104.05256275018318,19.942864990209937]}},{"type":"Feature","properties":{"name_en":"Dong","did":705,"pid":7,"uuid":"705044"},"geometry":{"type":"Point","coordinates":[103.91136414012563,20.04644150996245]}},{"type":"Feature","properties":{"name_en":"Nhordath","did":705,"pid":7,"uuid":"705045"},"geometry":{"type":"Point","coordinates":[103.89326090993379,20.037449320060997]}},{"type":"Feature","properties":{"name_en":"Nalang","did":705,"pid":7,"uuid":"705046"},"geometry":{"type":"Point","coordinates":[103.89145904958112,20.080972019994803]}},{"type":"Feature","properties":{"name_en":"Homkong","did":705,"pid":7,"uuid":"705047"},"geometry":{"type":"Point","coordinates":[104.00764070032051,19.96291801997414]}},{"type":"Feature","properties":{"name_en":"Pakatay","did":705,"pid":7,"uuid":"705048"},"geometry":{"type":"Point","coordinates":[103.9706299804138,20.05080998971167]}},{"type":"Feature","properties":{"name_en":"Pakanuea","did":705,"pid":7,"uuid":"705049"},"geometry":{"type":"Point","coordinates":[103.95031048979438,20.065722570071333]}},{"type":"Feature","properties":{"name_en":"Thath","did":705,"pid":7,"uuid":"705050"},"geometry":{"type":"Point","coordinates":[103.98100108036127,19.975348970261564]}},{"type":"Feature","properties":{"name_en":"Samhouai","did":705,"pid":7,"uuid":"705051"},"geometry":{"type":"Point","coordinates":[104.00681054994918,19.895384110250685]}},{"type":"Feature","properties":{"name_en":"Phasord","did":705,"pid":7,"uuid":"705054"},"geometry":{"type":"Point","coordinates":[103.9883647496381,19.84825233016514]}},{"type":"Feature","properties":{"name_en":"Salong","did":705,"pid":7,"uuid":"705055"},"geometry":{"type":"Point","coordinates":[103.9681770204369,19.946231749756983]}},{"type":"Feature","properties":{"name_en":"Pacha","did":705,"pid":7,"uuid":"705056"},"geometry":{"type":"Point","coordinates":[103.89719261003516,20.118201579875908]}},{"type":"Feature","properties":{"name_en":"Saleud","did":705,"pid":7,"uuid":"705057"},"geometry":{"type":"Point","coordinates":[104.00609901044047,19.933519339787708]}},{"type":"Feature","properties":{"name_en":"Done","did":705,"pid":7,"uuid":"705058"},"geometry":{"type":"Point","coordinates":[104.01586182961951,19.865609579690094]}},{"type":"Feature","properties":{"name_en":"Tanied","did":705,"pid":7,"uuid":"705059"},"geometry":{"type":"Point","coordinates":[103.97456134953227,20.008121710324488]}},{"type":"Feature","properties":{"name_en":"Orloy","did":705,"pid":7,"uuid":"705062"},"geometry":{"type":"Point","coordinates":[103.87308433047805,19.96373885993076]}},{"type":"Feature","properties":{"name_en":"Houaickoun","did":705,"pid":7,"uuid":"705066"},"geometry":{"type":"Point","coordinates":[103.947148079619,19.86821643003703]}},{"type":"Feature","properties":{"name_en":"Mon","did":705,"pid":7,"uuid":"705067"},"geometry":{"type":"Point","coordinates":[103.97279226025123,19.85670900024821]}},{"type":"Feature","properties":{"name_en":"Mor","did":705,"pid":7,"uuid":"705068"},"geometry":{"type":"Point","coordinates":[103.63824829033734,20.055939550416806]}},{"type":"Feature","properties":{"name_en":"Sonckoua","did":705,"pid":7,"uuid":"705069"},"geometry":{"type":"Point","coordinates":[103.66414276040729,20.05905627021631]}},{"type":"Feature","properties":{"name_en":"Soblao","did":705,"pid":7,"uuid":"705070"},"geometry":{"type":"Point","coordinates":[103.71562113966743,20.032306690170678]}},{"type":"Feature","properties":{"name_en":"Phiengdi","did":705,"pid":7,"uuid":"705071"},"geometry":{"type":"Point","coordinates":[103.64010580961043,20.049703070138857]}},{"type":"Feature","properties":{"name_en":"Korhing","did":705,"pid":7,"uuid":"705073"},"geometry":{"type":"Point","coordinates":[103.71170913953722,20.066084829701033]}},{"type":"Feature","properties":{"name_en":"Keoseek","did":705,"pid":7,"uuid":"705075"},"geometry":{"type":"Point","coordinates":[103.75295270990603,20.120319520155906]}},{"type":"Feature","properties":{"name_en":"Houaimoon","did":705,"pid":7,"uuid":"705076"},"geometry":{"type":"Point","coordinates":[103.76984995964496,20.112700450344434]}},{"type":"Feature","properties":{"name_en":"Hongoynuea","did":705,"pid":7,"uuid":"705078"},"geometry":{"type":"Point","coordinates":[103.7341673602849,20.169564289764764]}},{"type":"Feature","properties":{"name_en":"Phuckya","did":705,"pid":7,"uuid":"705079"},"geometry":{"type":"Point","coordinates":[103.73000306041945,20.137676850027905]}},{"type":"Feature","properties":{"name_en":"Kang","did":705,"pid":7,"uuid":"705080"},"geometry":{"type":"Point","coordinates":[103.74891163032862,20.134639250426634]}},{"type":"Feature","properties":{"name_en":"Phiengsay","did":705,"pid":7,"uuid":"705081"},"geometry":{"type":"Point","coordinates":[103.74091553989925,20.167090789775973]}},{"type":"Feature","properties":{"name_en":"Meuangor","did":705,"pid":7,"uuid":"705082"},"geometry":{"type":"Point","coordinates":[103.74190175982594,20.139229089914227]}},{"type":"Feature","properties":{"name_en":"Nasam","did":705,"pid":7,"uuid":"705084"},"geometry":{"type":"Point","coordinates":[103.93925183014385,20.21611704014822]}},{"type":"Feature","properties":{"name_en":"Napheng","did":705,"pid":7,"uuid":"705085"},"geometry":{"type":"Point","coordinates":[103.92807337982968,20.175038590024986]}},{"type":"Feature","properties":{"name_en":"Veok","did":705,"pid":7,"uuid":"705086"},"geometry":{"type":"Point","coordinates":[103.89887150008833,20.1723032402574]}},{"type":"Feature","properties":{"name_en":"Phao","did":705,"pid":7,"uuid":"705087"},"geometry":{"type":"Point","coordinates":[103.88754009043147,20.156044450289468]}},{"type":"Feature","properties":{"name_en":"Kong","did":705,"pid":7,"uuid":"705088"},"geometry":{"type":"Point","coordinates":[103.87845294046856,20.196261659842566]}},{"type":"Feature","properties":{"name_en":"Numphong","did":705,"pid":7,"uuid":"705089"},"geometry":{"type":"Point","coordinates":[103.85860853010463,20.22400223994562]}},{"type":"Feature","properties":{"name_en":"Phapheok","did":705,"pid":7,"uuid":"705091"},"geometry":{"type":"Point","coordinates":[103.93166996963258,20.23253995970825]}},{"type":"Feature","properties":{"name_en":"Mueangphern","did":705,"pid":7,"uuid":"705092"},"geometry":{"type":"Point","coordinates":[103.87677723025415,20.209690390120493]}},{"type":"Feature","properties":{"name_en":"Hueasieng","did":705,"pid":7,"uuid":"705093"},"geometry":{"type":"Point","coordinates":[103.83746550996594,20.2057271702877]}},{"type":"Feature","properties":{"name_en":"Bouamnham","did":705,"pid":7,"uuid":"705094"},"geometry":{"type":"Point","coordinates":[103.88604375957001,20.19734544016441]}},{"type":"Feature","properties":{"name_en":"Taohin","did":705,"pid":7,"uuid":"705095"},"geometry":{"type":"Point","coordinates":[103.8673082695685,20.158823720212933]}},{"type":"Feature","properties":{"name_en":"Numnath","did":705,"pid":7,"uuid":"705096"},"geometry":{"type":"Point","coordinates":[103.71548610967189,20.017146839849524]}},{"type":"Feature","properties":{"name_en":"Homesay","did":705,"pid":7,"uuid":"705098"},"geometry":{"type":"Point","coordinates":[103.86365997008869,20.07753996008771]}},{"type":"Feature","properties":{"name_en":"Bork-Tai","did":705,"pid":7,"uuid":"705099"},"geometry":{"type":"Point","coordinates":[104.00602999958599,20.00602000023159]}},{"type":"Feature","properties":{"name_en":"Nameuang","did":705,"pid":7,"uuid":"705100"},"geometry":{"type":"Point","coordinates":[103.8765200004432,20.08540000036121]}},{"type":"Feature","properties":{"name_en":"Vieng","did":705,"pid":7,"uuid":"705101"},"geometry":{"type":"Point","coordinates":[103.92838116959456,19.887810889550313]}}]}