{"type":"FeatureCollection","features":[{"type":"Feature","properties":{"name_en":"Sumtay","did":706,"pid":7,"uuid":"706001"},"geometry":{"type":"Point","coordinates":[104.63250102025671,19.99289146023052]}},{"type":"Feature","properties":{"name_en":"Thin","did":706,"pid":7,"uuid":"706003"},"geometry":{"type":"Point","coordinates":[104.63397991972136,20.003494149588658]}},{"type":"Feature","properties":{"name_en":"Ckor","did":706,"pid":7,"uuid":"706004"},"geometry":{"type":"Point","coordinates":[104.62819540029822,20.008157500400138]}},{"type":"Feature","properties":{"name_en":"Sumthong","did":706,"pid":7,"uuid":"706005"},"geometry":{"type":"Point","coordinates":[104.63950049025861,19.991054400107597]}},{"type":"Feature","properties":{"name_en":"Houaikik","did":706,"pid":7,"uuid":"706006"},"geometry":{"type":"Point","coordinates":[104.62704725012165,19.97022310019274]}},{"type":"Feature","properties":{"name_en":"Sobsanh","did":706,"pid":7,"uuid":"706007"},"geometry":{"type":"Point","coordinates":[104.63294256993527,19.978782620155883]}},{"type":"Feature","properties":{"name_en":"Lao","did":706,"pid":7,"uuid":"706008"},"geometry":{"type":"Point","coordinates":[104.63538992003325,19.994693309742598]}},{"type":"Feature","properties":{"name_en":"Phienghome","did":706,"pid":7,"uuid":"706009"},"geometry":{"type":"Point","coordinates":[104.60544724953115,20.017312549623707]}},{"type":"Feature","properties":{"name_en":"Phattay","did":706,"pid":7,"uuid":"706011"},"geometry":{"type":"Point","coordinates":[104.6764705497305,19.970520159957676]}},{"type":"Feature","properties":{"name_en":"Phatkang","did":706,"pid":7,"uuid":"706012"},"geometry":{"type":"Point","coordinates":[104.6646655597992,19.97117402980065]}},{"type":"Feature","properties":{"name_en":"Phatnuea","did":706,"pid":7,"uuid":"706013"},"geometry":{"type":"Point","coordinates":[104.65870066985532,19.97311788022297]}},{"type":"Feature","properties":{"name_en":"Hanglong","did":706,"pid":7,"uuid":"706014"},"geometry":{"type":"Point","coordinates":[104.68124254021926,19.967134369795527]}},{"type":"Feature","properties":{"name_en":"Nasang","did":706,"pid":7,"uuid":"706016"},"geometry":{"type":"Point","coordinates":[104.6722502603408,19.99431621006335]}},{"type":"Feature","properties":{"name_en":"Tao","did":706,"pid":7,"uuid":"706019"},"geometry":{"type":"Point","coordinates":[104.74199457022289,19.895872600386518]}},{"type":"Feature","properties":{"name_en":"Phiengckoon","did":706,"pid":7,"uuid":"706020"},"geometry":{"type":"Point","coordinates":[104.75244270029184,19.888303160341106]}},{"type":"Feature","properties":{"name_en":"Naxay","did":706,"pid":7,"uuid":"706021"},"geometry":{"type":"Point","coordinates":[104.7232090499512,19.881342490136113]}},{"type":"Feature","properties":{"name_en":"Sobphand","did":706,"pid":7,"uuid":"706022"},"geometry":{"type":"Point","coordinates":[104.81440758995896,19.901458719915766]}},{"type":"Feature","properties":{"name_en":"Hang","did":706,"pid":7,"uuid":"706023"},"geometry":{"type":"Point","coordinates":[104.91669087017151,20.085591699989294]}},{"type":"Feature","properties":{"name_en":"Kang","did":706,"pid":7,"uuid":"706024"},"geometry":{"type":"Point","coordinates":[104.93463887033242,20.084385209963354]}},{"type":"Feature","properties":{"name_en":"Mueanghnern","did":706,"pid":7,"uuid":"706025"},"geometry":{"type":"Point","coordinates":[104.96286711011341,20.090918399555292]}},{"type":"Feature","properties":{"name_en":"Thalao","did":706,"pid":7,"uuid":"706026"},"geometry":{"type":"Point","coordinates":[104.92877975010076,20.065482010425804]}},{"type":"Feature","properties":{"name_en":"Natork","did":706,"pid":7,"uuid":"706027"},"geometry":{"type":"Point","coordinates":[104.88006589046151,20.090453460183053]}},{"type":"Feature","properties":{"name_en":"Korloun","did":706,"pid":7,"uuid":"706028"},"geometry":{"type":"Point","coordinates":[104.69388353965725,20.040399079759435]}},{"type":"Feature","properties":{"name_en":"Nahieng","did":706,"pid":7,"uuid":"706030"},"geometry":{"type":"Point","coordinates":[104.79379004011686,20.025095990174332]}},{"type":"Feature","properties":{"name_en":"Phoulae","did":706,"pid":7,"uuid":"706031"},"geometry":{"type":"Point","coordinates":[104.69232466971503,20.076292819788083]}},{"type":"Feature","properties":{"name_en":"Naseo","did":706,"pid":7,"uuid":"706035"},"geometry":{"type":"Point","coordinates":[104.7168059501979,20.006587990364512]}},{"type":"Feature","properties":{"name_en":"Paueang","did":706,"pid":7,"uuid":"706037"},"geometry":{"type":"Point","coordinates":[104.72317653046186,20.008743399946677]}},{"type":"Feature","properties":{"name_en":"Phaotay","did":706,"pid":7,"uuid":"706038"},"geometry":{"type":"Point","coordinates":[104.81501880007951,20.124519020082662]}},{"type":"Feature","properties":{"name_en":"Phueanuea","did":706,"pid":7,"uuid":"706040"},"geometry":{"type":"Point","coordinates":[104.86532128016776,20.10371504960237]}},{"type":"Feature","properties":{"name_en":"Phiengmay","did":706,"pid":7,"uuid":"706041"},"geometry":{"type":"Point","coordinates":[104.56226025026005,20.083746929635247]}},{"type":"Feature","properties":{"name_en":"Dan","did":706,"pid":7,"uuid":"706042"},"geometry":{"type":"Point","coordinates":[104.81098266022215,20.136802700060606]}},{"type":"Feature","properties":{"name_en":"Namueang","did":706,"pid":7,"uuid":"706044"},"geometry":{"type":"Point","coordinates":[104.76035705969367,20.154347109814534]}},{"type":"Feature","properties":{"name_en":"Nalae","did":706,"pid":7,"uuid":"706045"},"geometry":{"type":"Point","coordinates":[104.7524317996253,20.154879700210344]}},{"type":"Feature","properties":{"name_en":"Phaonuea","did":706,"pid":7,"uuid":"706048"},"geometry":{"type":"Point","coordinates":[104.73127504042645,20.09434785968223]}},{"type":"Feature","properties":{"name_en":"Namath","did":706,"pid":7,"uuid":"706050"},"geometry":{"type":"Point","coordinates":[104.53422689042989,20.043988539851192]}},{"type":"Feature","properties":{"name_en":"Sobpheng","did":706,"pid":7,"uuid":"706051"},"geometry":{"type":"Point","coordinates":[104.5167118095767,20.035592809975284]}},{"type":"Feature","properties":{"name_en":"Veun","did":706,"pid":7,"uuid":"706052"},"geometry":{"type":"Point","coordinates":[104.49299646992964,20.007908309796782]}},{"type":"Feature","properties":{"name_en":"Danlongkeo","did":706,"pid":7,"uuid":"706054"},"geometry":{"type":"Point","coordinates":[104.49528808968932,20.037866820037483]}},{"type":"Feature","properties":{"name_en":"Nanhiew","did":706,"pid":7,"uuid":"706055"},"geometry":{"type":"Point","coordinates":[104.50150812981859,20.01494869030822]}},{"type":"Feature","properties":{"name_en":"Tinphou","did":706,"pid":7,"uuid":"706056"},"geometry":{"type":"Point","coordinates":[104.46549688004997,20.04305648027539]}},{"type":"Feature","properties":{"name_en":"Ka","did":706,"pid":7,"uuid":"706057"},"geometry":{"type":"Point","coordinates":[104.43824939996234,20.041410270396693]}},{"type":"Feature","properties":{"name_en":"Phoungban","did":706,"pid":7,"uuid":"706058"},"geometry":{"type":"Point","coordinates":[104.41874740038588,20.032131759801224]}},{"type":"Feature","properties":{"name_en":"Mueangkanh","did":706,"pid":7,"uuid":"706059"},"geometry":{"type":"Point","coordinates":[104.55842150015758,20.0776525297511]}},{"type":"Feature","properties":{"name_en":"Phiengthin","did":706,"pid":7,"uuid":"706060"},"geometry":{"type":"Point","coordinates":[104.5551036098573,20.067270289799847]}},{"type":"Feature","properties":{"name_en":"Phiengdai","did":706,"pid":7,"uuid":"706063"},"geometry":{"type":"Point","coordinates":[104.57340800989441,20.03165717002151]}},{"type":"Feature","properties":{"name_en":"Sobkeom","did":706,"pid":7,"uuid":"706065"},"geometry":{"type":"Point","coordinates":[104.56157846020572,20.041364000342387]}},{"type":"Feature","properties":{"name_en":"Saikoon","did":706,"pid":7,"uuid":"706076"},"geometry":{"type":"Point","coordinates":[104.42806630960551,20.150102599673822]}},{"type":"Feature","properties":{"name_en":"Siengban","did":706,"pid":7,"uuid":"706077"},"geometry":{"type":"Point","coordinates":[104.4319763898338,20.122775670411333]}},{"type":"Feature","properties":{"name_en":"Nok","did":706,"pid":7,"uuid":"706078"},"geometry":{"type":"Point","coordinates":[104.37725537982122,20.15001223994418]}},{"type":"Feature","properties":{"name_en":"Idd","did":706,"pid":7,"uuid":"706079"},"geometry":{"type":"Point","coordinates":[104.43961574037101,20.176369139605523]}},{"type":"Feature","properties":{"name_en":"HuoaiCkay","did":706,"pid":7,"uuid":"706082"},"geometry":{"type":"Point","coordinates":[104.25431801004318,19.99187280017381]}},{"type":"Feature","properties":{"name_en":"Houaxieng","did":706,"pid":7,"uuid":"706083"},"geometry":{"type":"Point","coordinates":[104.18735859021436,20.05949229991093]}},{"type":"Feature","properties":{"name_en":"Sobtieng","did":706,"pid":7,"uuid":"706087"},"geometry":{"type":"Point","coordinates":[104.11590605025631,20.019987890046703]}},{"type":"Feature","properties":{"name_en":"Phalao","did":706,"pid":7,"uuid":"706088"},"geometry":{"type":"Point","coordinates":[104.18246725032462,20.036865350231185]}},{"type":"Feature","properties":{"name_en":"Nonghad","did":706,"pid":7,"uuid":"706089"},"geometry":{"type":"Point","coordinates":[104.1444159201998,20.023282649811385]}},{"type":"Feature","properties":{"name_en":"Thubkor","did":706,"pid":7,"uuid":"706090"},"geometry":{"type":"Point","coordinates":[104.13460943004267,20.041020429629732]}},{"type":"Feature","properties":{"name_en":"Keoding","did":706,"pid":7,"uuid":"706091"},"geometry":{"type":"Point","coordinates":[104.23658316028754,19.99973235013102]}},{"type":"Feature","properties":{"name_en":"Sanhkang","did":706,"pid":7,"uuid":"706108"},"geometry":{"type":"Point","coordinates":[104.44158992969122,19.990064409555295]}},{"type":"Feature","properties":{"name_en":"Siengdy","did":706,"pid":7,"uuid":"706129"},"geometry":{"type":"Point","coordinates":[104.61265610988659,19.927690309894597]}},{"type":"Feature","properties":{"name_en":"Nala","did":706,"pid":7,"uuid":"706130"},"geometry":{"type":"Point","coordinates":[104.62360186964507,19.93968782968638]}},{"type":"Feature","properties":{"name_en":"Numain","did":706,"pid":7,"uuid":"706132"},"geometry":{"type":"Point","coordinates":[104.57024133025045,19.896928560331837]}},{"type":"Feature","properties":{"name_en":"Phonhxay","did":706,"pid":7,"uuid":"706133"},"geometry":{"type":"Point","coordinates":[104.61634347008145,19.900873249994454]}},{"type":"Feature","properties":{"name_en":"Tinpha","did":706,"pid":7,"uuid":"706161"},"geometry":{"type":"Point","coordinates":[104.54777753857061,19.97974673630167]}},{"type":"Feature","properties":{"name_en":"Phahath","did":706,"pid":7,"uuid":"706162"},"geometry":{"type":"Point","coordinates":[104.51412541017999,19.976107029634676]}},{"type":"Feature","properties":{"name_en":"Nabveun","did":706,"pid":7,"uuid":"706163"},"geometry":{"type":"Point","coordinates":[104.50622923988173,19.96396416972648]}},{"type":"Feature","properties":{"name_en":"Huoilath","did":706,"pid":7,"uuid":"706183"},"geometry":{"type":"Point","coordinates":[104.55883187969454,19.885847179645218]}},{"type":"Feature","properties":{"name_en":"Houana","did":706,"pid":7,"uuid":"706185"},"geometry":{"type":"Point","coordinates":[104.34638165000008,20.004528809999975]}},{"type":"Feature","properties":{"name_en":"Namtaeb","did":706,"pid":7,"uuid":"706186"},"geometry":{"type":"Point","coordinates":[104.32109646021745,20.010900560396244]}},{"type":"Feature","properties":{"name_en":"Namueang","did":706,"pid":7,"uuid":"706187"},"geometry":{"type":"Point","coordinates":[104.31707106026312,19.988249889677544]}},{"type":"Feature","properties":{"name_en":"Huoina","did":706,"pid":7,"uuid":"706188"},"geometry":{"type":"Point","coordinates":[104.27026683979047,19.946004930155016]}},{"type":"Feature","properties":{"name_en":"Huoisalaeb","did":706,"pid":7,"uuid":"706190"},"geometry":{"type":"Point","coordinates":[104.35881963986037,19.955945029581205]}},{"type":"Feature","properties":{"name_en":"Huoikoom","did":706,"pid":7,"uuid":"706192"},"geometry":{"type":"Point","coordinates":[104.34632591015641,20.06987999043106]}},{"type":"Feature","properties":{"name_en":"Huoisala","did":706,"pid":7,"uuid":"706193"},"geometry":{"type":"Point","coordinates":[104.31699838041796,19.931538110003796]}},{"type":"Feature","properties":{"name_en":"ThamNou+Huoaiphoung","did":706,"pid":7,"uuid":"706194"},"geometry":{"type":"Point","coordinates":[104.37621678026866,20.035450819678587]}},{"type":"Feature","properties":{"name_en":"Nhordnhueang","did":706,"pid":7,"uuid":"706196"},"geometry":{"type":"Point","coordinates":[104.28564370023399,19.90915700000575]}},{"type":"Feature","properties":{"name_en":"Nambong","did":706,"pid":7,"uuid":"706197"},"geometry":{"type":"Point","coordinates":[104.72370030961343,19.782808939834]}},{"type":"Feature","properties":{"name_en":"Phackom","did":706,"pid":7,"uuid":"706198"},"geometry":{"type":"Point","coordinates":[104.79891457030632,19.81595652011154]}},{"type":"Feature","properties":{"name_en":"Namtay","did":706,"pid":7,"uuid":"706199"},"geometry":{"type":"Point","coordinates":[104.80874695992938,19.867346979798427]}},{"type":"Feature","properties":{"name_en":"Phonhsavanh","did":706,"pid":7,"uuid":"706208"},"geometry":{"type":"Point","coordinates":[104.6407696797249,19.999128770218462]}},{"type":"Feature","properties":{"name_en":"Phueatay","did":706,"pid":7,"uuid":"706213"},"geometry":{"type":"Point","coordinates":[104.83626314994578,20.127105010262497]}},{"type":"Feature","properties":{"name_en":"Pomkhor","did":706,"pid":7,"uuid":"706219"},"geometry":{"type":"Point","coordinates":[104.64325022019463,19.90864193026335]}},{"type":"Feature","properties":{"name_en":"Nakuea","did":706,"pid":7,"uuid":"706223"},"geometry":{"type":"Point","coordinates":[104.73454884027876,19.879342229692405]}},{"type":"Feature","properties":{"name_en":"Phakomthamchok","did":706,"pid":7,"uuid":"706224"},"geometry":{"type":"Point","coordinates":[104.81429796012506,19.994851059878982]}},{"type":"Feature","properties":{"name_en":"Nasickamxay","did":706,"pid":7,"uuid":"706226"},"geometry":{"type":"Point","coordinates":[104.73419017962786,20.002843119807615]}},{"type":"Feature","properties":{"name_en":"Phook","did":706,"pid":7,"uuid":"706229"},"geometry":{"type":"Point","coordinates":[104.25942586002134,20.001270759777924]}},{"type":"Feature","properties":{"name_en":"Hinthang","did":706,"pid":7,"uuid":"706230"},"geometry":{"type":"Point","coordinates":[104.40542956040984,20.189732409884577]}},{"type":"Feature","properties":{"name_en":"Phalorm","did":706,"pid":7,"uuid":"706234"},"geometry":{"type":"Point","coordinates":[104.82537933959159,19.93905876984073]}},{"type":"Feature","properties":{"name_en":"Kangnay","did":706,"pid":7,"uuid":"706235"},"geometry":{"type":"Point","coordinates":[104.21397850960135,19.93932866015721]}},{"type":"Feature","properties":{"name_en":"Huoipoung","did":706,"pid":7,"uuid":"706236"},"geometry":{"type":"Point","coordinates":[104.29107659009124,19.96033253957447]}},{"type":"Feature","properties":{"name_en":"Sopkung","did":706,"pid":7,"uuid":"709009"},"geometry":{"type":"Point","coordinates":[104.47426711041922,20.133621769802176]}},{"type":"Feature","properties":{"name_en":"Phalam","did":706,"pid":7,"uuid":"709064"},"geometry":{"type":"Point","coordinates":[104.58442610952333,19.91228671989057]}}]}