{"type":"FeatureCollection","features":[{"type":"Feature","properties":{"name_en":"Sobhao","did":707,"pid":7,"uuid":"707001"},"geometry":{"type":"Point","coordinates":[104.4478387201984,20.562636990369743]}},{"type":"Feature","properties":{"name_en":"Kanghao","did":707,"pid":7,"uuid":"707002"},"geometry":{"type":"Point","coordinates":[104.43886496965236,20.55145041990574]}},{"type":"Feature","properties":{"name_en":"Nalok","did":707,"pid":7,"uuid":"707003"},"geometry":{"type":"Point","coordinates":[104.41912358022509,20.540993329835146]}},{"type":"Feature","properties":{"name_en":"Nasang","did":707,"pid":7,"uuid":"707004"},"geometry":{"type":"Point","coordinates":[104.408301789827,20.542523859753484]}},{"type":"Feature","properties":{"name_en":"Phonhxai","did":707,"pid":7,"uuid":"707005"},"geometry":{"type":"Point","coordinates":[104.39735141987597,20.538512449891705]}},{"type":"Feature","properties":{"name_en":"Nanhom","did":707,"pid":7,"uuid":"707006"},"geometry":{"type":"Point","coordinates":[104.38706481010583,20.53546429025726]}},{"type":"Feature","properties":{"name_en":"Huoitong","did":707,"pid":7,"uuid":"707007"},"geometry":{"type":"Point","coordinates":[104.35959077039837,20.49112845958451]}},{"type":"Feature","properties":{"name_en":"Namhang","did":707,"pid":7,"uuid":"707008"},"geometry":{"type":"Point","coordinates":[104.35527937043332,20.52209045999007]}},{"type":"Feature","properties":{"name_en":"Napham","did":707,"pid":7,"uuid":"707009"},"geometry":{"type":"Point","coordinates":[104.42941889960017,20.582222900026192]}},{"type":"Feature","properties":{"name_en":"Hangsand","did":707,"pid":7,"uuid":"707010"},"geometry":{"type":"Point","coordinates":[104.42766389958871,20.592890720327862]}},{"type":"Feature","properties":{"name_en":"Nackamhao","did":707,"pid":7,"uuid":"707011"},"geometry":{"type":"Point","coordinates":[104.42846528999185,20.605379919974666]}},{"type":"Feature","properties":{"name_en":"Nasone","did":707,"pid":7,"uuid":"707012"},"geometry":{"type":"Point","coordinates":[104.43361253038508,20.588871590423935]}},{"type":"Feature","properties":{"name_en":"Naphieng","did":707,"pid":7,"uuid":"707013"},"geometry":{"type":"Point","coordinates":[104.44157794000739,20.579508419713147]}},{"type":"Feature","properties":{"name_en":"Naka","did":707,"pid":7,"uuid":"707014"},"geometry":{"type":"Point","coordinates":[104.46199098002829,20.56265316978303]}},{"type":"Feature","properties":{"name_en":"Phonxay","did":707,"pid":7,"uuid":"707015"},"geometry":{"type":"Point","coordinates":[104.4678065899746,20.547867490300565]}},{"type":"Feature","properties":{"name_en":"Naone","did":707,"pid":7,"uuid":"707016"},"geometry":{"type":"Point","coordinates":[104.46453128039082,20.539656579731993]}},{"type":"Feature","properties":{"name_en":"Somvang","did":707,"pid":7,"uuid":"707017"},"geometry":{"type":"Point","coordinates":[104.48259385989493,20.534998590033073]}},{"type":"Feature","properties":{"name_en":"Mueanghang","did":707,"pid":7,"uuid":"707018"},"geometry":{"type":"Point","coordinates":[104.41633810034072,20.63626640033807]}},{"type":"Feature","properties":{"name_en":"Nanhoua","did":707,"pid":7,"uuid":"707019"},"geometry":{"type":"Point","coordinates":[104.41699884976951,20.626007950091168]}},{"type":"Feature","properties":{"name_en":"Vienghang","did":707,"pid":7,"uuid":"707020"},"geometry":{"type":"Point","coordinates":[104.42043082038398,20.60590396004518]}},{"type":"Feature","properties":{"name_en":"Talang","did":707,"pid":7,"uuid":"707021"},"geometry":{"type":"Point","coordinates":[104.42248623044976,20.63092234965175]}},{"type":"Feature","properties":{"name_en":"Phiengnhae","did":707,"pid":7,"uuid":"707022"},"geometry":{"type":"Point","coordinates":[104.4630481902633,20.634539219925177]}},{"type":"Feature","properties":{"name_en":"Nasuea","did":707,"pid":7,"uuid":"707023"},"geometry":{"type":"Point","coordinates":[104.49564516004327,20.65985499989927]}},{"type":"Feature","properties":{"name_en":"Mueangdeung","did":707,"pid":7,"uuid":"707024"},"geometry":{"type":"Point","coordinates":[104.50787896005232,20.64490494981981]}},{"type":"Feature","properties":{"name_en":"Kangkath","did":707,"pid":7,"uuid":"707025"},"geometry":{"type":"Point","coordinates":[104.39954504020301,20.630799629803832]}},{"type":"Feature","properties":{"name_en":"Phonhhang","did":707,"pid":7,"uuid":"707027"},"geometry":{"type":"Point","coordinates":[104.38527007981381,20.62144786031806]}},{"type":"Feature","properties":{"name_en":"Namay","did":707,"pid":7,"uuid":"707028"},"geometry":{"type":"Point","coordinates":[104.3617995703877,20.619609039874362]}},{"type":"Feature","properties":{"name_en":"Danhang","did":707,"pid":7,"uuid":"707029"},"geometry":{"type":"Point","coordinates":[104.3585727898329,20.61516353041301]}},{"type":"Feature","properties":{"name_en":"Nakoon","did":707,"pid":7,"uuid":"707030"},"geometry":{"type":"Point","coordinates":[104.34138871982545,20.60754890981528]}},{"type":"Feature","properties":{"name_en":"Nackamhang","did":707,"pid":7,"uuid":"707031"},"geometry":{"type":"Point","coordinates":[104.30701118018555,20.55372326040929]}},{"type":"Feature","properties":{"name_en":"That","did":707,"pid":7,"uuid":"707032"},"geometry":{"type":"Point","coordinates":[104.35160331966105,20.598510620119498]}},{"type":"Feature","properties":{"name_en":"Mueanghom","did":707,"pid":7,"uuid":"707033"},"geometry":{"type":"Point","coordinates":[104.39065335033764,20.678593580209423]}},{"type":"Feature","properties":{"name_en":"Hathsanh","did":707,"pid":7,"uuid":"707035"},"geometry":{"type":"Point","coordinates":[104.39372490003227,20.67015661029253]}},{"type":"Feature","properties":{"name_en":"Phounglong","did":707,"pid":7,"uuid":"707036"},"geometry":{"type":"Point","coordinates":[104.36845320972891,20.67055382968887]}},{"type":"Feature","properties":{"name_en":"Longhom","did":707,"pid":7,"uuid":"707037"},"geometry":{"type":"Point","coordinates":[104.36107454034733,20.66916495031229]}},{"type":"Feature","properties":{"name_en":"Bo","did":707,"pid":7,"uuid":"707038"},"geometry":{"type":"Point","coordinates":[104.3484224796277,20.663213120380586]}},{"type":"Feature","properties":{"name_en":"Bone","did":707,"pid":7,"uuid":"707039"},"geometry":{"type":"Point","coordinates":[104.3229678100563,20.65272954013892]}},{"type":"Feature","properties":{"name_en":"Danhom","did":707,"pid":7,"uuid":"707040"},"geometry":{"type":"Point","coordinates":[104.31242614003118,20.648194600077503]}},{"type":"Feature","properties":{"name_en":"Sobbao","did":707,"pid":7,"uuid":"707042"},"geometry":{"type":"Point","coordinates":[104.38365831994464,20.710638520046423]}},{"type":"Feature","properties":{"name_en":"Phiengxay","did":707,"pid":7,"uuid":"707043"},"geometry":{"type":"Point","coordinates":[104.35301281959921,20.722536039728695]}},{"type":"Feature","properties":{"name_en":"Na","did":707,"pid":7,"uuid":"707044"},"geometry":{"type":"Point","coordinates":[104.38206751990614,20.744942299681945]}},{"type":"Feature","properties":{"name_en":"Nabeung","did":707,"pid":7,"uuid":"707045"},"geometry":{"type":"Point","coordinates":[104.40314297971618,20.716418180344203]}},{"type":"Feature","properties":{"name_en":"Phongbao","did":707,"pid":7,"uuid":"707046"},"geometry":{"type":"Point","coordinates":[104.4181873202057,20.722848020292187]}},{"type":"Feature","properties":{"name_en":"Phong","did":707,"pid":7,"uuid":"707047"},"geometry":{"type":"Point","coordinates":[104.43460613033969,20.70625361020595]}},{"type":"Feature","properties":{"name_en":"Naphan","did":707,"pid":7,"uuid":"707048"},"geometry":{"type":"Point","coordinates":[104.30263490000353,20.70081651986762]}},{"type":"Feature","properties":{"name_en":"Nasoun","did":707,"pid":7,"uuid":"707049"},"geometry":{"type":"Point","coordinates":[104.31235379992512,20.706763149716817]}},{"type":"Feature","properties":{"name_en":"Kanglong","did":707,"pid":7,"uuid":"707051"},"geometry":{"type":"Point","coordinates":[104.28935109979295,20.69847209979388]}},{"type":"Feature","properties":{"name_en":"Nahom","did":707,"pid":7,"uuid":"707052"},"geometry":{"type":"Point","coordinates":[104.237838689527,20.695068549848894]}},{"type":"Feature","properties":{"name_en":"Ckonesi","did":707,"pid":7,"uuid":"707053"},"geometry":{"type":"Point","coordinates":[104.27322658035754,20.7021038096845]}},{"type":"Feature","properties":{"name_en":"Mueang","did":707,"pid":7,"uuid":"707054"},"geometry":{"type":"Point","coordinates":[104.26001778956478,20.705229339799626]}},{"type":"Feature","properties":{"name_en":"Kongkoon","did":707,"pid":7,"uuid":"707055"},"geometry":{"type":"Point","coordinates":[104.24060714004804,20.712111299637666]}},{"type":"Feature","properties":{"name_en":"Nanhole","did":707,"pid":7,"uuid":"707060"},"geometry":{"type":"Point","coordinates":[104.17576121959905,20.69762469035889]}},{"type":"Feature","properties":{"name_en":"Longnguen","did":707,"pid":7,"uuid":"707061"},"geometry":{"type":"Point","coordinates":[104.26941532995312,20.701333429739247]}},{"type":"Feature","properties":{"name_en":"Phahang","did":707,"pid":7,"uuid":"707065"},"geometry":{"type":"Point","coordinates":[104.48751546026067,20.723200310315708]}},{"type":"Feature","properties":{"name_en":"Namterb","did":707,"pid":7,"uuid":"707066"},"geometry":{"type":"Point","coordinates":[104.4731902904704,20.747129549788557]}},{"type":"Feature","properties":{"name_en":"Pha khom nhai","did":707,"pid":7,"uuid":"707067"},"geometry":{"type":"Point","coordinates":[104.47109230001202,20.718256160323882]}},{"type":"Feature","properties":{"name_en":"Phalong","did":707,"pid":7,"uuid":"707068"},"geometry":{"type":"Point","coordinates":[104.47290681000176,20.729561589667217]}},{"type":"Feature","properties":{"name_en":"Phakomnoy","did":707,"pid":7,"uuid":"707069"},"geometry":{"type":"Point","coordinates":[104.46655072960829,20.77294111989026]}},{"type":"Feature","properties":{"name_en":"Huoaipha","did":707,"pid":7,"uuid":"707070"},"geometry":{"type":"Point","coordinates":[104.44577979046747,20.79552774984156]}},{"type":"Feature","properties":{"name_en":"Huaynguem","did":707,"pid":7,"uuid":"707071"},"geometry":{"type":"Point","coordinates":[104.4111317703974,20.796920239706022]}},{"type":"Feature","properties":{"name_en":"Longtong","did":707,"pid":7,"uuid":"707072"},"geometry":{"type":"Point","coordinates":[104.44397289993806,20.755177270296524]}},{"type":"Feature","properties":{"name_en":"Huoaihieng","did":707,"pid":7,"uuid":"707073"},"geometry":{"type":"Point","coordinates":[104.56984184970767,20.687373879733414]}},{"type":"Feature","properties":{"name_en":"Beung","did":707,"pid":7,"uuid":"707074"},"geometry":{"type":"Point","coordinates":[104.58190205974277,20.669857040122274]}},{"type":"Feature","properties":{"name_en":"Mouang","did":707,"pid":7,"uuid":"707075"},"geometry":{"type":"Point","coordinates":[104.52901670004663,20.70998750036945]}},{"type":"Feature","properties":{"name_en":"Phackomphet","did":707,"pid":7,"uuid":"707076"},"geometry":{"type":"Point","coordinates":[104.53759967970423,20.647144010418792]}},{"type":"Feature","properties":{"name_en":"Phiengphueang","did":707,"pid":7,"uuid":"707077"},"geometry":{"type":"Point","coordinates":[104.39608642025243,20.65344309043267]}},{"type":"Feature","properties":{"name_en":"Nambong","did":707,"pid":7,"uuid":"707078"},"geometry":{"type":"Point","coordinates":[104.2047398904485,20.686606929712593]}}]}