{"type":"FeatureCollection","features":[{"type":"Feature","properties":{"name_en":"Houaila","did":708,"pid":7,"uuid":"708001"},"geometry":{"type":"Point","coordinates":[103.86671450018822,20.849123229738215]}},{"type":"Feature","properties":{"name_en":"Nasao","did":708,"pid":7,"uuid":"708002"},"geometry":{"type":"Point","coordinates":[103.88617936969068,20.878478920446828]}},{"type":"Feature","properties":{"name_en":"Houaimun","did":708,"pid":7,"uuid":"708003"},"geometry":{"type":"Point","coordinates":[103.90524058011943,20.856548930061408]}},{"type":"Feature","properties":{"name_en":"Namunh","did":708,"pid":7,"uuid":"708004"},"geometry":{"type":"Point","coordinates":[103.91348266963487,20.884105859664]}},{"type":"Feature","properties":{"name_en":"Nangae","did":708,"pid":7,"uuid":"708005"},"geometry":{"type":"Point","coordinates":[103.91946440975677,20.883068600002925]}},{"type":"Feature","properties":{"name_en":"Nahoy","did":708,"pid":7,"uuid":"708006"},"geometry":{"type":"Point","coordinates":[103.9310118298569,20.88404199004692]}},{"type":"Feature","properties":{"name_en":"Nakay","did":708,"pid":7,"uuid":"708007"},"geometry":{"type":"Point","coordinates":[103.94068220023905,20.879223819702958]}},{"type":"Feature","properties":{"name_en":"nanhom","did":708,"pid":7,"uuid":"708008"},"geometry":{"type":"Point","coordinates":[103.94704917021443,20.881002709958594]}},{"type":"Feature","properties":{"name_en":"Nahi","did":708,"pid":7,"uuid":"708009"},"geometry":{"type":"Point","coordinates":[103.9579131298374,20.880832640405387]}},{"type":"Feature","properties":{"name_en":"Thandlouang","did":708,"pid":7,"uuid":"708010"},"geometry":{"type":"Point","coordinates":[103.97499695003364,20.90015636983031]}},{"type":"Feature","properties":{"name_en":"Dan","did":708,"pid":7,"uuid":"708011"},"geometry":{"type":"Point","coordinates":[103.97924649986955,20.90258075007066]}},{"type":"Feature","properties":{"name_en":"Houaikoun","did":708,"pid":7,"uuid":"708012"},"geometry":{"type":"Point","coordinates":[103.99246652040172,20.892599240167584]}},{"type":"Feature","properties":{"name_en":"Hathkou","did":708,"pid":7,"uuid":"708013"},"geometry":{"type":"Point","coordinates":[103.97652622984076,20.895871959797244]}},{"type":"Feature","properties":{"name_en":"Beir","did":708,"pid":7,"uuid":"708014"},"geometry":{"type":"Point","coordinates":[103.97380219964211,20.884250700243165]}},{"type":"Feature","properties":{"name_en":"xiengkoun","did":708,"pid":7,"uuid":"708015"},"geometry":{"type":"Point","coordinates":[103.97000318009229,20.8753310100793]}},{"type":"Feature","properties":{"name_en":"Kang","did":708,"pid":7,"uuid":"708016"},"geometry":{"type":"Point","coordinates":[103.95783610007841,20.856845650174126]}},{"type":"Feature","properties":{"name_en":"Napha","did":708,"pid":7,"uuid":"708017"},"geometry":{"type":"Point","coordinates":[103.97499477047838,20.862371330260377]}},{"type":"Feature","properties":{"name_en":"Phae","did":708,"pid":7,"uuid":"708018"},"geometry":{"type":"Point","coordinates":[103.97446655045788,20.851616430355847]}},{"type":"Feature","properties":{"name_en":"Sor","did":708,"pid":7,"uuid":"708019"},"geometry":{"type":"Point","coordinates":[103.97647962983157,20.83893729010026]}},{"type":"Feature","properties":{"name_en":"Huoaiphork","did":708,"pid":7,"uuid":"708021"},"geometry":{"type":"Point","coordinates":[103.8226209100332,20.614718450247494]}},{"type":"Feature","properties":{"name_en":"Huoaichork","did":708,"pid":7,"uuid":"708024"},"geometry":{"type":"Point","coordinates":[103.77617720956502,20.63248029009616]}},{"type":"Feature","properties":{"name_en":"Huoaimor","did":708,"pid":7,"uuid":"708025"},"geometry":{"type":"Point","coordinates":[103.75953125006671,20.692667640120955]}},{"type":"Feature","properties":{"name_en":"Tamo","did":708,"pid":7,"uuid":"708026"},"geometry":{"type":"Point","coordinates":[103.79830575991062,20.620092509984694]}},{"type":"Feature","properties":{"name_en":"Houaiha","did":708,"pid":7,"uuid":"708028"},"geometry":{"type":"Point","coordinates":[103.79196032993423,20.615414570266772]}},{"type":"Feature","properties":{"name_en":"Napoung","did":708,"pid":7,"uuid":"708029"},"geometry":{"type":"Point","coordinates":[103.93728945001236,20.734512949611425]}},{"type":"Feature","properties":{"name_en":"Nackam","did":708,"pid":7,"uuid":"708031"},"geometry":{"type":"Point","coordinates":[103.94220008033882,20.717674879797233]}},{"type":"Feature","properties":{"name_en":"Longseum","did":708,"pid":7,"uuid":"708032"},"geometry":{"type":"Point","coordinates":[103.89771748038501,20.724593469651808]}},{"type":"Feature","properties":{"name_en":"Thamsong","did":708,"pid":7,"uuid":"708033"},"geometry":{"type":"Point","coordinates":[103.95049572977562,20.7476719500299]}},{"type":"Feature","properties":{"name_en":"Vangphong","did":708,"pid":7,"uuid":"708035"},"geometry":{"type":"Point","coordinates":[103.9804811500638,20.71800536955727]}},{"type":"Feature","properties":{"name_en":"Phaphoun","did":708,"pid":7,"uuid":"708036"},"geometry":{"type":"Point","coordinates":[103.89648508996827,20.74829447019305]}},{"type":"Feature","properties":{"name_en":"Nackouang","did":708,"pid":7,"uuid":"708037"},"geometry":{"type":"Point","coordinates":[103.94034716953502,20.697923930108647]}},{"type":"Feature","properties":{"name_en":"Phanor","did":708,"pid":7,"uuid":"708038"},"geometry":{"type":"Point","coordinates":[103.90921553005275,20.766779080123353]}},{"type":"Feature","properties":{"name_en":"Kangnamadd","did":708,"pid":7,"uuid":"708039"},"geometry":{"type":"Point","coordinates":[103.95267846020914,20.778725889973163]}},{"type":"Feature","properties":{"name_en":"Pholor","did":708,"pid":7,"uuid":"708040"},"geometry":{"type":"Point","coordinates":[103.84746000956314,20.78198067032792]}},{"type":"Feature","properties":{"name_en":"Na","did":708,"pid":7,"uuid":"708041"},"geometry":{"type":"Point","coordinates":[103.9411465500057,20.76919197986445]}},{"type":"Feature","properties":{"name_en":"Nasanh","did":708,"pid":7,"uuid":"708042"},"geometry":{"type":"Point","coordinates":[103.93547611017445,20.691381430211493]}},{"type":"Feature","properties":{"name_en":"Naphieng","did":708,"pid":7,"uuid":"708043"},"geometry":{"type":"Point","coordinates":[103.94898229033963,20.744143499668173]}},{"type":"Feature","properties":{"name_en":"Longkeo","did":708,"pid":7,"uuid":"708044"},"geometry":{"type":"Point","coordinates":[103.96115189035223,20.663349829909116]}},{"type":"Feature","properties":{"name_en":"Sobvaek","did":708,"pid":7,"uuid":"708046"},"geometry":{"type":"Point","coordinates":[103.87899842984707,20.673165040228586]}},{"type":"Feature","properties":{"name_en":"Katunh","did":708,"pid":7,"uuid":"708048"},"geometry":{"type":"Point","coordinates":[103.85977596018856,20.62413366959908]}},{"type":"Feature","properties":{"name_en":"Nachapuang (Navin)","did":708,"pid":7,"uuid":"708049"},"geometry":{"type":"Point","coordinates":[103.83043000010001,20.672300000155047]}},{"type":"Feature","properties":{"name_en":"Phadang","did":708,"pid":7,"uuid":"708050"},"geometry":{"type":"Point","coordinates":[103.91109206978734,20.67918022994313]}},{"type":"Feature","properties":{"name_en":"Mueangseug","did":708,"pid":7,"uuid":"708051"},"geometry":{"type":"Point","coordinates":[103.80019545968017,20.65737940026362]}},{"type":"Feature","properties":{"name_en":"Nongsay","did":708,"pid":7,"uuid":"708054"},"geometry":{"type":"Point","coordinates":[103.93589655013263,20.814718619732517]}},{"type":"Feature","properties":{"name_en":"Phatherb","did":708,"pid":7,"uuid":"708055"},"geometry":{"type":"Point","coordinates":[103.89458844031307,20.78971474016419]}},{"type":"Feature","properties":{"name_en":"Nogntob","did":708,"pid":7,"uuid":"708056"},"geometry":{"type":"Point","coordinates":[104.02890550002702,20.731729060436482]}},{"type":"Feature","properties":{"name_en":"Chaephai","did":708,"pid":7,"uuid":"708057"},"geometry":{"type":"Point","coordinates":[103.95174874046918,20.81968255025915]}},{"type":"Feature","properties":{"name_en":"Namath","did":708,"pid":7,"uuid":"708058"},"geometry":{"type":"Point","coordinates":[103.9724226997137,20.827111429865273]}},{"type":"Feature","properties":{"name_en":"Nakueanuea","did":708,"pid":7,"uuid":"708059"},"geometry":{"type":"Point","coordinates":[103.91047684022406,20.805411269833606]}},{"type":"Feature","properties":{"name_en":"Naha","did":708,"pid":7,"uuid":"708060"},"geometry":{"type":"Point","coordinates":[104.00036176990655,20.825205220356306]}},{"type":"Feature","properties":{"name_en":"Nackam","did":708,"pid":7,"uuid":"708061"},"geometry":{"type":"Point","coordinates":[104.00222263010268,20.780503610176613]}},{"type":"Feature","properties":{"name_en":"Dai","did":708,"pid":7,"uuid":"708062"},"geometry":{"type":"Point","coordinates":[103.9873593400823,20.77786239005398]}},{"type":"Feature","properties":{"name_en":"Mueangadd","did":708,"pid":7,"uuid":"708063"},"geometry":{"type":"Point","coordinates":[104.00519652997053,20.820630709625892]}},{"type":"Feature","properties":{"name_en":"Keoku","did":708,"pid":7,"uuid":"708065"},"geometry":{"type":"Point","coordinates":[103.8329500003815,20.805299999643893]}},{"type":"Feature","properties":{"name_en":"Nakueatay","did":708,"pid":7,"uuid":"708066"},"geometry":{"type":"Point","coordinates":[103.91372717046713,20.802033450303952]}},{"type":"Feature","properties":{"name_en":"Hinkoon","did":708,"pid":7,"uuid":"708068"},"geometry":{"type":"Point","coordinates":[103.96462653022536,20.82669325958255]}},{"type":"Feature","properties":{"name_en":"Nahom","did":708,"pid":7,"uuid":"708069"},"geometry":{"type":"Point","coordinates":[103.95938573954076,20.7770527804342]}},{"type":"Feature","properties":{"name_en":"Huoaikork","did":708,"pid":7,"uuid":"708071"},"geometry":{"type":"Point","coordinates":[104.02208020020178,20.709234969913762]}},{"type":"Feature","properties":{"name_en":"Longhoy","did":708,"pid":7,"uuid":"708072"},"geometry":{"type":"Point","coordinates":[103.98203590955497,20.78214302985657]}},{"type":"Feature","properties":{"name_en":"Nanhang","did":708,"pid":7,"uuid":"708073"},"geometry":{"type":"Point","coordinates":[104.00613128016671,20.794565679739932]}},{"type":"Feature","properties":{"name_en":"Lou","did":708,"pid":7,"uuid":"708074"},"geometry":{"type":"Point","coordinates":[103.98562645979221,20.83872799994725]}},{"type":"Feature","properties":{"name_en":"Phuckphand","did":708,"pid":7,"uuid":"708075"},"geometry":{"type":"Point","coordinates":[104.00906310015971,20.772401490354138]}},{"type":"Feature","properties":{"name_en":"sauth","did":708,"pid":7,"uuid":"708076"},"geometry":{"type":"Point","coordinates":[104.0590387801355,20.832774670125815]}},{"type":"Feature","properties":{"name_en":"Huoi yong","did":708,"pid":7,"uuid":"708077"},"geometry":{"type":"Point","coordinates":[104.04727746038486,20.78823448978591]}},{"type":"Feature","properties":{"name_en":"Na heed","did":708,"pid":7,"uuid":"708078"},"geometry":{"type":"Point","coordinates":[104.04029742998415,20.818782090353967]}},{"type":"Feature","properties":{"name_en":"Na san","did":708,"pid":7,"uuid":"708079"},"geometry":{"type":"Point","coordinates":[104.05174852986838,20.80954146022676]}},{"type":"Feature","properties":{"name_en":"Na laeng","did":708,"pid":7,"uuid":"708080"},"geometry":{"type":"Point","coordinates":[104.04979253005239,20.826982519678253]}},{"type":"Feature","properties":{"name_en":"Kang","did":708,"pid":7,"uuid":"708081"},"geometry":{"type":"Point","coordinates":[104.04912147953968,20.771704710325242]}},{"type":"Feature","properties":{"name_en":"Mueang vanh","did":708,"pid":7,"uuid":"708082"},"geometry":{"type":"Point","coordinates":[104.04483077969105,20.82433694018403]}},{"type":"Feature","properties":{"name_en":"Huay lom","did":708,"pid":7,"uuid":"708083"},"geometry":{"type":"Point","coordinates":[104.0714579899966,20.794574980293465]}},{"type":"Feature","properties":{"name_en":"Na nguen","did":708,"pid":7,"uuid":"708084"},"geometry":{"type":"Point","coordinates":[104.0275965004629,20.81707461036341]}},{"type":"Feature","properties":{"name_en":"Pha keo","did":708,"pid":7,"uuid":"708086"},"geometry":{"type":"Point","coordinates":[104.0055713704546,20.744144000386726]}},{"type":"Feature","properties":{"name_en":"Phieng lou","did":708,"pid":7,"uuid":"708087"},"geometry":{"type":"Point","coordinates":[103.97802250387987,20.845587475074666]}},{"type":"Feature","properties":{"name_en":"Na hong","did":708,"pid":7,"uuid":"708088"},"geometry":{"type":"Point","coordinates":[103.9207636830482,20.76415928661518]}},{"type":"Feature","properties":{"name_en":"Naman","did":708,"pid":7,"uuid":"708089"},"geometry":{"type":"Point","coordinates":[103.96706386374876,20.781031750228276]}},{"type":"Feature","properties":{"name_en":"Bouampho","did":708,"pid":7,"uuid":"708090"},"geometry":{"type":"Point","coordinates":[103.96707353165958,20.781022773617433]}},{"type":"Feature","properties":{"name_en":"Kalang","did":708,"pid":7,"uuid":"708091"},"geometry":{"type":"Point","coordinates":[103.79609647338462,20.79772481579816]}},{"type":"Feature","properties":{"name_en":"Keo hae","did":708,"pid":7,"uuid":"708093"},"geometry":{"type":"Point","coordinates":[103.98758800021922,20.831342120234265]}}]}