{"type":"FeatureCollection","features":[{"type":"Feature","properties":{"name_en":"Napho","did":709,"pid":7,"uuid":"706093"},"geometry":{"type":"Point","coordinates":[104.25338326010018,19.70524080028144]}},{"type":"Feature","properties":{"name_en":"Phanthong","did":709,"pid":7,"uuid":"709001"},"geometry":{"type":"Point","coordinates":[104.66995898996934,19.80808968976749]}},{"type":"Feature","properties":{"name_en":"Mar","did":709,"pid":7,"uuid":"709002"},"geometry":{"type":"Point","coordinates":[104.65439169995363,19.8188595897948]}},{"type":"Feature","properties":{"name_en":"Done","did":709,"pid":7,"uuid":"709003"},"geometry":{"type":"Point","coordinates":[104.6657490097063,19.80281177005237]}},{"type":"Feature","properties":{"name_en":"Houyvan","did":709,"pid":7,"uuid":"709004"},"geometry":{"type":"Point","coordinates":[104.62428139028546,19.74938778037187]}},{"type":"Feature","properties":{"name_en":"Sandine","did":709,"pid":7,"uuid":"709005"},"geometry":{"type":"Point","coordinates":[104.65901171973448,19.691113439823496]}},{"type":"Feature","properties":{"name_en":"Houyhai","did":709,"pid":7,"uuid":"709006"},"geometry":{"type":"Point","coordinates":[104.67863969971002,19.761529969990733]}},{"type":"Feature","properties":{"name_en":"Poungtark","did":709,"pid":7,"uuid":"709007"},"geometry":{"type":"Point","coordinates":[104.62108118020812,19.72808115027437]}},{"type":"Feature","properties":{"name_en":"Tongou","did":709,"pid":7,"uuid":"709008"},"geometry":{"type":"Point","coordinates":[104.64814584006935,19.72010208003008]}},{"type":"Feature","properties":{"name_en":"Phiengdee","did":709,"pid":7,"uuid":"709010"},"geometry":{"type":"Point","coordinates":[104.2491727803886,19.75864283041088]}},{"type":"Feature","properties":{"name_en":"Phiengpho","did":709,"pid":7,"uuid":"709011"},"geometry":{"type":"Point","coordinates":[104.22694706960108,19.750344580038092]}},{"type":"Feature","properties":{"name_en":"Sanhom","did":709,"pid":7,"uuid":"709012"},"geometry":{"type":"Point","coordinates":[104.18873716018223,19.71472375037571]}},{"type":"Feature","properties":{"name_en":"Phiengsang","did":709,"pid":7,"uuid":"709013"},"geometry":{"type":"Point","coordinates":[104.16842051972682,19.695029720019697]}},{"type":"Feature","properties":{"name_en":"Sopsane","did":709,"pid":7,"uuid":"709014"},"geometry":{"type":"Point","coordinates":[104.19982901969583,19.693871080262685]}},{"type":"Feature","properties":{"name_en":"Phiengmone","did":709,"pid":7,"uuid":"709015"},"geometry":{"type":"Point","coordinates":[104.27622328022737,19.75446688042334]}},{"type":"Feature","properties":{"name_en":"Kaengkor","did":709,"pid":7,"uuid":"709016"},"geometry":{"type":"Point","coordinates":[104.30348215025276,19.698117110312293]}},{"type":"Feature","properties":{"name_en":"Houychin","did":709,"pid":7,"uuid":"709017"},"geometry":{"type":"Point","coordinates":[104.36729441042883,19.93215936989823]}},{"type":"Feature","properties":{"name_en":"Korfoung","did":709,"pid":7,"uuid":"709018"},"geometry":{"type":"Point","coordinates":[104.37910292046163,19.888587559697207]}},{"type":"Feature","properties":{"name_en":"Pakhom","did":709,"pid":7,"uuid":"709019"},"geometry":{"type":"Point","coordinates":[104.40702848970024,19.95804898008279]}},{"type":"Feature","properties":{"name_en":"Bok","did":709,"pid":7,"uuid":"709020"},"geometry":{"type":"Point","coordinates":[104.33514135013665,19.91086774962914]}},{"type":"Feature","properties":{"name_en":"Vitsay","did":709,"pid":7,"uuid":"709022"},"geometry":{"type":"Point","coordinates":[104.41476598971254,19.923530709825414]}},{"type":"Feature","properties":{"name_en":"Yordpao","did":709,"pid":7,"uuid":"709023"},"geometry":{"type":"Point","coordinates":[104.31080205958453,19.88010682998965]}},{"type":"Feature","properties":{"name_en":"Nampard","did":709,"pid":7,"uuid":"709024"},"geometry":{"type":"Point","coordinates":[104.41497638043882,19.973305299662698]}},{"type":"Feature","properties":{"name_en":"Thakhouy","did":709,"pid":7,"uuid":"709025"},"geometry":{"type":"Point","coordinates":[104.3047653300113,19.84351780989456]}},{"type":"Feature","properties":{"name_en":"Somluang","did":709,"pid":7,"uuid":"709026"},"geometry":{"type":"Point","coordinates":[104.29932874965324,19.842723960149105]}},{"type":"Feature","properties":{"name_en":"Sankhoun","did":709,"pid":7,"uuid":"709027"},"geometry":{"type":"Point","coordinates":[104.31113700002557,19.857410229932697]}},{"type":"Feature","properties":{"name_en":"Yordin","did":709,"pid":7,"uuid":"709028"},"geometry":{"type":"Point","coordinates":[104.2634563001476,19.823589839582624]}},{"type":"Feature","properties":{"name_en":"Houyheng","did":709,"pid":7,"uuid":"709029"},"geometry":{"type":"Point","coordinates":[104.40274005985302,19.85979807016869]}},{"type":"Feature","properties":{"name_en":"Meuangkuan","did":709,"pid":7,"uuid":"709030"},"geometry":{"type":"Point","coordinates":[104.53731721007298,19.82935432017193]}},{"type":"Feature","properties":{"name_en":"Nanung","did":709,"pid":7,"uuid":"709031"},"geometry":{"type":"Point","coordinates":[104.5608372495307,19.8736240196639]}},{"type":"Feature","properties":{"name_en":"Nonglao","did":709,"pid":7,"uuid":"709033"},"geometry":{"type":"Point","coordinates":[104.52137005993991,19.76904997013192]}},{"type":"Feature","properties":{"name_en":"Meuangna","did":709,"pid":7,"uuid":"709036"},"geometry":{"type":"Point","coordinates":[104.48085997958326,19.84483996964233]}},{"type":"Feature","properties":{"name_en":"Houana","did":709,"pid":7,"uuid":"709037"},"geometry":{"type":"Point","coordinates":[104.46630992005876,19.860179950206692]}},{"type":"Feature","properties":{"name_en":"Nathong","did":709,"pid":7,"uuid":"709038"},"geometry":{"type":"Point","coordinates":[104.4755299296241,19.833819949743443]}},{"type":"Feature","properties":{"name_en":"Navine","did":709,"pid":7,"uuid":"709039"},"geometry":{"type":"Point","coordinates":[104.4364999295907,19.780949919638108]}},{"type":"Feature","properties":{"name_en":"Nangom","did":709,"pid":7,"uuid":"709040"},"geometry":{"type":"Point","coordinates":[104.4266899197297,19.800799950057613]}},{"type":"Feature","properties":{"name_en":"Korkhay","did":709,"pid":7,"uuid":"709041"},"geometry":{"type":"Point","coordinates":[104.47503991954888,19.812509970412712]}},{"type":"Feature","properties":{"name_en":"Hinngerb","did":709,"pid":7,"uuid":"709042"},"geometry":{"type":"Point","coordinates":[104.46187992023978,19.894629990069756]}},{"type":"Feature","properties":{"name_en":"Houymuang","did":709,"pid":7,"uuid":"709043"},"geometry":{"type":"Point","coordinates":[104.45327992003755,19.812099920038282]}},{"type":"Feature","properties":{"name_en":"Meuayeuang","did":709,"pid":7,"uuid":"709045"},"geometry":{"type":"Point","coordinates":[104.34161545039352,19.758551629864453]}},{"type":"Feature","properties":{"name_en":"Nahom","did":709,"pid":7,"uuid":"709046"},"geometry":{"type":"Point","coordinates":[104.34811602960409,19.73506018015312]}},{"type":"Feature","properties":{"name_en":"Phiengthard","did":709,"pid":7,"uuid":"709047"},"geometry":{"type":"Point","coordinates":[104.33752206024317,19.712816030220104]}},{"type":"Feature","properties":{"name_en":"Houyhong","did":709,"pid":7,"uuid":"709048"},"geometry":{"type":"Point","coordinates":[104.30712667954762,19.745094819627422]}},{"type":"Feature","properties":{"name_en":"Takheuang","did":709,"pid":7,"uuid":"709049"},"geometry":{"type":"Point","coordinates":[104.40663890031335,19.729335079814025]}},{"type":"Feature","properties":{"name_en":"Houyhae","did":709,"pid":7,"uuid":"709050"},"geometry":{"type":"Point","coordinates":[104.36989087979818,19.75723793994104]}},{"type":"Feature","properties":{"name_en":"Houymay","did":709,"pid":7,"uuid":"709051"},"geometry":{"type":"Point","coordinates":[104.38664352962262,19.699812429921625]}},{"type":"Feature","properties":{"name_en":"Houysay","did":709,"pid":7,"uuid":"709052"},"geometry":{"type":"Point","coordinates":[104.3809506304749,19.794493399991868]}},{"type":"Feature","properties":{"name_en":"Yordbor","did":709,"pid":7,"uuid":"709053"},"geometry":{"type":"Point","coordinates":[104.4658883100051,19.924484150409256]}},{"type":"Feature","properties":{"name_en":"Tungsao","did":709,"pid":7,"uuid":"709054"},"geometry":{"type":"Point","coordinates":[104.60174513039681,19.644531180400534]}},{"type":"Feature","properties":{"name_en":"Nakormy","did":709,"pid":7,"uuid":"709055"},"geometry":{"type":"Point","coordinates":[104.55462936014948,19.701166360417243]}},{"type":"Feature","properties":{"name_en":"Houyngoua","did":709,"pid":7,"uuid":"709056"},"geometry":{"type":"Point","coordinates":[104.44929994042333,19.72967999986222]}},{"type":"Feature","properties":{"name_en":"Poungway","did":709,"pid":7,"uuid":"709057"},"geometry":{"type":"Point","coordinates":[104.47038998012252,19.684989959571432]}},{"type":"Feature","properties":{"name_en":"Keokoud","did":709,"pid":7,"uuid":"709058"},"geometry":{"type":"Point","coordinates":[104.58972146015579,19.690011720343545]}},{"type":"Feature","properties":{"name_en":"Phadang","did":709,"pid":7,"uuid":"709059"},"geometry":{"type":"Point","coordinates":[104.51566994013984,19.665999999929603]}},{"type":"Feature","properties":{"name_en":"Houypoung","did":709,"pid":7,"uuid":"709060"},"geometry":{"type":"Point","coordinates":[104.56276987037877,19.725726420423857]}},{"type":"Feature","properties":{"name_en":"Pakhom","did":709,"pid":7,"uuid":"709061"},"geometry":{"type":"Point","coordinates":[104.4989059700535,19.74622344971566]}},{"type":"Feature","properties":{"name_en":"Hintung","did":709,"pid":7,"uuid":"709062"},"geometry":{"type":"Point","coordinates":[104.51257491958148,19.90012223023176]}},{"type":"Feature","properties":{"name_en":"Houytha","did":709,"pid":7,"uuid":"709068"},"geometry":{"type":"Point","coordinates":[104.31233377031437,19.772883179781275]}},{"type":"Feature","properties":{"name_en":"Poungka","did":709,"pid":7,"uuid":"709069"},"geometry":{"type":"Point","coordinates":[104.50894991953821,19.72679998031928]}},{"type":"Feature","properties":{"name_en":"Phiengkaohoy","did":709,"pid":7,"uuid":"709114"},"geometry":{"type":"Point","coordinates":[104.32416642018914,19.81308965983693]}},{"type":"Feature","properties":{"name_en":"Nongvane","did":709,"pid":7,"uuid":"709122"},"geometry":{"type":"Point","coordinates":[104.51511824973798,19.803979449981284]}},{"type":"Feature","properties":{"name_en":"Houysay","did":709,"pid":7,"uuid":"709127"},"geometry":{"type":"Point","coordinates":[104.56800159971624,19.792383169731146]}},{"type":"Feature","properties":{"name_en":"Poungsieng","did":709,"pid":7,"uuid":"709128"},"geometry":{"type":"Point","coordinates":[104.53523547976954,19.777152840218065]}},{"type":"Feature","properties":{"name_en":"Naor","did":709,"pid":7,"uuid":"709146"},"geometry":{"type":"Point","coordinates":[104.49038483959582,19.796167100380014]}},{"type":"Feature","properties":{"name_en":"Korhai","did":709,"pid":7,"uuid":"709180"},"geometry":{"type":"Point","coordinates":[104.4942417702553,19.927865319609285]}}]}