{"type":"FeatureCollection","features":[{"type":"Feature","properties":{"name_en":"Nanom","did":710,"pid":7,"uuid":"710012"},"geometry":{"type":"Point","coordinates":[103.34975843960932,20.44435501023856]}},{"type":"Feature","properties":{"name_en":"Thard","did":710,"pid":7,"uuid":"710014"},"geometry":{"type":"Point","coordinates":[103.36347793972473,20.42022451977229]}},{"type":"Feature","properties":{"name_en":"Vat","did":710,"pid":7,"uuid":"710015"},"geometry":{"type":"Point","coordinates":[103.3567758603789,20.435322000016708]}},{"type":"Feature","properties":{"name_en":"Sone-Neua","did":710,"pid":7,"uuid":"710016"},"geometry":{"type":"Point","coordinates":[103.34734101990823,20.463685189551732]}},{"type":"Feature","properties":{"name_en":"Houyhom","did":710,"pid":7,"uuid":"710017"},"geometry":{"type":"Point","coordinates":[103.3556719602195,20.440144360304302]}},{"type":"Feature","properties":{"name_en":"Lang","did":710,"pid":7,"uuid":"710019"},"geometry":{"type":"Point","coordinates":[103.36737149969265,20.41611176977217]}},{"type":"Feature","properties":{"name_en":"Houysangon","did":710,"pid":7,"uuid":"710023"},"geometry":{"type":"Point","coordinates":[103.3199736004685,20.536259649649374]}},{"type":"Feature","properties":{"name_en":"Man","did":710,"pid":7,"uuid":"710027"},"geometry":{"type":"Point","coordinates":[103.38143999953036,20.479850000290018]}},{"type":"Feature","properties":{"name_en":"Ngone","did":710,"pid":7,"uuid":"710028"},"geometry":{"type":"Point","coordinates":[103.33273990974271,20.50907152036623]}},{"type":"Feature","properties":{"name_en":"Sone-Tai","did":710,"pid":7,"uuid":"710032"},"geometry":{"type":"Point","coordinates":[103.35348512034034,20.484551679579372]}},{"type":"Feature","properties":{"name_en":"Bor","did":710,"pid":7,"uuid":"710033"},"geometry":{"type":"Point","coordinates":[103.32070065019494,20.529087839592385]}},{"type":"Feature","properties":{"name_en":"Samsom","did":710,"pid":7,"uuid":"710039"},"geometry":{"type":"Point","coordinates":[103.39957200980542,20.600863330199733]}},{"type":"Feature","properties":{"name_en":"Nongsai","did":710,"pid":7,"uuid":"710047"},"geometry":{"type":"Point","coordinates":[103.38712982985437,20.517183189994626]}},{"type":"Feature","properties":{"name_en":"Houyyam","did":710,"pid":7,"uuid":"710048"},"geometry":{"type":"Point","coordinates":[103.49826741023047,20.60516341974541]}},{"type":"Feature","properties":{"name_en":"Houymeuay","did":710,"pid":7,"uuid":"710049"},"geometry":{"type":"Point","coordinates":[103.35145568970658,20.4619432602002]}},{"type":"Feature","properties":{"name_en":"Namnern","did":710,"pid":7,"uuid":"710055"},"geometry":{"type":"Point","coordinates":[103.40609405027058,20.22962732967515]}},{"type":"Feature","properties":{"name_en":"Bomfard","did":710,"pid":7,"uuid":"710060"},"geometry":{"type":"Point","coordinates":[103.38220982009284,20.263487119618397]}},{"type":"Feature","properties":{"name_en":"Phonesong","did":710,"pid":7,"uuid":"710061"},"geometry":{"type":"Point","coordinates":[103.36615361007921,20.31081335989551]}},{"type":"Feature","properties":{"name_en":"Nathongpor","did":710,"pid":7,"uuid":"710062"},"geometry":{"type":"Point","coordinates":[103.34873929028686,20.453452229596355]}},{"type":"Feature","properties":{"name_en":"Namngao","did":710,"pid":7,"uuid":"710063"},"geometry":{"type":"Point","coordinates":[103.34055964012002,20.458130329602337]}},{"type":"Feature","properties":{"name_en":"Vungfan","did":710,"pid":7,"uuid":"710068"},"geometry":{"type":"Point","coordinates":[103.42838923973781,20.694736459665837]}},{"type":"Feature","properties":{"name_en":"Houysou","did":710,"pid":7,"uuid":"710069"},"geometry":{"type":"Point","coordinates":[103.47233187008649,20.61454351969107]}},{"type":"Feature","properties":{"name_en":"Nakien","did":710,"pid":7,"uuid":"710073"},"geometry":{"type":"Point","coordinates":[103.39459450024951,20.72511440035893]}},{"type":"Feature","properties":{"name_en":"Meuangper","did":710,"pid":7,"uuid":"710074"},"geometry":{"type":"Point","coordinates":[103.40135701974127,20.721624850419502]}},{"type":"Feature","properties":{"name_en":"Soptiew","did":710,"pid":7,"uuid":"710075"},"geometry":{"type":"Point","coordinates":[103.42021303002308,20.743488460288248]}},{"type":"Feature","properties":{"name_en":"Bong","did":710,"pid":7,"uuid":"710078"},"geometry":{"type":"Point","coordinates":[103.46930860973065,20.701642220228027]}},{"type":"Feature","properties":{"name_en":"Meuangkao","did":710,"pid":7,"uuid":"710084"},"geometry":{"type":"Point","coordinates":[103.44178629039071,20.624629970251064]}},{"type":"Feature","properties":{"name_en":"Vungkhouang","did":710,"pid":7,"uuid":"710085"},"geometry":{"type":"Point","coordinates":[103.41311105036749,20.601483680262334]}},{"type":"Feature","properties":{"name_en":"Nachack","did":710,"pid":7,"uuid":"710086"},"geometry":{"type":"Point","coordinates":[103.37760940978812,20.4384020204236]}},{"type":"Feature","properties":{"name_en":"Longngouapa","did":710,"pid":7,"uuid":"710087"},"geometry":{"type":"Point","coordinates":[103.39862335000801,20.208891840320558]}},{"type":"Feature","properties":{"name_en":"Namor","did":710,"pid":7,"uuid":"710088"},"geometry":{"type":"Point","coordinates":[103.35124773998574,20.469768440439058]}},{"type":"Feature","properties":{"name_en":"Say","did":710,"pid":7,"uuid":"710089"},"geometry":{"type":"Point","coordinates":[103.34874456956506,20.49352014997479]}},{"type":"Feature","properties":{"name_en":"Houylao","did":710,"pid":7,"uuid":"710095"},"geometry":{"type":"Point","coordinates":[103.3773629798665,20.52815727986411]}},{"type":"Feature","properties":{"name_en":"Houytuen","did":710,"pid":7,"uuid":"710096"},"geometry":{"type":"Point","coordinates":[103.37042889038986,20.277100420327788]}}]}