{"type":"FeatureCollection","features":[{"type":"Feature","properties":{"name_en":"Sy meuang","did":801,"pid":8,"uuid":"801001"},"geometry":{"type":"Point","coordinates":[101.7124366397161,19.266319759890642]}},{"type":"Feature","properties":{"name_en":"Thin","did":801,"pid":8,"uuid":"801002"},"geometry":{"type":"Point","coordinates":[101.71121313020582,19.261853879677396]}},{"type":"Feature","properties":{"name_en":"Sy moung khoun","did":801,"pid":8,"uuid":"801003"},"geometry":{"type":"Point","coordinates":[101.71288992983304,19.268069979969255]}},{"type":"Feature","properties":{"name_en":"Don mai","did":801,"pid":8,"uuid":"801004"},"geometry":{"type":"Point","coordinates":[101.70623671039672,19.258899179687386]}},{"type":"Feature","properties":{"name_en":"Don nguen","did":801,"pid":8,"uuid":"801005"},"geometry":{"type":"Point","coordinates":[101.7065299996405,19.252479980215735]}},{"type":"Feature","properties":{"name_en":"Boung","did":801,"pid":8,"uuid":"801006"},"geometry":{"type":"Point","coordinates":[101.7129699804486,19.251859970176824]}},{"type":"Feature","properties":{"name_en":"Pong","did":801,"pid":8,"uuid":"801007"},"geometry":{"type":"Point","coordinates":[101.71648996020822,19.2677899497192]}},{"type":"Feature","properties":{"name_en":"Tha na","did":801,"pid":8,"uuid":"801008"},"geometry":{"type":"Point","coordinates":[101.71421545025363,19.27593463993082]}},{"type":"Feature","properties":{"name_en":"Na yao tai","did":801,"pid":8,"uuid":"801009"},"geometry":{"type":"Point","coordinates":[101.72143150954724,19.28683950027631]}},{"type":"Feature","properties":{"name_en":"Kaeng","did":801,"pid":8,"uuid":"801010"},"geometry":{"type":"Point","coordinates":[101.70926995973502,19.24595995037804]}},{"type":"Feature","properties":{"name_en":"Phapoun","did":801,"pid":8,"uuid":"801011"},"geometry":{"type":"Point","coordinates":[101.71415996014227,19.249569949932077]}},{"type":"Feature","properties":{"name_en":"Nahai","did":801,"pid":8,"uuid":"801012"},"geometry":{"type":"Point","coordinates":[101.71966510997854,19.256422739681167]}},{"type":"Feature","properties":{"name_en":"Yaai","did":801,"pid":8,"uuid":"801013"},"geometry":{"type":"Point","coordinates":[101.71732999008438,19.248929990101697]}},{"type":"Feature","properties":{"name_en":"Nong xaeng","did":801,"pid":8,"uuid":"801014"},"geometry":{"type":"Point","coordinates":[101.71878994955318,19.246219960420664]}},{"type":"Feature","properties":{"name_en":"Na laao","did":801,"pid":8,"uuid":"801015"},"geometry":{"type":"Point","coordinates":[101.71537993969837,19.240799969556594]}},{"type":"Feature","properties":{"name_en":"Na tor noy","did":801,"pid":8,"uuid":"801016"},"geometry":{"type":"Point","coordinates":[101.71063998034492,19.236709930372328]}},{"type":"Feature","properties":{"name_en":"Na tor yaai","did":801,"pid":8,"uuid":"801017"},"geometry":{"type":"Point","coordinates":[101.71255004953734,19.23332422967307]}},{"type":"Feature","properties":{"name_en":"Vang kharm","did":801,"pid":8,"uuid":"801018"},"geometry":{"type":"Point","coordinates":[101.71048993976856,19.230459969749667]}},{"type":"Feature","properties":{"name_en":"Long por","did":801,"pid":8,"uuid":"801019"},"geometry":{"type":"Point","coordinates":[101.70517991997711,19.233549949940674]}},{"type":"Feature","properties":{"name_en":"None sa wanh","did":801,"pid":8,"uuid":"801020"},"geometry":{"type":"Point","coordinates":[101.69061888030124,19.225727960019388]}},{"type":"Feature","properties":{"name_en":"Na xam","did":801,"pid":8,"uuid":"801021"},"geometry":{"type":"Point","coordinates":[101.7140815002916,19.208402479702112]}},{"type":"Feature","properties":{"name_en":"Huoi dok","did":801,"pid":8,"uuid":"801022"},"geometry":{"type":"Point","coordinates":[101.71387999991715,19.176309430212076]}},{"type":"Feature","properties":{"name_en":"Huoi khoua","did":801,"pid":8,"uuid":"801024"},"geometry":{"type":"Point","coordinates":[101.80666984995433,19.561813950123252]}},{"type":"Feature","properties":{"name_en":"Nam tuan","did":801,"pid":8,"uuid":"801027"},"geometry":{"type":"Point","coordinates":[101.62720132043029,19.181587849929574]}},{"type":"Feature","properties":{"name_en":"Phone xai","did":801,"pid":8,"uuid":"801028"},"geometry":{"type":"Point","coordinates":[101.59775266968269,19.174589299671332]}},{"type":"Feature","properties":{"name_en":"Huoi luek","did":801,"pid":8,"uuid":"801029"},"geometry":{"type":"Point","coordinates":[101.63196047992122,19.129115050081843]}},{"type":"Feature","properties":{"name_en":"Na luam","did":801,"pid":8,"uuid":"801030"},"geometry":{"type":"Point","coordinates":[101.63207992013525,19.09066952000082]}},{"type":"Feature","properties":{"name_en":"Pak thuang","did":801,"pid":8,"uuid":"801031"},"geometry":{"type":"Point","coordinates":[101.62730550006485,19.074885979941293]}},{"type":"Feature","properties":{"name_en":"Huoi xam or","did":801,"pid":8,"uuid":"801032"},"geometry":{"type":"Point","coordinates":[101.63880715040855,19.069070440118406]}},{"type":"Feature","properties":{"name_en":"Huoi saen kham","did":801,"pid":8,"uuid":"801033"},"geometry":{"type":"Point","coordinates":[101.6183371198414,19.05142980970624]}},{"type":"Feature","properties":{"name_en":"Nala","did":801,"pid":8,"uuid":"801035"},"geometry":{"type":"Point","coordinates":[101.7321721703629,19.29790671027205]}},{"type":"Feature","properties":{"name_en":"Suan","did":801,"pid":8,"uuid":"801036"},"geometry":{"type":"Point","coordinates":[101.71859784031935,19.30603380043289]}},{"type":"Feature","properties":{"name_en":"Vangxoy","did":801,"pid":8,"uuid":"801037"},"geometry":{"type":"Point","coordinates":[101.72479725993927,19.31248870992351]}},{"type":"Feature","properties":{"name_en":"Huoi kaeng","did":801,"pid":8,"uuid":"801039"},"geometry":{"type":"Point","coordinates":[101.74864240010145,19.189116100208764]}},{"type":"Feature","properties":{"name_en":"Na tak","did":801,"pid":8,"uuid":"801040"},"geometry":{"type":"Point","coordinates":[101.68655994006707,19.31940998002997]}},{"type":"Feature","properties":{"name_en":"Thath hom","did":801,"pid":8,"uuid":"801042"},"geometry":{"type":"Point","coordinates":[101.66227991991433,19.314189979534596]}},{"type":"Feature","properties":{"name_en":"Phone sa ath","did":801,"pid":8,"uuid":"801043"},"geometry":{"type":"Point","coordinates":[101.65153992968737,19.31469993977687]}},{"type":"Feature","properties":{"name_en":"Na ngew","did":801,"pid":8,"uuid":"801044"},"geometry":{"type":"Point","coordinates":[101.66617993031693,19.354459999679463]}},{"type":"Feature","properties":{"name_en":"Xai sa wath","did":801,"pid":8,"uuid":"801045"},"geometry":{"type":"Point","coordinates":[101.6131199696166,19.34034998990357]}},{"type":"Feature","properties":{"name_en":"nakoeng","did":801,"pid":8,"uuid":"801046"},"geometry":{"type":"Point","coordinates":[101.54834042995688,19.33399800991619]}},{"type":"Feature","properties":{"name_en":"viengxay","did":801,"pid":8,"uuid":"801047"},"geometry":{"type":"Point","coordinates":[101.59571998003422,19.376959959684708]}},{"type":"Feature","properties":{"name_en":"nakhan","did":801,"pid":8,"uuid":"801048"},"geometry":{"type":"Point","coordinates":[101.55442409991569,19.371954290368496]}},{"type":"Feature","properties":{"name_en":"Houi loun","did":801,"pid":8,"uuid":"801049"},"geometry":{"type":"Point","coordinates":[101.61210994953139,19.400219990105004]}},{"type":"Feature","properties":{"name_en":"Nong nong","did":801,"pid":8,"uuid":"801050"},"geometry":{"type":"Point","coordinates":[101.63931996005677,19.402299959787733]}},{"type":"Feature","properties":{"name_en":"Tha","did":801,"pid":8,"uuid":"801051"},"geometry":{"type":"Point","coordinates":[101.62461993962361,19.428129970124306]}},{"type":"Feature","properties":{"name_en":"Phonhom","did":801,"pid":8,"uuid":"801052"},"geometry":{"type":"Point","coordinates":[101.58817994982377,19.437209919874665]}},{"type":"Feature","properties":{"name_en":"Na mone","did":801,"pid":8,"uuid":"801053"},"geometry":{"type":"Point","coordinates":[101.6477999300681,19.474040000010127]}},{"type":"Feature","properties":{"name_en":"Huoi xao","did":801,"pid":8,"uuid":"801054"},"geometry":{"type":"Point","coordinates":[101.65227996976925,19.380939940353855]}},{"type":"Feature","properties":{"name_en":"Huoi sa ngaem","did":801,"pid":8,"uuid":"801056"},"geometry":{"type":"Point","coordinates":[101.57394345963792,19.27003352975904]}},{"type":"Feature","properties":{"name_en":"Huoi phor","did":801,"pid":8,"uuid":"801057"},"geometry":{"type":"Point","coordinates":[101.52831287956737,19.26699449954547]}},{"type":"Feature","properties":{"name_en":"Huoi leu","did":801,"pid":8,"uuid":"801058"},"geometry":{"type":"Point","coordinates":[101.55272198987997,19.305712439529998]}},{"type":"Feature","properties":{"name_en":"Na laeng luang","did":801,"pid":8,"uuid":"801059"},"geometry":{"type":"Point","coordinates":[101.75010859971916,19.315996529897227]}},{"type":"Feature","properties":{"name_en":"Na laar","did":801,"pid":8,"uuid":"801063"},"geometry":{"type":"Point","coordinates":[101.76373991971866,19.34988992990341]}},{"type":"Feature","properties":{"name_en":"ta lane","did":801,"pid":8,"uuid":"801065"},"geometry":{"type":"Point","coordinates":[101.8319399498044,19.330029930098025]}},{"type":"Feature","properties":{"name_en":"Tham lorth","did":801,"pid":8,"uuid":"801066"},"geometry":{"type":"Point","coordinates":[101.72813997044635,19.356089940278867]}},{"type":"Feature","properties":{"name_en":"Phone kaeo","did":801,"pid":8,"uuid":"801068"},"geometry":{"type":"Point","coordinates":[101.76553993043922,19.409489960142253]}},{"type":"Feature","properties":{"name_en":"Pang khom","did":801,"pid":8,"uuid":"801069"},"geometry":{"type":"Point","coordinates":[101.82161998002775,19.389129980297508]}},{"type":"Feature","properties":{"name_en":"Tha duea","did":801,"pid":8,"uuid":"801070"},"geometry":{"type":"Point","coordinates":[101.83697202032212,19.428789709847873]}},{"type":"Feature","properties":{"name_en":"Pak pa","did":801,"pid":8,"uuid":"801073"},"geometry":{"type":"Point","coordinates":[101.79822390998874,19.49983237027125]}},{"type":"Feature","properties":{"name_en":"Pak houth","did":801,"pid":8,"uuid":"801075"},"geometry":{"type":"Point","coordinates":[101.79493559982791,19.58915009980907]}},{"type":"Feature","properties":{"name_en":"Hath kaeo","did":801,"pid":8,"uuid":"801077"},"geometry":{"type":"Point","coordinates":[101.80123585986699,19.631541999720028]}},{"type":"Feature","properties":{"name_en":"Huoi chith","did":801,"pid":8,"uuid":"801078"},"geometry":{"type":"Point","coordinates":[101.77399325025566,19.59660387983144]}},{"type":"Feature","properties":{"name_en":"Pak kha","did":801,"pid":8,"uuid":"801079"},"geometry":{"type":"Point","coordinates":[101.75837726035274,19.604040129774816]}},{"type":"Feature","properties":{"name_en":"Nam kha","did":801,"pid":8,"uuid":"801081"},"geometry":{"type":"Point","coordinates":[101.71520417952159,19.612503840216892]}},{"type":"Feature","properties":{"name_en":"Pak houng","did":801,"pid":8,"uuid":"801084"},"geometry":{"type":"Point","coordinates":[101.81297815040027,19.166779040055218]}},{"type":"Feature","properties":{"name_en":"Huoi khoua luang","did":801,"pid":8,"uuid":"801085"},"geometry":{"type":"Point","coordinates":[101.7994842999317,19.04897935993555]}},{"type":"Feature","properties":{"name_en":"Khok Fak","did":801,"pid":8,"uuid":"801087"},"geometry":{"type":"Point","coordinates":[101.79290340983535,19.002962459965076]}},{"type":"Feature","properties":{"name_en":"Phone sy da","did":801,"pid":8,"uuid":"801089"},"geometry":{"type":"Point","coordinates":[101.78898395030546,18.88635736010151]}},{"type":"Feature","properties":{"name_en":"Na khon kaen","did":801,"pid":8,"uuid":"801090"},"geometry":{"type":"Point","coordinates":[101.79618987015772,18.867557420065612]}},{"type":"Feature","properties":{"name_en":"Kaeo","did":801,"pid":8,"uuid":"801091"},"geometry":{"type":"Point","coordinates":[101.71936277044065,18.946215719687363]}},{"type":"Feature","properties":{"name_en":"Na thang","did":801,"pid":8,"uuid":"801092"},"geometry":{"type":"Point","coordinates":[101.7136707897592,19.001674830262573]}},{"type":"Feature","properties":{"name_en":"Khon pieth","did":801,"pid":8,"uuid":"801093"},"geometry":{"type":"Point","coordinates":[101.47882059044123,19.31153610013351]}},{"type":"Feature","properties":{"name_en":"Huoi phuan","did":801,"pid":8,"uuid":"801119"},"geometry":{"type":"Point","coordinates":[101.56319040047022,19.24006813978895]}},{"type":"Feature","properties":{"name_en":"Long xaeng","did":801,"pid":8,"uuid":"801120"},"geometry":{"type":"Point","coordinates":[101.61273994030154,19.487379969688956]}},{"type":"Feature","properties":{"name_en":"Nam lieb","did":801,"pid":8,"uuid":"801122"},"geometry":{"type":"Point","coordinates":[101.6165936000978,19.179512159890265]}},{"type":"Feature","properties":{"name_en":"Pak thiew","did":801,"pid":8,"uuid":"801123"},"geometry":{"type":"Point","coordinates":[101.57938994019173,19.51458000018901]}},{"type":"Feature","properties":{"name_en":"Pak phai","did":801,"pid":8,"uuid":"801124"},"geometry":{"type":"Point","coordinates":[101.80713688977251,19.467180250269827]}}]}