{"type":"FeatureCollection","features":[{"type":"Feature","properties":{"name_en":"Bor","did":802,"pid":8,"uuid":"802002"},"geometry":{"type":"Point","coordinates":[100.59693994041467,19.780039979500064]}},{"type":"Feature","properties":{"name_en":"Hath ngam","did":802,"pid":8,"uuid":"802003"},"geometry":{"type":"Point","coordinates":[100.61356996964012,19.79366995989019]}},{"type":"Feature","properties":{"name_en":"Pak khorb","did":802,"pid":8,"uuid":"802004"},"geometry":{"type":"Point","coordinates":[100.61863700030693,19.806824000101454]}},{"type":"Feature","properties":{"name_en":"Khok muey","did":802,"pid":8,"uuid":"802006"},"geometry":{"type":"Point","coordinates":[100.68360999012202,19.81855994031034]}},{"type":"Feature","properties":{"name_en":"Pang hai","did":802,"pid":8,"uuid":"802007"},"geometry":{"type":"Point","coordinates":[100.56564996015807,19.760819940146806]}},{"type":"Feature","properties":{"name_en":"Pa kha","did":802,"pid":8,"uuid":"802009"},"geometry":{"type":"Point","coordinates":[100.54303994035709,19.770369950043463]}},{"type":"Feature","properties":{"name_en":"Huoi louth","did":802,"pid":8,"uuid":"802011"},"geometry":{"type":"Point","coordinates":[100.51083993957438,19.769919920061074]}},{"type":"Feature","properties":{"name_en":"Don nhom","did":802,"pid":8,"uuid":"802012"},"geometry":{"type":"Point","coordinates":[100.54995995981278,19.727469939616693]}},{"type":"Feature","properties":{"name_en":"Pha bong","did":802,"pid":8,"uuid":"802014"},"geometry":{"type":"Point","coordinates":[100.55020999021392,19.696059930346678]}},{"type":"Feature","properties":{"name_en":"Khueng","did":802,"pid":8,"uuid":"802015"},"geometry":{"type":"Point","coordinates":[100.53255997004257,19.688179939585666]}},{"type":"Feature","properties":{"name_en":"Sa thane","did":802,"pid":8,"uuid":"802017"},"geometry":{"type":"Point","coordinates":[100.567459950218,19.68951994991191]}},{"type":"Feature","properties":{"name_en":"Thaam","did":802,"pid":8,"uuid":"802019"},"geometry":{"type":"Point","coordinates":[100.58659994006135,19.642679949609928]}},{"type":"Feature","properties":{"name_en":"Huay nok koth","did":802,"pid":8,"uuid":"802020"},"geometry":{"type":"Point","coordinates":[100.622119930383,19.623649930169602]}},{"type":"Feature","properties":{"name_en":"Nam phao","did":802,"pid":8,"uuid":"802022"},"geometry":{"type":"Point","coordinates":[100.58132999033015,19.679109969644728]}},{"type":"Feature","properties":{"name_en":"Houa moueng","did":802,"pid":8,"uuid":"802023"},"geometry":{"type":"Point","coordinates":[100.49946000001971,19.6709199197746]}},{"type":"Feature","properties":{"name_en":"Mouang","did":802,"pid":8,"uuid":"802024"},"geometry":{"type":"Point","coordinates":[100.51576991993116,19.67530995010684]}},{"type":"Feature","properties":{"name_en":"Pang mone","did":802,"pid":8,"uuid":"802025"},"geometry":{"type":"Point","coordinates":[100.44915995014208,19.66943993013379]}},{"type":"Feature","properties":{"name_en":"Phon sa wang","did":802,"pid":8,"uuid":"802026"},"geometry":{"type":"Point","coordinates":[100.52857998977386,19.65860992962137]}},{"type":"Feature","properties":{"name_en":"Lem","did":802,"pid":8,"uuid":"802027"},"geometry":{"type":"Point","coordinates":[100.5017299898682,19.687829999726098]}},{"type":"Feature","properties":{"name_en":"Thong men","did":802,"pid":8,"uuid":"802028"},"geometry":{"type":"Point","coordinates":[100.48882999034039,19.71099991957345]}},{"type":"Feature","properties":{"name_en":"Nam kha","did":802,"pid":8,"uuid":"802029"},"geometry":{"type":"Point","coordinates":[100.46843999990934,19.737459999955288]}},{"type":"Feature","properties":{"name_en":"Pa xang","did":802,"pid":8,"uuid":"802031"},"geometry":{"type":"Point","coordinates":[100.42990997957618,19.74606000009966]}},{"type":"Feature","properties":{"name_en":"Doy hae","did":802,"pid":8,"uuid":"802032"},"geometry":{"type":"Point","coordinates":[100.53045996034392,19.631529929885087]}},{"type":"Feature","properties":{"name_en":"Don tanh","did":802,"pid":8,"uuid":"802033"},"geometry":{"type":"Point","coordinates":[100.5392599601497,19.61143993001805]}},{"type":"Feature","properties":{"name_en":"Nam taun","did":802,"pid":8,"uuid":"802034"},"geometry":{"type":"Point","coordinates":[100.57334999973324,19.556989999865944]}},{"type":"Feature","properties":{"name_en":"Chai sa wang","did":802,"pid":8,"uuid":"802036"},"geometry":{"type":"Point","coordinates":[100.52850999960131,19.58243997000423]}},{"type":"Feature","properties":{"name_en":"Huoinguen","did":802,"pid":8,"uuid":"802037"},"geometry":{"type":"Point","coordinates":[100.52631997996076,19.56654997993115]}}]}