{"type":"FeatureCollection","features":[{"type":"Feature","properties":{"name_en":"Sy boun houeng","did":803,"pid":8,"uuid":"803001"},"geometry":{"type":"Point","coordinates":[101.34017402028122,19.711087259784392]}},{"type":"Feature","properties":{"name_en":"Phon xai","did":803,"pid":8,"uuid":"803004"},"geometry":{"type":"Point","coordinates":[101.34417847952818,19.70578169008548]}},{"type":"Feature","properties":{"name_en":"Phon sa ath","did":803,"pid":8,"uuid":"803005"},"geometry":{"type":"Point","coordinates":[101.33668127982405,19.706434379733036]}},{"type":"Feature","properties":{"name_en":"Thaen kham","did":803,"pid":8,"uuid":"803006"},"geometry":{"type":"Point","coordinates":[101.37256756034404,19.71722692041074]}},{"type":"Feature","properties":{"name_en":"Huoi nher","did":803,"pid":8,"uuid":"803008"},"geometry":{"type":"Point","coordinates":[101.43733554023898,19.725230970333797]}},{"type":"Feature","properties":{"name_en":"NA poung","did":803,"pid":8,"uuid":"803010"},"geometry":{"type":"Point","coordinates":[101.40306704967108,19.692635929629336]}},{"type":"Feature","properties":{"name_en":"Phon soung","did":803,"pid":8,"uuid":"803011"},"geometry":{"type":"Point","coordinates":[101.35461846977573,19.705861150326314]}},{"type":"Feature","properties":{"name_en":"Nongluang","did":803,"pid":8,"uuid":"803012"},"geometry":{"type":"Point","coordinates":[101.4046368099967,19.655858319971077]}},{"type":"Feature","properties":{"name_en":"Phou laeng tai","did":803,"pid":8,"uuid":"803014"},"geometry":{"type":"Point","coordinates":[101.47913994021867,19.536399929672424]}},{"type":"Feature","properties":{"name_en":"Huoichong","did":803,"pid":8,"uuid":"803015"},"geometry":{"type":"Point","coordinates":[101.47640819993121,19.558826470058822]}},{"type":"Feature","properties":{"name_en":"phou laeng kang","did":803,"pid":8,"uuid":"803017"},"geometry":{"type":"Point","coordinates":[101.44846225983538,19.5903389100365]}},{"type":"Feature","properties":{"name_en":"Chom chong","did":803,"pid":8,"uuid":"803019"},"geometry":{"type":"Point","coordinates":[101.3313753702999,19.703510860255665]}},{"type":"Feature","properties":{"name_en":"Sy moung khoun","did":803,"pid":8,"uuid":"803020"},"geometry":{"type":"Point","coordinates":[101.33155641969341,19.709528229767574]}},{"type":"Feature","properties":{"name_en":"Cham pa","did":803,"pid":8,"uuid":"803021"},"geometry":{"type":"Point","coordinates":[101.31605861961943,19.700069749551012]}},{"type":"Feature","properties":{"name_en":"Vieng keo","did":803,"pid":8,"uuid":"803022"},"geometry":{"type":"Point","coordinates":[101.31213220023047,19.68778732987313]}},{"type":"Feature","properties":{"name_en":"Na sane","did":803,"pid":8,"uuid":"803023"},"geometry":{"type":"Point","coordinates":[101.31762996962762,19.68652995986624]}},{"type":"Feature","properties":{"name_en":"Kiew mouang","did":803,"pid":8,"uuid":"803026"},"geometry":{"type":"Point","coordinates":[101.32023993000614,19.642639969713656]}},{"type":"Feature","properties":{"name_en":"Hane","did":803,"pid":8,"uuid":"803032"},"geometry":{"type":"Point","coordinates":[101.28899814990329,19.6786660603743]}},{"type":"Feature","properties":{"name_en":"Phon chanh","did":803,"pid":8,"uuid":"803034"},"geometry":{"type":"Point","coordinates":[101.28185248981039,19.671167950039983]}},{"type":"Feature","properties":{"name_en":"Nam kharm","did":803,"pid":8,"uuid":"803038"},"geometry":{"type":"Point","coordinates":[101.28526996030928,19.631409979699484]}},{"type":"Feature","properties":{"name_en":"Nam nhang","did":803,"pid":8,"uuid":"803039"},"geometry":{"type":"Point","coordinates":[101.30092995010276,19.611979970290097]}},{"type":"Feature","properties":{"name_en":"Nam sib","did":803,"pid":8,"uuid":"803040"},"geometry":{"type":"Point","coordinates":[101.30897992965622,19.58507992978846]}},{"type":"Feature","properties":{"name_en":"Tha xuang","did":803,"pid":8,"uuid":"803045"},"geometry":{"type":"Point","coordinates":[101.35791969008775,19.817676070008584]}},{"type":"Feature","properties":{"name_en":"Kaeng aen","did":803,"pid":8,"uuid":"803046"},"geometry":{"type":"Point","coordinates":[101.39284313982776,19.823739119763975]}},{"type":"Feature","properties":{"name_en":"Park nguem","did":803,"pid":8,"uuid":"803047"},"geometry":{"type":"Point","coordinates":[101.25541998956568,19.81536082027196]}},{"type":"Feature","properties":{"name_en":"Huay xong","did":803,"pid":8,"uuid":"803049"},"geometry":{"type":"Point","coordinates":[101.3259099496502,19.828199969697685]}},{"type":"Feature","properties":{"name_en":"Kiew sa la","did":803,"pid":8,"uuid":"803050"},"geometry":{"type":"Point","coordinates":[101.34721784027825,19.774371550101378]}},{"type":"Feature","properties":{"name_en":"Tha noun","did":803,"pid":8,"uuid":"803051"},"geometry":{"type":"Point","coordinates":[101.48314170974288,19.825259509707045]}},{"type":"Feature","properties":{"name_en":"Nam tab","did":803,"pid":8,"uuid":"803052"},"geometry":{"type":"Point","coordinates":[101.42547245970044,19.780541640060612]}},{"type":"Feature","properties":{"name_en":"Huoi lai","did":803,"pid":8,"uuid":"803053"},"geometry":{"type":"Point","coordinates":[101.497827730053,19.80809606004555]}},{"type":"Feature","properties":{"name_en":"Khok aek","did":803,"pid":8,"uuid":"803056"},"geometry":{"type":"Point","coordinates":[101.62081992040845,19.834559989801754]}},{"type":"Feature","properties":{"name_en":"Phou don mai","did":803,"pid":8,"uuid":"803060"},"geometry":{"type":"Point","coordinates":[101.65399994042589,19.785109939803874]}},{"type":"Feature","properties":{"name_en":"Pa huay nhang","did":803,"pid":8,"uuid":"803061"},"geometry":{"type":"Point","coordinates":[101.57395000017324,19.654409920295464]}},{"type":"Feature","properties":{"name_en":"Nakhankham","did":803,"pid":8,"uuid":"803068"},"geometry":{"type":"Point","coordinates":[101.38581499979321,19.710767000304838]}}]}