{"type":"FeatureCollection","features":[{"type":"Feature","properties":{"name_en":"Pheir ngam","did":804,"pid":8,"uuid":"804001"},"geometry":{"type":"Point","coordinates":[101.10539196961969,19.65648091975151]}},{"type":"Feature","properties":{"name_en":"Py myy","did":804,"pid":8,"uuid":"804002"},"geometry":{"type":"Point","coordinates":[101.10409721967878,19.66234373018995]}},{"type":"Feature","properties":{"name_en":"Khon","did":804,"pid":8,"uuid":"804003"},"geometry":{"type":"Point","coordinates":[101.10761913032606,19.644915150019436]}},{"type":"Feature","properties":{"name_en":"Kang","did":804,"pid":8,"uuid":"804004"},"geometry":{"type":"Point","coordinates":[101.09701794965822,19.678361209667635]}},{"type":"Feature","properties":{"name_en":"Don keo","did":804,"pid":8,"uuid":"804005"},"geometry":{"type":"Point","coordinates":[101.11132123991109,19.63436660960488]}},{"type":"Feature","properties":{"name_en":"Luang","did":804,"pid":8,"uuid":"804007"},"geometry":{"type":"Point","coordinates":[101.10907899980423,19.630083800374617]}},{"type":"Feature","properties":{"name_en":"Nam nguen","did":804,"pid":8,"uuid":"804009"},"geometry":{"type":"Point","coordinates":[101.10117888990962,19.60654205009401]}},{"type":"Feature","properties":{"name_en":"Na ngua","did":804,"pid":8,"uuid":"804010"},"geometry":{"type":"Point","coordinates":[101.12949085997833,19.616321130102687]}},{"type":"Feature","properties":{"name_en":"Na nhang","did":804,"pid":8,"uuid":"804011"},"geometry":{"type":"Point","coordinates":[101.20488314981513,19.634404999554267]}},{"type":"Feature","properties":{"name_en":"Thong","did":804,"pid":8,"uuid":"804013"},"geometry":{"type":"Point","coordinates":[101.1133630800072,19.76730125004441]}},{"type":"Feature","properties":{"name_en":"Don sa wang","did":804,"pid":8,"uuid":"804014"},"geometry":{"type":"Point","coordinates":[101.0854281198584,19.735334679519326]}},{"type":"Feature","properties":{"name_en":"Nam thon","did":804,"pid":8,"uuid":"804015"},"geometry":{"type":"Point","coordinates":[101.08635289965977,19.73644058974963]}},{"type":"Feature","properties":{"name_en":"Don keth","did":804,"pid":8,"uuid":"804016"},"geometry":{"type":"Point","coordinates":[101.04461538026604,19.68932473955104]}},{"type":"Feature","properties":{"name_en":"Pha daeng","did":804,"pid":8,"uuid":"804018"},"geometry":{"type":"Point","coordinates":[101.1165667203598,19.8124393099043]}},{"type":"Feature","properties":{"name_en":"Poung phath","did":804,"pid":8,"uuid":"804019"},"geometry":{"type":"Point","coordinates":[101.15494803973385,19.697715279518537]}},{"type":"Feature","properties":{"name_en":"Pang bong","did":804,"pid":8,"uuid":"804020"},"geometry":{"type":"Point","coordinates":[101.16246333967095,19.714635990211065]}},{"type":"Feature","properties":{"name_en":"Bor luang","did":804,"pid":8,"uuid":"804021"},"geometry":{"type":"Point","coordinates":[101.15452550986265,19.729817459564917]}},{"type":"Feature","properties":{"name_en":"Kiew ngiew","did":804,"pid":8,"uuid":"804022"},"geometry":{"type":"Point","coordinates":[101.21465543965864,19.720738099870765]}},{"type":"Feature","properties":{"name_en":"Hom xai","did":804,"pid":8,"uuid":"804026"},"geometry":{"type":"Point","coordinates":[101.09041351039856,19.827016610381953]}},{"type":"Feature","properties":{"name_en":"Huay nguey","did":804,"pid":8,"uuid":"804027"},"geometry":{"type":"Point","coordinates":[101.04564567971462,19.83699802995677]}},{"type":"Feature","properties":{"name_en":"Pak huay khaen","did":804,"pid":8,"uuid":"804028"},"geometry":{"type":"Point","coordinates":[101.06299966013653,19.837805540016994]}},{"type":"Feature","properties":{"name_en":"Huay phueng","did":804,"pid":8,"uuid":"804029"},"geometry":{"type":"Point","coordinates":[101.06634328016509,19.69751596021641]}}]}