{"type":"FeatureCollection","features":[{"type":"Feature","properties":{"name_en":"Huay khoun","did":805,"pid":8,"uuid":"805001"},"geometry":{"type":"Point","coordinates":[100.77898917958204,19.882680910127302]}},{"type":"Feature","properties":{"name_en":"Pak sith","did":805,"pid":8,"uuid":"805002"},"geometry":{"type":"Point","coordinates":[100.74060953001808,19.86037566004271]}},{"type":"Feature","properties":{"name_en":"Pak peth","did":805,"pid":8,"uuid":"805003"},"geometry":{"type":"Point","coordinates":[100.71070240030369,19.834287319522993]}},{"type":"Feature","properties":{"name_en":"Hom xai","did":805,"pid":8,"uuid":"805006"},"geometry":{"type":"Point","coordinates":[100.75063964994746,19.791716559836768]}},{"type":"Feature","properties":{"name_en":"Hong khou","did":805,"pid":8,"uuid":"805011"},"geometry":{"type":"Point","coordinates":[100.78265851974473,19.822247309826096]}},{"type":"Feature","properties":{"name_en":"Nam baeng","did":805,"pid":8,"uuid":"805016"},"geometry":{"type":"Point","coordinates":[100.7972920695671,19.79307886982396]}},{"type":"Feature","properties":{"name_en":"Lao sa no","did":805,"pid":8,"uuid":"805024"},"geometry":{"type":"Point","coordinates":[100.83624804957407,19.67075798994478]}},{"type":"Feature","properties":{"name_en":"Nam pae tai","did":805,"pid":8,"uuid":"805028"},"geometry":{"type":"Point","coordinates":[100.90369857031345,19.682895490049887]}},{"type":"Feature","properties":{"name_en":"Phou lane","did":805,"pid":8,"uuid":"805034"},"geometry":{"type":"Point","coordinates":[100.73991198975312,19.5796866003225]}},{"type":"Feature","properties":{"name_en":"Hua moueng","did":805,"pid":8,"uuid":"805036"},"geometry":{"type":"Point","coordinates":[100.76097880973757,19.72118628030061]}},{"type":"Feature","properties":{"name_en":"Don moun","did":805,"pid":8,"uuid":"805038"},"geometry":{"type":"Point","coordinates":[100.77929042029395,19.710538499535442]}},{"type":"Feature","properties":{"name_en":"Nam kok","did":805,"pid":8,"uuid":"805039"},"geometry":{"type":"Point","coordinates":[100.79282677994368,19.693312429850238]}},{"type":"Feature","properties":{"name_en":"Hua na","did":805,"pid":8,"uuid":"805040"},"geometry":{"type":"Point","coordinates":[100.82581978974022,19.687287940038242]}},{"type":"Feature","properties":{"name_en":"Na orn","did":805,"pid":8,"uuid":"805041"},"geometry":{"type":"Point","coordinates":[100.83212374003261,19.680172289693683]}},{"type":"Feature","properties":{"name_en":"Don foueng","did":805,"pid":8,"uuid":"805044"},"geometry":{"type":"Point","coordinates":[100.8236791396041,19.66762609016457]}},{"type":"Feature","properties":{"name_en":"Kaen","did":805,"pid":8,"uuid":"805045"},"geometry":{"type":"Point","coordinates":[100.8203275500298,19.652929259565635]}},{"type":"Feature","properties":{"name_en":"Don xai","did":805,"pid":8,"uuid":"805046"},"geometry":{"type":"Point","coordinates":[100.89935413992151,19.665687190315527]}},{"type":"Feature","properties":{"name_en":"Mok sa tou","did":805,"pid":8,"uuid":"805048"},"geometry":{"type":"Point","coordinates":[100.97001501019277,19.66470047031278]}},{"type":"Feature","properties":{"name_en":"Dong","did":805,"pid":8,"uuid":"805050"},"geometry":{"type":"Point","coordinates":[101.00735605967711,19.6886562803729]}},{"type":"Feature","properties":{"name_en":"Huoi sa kheng","did":805,"pid":8,"uuid":"805051"},"geometry":{"type":"Point","coordinates":[100.98989421043983,19.670112829644804]}},{"type":"Feature","properties":{"name_en":"Huoipuak","did":805,"pid":8,"uuid":"805052"},"geometry":{"type":"Point","coordinates":[100.93873969973814,19.66616957010063]}},{"type":"Feature","properties":{"name_en":"Xang","did":805,"pid":8,"uuid":"805054"},"geometry":{"type":"Point","coordinates":[100.81854496998704,19.639476979940582]}},{"type":"Feature","properties":{"name_en":"Khing","did":805,"pid":8,"uuid":"805056"},"geometry":{"type":"Point","coordinates":[100.83935522005916,19.646622459510063]}},{"type":"Feature","properties":{"name_en":"Kham","did":805,"pid":8,"uuid":"805057"},"geometry":{"type":"Point","coordinates":[100.83693486961126,19.64120339977613]}},{"type":"Feature","properties":{"name_en":"Pong kham","did":805,"pid":8,"uuid":"805058"},"geometry":{"type":"Point","coordinates":[100.83594572028655,19.621730979782782]}},{"type":"Feature","properties":{"name_en":"Mai","did":805,"pid":8,"uuid":"805059"},"geometry":{"type":"Point","coordinates":[100.81131214032142,19.62897420007587]}},{"type":"Feature","properties":{"name_en":"Thath","did":805,"pid":8,"uuid":"805060"},"geometry":{"type":"Point","coordinates":[100.80843999956487,19.61738252970037]}},{"type":"Feature","properties":{"name_en":"kouk","did":805,"pid":8,"uuid":"805061"},"geometry":{"type":"Point","coordinates":[100.81956941042307,19.615052190323595]}},{"type":"Feature","properties":{"name_en":"Nam khom","did":805,"pid":8,"uuid":"805062"},"geometry":{"type":"Point","coordinates":[100.75516084962376,19.634189419694877]}},{"type":"Feature","properties":{"name_en":"Huoi don tanh","did":805,"pid":8,"uuid":"805064"},"geometry":{"type":"Point","coordinates":[100.80501263953259,19.60350050970991]}},{"type":"Feature","properties":{"name_en":"Pa wane","did":805,"pid":8,"uuid":"805065"},"geometry":{"type":"Point","coordinates":[100.80653822968546,19.596624330016606]}},{"type":"Feature","properties":{"name_en":"Don chai","did":805,"pid":8,"uuid":"805066"},"geometry":{"type":"Point","coordinates":[100.80988915013839,19.58495931985433]}},{"type":"Feature","properties":{"name_en":"Lab","did":805,"pid":8,"uuid":"805067"},"geometry":{"type":"Point","coordinates":[100.79089701000024,19.585249160318345]}},{"type":"Feature","properties":{"name_en":"Nam lom","did":805,"pid":8,"uuid":"805068"},"geometry":{"type":"Point","coordinates":[100.7729163197396,19.577416439560814]}},{"type":"Feature","properties":{"name_en":"Pong paen","did":805,"pid":8,"uuid":"805069"},"geometry":{"type":"Point","coordinates":[100.74916771042453,19.583459119837784]}},{"type":"Feature","properties":{"name_en":"Kae sy phom","did":805,"pid":8,"uuid":"805070"},"geometry":{"type":"Point","coordinates":[100.7652462896964,19.570982909770304]}},{"type":"Feature","properties":{"name_en":"Thong kab","did":805,"pid":8,"uuid":"805073"},"geometry":{"type":"Point","coordinates":[100.75332462989817,19.57380501983696]}},{"type":"Feature","properties":{"name_en":"Sy nok xai","did":805,"pid":8,"uuid":"805074"},"geometry":{"type":"Point","coordinates":[100.73267539043276,19.568252839758593]}},{"type":"Feature","properties":{"name_en":"Huay hark","did":805,"pid":8,"uuid":"805078"},"geometry":{"type":"Point","coordinates":[100.70823342961758,19.584138309662716]}},{"type":"Feature","properties":{"name_en":"Huay tong","did":805,"pid":8,"uuid":"805081"},"geometry":{"type":"Point","coordinates":[100.70167349978436,19.555808319935462]}},{"type":"Feature","properties":{"name_en":"Don poung","did":805,"pid":8,"uuid":"805082"},"geometry":{"type":"Point","coordinates":[100.7238909002355,19.814935100308933]}},{"type":"Feature","properties":{"name_en":"Sa mak khy xai","did":805,"pid":8,"uuid":"805083"},"geometry":{"type":"Point","coordinates":[100.81612435958792,19.6882574700087]}}]}