{"type":"FeatureCollection","features":[{"type":"Feature","properties":{"name_en":"Dong nguen","did":806,"pid":8,"uuid":"806001"},"geometry":{"type":"Point","coordinates":[101.53381962008729,19.097161550270293]}},{"type":"Feature","properties":{"name_en":"Nong ngua","did":806,"pid":8,"uuid":"806002"},"geometry":{"type":"Point","coordinates":[101.53621114988407,19.1026774298268]}},{"type":"Feature","properties":{"name_en":"Saeng cha luern","did":806,"pid":8,"uuid":"806003"},"geometry":{"type":"Point","coordinates":[101.53670450980081,19.10445087971732]}},{"type":"Feature","properties":{"name_en":"Moueng phieng","did":806,"pid":8,"uuid":"806004"},"geometry":{"type":"Point","coordinates":[101.52898007974818,19.10540096025479]}},{"type":"Feature","properties":{"name_en":"Phon xai","did":806,"pid":8,"uuid":"806005"},"geometry":{"type":"Point","coordinates":[101.52426098027982,19.106229680288635]}},{"type":"Feature","properties":{"name_en":"Phon hin","did":806,"pid":8,"uuid":"806006"},"geometry":{"type":"Point","coordinates":[101.52440549040122,19.099195840047706]}},{"type":"Feature","properties":{"name_en":"Kang","did":806,"pid":8,"uuid":"806007"},"geometry":{"type":"Point","coordinates":[101.53402556969218,19.0863245100369]}},{"type":"Feature","properties":{"name_en":"Nam song","did":806,"pid":8,"uuid":"806008"},"geometry":{"type":"Point","coordinates":[101.60826995035877,19.037629920124182]}},{"type":"Feature","properties":{"name_en":"Kiew kaem","did":806,"pid":8,"uuid":"806009"},"geometry":{"type":"Point","coordinates":[101.56744329001376,19.15084822988704]}},{"type":"Feature","properties":{"name_en":"Don tiew","did":806,"pid":8,"uuid":"806011"},"geometry":{"type":"Point","coordinates":[101.55304511003024,19.204361570317044]}},{"type":"Feature","properties":{"name_en":"Huay xak","did":806,"pid":8,"uuid":"806012"},"geometry":{"type":"Point","coordinates":[101.55116755988918,19.19322738024846]}},{"type":"Feature","properties":{"name_en":"Pong vang","did":806,"pid":8,"uuid":"806013"},"geometry":{"type":"Point","coordinates":[101.57267218020604,19.182427720423572]}},{"type":"Feature","properties":{"name_en":"Dong luag","did":806,"pid":8,"uuid":"806015"},"geometry":{"type":"Point","coordinates":[101.53007392018336,19.09117049993424]}},{"type":"Feature","properties":{"name_en":"Phone sa wang","did":806,"pid":8,"uuid":"806016"},"geometry":{"type":"Point","coordinates":[101.5267004496905,19.08282187982581]}},{"type":"Feature","properties":{"name_en":"Nakok","did":806,"pid":8,"uuid":"806017"},"geometry":{"type":"Point","coordinates":[101.53027759983311,19.069975940361214]}},{"type":"Feature","properties":{"name_en":"Nam hear","did":806,"pid":8,"uuid":"806018"},"geometry":{"type":"Point","coordinates":[101.51325445996822,19.05478994012406]}},{"type":"Feature","properties":{"name_en":"Nampang","did":806,"pid":8,"uuid":"806019"},"geometry":{"type":"Point","coordinates":[101.48871794006246,19.052437480326702]}},{"type":"Feature","properties":{"name_en":"Somsawanh","did":806,"pid":8,"uuid":"806020"},"geometry":{"type":"Point","coordinates":[101.51036587999253,19.04376253956651]}},{"type":"Feature","properties":{"name_en":"Nongbouaphy","did":806,"pid":8,"uuid":"806021"},"geometry":{"type":"Point","coordinates":[101.52465770023785,19.04800630022536]}},{"type":"Feature","properties":{"name_en":"Sybounhoueng","did":806,"pid":8,"uuid":"806022"},"geometry":{"type":"Point","coordinates":[101.52529481035216,19.035848940229823]}},{"type":"Feature","properties":{"name_en":"Nasom","did":806,"pid":8,"uuid":"806023"},"geometry":{"type":"Point","coordinates":[101.5182977598884,19.01771116990687]}},{"type":"Feature","properties":{"name_en":"Natane","did":806,"pid":8,"uuid":"806025"},"geometry":{"type":"Point","coordinates":[101.51242112984957,18.99712001959069]}},{"type":"Feature","properties":{"name_en":"Naxing","did":806,"pid":8,"uuid":"806026"},"geometry":{"type":"Point","coordinates":[101.5041015004474,19.007688839628173]}},{"type":"Feature","properties":{"name_en":"Nabouam","did":806,"pid":8,"uuid":"806027"},"geometry":{"type":"Point","coordinates":[101.49458150005331,19.015144129861643]}},{"type":"Feature","properties":{"name_en":"Nongbouaxay","did":806,"pid":8,"uuid":"806028"},"geometry":{"type":"Point","coordinates":[101.4956645302619,19.025571719567257]}},{"type":"Feature","properties":{"name_en":"Phonexieng","did":806,"pid":8,"uuid":"806029"},"geometry":{"type":"Point","coordinates":[101.4843460304648,19.011329520146283]}},{"type":"Feature","properties":{"name_en":"Nongbouathong","did":806,"pid":8,"uuid":"806030"},"geometry":{"type":"Point","coordinates":[101.4996562395783,18.983314020109525]}},{"type":"Feature","properties":{"name_en":"Huana","did":806,"pid":8,"uuid":"806031"},"geometry":{"type":"Point","coordinates":[101.48645876974582,18.979895789551303]}},{"type":"Feature","properties":{"name_en":"Nakhaem","did":806,"pid":8,"uuid":"806033"},"geometry":{"type":"Point","coordinates":[101.51081666036757,18.96702178023946]}},{"type":"Feature","properties":{"name_en":"Nonghoung","did":806,"pid":8,"uuid":"806035"},"geometry":{"type":"Point","coordinates":[101.50089023003922,18.960891590014647]}},{"type":"Feature","properties":{"name_en":"Viengkham","did":806,"pid":8,"uuid":"806037"},"geometry":{"type":"Point","coordinates":[101.50734847958068,18.956710529663944]}},{"type":"Feature","properties":{"name_en":"Huoi oum","did":806,"pid":8,"uuid":"806038"},"geometry":{"type":"Point","coordinates":[101.51336232980469,18.939666520016633]}},{"type":"Feature","properties":{"name_en":"Viengchaluern","did":806,"pid":8,"uuid":"806039"},"geometry":{"type":"Point","coordinates":[101.5170146600066,18.926952679862907]}},{"type":"Feature","properties":{"name_en":"Nampouy","did":806,"pid":8,"uuid":"806040"},"geometry":{"type":"Point","coordinates":[101.5148532198697,18.92281294038293]}},{"type":"Feature","properties":{"name_en":"Pakxong","did":806,"pid":8,"uuid":"806042"},"geometry":{"type":"Point","coordinates":[101.45523198998293,18.892061160024447]}},{"type":"Feature","properties":{"name_en":"Navaen","did":806,"pid":8,"uuid":"806044"},"geometry":{"type":"Point","coordinates":[101.3687724099298,18.796156679636226]}},{"type":"Feature","properties":{"name_en":"Phadam","did":806,"pid":8,"uuid":"806048"},"geometry":{"type":"Point","coordinates":[101.5237946195677,18.911818060046766]}},{"type":"Feature","properties":{"name_en":"Namnharb","did":806,"pid":8,"uuid":"806049"},"geometry":{"type":"Point","coordinates":[101.51688297964247,18.845049160271124]}},{"type":"Feature","properties":{"name_en":"Khounphone","did":806,"pid":8,"uuid":"806053"},"geometry":{"type":"Point","coordinates":[101.53165659025294,18.806606820331634]}},{"type":"Feature","properties":{"name_en":"Namor","did":806,"pid":8,"uuid":"806054"},"geometry":{"type":"Point","coordinates":[101.53435992004933,18.76709998000567]}},{"type":"Feature","properties":{"name_en":"Namphone","did":806,"pid":8,"uuid":"806055"},"geometry":{"type":"Point","coordinates":[101.53623998037283,18.7488399197876]}},{"type":"Feature","properties":{"name_en":"Huoihane","did":806,"pid":8,"uuid":"806056"},"geometry":{"type":"Point","coordinates":[101.54092194963704,18.73970631963934]}},{"type":"Feature","properties":{"name_en":"Nalae","did":806,"pid":8,"uuid":"806057"},"geometry":{"type":"Point","coordinates":[101.56158039979243,18.707480590400415]}},{"type":"Feature","properties":{"name_en":"Vangkham","did":806,"pid":8,"uuid":"806058"},"geometry":{"type":"Point","coordinates":[101.54053085028431,18.701590210413087]}},{"type":"Feature","properties":{"name_en":"Phonesa ath","did":806,"pid":8,"uuid":"806060"},"geometry":{"type":"Point","coordinates":[101.56375861013618,18.69428302961039]}},{"type":"Feature","properties":{"name_en":"Somsawath","did":806,"pid":8,"uuid":"806061"},"geometry":{"type":"Point","coordinates":[101.55869267035263,18.674379699953423]}},{"type":"Feature","properties":{"name_en":"Na oum","did":806,"pid":8,"uuid":"806062"},"geometry":{"type":"Point","coordinates":[101.51694995015754,18.651949979997113]}},{"type":"Feature","properties":{"name_en":"Phonethong","did":806,"pid":8,"uuid":"806063"},"geometry":{"type":"Point","coordinates":[101.48714130988137,18.620812720221707]}},{"type":"Feature","properties":{"name_en":"Nakong","did":806,"pid":8,"uuid":"806064"},"geometry":{"type":"Point","coordinates":[101.4829371099078,18.611433870284362]}},{"type":"Feature","properties":{"name_en":"Phonesack","did":806,"pid":8,"uuid":"806065"},"geometry":{"type":"Point","coordinates":[101.47238102974127,18.576103900088487]}},{"type":"Feature","properties":{"name_en":"Namngim","did":806,"pid":8,"uuid":"806066"},"geometry":{"type":"Point","coordinates":[101.34525487996463,19.097892540290903]}}]}