{"type":"FeatureCollection","features":[{"type":"Feature","properties":{"name_en":"Natoung","did":807,"pid":8,"uuid":"807001"},"geometry":{"type":"Point","coordinates":[101.72200358018443,18.805126990285125]}},{"type":"Feature","properties":{"name_en":"Nakhane","did":807,"pid":8,"uuid":"807002"},"geometry":{"type":"Point","coordinates":[101.67239896999949,18.721890839945893]}},{"type":"Feature","properties":{"name_en":"Pathtoung","did":807,"pid":8,"uuid":"807003"},"geometry":{"type":"Point","coordinates":[101.81046895010145,18.716695070097554]}},{"type":"Feature","properties":{"name_en":"Nongkhai","did":807,"pid":8,"uuid":"807004"},"geometry":{"type":"Point","coordinates":[101.75874623043353,18.570880290369555]}},{"type":"Feature","properties":{"name_en":"Nachanh","did":807,"pid":8,"uuid":"807005"},"geometry":{"type":"Point","coordinates":[101.6303664900417,18.575339469980552]}},{"type":"Feature","properties":{"name_en":"Mouengpa","did":807,"pid":8,"uuid":"807006"},"geometry":{"type":"Point","coordinates":[101.60281434047181,18.54874310003539]}},{"type":"Feature","properties":{"name_en":"Phalieb","did":807,"pid":8,"uuid":"807007"},"geometry":{"type":"Point","coordinates":[101.64983380008351,18.478585570390216]}},{"type":"Feature","properties":{"name_en":"Napho","did":807,"pid":8,"uuid":"807008"},"geometry":{"type":"Point","coordinates":[101.55074000044016,18.46910572038046]}},{"type":"Feature","properties":{"name_en":"Na kha nhang","did":807,"pid":8,"uuid":"807009"},"geometry":{"type":"Point","coordinates":[101.47421842045324,18.501797649986695]}},{"type":"Feature","properties":{"name_en":"vangPhamone","did":807,"pid":8,"uuid":"807010"},"geometry":{"type":"Point","coordinates":[101.42095997993725,18.471349969935268]}},{"type":"Feature","properties":{"name_en":"Phonengam","did":807,"pid":8,"uuid":"807011"},"geometry":{"type":"Point","coordinates":[101.48586549976058,18.470034600383176]}},{"type":"Feature","properties":{"name_en":"Thathdaii","did":807,"pid":8,"uuid":"807012"},"geometry":{"type":"Point","coordinates":[101.49484654036422,18.43511467029178]}},{"type":"Feature","properties":{"name_en":"Nata","did":807,"pid":8,"uuid":"807013"},"geometry":{"type":"Point","coordinates":[101.51905834016435,18.4394497903918]}},{"type":"Feature","properties":{"name_en":"Mouangnuea","did":807,"pid":8,"uuid":"807016"},"geometry":{"type":"Point","coordinates":[101.5534894400518,18.36219538032645]}},{"type":"Feature","properties":{"name_en":"Mouangtai","did":807,"pid":8,"uuid":"807017"},"geometry":{"type":"Point","coordinates":[101.54749185020705,18.355432610018447]}},{"type":"Feature","properties":{"name_en":"Thapor","did":807,"pid":8,"uuid":"807018"},"geometry":{"type":"Point","coordinates":[101.52949138034921,18.38703590022632]}},{"type":"Feature","properties":{"name_en":"Thana","did":807,"pid":8,"uuid":"807019"},"geometry":{"type":"Point","coordinates":[101.52430993980262,18.390029920295078]}},{"type":"Feature","properties":{"name_en":"Phonexai","did":807,"pid":8,"uuid":"807020"},"geometry":{"type":"Point","coordinates":[101.5209476199181,18.389527930338673]}},{"type":"Feature","properties":{"name_en":"Kang","did":807,"pid":8,"uuid":"807021"},"geometry":{"type":"Point","coordinates":[101.51925346974795,18.400988170010518]}},{"type":"Feature","properties":{"name_en":"Souvanhnaphoum","did":807,"pid":8,"uuid":"807022"},"geometry":{"type":"Point","coordinates":[101.49773963967294,18.406651230355617]}},{"type":"Feature","properties":{"name_en":"Nakang","did":807,"pid":8,"uuid":"807024"},"geometry":{"type":"Point","coordinates":[101.44878337025769,18.42079066971845]}},{"type":"Feature","properties":{"name_en":"Pangkham","did":807,"pid":8,"uuid":"807025"},"geometry":{"type":"Point","coordinates":[101.41893441025263,18.39419489008618]}},{"type":"Feature","properties":{"name_en":"Namlin","did":807,"pid":8,"uuid":"807026"},"geometry":{"type":"Point","coordinates":[101.47273600032403,18.36764009995631]}},{"type":"Feature","properties":{"name_en":"Don","did":807,"pid":8,"uuid":"807027"},"geometry":{"type":"Point","coordinates":[101.50110522016777,18.318913499720885]}},{"type":"Feature","properties":{"name_en":"Khae","did":807,"pid":8,"uuid":"807028"},"geometry":{"type":"Point","coordinates":[101.47517530037986,18.309532889890157]}},{"type":"Feature","properties":{"name_en":"Khoksawanh","did":807,"pid":8,"uuid":"807029"},"geometry":{"type":"Point","coordinates":[101.38929667002074,18.361705710395345]}},{"type":"Feature","properties":{"name_en":"Naxaeng","did":807,"pid":8,"uuid":"807030"},"geometry":{"type":"Point","coordinates":[101.33891565029036,18.358263259795233]}},{"type":"Feature","properties":{"name_en":"Thamyxai","did":807,"pid":8,"uuid":"807031"},"geometry":{"type":"Point","coordinates":[101.35093948983072,18.326053790384332]}},{"type":"Feature","properties":{"name_en":"Huoimothsom","did":807,"pid":8,"uuid":"807032"},"geometry":{"type":"Point","coordinates":[101.33504815012817,18.31291866974233]}},{"type":"Feature","properties":{"name_en":"Namai","did":807,"pid":8,"uuid":"807034"},"geometry":{"type":"Point","coordinates":[101.32517870996732,18.289194200043276]}},{"type":"Feature","properties":{"name_en":"Mouengva","did":807,"pid":8,"uuid":"807035"},"geometry":{"type":"Point","coordinates":[101.3259215997627,18.28208509017045]}},{"type":"Feature","properties":{"name_en":"Bouabane","did":807,"pid":8,"uuid":"807036"},"geometry":{"type":"Point","coordinates":[101.31670260043576,18.280547089736647]}},{"type":"Feature","properties":{"name_en":"Phone","did":807,"pid":8,"uuid":"807037"},"geometry":{"type":"Point","coordinates":[101.30400945959033,18.28281321967446]}},{"type":"Feature","properties":{"name_en":"Nakham","did":807,"pid":8,"uuid":"807038"},"geometry":{"type":"Point","coordinates":[101.30782247982732,18.249466910079402]}},{"type":"Feature","properties":{"name_en":"Pongwaen","did":807,"pid":8,"uuid":"807039"},"geometry":{"type":"Point","coordinates":[101.30305191985208,18.240716789812865]}},{"type":"Feature","properties":{"name_en":"Vangthoum","did":807,"pid":8,"uuid":"807040"},"geometry":{"type":"Point","coordinates":[101.35225720992366,18.24849611979278]}},{"type":"Feature","properties":{"name_en":"Pongkhor","did":807,"pid":8,"uuid":"807041"},"geometry":{"type":"Point","coordinates":[101.36627099009145,18.234971749532484]}},{"type":"Feature","properties":{"name_en":"Pangkham","did":807,"pid":8,"uuid":"807042"},"geometry":{"type":"Point","coordinates":[101.38617608984465,18.23332042957656]}},{"type":"Feature","properties":{"name_en":"Namxong","did":807,"pid":8,"uuid":"807043"},"geometry":{"type":"Point","coordinates":[101.43900772981091,18.26428553034153]}},{"type":"Feature","properties":{"name_en":"Huoilainoy","did":807,"pid":8,"uuid":"807044"},"geometry":{"type":"Point","coordinates":[101.41743286957359,18.235548759697597]}},{"type":"Feature","properties":{"name_en":"Saenglai","did":807,"pid":8,"uuid":"807045"},"geometry":{"type":"Point","coordinates":[101.41378080035153,18.222302759581677]}},{"type":"Feature","properties":{"name_en":"Sysawang","did":807,"pid":8,"uuid":"807046"},"geometry":{"type":"Point","coordinates":[101.41047278955605,18.21908116983628]}},{"type":"Feature","properties":{"name_en":"Nasawang","did":807,"pid":8,"uuid":"807047"},"geometry":{"type":"Point","coordinates":[101.40958850011582,18.21571969006663]}},{"type":"Feature","properties":{"name_en":"Huoixaykham","did":807,"pid":8,"uuid":"807048"},"geometry":{"type":"Point","coordinates":[101.4040499901898,18.21246995030157]}},{"type":"Feature","properties":{"name_en":"Sysaathxomphou","did":807,"pid":8,"uuid":"807049"},"geometry":{"type":"Point","coordinates":[101.40438308970339,18.209978759599355]}},{"type":"Feature","properties":{"name_en":"Xaiyamoungkhoun","did":807,"pid":8,"uuid":"807050"},"geometry":{"type":"Point","coordinates":[101.39924096026995,18.198008309825564]}},{"type":"Feature","properties":{"name_en":"Nasack","did":807,"pid":8,"uuid":"807051"},"geometry":{"type":"Point","coordinates":[101.3867144601312,18.161354750402914]}},{"type":"Feature","properties":{"name_en":"Kaengsao","did":807,"pid":8,"uuid":"807052"},"geometry":{"type":"Point","coordinates":[101.38124820041729,18.13868337999589]}},{"type":"Feature","properties":{"name_en":"Boungma","did":807,"pid":8,"uuid":"807054"},"geometry":{"type":"Point","coordinates":[101.39439973959529,18.10980789034706]}},{"type":"Feature","properties":{"name_en":"Tarkdaeth","did":807,"pid":8,"uuid":"807055"},"geometry":{"type":"Point","coordinates":[101.37304743044405,18.10897138020575]}},{"type":"Feature","properties":{"name_en":"Huoitang","did":807,"pid":8,"uuid":"807056"},"geometry":{"type":"Point","coordinates":[101.36441038044153,18.084199420273944]}},{"type":"Feature","properties":{"name_en":"Dongsanguane","did":807,"pid":8,"uuid":"807058"},"geometry":{"type":"Point","coordinates":[101.36063450026252,17.981346589766503]}},{"type":"Feature","properties":{"name_en":"Huoihai","did":807,"pid":8,"uuid":"807059"},"geometry":{"type":"Point","coordinates":[101.36361938016258,18.015140250136895]}},{"type":"Feature","properties":{"name_en":"Paklaeng","did":807,"pid":8,"uuid":"807060"},"geometry":{"type":"Point","coordinates":[101.36247910965598,18.05832113022513]}},{"type":"Feature","properties":{"name_en":"Huoidueawane","did":807,"pid":8,"uuid":"807061"},"geometry":{"type":"Point","coordinates":[101.32005946957163,18.06246825030594]}},{"type":"Feature","properties":{"name_en":"Huoilak","did":807,"pid":8,"uuid":"807062"},"geometry":{"type":"Point","coordinates":[101.2619361700333,18.042285539703563]}},{"type":"Feature","properties":{"name_en":"Namnhang","did":807,"pid":8,"uuid":"807063"},"geometry":{"type":"Point","coordinates":[101.24018587985582,18.0613415495128]}},{"type":"Feature","properties":{"name_en":"Ornkaen","did":807,"pid":8,"uuid":"807064"},"geometry":{"type":"Point","coordinates":[101.25480384049474,18.10122399033263]}},{"type":"Feature","properties":{"name_en":"Bouamlaao","did":807,"pid":8,"uuid":"807066"},"geometry":{"type":"Point","coordinates":[101.27447188986527,18.135718450175503]}},{"type":"Feature","properties":{"name_en":"Saenphon","did":807,"pid":8,"uuid":"807068"},"geometry":{"type":"Point","coordinates":[101.27902694964455,18.154805639550474]}},{"type":"Feature","properties":{"name_en":"Palai","did":807,"pid":8,"uuid":"807069"},"geometry":{"type":"Point","coordinates":[101.29915877027672,18.193000960140363]}},{"type":"Feature","properties":{"name_en":"Lathsawang","did":807,"pid":8,"uuid":"807070"},"geometry":{"type":"Point","coordinates":[101.32199703047822,18.223059479695674]}},{"type":"Feature","properties":{"name_en":"Vangnhao","did":807,"pid":8,"uuid":"807071"},"geometry":{"type":"Point","coordinates":[101.26297895999257,18.197628110082814]}},{"type":"Feature","properties":{"name_en":"Ponekham","did":807,"pid":8,"uuid":"807073"},"geometry":{"type":"Point","coordinates":[101.21958685018834,18.2020874503061]}},{"type":"Feature","properties":{"name_en":"Huoikhuoi","did":807,"pid":8,"uuid":"807074"},"geometry":{"type":"Point","coordinates":[101.22870409988687,18.211978349717523]}},{"type":"Feature","properties":{"name_en":"Huoixaykhao","did":807,"pid":8,"uuid":"807075"},"geometry":{"type":"Point","coordinates":[101.26851998044225,18.238039950123802]}},{"type":"Feature","properties":{"name_en":"Pakkhane","did":807,"pid":8,"uuid":"807076"},"geometry":{"type":"Point","coordinates":[101.70931404038235,18.74301239979619]}},{"type":"Feature","properties":{"name_en":"Sivilay","did":807,"pid":8,"uuid":"807078"},"geometry":{"type":"Point","coordinates":[101.35902592986466,18.03317886031281]}},{"type":"Feature","properties":{"name_en":"Houyngou","did":807,"pid":8,"uuid":"807079"},"geometry":{"type":"Point","coordinates":[101.69258251021321,18.86183484009346]}}]}