{"type":"FeatureCollection","features":[{"type":"Feature","properties":{"name_en":"Chomkeo","did":808,"pid":8,"uuid":"808001"},"geometry":{"type":"Point","coordinates":[101.40413951043274,17.71958764041672]}},{"type":"Feature","properties":{"name_en":"Chompheth","did":808,"pid":8,"uuid":"808002"},"geometry":{"type":"Point","coordinates":[101.39472538036495,17.731298250210113]}},{"type":"Feature","properties":{"name_en":"Mouangkaao","did":808,"pid":8,"uuid":"808004"},"geometry":{"type":"Point","coordinates":[101.39674617046944,17.73269475038745]}},{"type":"Feature","properties":{"name_en":"Thaokaen","did":808,"pid":8,"uuid":"808007"},"geometry":{"type":"Point","coordinates":[101.39933089958537,17.73454674004924]}},{"type":"Feature","properties":{"name_en":"Phouane","did":808,"pid":8,"uuid":"808008"},"geometry":{"type":"Point","coordinates":[101.40407916038546,17.73612589018389]}},{"type":"Feature","properties":{"name_en":"Hathdaeng","did":808,"pid":8,"uuid":"808009"},"geometry":{"type":"Point","coordinates":[101.41950656045114,17.735691789802758]}},{"type":"Feature","properties":{"name_en":"Huoi ee houm","did":808,"pid":8,"uuid":"808010"},"geometry":{"type":"Point","coordinates":[101.4990299501516,17.748229940079277]}},{"type":"Feature","properties":{"name_en":"Nabon","did":808,"pid":8,"uuid":"808011"},"geometry":{"type":"Point","coordinates":[101.38735953000139,17.756123930013583]}},{"type":"Feature","properties":{"name_en":"Huoitor","did":808,"pid":8,"uuid":"808013"},"geometry":{"type":"Point","coordinates":[101.35072230966087,17.79709643952527]}},{"type":"Feature","properties":{"name_en":"Mouengmortai","did":808,"pid":8,"uuid":"808014"},"geometry":{"type":"Point","coordinates":[101.37671366979926,17.690336889769146]}},{"type":"Feature","properties":{"name_en":"Nakaengma","did":808,"pid":8,"uuid":"808016"},"geometry":{"type":"Point","coordinates":[101.35636761004803,17.673373429768372]}},{"type":"Feature","properties":{"name_en":"Kontapou","did":808,"pid":8,"uuid":"808017"},"geometry":{"type":"Point","coordinates":[101.33178785035393,17.655646040295014]}},{"type":"Feature","properties":{"name_en":"Phonesawang","did":808,"pid":8,"uuid":"808018"},"geometry":{"type":"Point","coordinates":[101.2866099697968,17.621589949736265]}},{"type":"Feature","properties":{"name_en":"Kokkabok","did":808,"pid":8,"uuid":"808019"},"geometry":{"type":"Point","coordinates":[101.25330749961253,17.67845922968049]}},{"type":"Feature","properties":{"name_en":"Dongsamsaen","did":808,"pid":8,"uuid":"808020"},"geometry":{"type":"Point","coordinates":[101.24118861037464,17.71682287032328]}},{"type":"Feature","properties":{"name_en":"Kouikhae","did":808,"pid":8,"uuid":"808021"},"geometry":{"type":"Point","coordinates":[101.24855085014009,17.724737899773892]}},{"type":"Feature","properties":{"name_en":"Nahintai","did":808,"pid":8,"uuid":"808023"},"geometry":{"type":"Point","coordinates":[101.29876021048668,17.710574830119608]}},{"type":"Feature","properties":{"name_en":"Saamxong","did":808,"pid":8,"uuid":"808024"},"geometry":{"type":"Point","coordinates":[101.33427534041199,17.701425809658875]}},{"type":"Feature","properties":{"name_en":"Paktomnuea","did":808,"pid":8,"uuid":"808025"},"geometry":{"type":"Point","coordinates":[101.23812360030318,17.781560080104583]}},{"type":"Feature","properties":{"name_en":"Mouangpaao","did":808,"pid":8,"uuid":"808028"},"geometry":{"type":"Point","coordinates":[101.25651382960454,17.80129652035107]}},{"type":"Feature","properties":{"name_en":"Huoihear","did":808,"pid":8,"uuid":"808029"},"geometry":{"type":"Point","coordinates":[101.27553362026185,17.796796450379272]}},{"type":"Feature","properties":{"name_en":"Huoikha","did":808,"pid":8,"uuid":"808030"},"geometry":{"type":"Point","coordinates":[101.27719475014811,17.818121020139998]}},{"type":"Feature","properties":{"name_en":"Pakkhaem","did":808,"pid":8,"uuid":"808031"},"geometry":{"type":"Point","coordinates":[101.24051855958552,17.818333250318787]}},{"type":"Feature","properties":{"name_en":"Namtaao","did":808,"pid":8,"uuid":"808033"},"geometry":{"type":"Point","coordinates":[101.24586528980927,17.844075329960706]}},{"type":"Feature","properties":{"name_en":"Huakhua","did":808,"pid":8,"uuid":"808034"},"geometry":{"type":"Point","coordinates":[101.26592344017546,17.84184246956187]}},{"type":"Feature","properties":{"name_en":"Phonepapor","did":808,"pid":8,"uuid":"808035"},"geometry":{"type":"Point","coordinates":[101.25810286982987,17.87423097992569]}},{"type":"Feature","properties":{"name_en":"Kokkathone","did":808,"pid":8,"uuid":"808036"},"geometry":{"type":"Point","coordinates":[101.26484384971286,17.885543870162945]}},{"type":"Feature","properties":{"name_en":"Kokhaikham","did":808,"pid":8,"uuid":"808037"},"geometry":{"type":"Point","coordinates":[101.27165908963129,17.865900549957736]}},{"type":"Feature","properties":{"name_en":"Khoumsiew","did":808,"pid":8,"uuid":"808038"},"geometry":{"type":"Point","coordinates":[101.2700346802125,17.905829500169325]}},{"type":"Feature","properties":{"name_en":"Nong","did":808,"pid":8,"uuid":"808039"},"geometry":{"type":"Point","coordinates":[101.2615438095862,17.927862929762934]}},{"type":"Feature","properties":{"name_en":"Pongdaeng","did":808,"pid":8,"uuid":"808040"},"geometry":{"type":"Point","coordinates":[101.28332712039918,17.948400690320128]}},{"type":"Feature","properties":{"name_en":"Vangpoun","did":808,"pid":8,"uuid":"808041"},"geometry":{"type":"Point","coordinates":[101.2216092400168,17.84428571006403]}},{"type":"Feature","properties":{"name_en":"Huoilerk","did":808,"pid":8,"uuid":"808042"},"geometry":{"type":"Point","coordinates":[101.21886743049143,17.874980410406334]}},{"type":"Feature","properties":{"name_en":"Vangpa","did":808,"pid":8,"uuid":"808044"},"geometry":{"type":"Point","coordinates":[101.20599181974403,17.945823840244415]}},{"type":"Feature","properties":{"name_en":"Suankuoi","did":808,"pid":8,"uuid":"808045"},"geometry":{"type":"Point","coordinates":[101.21210122034202,17.96802020985901]}},{"type":"Feature","properties":{"name_en":"Huoibouha","did":808,"pid":8,"uuid":"808047"},"geometry":{"type":"Point","coordinates":[101.2077541201327,18.0025330298716]}},{"type":"Feature","properties":{"name_en":"Lathkhampom","did":808,"pid":8,"uuid":"808048"},"geometry":{"type":"Point","coordinates":[101.2399724801998,18.023522650206527]}},{"type":"Feature","properties":{"name_en":"Huoipeth","did":808,"pid":8,"uuid":"808049"},"geometry":{"type":"Point","coordinates":[101.35055845010875,17.85942987967956]}},{"type":"Feature","properties":{"name_en":"Huoiloth","did":808,"pid":8,"uuid":"808050"},"geometry":{"type":"Point","coordinates":[101.3442543303302,17.88656687971521]}},{"type":"Feature","properties":{"name_en":"Nakhoun","did":808,"pid":8,"uuid":"808051"},"geometry":{"type":"Point","coordinates":[101.3614669902917,17.883360799868974]}},{"type":"Feature","properties":{"name_en":"Donmaen","did":808,"pid":8,"uuid":"808052"},"geometry":{"type":"Point","coordinates":[101.40646691050347,17.946134219809437]}},{"type":"Feature","properties":{"name_en":"Khae","did":808,"pid":8,"uuid":"808053"},"geometry":{"type":"Point","coordinates":[101.252200000355,18.009159999592978]}},{"type":"Feature","properties":{"name_en":"Nakham","did":808,"pid":8,"uuid":"808054"},"geometry":{"type":"Point","coordinates":[101.41291913973015,18.054205869707125]}},{"type":"Feature","properties":{"name_en":"Donsong","did":808,"pid":8,"uuid":"808055"},"geometry":{"type":"Point","coordinates":[101.41710731971467,18.07567318012518]}},{"type":"Feature","properties":{"name_en":"Huoila","did":808,"pid":8,"uuid":"808056"},"geometry":{"type":"Point","coordinates":[101.57198000007324,17.787730000252328]}},{"type":"Feature","properties":{"name_en":"Vernkham","did":808,"pid":8,"uuid":"808057"},"geometry":{"type":"Point","coordinates":[101.54668231984262,17.814430720225253]}},{"type":"Feature","properties":{"name_en":"Poungkha","did":808,"pid":8,"uuid":"808058"},"geometry":{"type":"Point","coordinates":[101.57197514006806,17.787735110181792]}}]}