{"type":"FeatureCollection","features":[{"type":"Feature","properties":{"name_en":"Nongpachith","did":809,"pid":8,"uuid":"809001"},"geometry":{"type":"Point","coordinates":[101.04368993040747,17.874609929988008]}},{"type":"Feature","properties":{"name_en":"Khonkaen","did":809,"pid":8,"uuid":"809002"},"geometry":{"type":"Point","coordinates":[101.0897099301485,17.870909990390903]}},{"type":"Feature","properties":{"name_en":"Nabongnuea","did":809,"pid":8,"uuid":"809003"},"geometry":{"type":"Point","coordinates":[101.10586998994452,17.858839969788217]}},{"type":"Feature","properties":{"name_en":"Nabongtai","did":809,"pid":8,"uuid":"809004"},"geometry":{"type":"Point","coordinates":[101.1244399303059,17.85219999007296]}},{"type":"Feature","properties":{"name_en":"Namoueng","did":809,"pid":8,"uuid":"809005"},"geometry":{"type":"Point","coordinates":[101.13768995975225,17.82263994998913]}},{"type":"Feature","properties":{"name_en":"Namphou","did":809,"pid":8,"uuid":"809006"},"geometry":{"type":"Point","coordinates":[101.15316181917798,17.806096927754897]}},{"type":"Feature","properties":{"name_en":"Namdone","did":809,"pid":8,"uuid":"809007"},"geometry":{"type":"Point","coordinates":[101.1153449801443,17.796348100290718]}},{"type":"Feature","properties":{"name_en":"Talerng","did":809,"pid":8,"uuid":"809008"},"geometry":{"type":"Point","coordinates":[101.17196992984047,17.788959960028684]}},{"type":"Feature","properties":{"name_en":"nakok","did":809,"pid":8,"uuid":"809009"},"geometry":{"type":"Point","coordinates":[101.15928994974344,17.77821996959318]}},{"type":"Feature","properties":{"name_en":"Nasane","did":809,"pid":8,"uuid":"809010"},"geometry":{"type":"Point","coordinates":[101.16772668043575,17.774620779645304]}},{"type":"Feature","properties":{"name_en":"Maiphonxai","did":809,"pid":8,"uuid":"809011"},"geometry":{"type":"Point","coordinates":[101.2127799896598,17.735639989618807]}},{"type":"Feature","properties":{"name_en":"Mouangham","did":809,"pid":8,"uuid":"809012"},"geometry":{"type":"Point","coordinates":[101.15928995022446,17.767959939881088]}},{"type":"Feature","properties":{"name_en":"Huoitapou","did":809,"pid":8,"uuid":"809014"},"geometry":{"type":"Point","coordinates":[101.16826999014968,17.72447998955082]}},{"type":"Feature","properties":{"name_en":"Nalaeng","did":809,"pid":8,"uuid":"809015"},"geometry":{"type":"Point","coordinates":[101.12931567979821,17.713374799686683]}},{"type":"Feature","properties":{"name_en":"Koum","did":809,"pid":8,"uuid":"809016"},"geometry":{"type":"Point","coordinates":[101.11173664965281,17.749169049662815]}},{"type":"Feature","properties":{"name_en":"Nongyaai","did":809,"pid":8,"uuid":"809017"},"geometry":{"type":"Point","coordinates":[101.16385205975794,17.671075280342567]}},{"type":"Feature","properties":{"name_en":"Nongphakbong","did":809,"pid":8,"uuid":"809018"},"geometry":{"type":"Point","coordinates":[101.18828513999301,17.670352919779546]}},{"type":"Feature","properties":{"name_en":"Thanang","did":809,"pid":8,"uuid":"809021"},"geometry":{"type":"Point","coordinates":[101.19314755987422,17.648199299914104]}},{"type":"Feature","properties":{"name_en":"Bortaen","did":809,"pid":8,"uuid":"809022"},"geometry":{"type":"Point","coordinates":[101.18231395001195,17.59083631952675]}},{"type":"Feature","properties":{"name_en":"Donsawang","did":809,"pid":8,"uuid":"809023"},"geometry":{"type":"Point","coordinates":[101.18561961004797,17.59730027995334]}},{"type":"Feature","properties":{"name_en":"Taaokuea","did":809,"pid":8,"uuid":"809024"},"geometry":{"type":"Point","coordinates":[101.18239853032651,17.59754796999289]}},{"type":"Feature","properties":{"name_en":"Nhai","did":809,"pid":8,"uuid":"809025"},"geometry":{"type":"Point","coordinates":[101.18571952034607,17.59631926041075]}},{"type":"Feature","properties":{"name_en":"Nakha","did":809,"pid":8,"uuid":"809026"},"geometry":{"type":"Point","coordinates":[101.1772930199265,17.527827209512118]}},{"type":"Feature","properties":{"name_en":"Nouengphae","did":809,"pid":8,"uuid":"809027"},"geometry":{"type":"Point","coordinates":[101.0729480504392,17.508761819653405]}},{"type":"Feature","properties":{"name_en":"Borhangnang","did":809,"pid":8,"uuid":"809028"},"geometry":{"type":"Point","coordinates":[101.08616991992314,17.53067998959054]}},{"type":"Feature","properties":{"name_en":"Nabornoy","did":809,"pid":8,"uuid":"809029"},"geometry":{"type":"Point","coordinates":[101.09537986965161,17.553876240301335]}},{"type":"Feature","properties":{"name_en":"Tonhtane","did":809,"pid":8,"uuid":"809031"},"geometry":{"type":"Point","coordinates":[101.1185799703223,17.595189969729137]}},{"type":"Feature","properties":{"name_en":"Borlane","did":809,"pid":8,"uuid":"809032"},"geometry":{"type":"Point","coordinates":[101.10260389973126,17.667260670012013]}},{"type":"Feature","properties":{"name_en":"Namphieng","did":809,"pid":8,"uuid":"809999"},"geometry":{"type":"Point","coordinates":[101.02508799960552,17.58869300007335]}}]}