{"type":"FeatureCollection","features":[{"type":"Feature","properties":{"name_en":"Namouang","did":810,"pid":8,"uuid":"810001"},"geometry":{"type":"Point","coordinates":[101.19283658963002,18.370076969677854]}},{"type":"Feature","properties":{"name_en":"Daeth","did":810,"pid":8,"uuid":"810002"},"geometry":{"type":"Point","coordinates":[101.18909440962574,18.372798319825396]}},{"type":"Feature","properties":{"name_en":"Naphay","did":810,"pid":8,"uuid":"810003"},"geometry":{"type":"Point","coordinates":[101.15678863009373,18.355754059759665]}},{"type":"Feature","properties":{"name_en":"Mai","did":810,"pid":8,"uuid":"810004"},"geometry":{"type":"Point","coordinates":[101.13649368964843,18.363062569652776]}},{"type":"Feature","properties":{"name_en":"Sawang","did":810,"pid":8,"uuid":"810005"},"geometry":{"type":"Point","coordinates":[101.12161136994628,18.356507170330524]}},{"type":"Feature","properties":{"name_en":"Yaai","did":810,"pid":8,"uuid":"810007"},"geometry":{"type":"Point","coordinates":[101.17121421987798,18.40351120985229]}},{"type":"Feature","properties":{"name_en":"Donphou","did":810,"pid":8,"uuid":"810008"},"geometry":{"type":"Point","coordinates":[101.17980676002155,18.40248810997704]}},{"type":"Feature","properties":{"name_en":"Napueay","did":810,"pid":8,"uuid":"810009"},"geometry":{"type":"Point","coordinates":[101.21430163985451,18.37899153984369]}},{"type":"Feature","properties":{"name_en":"Namok","did":810,"pid":8,"uuid":"810010"},"geometry":{"type":"Point","coordinates":[101.19856697035611,18.401135519688008]}},{"type":"Feature","properties":{"name_en":"Namonh","did":810,"pid":8,"uuid":"810011"},"geometry":{"type":"Point","coordinates":[101.20491173035359,18.408047829698223]}},{"type":"Feature","properties":{"name_en":"Thath","did":810,"pid":8,"uuid":"810013"},"geometry":{"type":"Point","coordinates":[101.17332662041886,18.406046559872255]}},{"type":"Feature","properties":{"name_en":"Dane","did":810,"pid":8,"uuid":"810014"},"geometry":{"type":"Point","coordinates":[101.16144686962808,18.420652529735605]}},{"type":"Feature","properties":{"name_en":"Khaen","did":810,"pid":8,"uuid":"810015"},"geometry":{"type":"Point","coordinates":[101.12930554024037,18.42428951958578]}}]}