{"type":"FeatureCollection","features":[{"type":"Feature","properties":{"name_en":"Samukkheexay","did":811,"pid":8,"uuid":"811040"},"geometry":{"type":"Point","coordinates":[101.28067441040189,19.493294240294315]}},{"type":"Feature","properties":{"name_en":"Saodiew","did":811,"pid":8,"uuid":"811041"},"geometry":{"type":"Point","coordinates":[101.31952838956602,19.520493680049807]}},{"type":"Feature","properties":{"name_en":"Phoutouy","did":811,"pid":8,"uuid":"811043"},"geometry":{"type":"Point","coordinates":[101.29753435998275,19.52351132997457]}},{"type":"Feature","properties":{"name_en":"Paklong","did":811,"pid":8,"uuid":"811094"},"geometry":{"type":"Point","coordinates":[101.45299997002643,19.345219950019548]}},{"type":"Feature","properties":{"name_en":"Santae","did":811,"pid":8,"uuid":"811096"},"geometry":{"type":"Point","coordinates":[101.41693993029462,19.35338995958748]}},{"type":"Feature","properties":{"name_en":"Mixai","did":811,"pid":8,"uuid":"811098"},"geometry":{"type":"Point","coordinates":[101.49847992990941,19.402059989689]}},{"type":"Feature","properties":{"name_en":"Sama","did":811,"pid":8,"uuid":"811101"},"geometry":{"type":"Point","coordinates":[101.41097998034654,19.458609919881024]}},{"type":"Feature","properties":{"name_en":"Samadnoy","did":811,"pid":8,"uuid":"811103"},"geometry":{"type":"Point","coordinates":[101.38824994019386,19.40020992972712]}},{"type":"Feature","properties":{"name_en":"Samadyai","did":811,"pid":8,"uuid":"811104"},"geometry":{"type":"Point","coordinates":[101.38772991976637,19.367739949525948]}},{"type":"Feature","properties":{"name_en":"Doykao","did":811,"pid":8,"uuid":"811105"},"geometry":{"type":"Point","coordinates":[101.35065994984033,19.40842997974047]}},{"type":"Feature","properties":{"name_en":"Sisaythong","did":811,"pid":8,"uuid":"811106"},"geometry":{"type":"Point","coordinates":[101.3389881497447,19.305844790111863]}},{"type":"Feature","properties":{"name_en":"Satan","did":811,"pid":8,"uuid":"811107"},"geometry":{"type":"Point","coordinates":[101.33250542034037,19.357039280080794]}},{"type":"Feature","properties":{"name_en":"Phoulerng","did":811,"pid":8,"uuid":"811108"},"geometry":{"type":"Point","coordinates":[101.32627992976751,19.411939989534023]}},{"type":"Feature","properties":{"name_en":"Housalord","did":811,"pid":8,"uuid":"811109"},"geometry":{"type":"Point","coordinates":[101.31753995024552,19.42610992987311]}},{"type":"Feature","properties":{"name_en":"Kongthieng","did":811,"pid":8,"uuid":"811110"},"geometry":{"type":"Point","coordinates":[101.29581842021462,19.41653453003284]}},{"type":"Feature","properties":{"name_en":"Kiewpor","did":811,"pid":8,"uuid":"811111"},"geometry":{"type":"Point","coordinates":[101.28272077020137,19.413700520184054]}},{"type":"Feature","properties":{"name_en":"Sala","did":811,"pid":8,"uuid":"811112"},"geometry":{"type":"Point","coordinates":[101.26649383026333,19.437731520261174]}},{"type":"Feature","properties":{"name_en":"Koryai","did":811,"pid":8,"uuid":"811114"},"geometry":{"type":"Point","coordinates":[101.2346917903634,19.43340872027161]}},{"type":"Feature","properties":{"name_en":"Sapi","did":811,"pid":8,"uuid":"811115"},"geometry":{"type":"Point","coordinates":[101.22753072018861,19.425874230145755]}},{"type":"Feature","properties":{"name_en":"Sakhet","did":811,"pid":8,"uuid":"811117"},"geometry":{"type":"Point","coordinates":[101.23873623029112,19.384547089990598]}},{"type":"Feature","properties":{"name_en":"Kiwkok","did":811,"pid":8,"uuid":"811118"},"geometry":{"type":"Point","coordinates":[101.21966370969253,19.37756537958537]}}]}