{"type":"FeatureCollection","features":[{"type":"Feature","properties":{"name_en":"Mouengnoy","did":901,"pid":9,"uuid":"901001"},"geometry":{"type":"Point","coordinates":[103.33650674293266,19.68562459648766]}},{"type":"Feature","properties":{"name_en":"Xouan","did":901,"pid":9,"uuid":"901002"},"geometry":{"type":"Point","coordinates":[103.35464744041626,19.623544149553535]}},{"type":"Feature","properties":{"name_en":"Or anh","did":901,"pid":9,"uuid":"901003"},"geometry":{"type":"Point","coordinates":[103.38100529378815,19.59200302627203]}},{"type":"Feature","properties":{"name_en":"Bokkop","did":901,"pid":9,"uuid":"901004"},"geometry":{"type":"Point","coordinates":[103.42464990961173,19.576124790077476]}},{"type":"Feature","properties":{"name_en":"Nasala","did":901,"pid":9,"uuid":"901005"},"geometry":{"type":"Point","coordinates":[103.46346733959005,19.589736830061323]}},{"type":"Feature","properties":{"name_en":"Phakome","did":901,"pid":9,"uuid":"901006"},"geometry":{"type":"Point","coordinates":[103.4653751495532,19.5665193798317]}},{"type":"Feature","properties":{"name_en":"Numka","did":901,"pid":9,"uuid":"901007"},"geometry":{"type":"Point","coordinates":[103.44425828001184,19.540130219852518]}},{"type":"Feature","properties":{"name_en":"Phakeo","did":901,"pid":9,"uuid":"901008"},"geometry":{"type":"Point","coordinates":[103.44021359024173,19.506429099869763]}},{"type":"Feature","properties":{"name_en":"Thajoke","did":901,"pid":9,"uuid":"901009"},"geometry":{"type":"Point","coordinates":[103.41102820545474,19.559412075611817]}},{"type":"Feature","properties":{"name_en":"Ta","did":901,"pid":9,"uuid":"901011"},"geometry":{"type":"Point","coordinates":[103.40341612009,19.57924965034444]}},{"type":"Feature","properties":{"name_en":"Yordngeum","did":901,"pid":9,"uuid":"901012"},"geometry":{"type":"Point","coordinates":[103.38427101040197,19.55581241970685]}},{"type":"Feature","properties":{"name_en":"Phonhkam","did":901,"pid":9,"uuid":"901013"},"geometry":{"type":"Point","coordinates":[103.36576770974902,19.569555139938597]}},{"type":"Feature","properties":{"name_en":"Mouan","did":901,"pid":9,"uuid":"901014"},"geometry":{"type":"Point","coordinates":[103.35785845963522,19.573297410238855]}},{"type":"Feature","properties":{"name_en":"Viengsay","did":901,"pid":9,"uuid":"901016"},"geometry":{"type":"Point","coordinates":[103.34592832962697,19.562371010101863]}},{"type":"Feature","properties":{"name_en":"Keo","did":901,"pid":9,"uuid":"901017"},"geometry":{"type":"Point","coordinates":[103.33457873003128,19.570648139600333]}},{"type":"Feature","properties":{"name_en":"Kai","did":901,"pid":9,"uuid":"901018"},"geometry":{"type":"Point","coordinates":[103.32557857995636,19.571466880422182]}},{"type":"Feature","properties":{"name_en":"YouanThong","did":901,"pid":9,"uuid":"901019"},"geometry":{"type":"Point","coordinates":[103.33578123760871,19.515135029794973]}},{"type":"Feature","properties":{"name_en":"Numkor","did":901,"pid":9,"uuid":"901020"},"geometry":{"type":"Point","coordinates":[103.30648401964912,19.49664992988672]}},{"type":"Feature","properties":{"name_en":"Dong","did":901,"pid":9,"uuid":"901021"},"geometry":{"type":"Point","coordinates":[103.27284962037044,19.490003589838057]}},{"type":"Feature","properties":{"name_en":"Kungkay","did":901,"pid":9,"uuid":"901022"},"geometry":{"type":"Point","coordinates":[103.25444454958615,19.484971260332877]}},{"type":"Feature","properties":{"name_en":"Nonghand","did":901,"pid":9,"uuid":"901023"},"geometry":{"type":"Point","coordinates":[103.2910118596509,19.4572504600285]}},{"type":"Feature","properties":{"name_en":"Vieng","did":901,"pid":9,"uuid":"901025"},"geometry":{"type":"Point","coordinates":[103.25453264967065,19.44670569039077]}},{"type":"Feature","properties":{"name_en":"Naphong","did":901,"pid":9,"uuid":"901026"},"geometry":{"type":"Point","coordinates":[103.226080019978,19.449149849754544]}},{"type":"Feature","properties":{"name_en":"Mone","did":901,"pid":9,"uuid":"901027"},"geometry":{"type":"Point","coordinates":[103.23653720016982,19.448388110174427]}},{"type":"Feature","properties":{"name_en":"Houa","did":901,"pid":9,"uuid":"901028"},"geometry":{"type":"Point","coordinates":[103.24162242024161,19.461003960209013]}},{"type":"Feature","properties":{"name_en":"Koo","did":901,"pid":9,"uuid":"901029"},"geometry":{"type":"Point","coordinates":[103.25772270976319,19.452466660327207]}},{"type":"Feature","properties":{"name_en":"Phonhsavung","did":901,"pid":9,"uuid":"901030"},"geometry":{"type":"Point","coordinates":[103.21036353959012,19.44559157004575]}},{"type":"Feature","properties":{"name_en":"Phonemysay","did":901,"pid":9,"uuid":"901031"},"geometry":{"type":"Point","coordinates":[103.21226774040036,19.440076860160353]}},{"type":"Feature","properties":{"name_en":"Phonhsaathnuea","did":901,"pid":9,"uuid":"901032"},"geometry":{"type":"Point","coordinates":[103.20685311008468,19.44698313038441]}},{"type":"Feature","properties":{"name_en":"Yone","did":901,"pid":9,"uuid":"901033"},"geometry":{"type":"Point","coordinates":[103.20538653011889,19.438334179759803]}},{"type":"Feature","properties":{"name_en":"Tern","did":901,"pid":9,"uuid":"901034"},"geometry":{"type":"Point","coordinates":[103.21152828988744,19.45248711017431]}},{"type":"Feature","properties":{"name_en":"Phonhkam","did":901,"pid":9,"uuid":"901035"},"geometry":{"type":"Point","coordinates":[103.19995598033111,19.44469680025205]}},{"type":"Feature","properties":{"name_en":"Phonhthong","did":901,"pid":9,"uuid":"901036"},"geometry":{"type":"Point","coordinates":[103.17617040000474,19.438169650290046]}},{"type":"Feature","properties":{"name_en":"Numkgam","did":901,"pid":9,"uuid":"901037"},"geometry":{"type":"Point","coordinates":[103.19053000033696,19.449868000163036]}},{"type":"Feature","properties":{"name_en":"Phonhkgamnuea","did":901,"pid":9,"uuid":"901038"},"geometry":{"type":"Point","coordinates":[103.20657341042697,19.461534620097883]}},{"type":"Feature","properties":{"name_en":"Phonhsavanhnuea","did":901,"pid":9,"uuid":"901039"},"geometry":{"type":"Point","coordinates":[103.22606644997038,19.449138199755062]}},{"type":"Feature","properties":{"name_en":"Phsavanhtay","did":901,"pid":9,"uuid":"901040"},"geometry":{"type":"Point","coordinates":[103.21265574021213,19.453242990014964]}},{"type":"Feature","properties":{"name_en":"Kguy","did":901,"pid":9,"uuid":"901041"},"geometry":{"type":"Point","coordinates":[103.18973105982673,19.461957400287723]}},{"type":"Feature","properties":{"name_en":"Ly","did":901,"pid":9,"uuid":"901042"},"geometry":{"type":"Point","coordinates":[103.16768565026653,19.463358859826773]}},{"type":"Feature","properties":{"name_en":"Youan","did":901,"pid":9,"uuid":"901043"},"geometry":{"type":"Point","coordinates":[103.20334268990055,19.466487229689694]}},{"type":"Feature","properties":{"name_en":"By","did":901,"pid":9,"uuid":"901044"},"geometry":{"type":"Point","coordinates":[103.22086070034092,19.501462320241824]}},{"type":"Feature","properties":{"name_en":"Hayhin","did":901,"pid":9,"uuid":"901045"},"geometry":{"type":"Point","coordinates":[103.17141845022017,19.42169693991031]}},{"type":"Feature","properties":{"name_en":"Numsurn","did":901,"pid":9,"uuid":"901046"},"geometry":{"type":"Point","coordinates":[103.34065360028347,19.44875171041931]}},{"type":"Feature","properties":{"name_en":"Lex","did":901,"pid":9,"uuid":"901047"},"geometry":{"type":"Point","coordinates":[103.2432899995917,19.513708530293766]}},{"type":"Feature","properties":{"name_en":"Lathhouang","did":901,"pid":9,"uuid":"901048"},"geometry":{"type":"Point","coordinates":[103.19805856962579,19.39121213020441]}},{"type":"Feature","properties":{"name_en":"Numtorm","did":901,"pid":9,"uuid":"901049"},"geometry":{"type":"Point","coordinates":[103.17881488971295,19.402892060330128]}},{"type":"Feature","properties":{"name_en":"Kungyao","did":901,"pid":9,"uuid":"901050"},"geometry":{"type":"Point","coordinates":[103.16462634009174,19.37536915985392]}},{"type":"Feature","properties":{"name_en":"Tonhtay","did":901,"pid":9,"uuid":"901051"},"geometry":{"type":"Point","coordinates":[103.15610604955525,19.36877150964222]}},{"type":"Feature","properties":{"name_en":"Tonhnuea","did":901,"pid":9,"uuid":"901052"},"geometry":{"type":"Point","coordinates":[103.1312009900845,19.377625060344826]}},{"type":"Feature","properties":{"name_en":"Nanu","did":901,"pid":9,"uuid":"901053"},"geometry":{"type":"Point","coordinates":[103.2064278998124,19.405855310111793]}},{"type":"Feature","properties":{"name_en":"Phanh","did":901,"pid":9,"uuid":"901054"},"geometry":{"type":"Point","coordinates":[103.07051499974176,19.384799129928453]}},{"type":"Feature","properties":{"name_en":"Sy","did":901,"pid":9,"uuid":"901055"},"geometry":{"type":"Point","coordinates":[103.09769859991405,19.379013690012897]}},{"type":"Feature","properties":{"name_en":"Phonhsay","did":901,"pid":9,"uuid":"901056"},"geometry":{"type":"Point","coordinates":[103.0361186103765,19.368210680238974]}},{"type":"Feature","properties":{"name_en":"My","did":901,"pid":9,"uuid":"901057"},"geometry":{"type":"Point","coordinates":[103.10429265042929,19.414346680091764]}},{"type":"Feature","properties":{"name_en":"Kong","did":901,"pid":9,"uuid":"901058"},"geometry":{"type":"Point","coordinates":[103.01357186961094,19.390150980301016]}},{"type":"Feature","properties":{"name_en":"Bomgvan","did":901,"pid":9,"uuid":"901059"},"geometry":{"type":"Point","coordinates":[103.04268507002774,19.39947350036477]}},{"type":"Feature","properties":{"name_en":"Viengthong","did":901,"pid":9,"uuid":"901060"},"geometry":{"type":"Point","coordinates":[103.02990477024797,19.423926950086717]}},{"type":"Feature","properties":{"name_en":"Nong","did":901,"pid":9,"uuid":"901061"},"geometry":{"type":"Point","coordinates":[103.0751645301104,19.367478009911338]}},{"type":"Feature","properties":{"name_en":"Viengkam","did":901,"pid":9,"uuid":"901062"},"geometry":{"type":"Point","coordinates":[103.02986101025253,19.436890399656775]}},{"type":"Feature","properties":{"name_en":"Phouhum","did":901,"pid":9,"uuid":"901063"},"geometry":{"type":"Point","coordinates":[103.13472238981738,19.402213540118314]}},{"type":"Feature","properties":{"name_en":"Nakoun","did":901,"pid":9,"uuid":"901064"},"geometry":{"type":"Point","coordinates":[103.12673652993374,19.459246109731293]}},{"type":"Feature","properties":{"name_en":"Nahoy","did":901,"pid":9,"uuid":"901065"},"geometry":{"type":"Point","coordinates":[103.14588650007681,19.474412319804856]}},{"type":"Feature","properties":{"name_en":"Lathkgone","did":901,"pid":9,"uuid":"901066"},"geometry":{"type":"Point","coordinates":[103.11865915001641,19.476085770244964]}},{"type":"Feature","properties":{"name_en":"Nahueang","did":901,"pid":9,"uuid":"901067"},"geometry":{"type":"Point","coordinates":[103.11543572027158,19.44724070971244]}},{"type":"Feature","properties":{"name_en":"Nathao","did":901,"pid":9,"uuid":"901068"},"geometry":{"type":"Point","coordinates":[103.10713620956464,19.535886120296]}},{"type":"Feature","properties":{"name_en":"Houaisung","did":901,"pid":9,"uuid":"901069"},"geometry":{"type":"Point","coordinates":[103.10358068979437,19.51369100979321]}},{"type":"Feature","properties":{"name_en":"Phoukeng","did":901,"pid":9,"uuid":"901070"},"geometry":{"type":"Point","coordinates":[103.06053752023166,19.46471755956038]}},{"type":"Feature","properties":{"name_en":"Nady","did":901,"pid":9,"uuid":"901073"},"geometry":{"type":"Point","coordinates":[103.11220315027415,19.433992609605856]}},{"type":"Feature","properties":{"name_en":"Kungnonglouang","did":901,"pid":9,"uuid":"901074"},"geometry":{"type":"Point","coordinates":[103.10239633036981,19.45640548040109]}},{"type":"Feature","properties":{"name_en":"Napha","did":901,"pid":9,"uuid":"901075"},"geometry":{"type":"Point","coordinates":[103.19510135043043,19.542901360363437]}},{"type":"Feature","properties":{"name_en":"Viengkouan","did":901,"pid":9,"uuid":"901076"},"geometry":{"type":"Point","coordinates":[103.22285977960382,19.55581611040977]}},{"type":"Feature","properties":{"name_en":"Yelpsy","did":901,"pid":9,"uuid":"901077"},"geometry":{"type":"Point","coordinates":[103.19405076025896,19.57293974969153]}},{"type":"Feature","properties":{"name_en":"Vanh","did":901,"pid":9,"uuid":"901078"},"geometry":{"type":"Point","coordinates":[103.18189935029042,19.584173180401645]}},{"type":"Feature","properties":{"name_en":"Naphong","did":901,"pid":9,"uuid":"901079"},"geometry":{"type":"Point","coordinates":[103.21079864023082,19.59978171038284]}},{"type":"Feature","properties":{"name_en":"Simueng","did":901,"pid":9,"uuid":"901080"},"geometry":{"type":"Point","coordinates":[103.25007607021138,19.58088964967022]}},{"type":"Feature","properties":{"name_en":"Phoub","did":901,"pid":9,"uuid":"901081"},"geometry":{"type":"Point","coordinates":[103.2471701497452,19.601786489903393]}},{"type":"Feature","properties":{"name_en":"My","did":901,"pid":9,"uuid":"901082"},"geometry":{"type":"Point","coordinates":[103.2193741704523,19.6300809499366]}},{"type":"Feature","properties":{"name_en":"Mone","did":901,"pid":9,"uuid":"901083"},"geometry":{"type":"Point","coordinates":[103.22826241971808,19.639147569869763]}},{"type":"Feature","properties":{"name_en":"Phosy","did":901,"pid":9,"uuid":"901084"},"geometry":{"type":"Point","coordinates":[103.26113918011961,19.631218789896845]}},{"type":"Feature","properties":{"name_en":"Phonh","did":901,"pid":9,"uuid":"901085"},"geometry":{"type":"Point","coordinates":[103.28472854010471,19.6486866804379]}},{"type":"Feature","properties":{"name_en":"Yordphieng","did":901,"pid":9,"uuid":"901086"},"geometry":{"type":"Point","coordinates":[103.29838340996294,19.673015229782184]}},{"type":"Feature","properties":{"name_en":"Mouangpha","did":901,"pid":9,"uuid":"901087"},"geometry":{"type":"Point","coordinates":[103.1629511303191,19.504779459676136]}},{"type":"Feature","properties":{"name_en":"Phonhtong","did":901,"pid":9,"uuid":"901088"},"geometry":{"type":"Point","coordinates":[103.30890538038143,19.63508351986955]}},{"type":"Feature","properties":{"name_en":"Sikoon","did":901,"pid":9,"uuid":"901089"},"geometry":{"type":"Point","coordinates":[103.29627552972079,19.602773879844765]}},{"type":"Feature","properties":{"name_en":"Nalam","did":901,"pid":9,"uuid":"901090"},"geometry":{"type":"Point","coordinates":[103.3163826999991,19.60941009999986]}},{"type":"Feature","properties":{"name_en":"Mieng","did":901,"pid":9,"uuid":"901091"},"geometry":{"type":"Point","coordinates":[103.31245537044597,19.59458039994382]}},{"type":"Feature","properties":{"name_en":"PhongPhunh","did":901,"pid":9,"uuid":"901092"},"geometry":{"type":"Point","coordinates":[103.29748009999902,19.590819799999846]}},{"type":"Feature","properties":{"name_en":"Kungvieng","did":901,"pid":9,"uuid":"901093"},"geometry":{"type":"Point","coordinates":[103.2983020200113,19.580108370373516]}},{"type":"Feature","properties":{"name_en":"Manhsom","did":901,"pid":9,"uuid":"901094"},"geometry":{"type":"Point","coordinates":[103.29268414033743,19.566581990085908]}},{"type":"Feature","properties":{"name_en":"Phaykgam","did":901,"pid":9,"uuid":"901095"},"geometry":{"type":"Point","coordinates":[103.31250059999908,19.57890729999986]}},{"type":"Feature","properties":{"name_en":"Lao","did":901,"pid":9,"uuid":"901096"},"geometry":{"type":"Point","coordinates":[103.31811949999909,19.655214799999843]}},{"type":"Feature","properties":{"name_en":"Saylom","did":901,"pid":9,"uuid":"901097"},"geometry":{"type":"Point","coordinates":[103.1856313898099,19.446490950169192]}},{"type":"Feature","properties":{"name_en":"Phonhsavanhkung","did":901,"pid":9,"uuid":"901098"},"geometry":{"type":"Point","coordinates":[103.22162186012729,19.448959589769725]}},{"type":"Feature","properties":{"name_en":"Phonhsavanhsay","did":901,"pid":9,"uuid":"901099"},"geometry":{"type":"Point","coordinates":[103.21804990972196,19.451725609855472]}},{"type":"Feature","properties":{"name_en":"Phousanh","did":901,"pid":9,"uuid":"901100"},"geometry":{"type":"Point","coordinates":[103.43952384973298,19.59374438995074]}},{"type":"Feature","properties":{"name_en":"Nakhuon","did":901,"pid":9,"uuid":"901101"},"geometry":{"type":"Point","coordinates":[103.21446320981859,19.544267519662682]}},{"type":"Feature","properties":{"name_en":"Nasay","did":901,"pid":9,"uuid":"901102"},"geometry":{"type":"Point","coordinates":[103.06294178985098,19.374760460032054]}},{"type":"Feature","properties":{"name_en":"Ponengam-Tai","did":901,"pid":9,"uuid":"901103"},"geometry":{"type":"Point","coordinates":[103.19750762985551,19.455689000256005]}},{"type":"Feature","properties":{"name_en":"Nakouan","did":901,"pid":9,"uuid":"901104"},"geometry":{"type":"Point","coordinates":[103.19708535032606,19.446740559722027]}},{"type":"Feature","properties":{"name_en":"Nasay","did":901,"pid":9,"uuid":"901105"},"geometry":{"type":"Point","coordinates":[103.17495947031564,19.447568519949844]}},{"type":"Feature","properties":{"name_en":"Phonhkgamtay","did":901,"pid":9,"uuid":"901106"},"geometry":{"type":"Point","coordinates":[103.01813992980497,19.384079970376106]}},{"type":"Feature","properties":{"name_en":"Phonhsaathtay","did":901,"pid":9,"uuid":"901107"},"geometry":{"type":"Point","coordinates":[103.24539469979595,19.592619290328162]}},{"type":"Feature","properties":{"name_en":"Thongmisay","did":901,"pid":9,"uuid":"901108"},"geometry":{"type":"Point","coordinates":[103.19875266998459,19.633448879808967]}},{"type":"Feature","properties":{"name_en":"Na","did":901,"pid":9,"uuid":"901109"},"geometry":{"type":"Point","coordinates":[103.41862433005757,19.558375190140765]}},{"type":"Feature","properties":{"name_en":"Lathbork","did":901,"pid":9,"uuid":"901110"},"geometry":{"type":"Point","coordinates":[103.21723158038502,19.45797088966614]}},{"type":"Feature","properties":{"name_en":"Dousung","did":901,"pid":9,"uuid":"901111"},"geometry":{"type":"Point","coordinates":[103.23137687965644,19.563843540199528]}},{"type":"Feature","properties":{"name_en":"Nakamphang","did":901,"pid":9,"uuid":"901112"},"geometry":{"type":"Point","coordinates":[103.14503699952971,19.436585719656993]}},{"type":"Feature","properties":{"name_en":"Siphotay","did":901,"pid":9,"uuid":"901113"},"geometry":{"type":"Point","coordinates":[103.08845119041395,19.386153650234892]}}]}