{"type":"FeatureCollection","features":[{"type":"Feature","properties":{"name_en":"Phosy","did":902,"pid":9,"uuid":"902001"},"geometry":{"type":"Point","coordinates":[103.71629721992045,19.630429969773722]}},{"type":"Feature","properties":{"name_en":"Phonhsay","did":902,"pid":9,"uuid":"902002"},"geometry":{"type":"Point","coordinates":[103.70468778979941,19.668761580089527]}},{"type":"Feature","properties":{"name_en":"Naphieng","did":902,"pid":9,"uuid":"902003"},"geometry":{"type":"Point","coordinates":[103.70669031005357,19.63820250976709]}},{"type":"Feature","properties":{"name_en":"Ponhthanh","did":902,"pid":9,"uuid":"902005"},"geometry":{"type":"Point","coordinates":[103.7288528096504,19.64976911020006]}},{"type":"Feature","properties":{"name_en":"Hin","did":902,"pid":9,"uuid":"902006"},"geometry":{"type":"Point","coordinates":[103.54590687986577,19.63162422003251]}},{"type":"Feature","properties":{"name_en":"Sun","did":902,"pid":9,"uuid":"902007"},"geometry":{"type":"Point","coordinates":[103.5514970195596,19.625791760431714]}},{"type":"Feature","properties":{"name_en":"Banh","did":902,"pid":9,"uuid":"902008"},"geometry":{"type":"Point","coordinates":[103.55443671993221,19.64041793037476]}},{"type":"Feature","properties":{"name_en":"Doung","did":902,"pid":9,"uuid":"902009"},"geometry":{"type":"Point","coordinates":[103.5790578102726,19.610192200312984]}},{"type":"Feature","properties":{"name_en":"Tong","did":902,"pid":9,"uuid":"902010"},"geometry":{"type":"Point","coordinates":[103.56204900036037,19.638634849742587]}},{"type":"Feature","properties":{"name_en":"Sung","did":902,"pid":9,"uuid":"902011"},"geometry":{"type":"Point","coordinates":[103.57084371047463,19.606003340152377]}},{"type":"Feature","properties":{"name_en":"Koiy","did":902,"pid":9,"uuid":"902015"},"geometry":{"type":"Point","coordinates":[103.56964577025977,19.620796730187116]}},{"type":"Feature","properties":{"name_en":"Chormthongtay","did":902,"pid":9,"uuid":"902016"},"geometry":{"type":"Point","coordinates":[103.55657527967263,19.63130008958431]}},{"type":"Feature","properties":{"name_en":"Phonhkam","did":902,"pid":9,"uuid":"902019"},"geometry":{"type":"Point","coordinates":[103.6263529999205,19.60609099997859]}},{"type":"Feature","properties":{"name_en":"Boua","did":902,"pid":9,"uuid":"902020"},"geometry":{"type":"Point","coordinates":[103.63472420980888,19.615954760213036]}},{"type":"Feature","properties":{"name_en":"Naong","did":902,"pid":9,"uuid":"902021"},"geometry":{"type":"Point","coordinates":[103.62527722034694,19.621677580135632]}},{"type":"Feature","properties":{"name_en":"Haymieng","did":902,"pid":9,"uuid":"902022"},"geometry":{"type":"Point","coordinates":[103.65220567001535,19.613704549599007]}},{"type":"Feature","properties":{"name_en":"Lathnong","did":902,"pid":9,"uuid":"902025"},"geometry":{"type":"Point","coordinates":[103.6129765201582,19.591496029580625]}},{"type":"Feature","properties":{"name_en":"Yumchong","did":902,"pid":9,"uuid":"902026"},"geometry":{"type":"Point","coordinates":[103.62739809035284,19.5930453401421]}},{"type":"Feature","properties":{"name_en":"Hip","did":902,"pid":9,"uuid":"902028"},"geometry":{"type":"Point","coordinates":[103.64004243975297,19.579905359986505]}},{"type":"Feature","properties":{"name_en":"Nahom","did":902,"pid":9,"uuid":"902031"},"geometry":{"type":"Point","coordinates":[103.68716096963547,19.56469522963917]}},{"type":"Feature","properties":{"name_en":"Phathung","did":902,"pid":9,"uuid":"902032"},"geometry":{"type":"Point","coordinates":[103.69693813032423,19.60185035957608]}},{"type":"Feature","properties":{"name_en":"Hord","did":902,"pid":9,"uuid":"902033"},"geometry":{"type":"Point","coordinates":[103.65632731046021,19.56799778019492]}},{"type":"Feature","properties":{"name_en":"Lanh","did":902,"pid":9,"uuid":"902036"},"geometry":{"type":"Point","coordinates":[103.61083804978277,19.646429430202858]}},{"type":"Feature","properties":{"name_en":"Dousay","did":902,"pid":9,"uuid":"902039"},"geometry":{"type":"Point","coordinates":[103.60645179993917,19.659945669797214]}},{"type":"Feature","properties":{"name_en":"Laenador","did":902,"pid":9,"uuid":"902040"},"geometry":{"type":"Point","coordinates":[103.59736438994159,19.655025069580525]}},{"type":"Feature","properties":{"name_en":"Namueang","did":902,"pid":9,"uuid":"902042"},"geometry":{"type":"Point","coordinates":[103.60017676992906,19.625129919575933]}},{"type":"Feature","properties":{"name_en":"Numchak","did":902,"pid":9,"uuid":"902043"},"geometry":{"type":"Point","coordinates":[103.62348449029331,19.737679769564124]}},{"type":"Feature","properties":{"name_en":"nkordkuea","did":902,"pid":9,"uuid":"902044"},"geometry":{"type":"Point","coordinates":[103.48840894973742,19.65249197980041]}},{"type":"Feature","properties":{"name_en":"Viengkam","did":902,"pid":9,"uuid":"902045"},"geometry":{"type":"Point","coordinates":[103.5007814799377,19.67966887011668]}},{"type":"Feature","properties":{"name_en":"Chomsy","did":902,"pid":9,"uuid":"902047"},"geometry":{"type":"Point","coordinates":[103.51651096012921,19.670967869568784]}},{"type":"Feature","properties":{"name_en":"Siengkyo","did":902,"pid":9,"uuid":"902048"},"geometry":{"type":"Point","coordinates":[103.52932999009924,19.63467992975574]}},{"type":"Feature","properties":{"name_en":"Nathong","did":902,"pid":9,"uuid":"902049"},"geometry":{"type":"Point","coordinates":[103.5184247097534,19.64513183016926]}},{"type":"Feature","properties":{"name_en":"Sam","did":902,"pid":9,"uuid":"902050"},"geometry":{"type":"Point","coordinates":[103.49756509034789,19.664209040391192]}},{"type":"Feature","properties":{"name_en":"Muangxai","did":902,"pid":9,"uuid":"902051"},"geometry":{"type":"Point","coordinates":[103.50447170001837,19.660519489644233]}},{"type":"Feature","properties":{"name_en":"Natoom","did":902,"pid":9,"uuid":"902052"},"geometry":{"type":"Point","coordinates":[103.54425907958273,19.667395669577555]}},{"type":"Feature","properties":{"name_en":"Phoxai","did":902,"pid":9,"uuid":"902053"},"geometry":{"type":"Point","coordinates":[103.53015477011093,19.65883188009886]}},{"type":"Feature","properties":{"name_en":"Tha","did":902,"pid":9,"uuid":"902056"},"geometry":{"type":"Point","coordinates":[103.58720200015603,19.74237733039396]}},{"type":"Feature","properties":{"name_en":"Sunphunh","did":902,"pid":9,"uuid":"902057"},"geometry":{"type":"Point","coordinates":[103.53995899952196,19.65153468024226]}},{"type":"Feature","properties":{"name_en":"Nasay","did":902,"pid":9,"uuid":"902060"},"geometry":{"type":"Point","coordinates":[103.48683148006835,19.78361100991841]}},{"type":"Feature","properties":{"name_en":"Naphunh","did":902,"pid":9,"uuid":"902061"},"geometry":{"type":"Point","coordinates":[103.43974956982223,19.7389720896635]}},{"type":"Feature","properties":{"name_en":"Saubong","did":902,"pid":9,"uuid":"902062"},"geometry":{"type":"Point","coordinates":[103.42275878023585,19.819010800367774]}},{"type":"Feature","properties":{"name_en":"phongmouan","did":902,"pid":9,"uuid":"902063"},"geometry":{"type":"Point","coordinates":[103.38340624987318,19.82757551997944]}},{"type":"Feature","properties":{"name_en":"Sumphunsay","did":902,"pid":9,"uuid":"902064"},"geometry":{"type":"Point","coordinates":[103.41949226999772,19.751750890310706]}},{"type":"Feature","properties":{"name_en":"Vungsay","did":902,"pid":9,"uuid":"902066"},"geometry":{"type":"Point","coordinates":[103.88840602974804,19.847855870428322]}},{"type":"Feature","properties":{"name_en":"Summan","did":902,"pid":9,"uuid":"902067"},"geometry":{"type":"Point","coordinates":[103.76375639956868,19.805407560133474]}},{"type":"Feature","properties":{"name_en":"Song","did":902,"pid":9,"uuid":"902068"},"geometry":{"type":"Point","coordinates":[103.70392151029844,19.810872059998484]}},{"type":"Feature","properties":{"name_en":"Vieng","did":902,"pid":9,"uuid":"902070"},"geometry":{"type":"Point","coordinates":[103.79068611047046,19.778711699671508]}},{"type":"Feature","properties":{"name_en":"Keolurk","did":902,"pid":9,"uuid":"902071"},"geometry":{"type":"Point","coordinates":[103.69850085031798,19.861496990353267]}},{"type":"Feature","properties":{"name_en":"Houaihone","did":902,"pid":9,"uuid":"902072"},"geometry":{"type":"Point","coordinates":[103.76647582030961,19.778929880444327]}},{"type":"Feature","properties":{"name_en":"Sunpan","did":902,"pid":9,"uuid":"902073"},"geometry":{"type":"Point","coordinates":[103.82786303986892,19.797538709755504]}},{"type":"Feature","properties":{"name_en":"Sunpho","did":902,"pid":9,"uuid":"902074"},"geometry":{"type":"Point","coordinates":[103.88985700039387,19.792074000226464]}},{"type":"Feature","properties":{"name_en":"Sunkam","did":902,"pid":9,"uuid":"902076"},"geometry":{"type":"Point","coordinates":[103.8483200800582,19.787775639611965]}},{"type":"Feature","properties":{"name_en":"Kathkam","did":902,"pid":9,"uuid":"902077"},"geometry":{"type":"Point","coordinates":[103.87255156976393,19.833611160203215]}},{"type":"Feature","properties":{"name_en":"Nkordlieng","did":902,"pid":9,"uuid":"902078"},"geometry":{"type":"Point","coordinates":[103.69207410965038,19.830819479898665]}},{"type":"Feature","properties":{"name_en":"Souangmone","did":902,"pid":9,"uuid":"902079"},"geometry":{"type":"Point","coordinates":[103.64390583037431,19.788682730279845]}},{"type":"Feature","properties":{"name_en":"Phiengdung","did":902,"pid":9,"uuid":"902080"},"geometry":{"type":"Point","coordinates":[103.72005039032234,20.030863320323693]}},{"type":"Feature","properties":{"name_en":"Sobthung","did":902,"pid":9,"uuid":"902081"},"geometry":{"type":"Point","coordinates":[103.75173834012267,20.03629513018962]}},{"type":"Feature","properties":{"name_en":"Sobna","did":902,"pid":9,"uuid":"902083"},"geometry":{"type":"Point","coordinates":[103.83687736005616,19.995688330253685]}},{"type":"Feature","properties":{"name_en":"Sobpern","did":902,"pid":9,"uuid":"902084"},"geometry":{"type":"Point","coordinates":[103.87269608025903,19.967969290040813]}},{"type":"Feature","properties":{"name_en":"Phiengphung","did":902,"pid":9,"uuid":"902085"},"geometry":{"type":"Point","coordinates":[103.87190902011102,19.94717404044011]}},{"type":"Feature","properties":{"name_en":"Sunkeo","did":902,"pid":9,"uuid":"902086"},"geometry":{"type":"Point","coordinates":[103.86268046022899,19.93735607017251]}},{"type":"Feature","properties":{"name_en":"Keohuea","did":902,"pid":9,"uuid":"902087"},"geometry":{"type":"Point","coordinates":[103.848125200196,19.857364209774737]}},{"type":"Feature","properties":{"name_en":"Kungkam","did":902,"pid":9,"uuid":"902088"},"geometry":{"type":"Point","coordinates":[103.71442554973747,20.011382270419414]}},{"type":"Feature","properties":{"name_en":"Phiengkok","did":902,"pid":9,"uuid":"902089"},"geometry":{"type":"Point","coordinates":[103.70227773975236,19.996603629650146]}},{"type":"Feature","properties":{"name_en":"Thangchong","did":902,"pid":9,"uuid":"902090"},"geometry":{"type":"Point","coordinates":[103.6869826099021,19.967880359673142]}},{"type":"Feature","properties":{"name_en":"Phahanh","did":902,"pid":9,"uuid":"902091"},"geometry":{"type":"Point","coordinates":[103.58222114031354,19.532818770424893]}},{"type":"Feature","properties":{"name_en":"Phonhckam","did":902,"pid":9,"uuid":"902092"},"geometry":{"type":"Point","coordinates":[103.53873650005012,19.54157382966403]}},{"type":"Feature","properties":{"name_en":"Phonhhome","did":902,"pid":9,"uuid":"902093"},"geometry":{"type":"Point","coordinates":[103.51255671029332,19.534500339779154]}},{"type":"Feature","properties":{"name_en":"Namthomg","did":902,"pid":9,"uuid":"902094"},"geometry":{"type":"Point","coordinates":[103.56720948988841,19.53856246998727]}},{"type":"Feature","properties":{"name_en":"Phakork","did":902,"pid":9,"uuid":"902095"},"geometry":{"type":"Point","coordinates":[103.59913423018335,19.53072572014642]}},{"type":"Feature","properties":{"name_en":"Nhordphiad","did":902,"pid":9,"uuid":"902098"},"geometry":{"type":"Point","coordinates":[103.51249476990587,19.577502780364682]}},{"type":"Feature","properties":{"name_en":"Som","did":902,"pid":9,"uuid":"902101"},"geometry":{"type":"Point","coordinates":[103.53199392982755,19.67182266013189]}},{"type":"Feature","properties":{"name_en":"Naneuai","did":902,"pid":9,"uuid":"902102"},"geometry":{"type":"Point","coordinates":[103.47600181016168,19.60271687983286]}},{"type":"Feature","properties":{"name_en":"Kornhiew","did":902,"pid":9,"uuid":"902103"},"geometry":{"type":"Point","coordinates":[103.60332786008084,19.57500915997189]}},{"type":"Feature","properties":{"name_en":"Thang","did":902,"pid":9,"uuid":"902105"},"geometry":{"type":"Point","coordinates":[103.64685683999333,19.581237420383825]}},{"type":"Feature","properties":{"name_en":"Nanhong","did":902,"pid":9,"uuid":"902107"},"geometry":{"type":"Point","coordinates":[103.66956711009901,19.588560849664187]}},{"type":"Feature","properties":{"name_en":"Phiengdi","did":902,"pid":9,"uuid":"902108"},"geometry":{"type":"Point","coordinates":[103.65342196979287,19.58712294021765]}},{"type":"Feature","properties":{"name_en":"Dorkkham","did":902,"pid":9,"uuid":"902111"},"geometry":{"type":"Point","coordinates":[103.60210999999967,19.59930589999995]}},{"type":"Feature","properties":{"name_en":"Bouamphieng","did":902,"pid":9,"uuid":"902115"},"geometry":{"type":"Point","coordinates":[103.4572069796071,19.80085510032046]}},{"type":"Feature","properties":{"name_en":"Phouhin","did":902,"pid":9,"uuid":"902116"},"geometry":{"type":"Point","coordinates":[103.78581898986943,19.808406269985976]}},{"type":"Feature","properties":{"name_en":"Thandtho","did":902,"pid":9,"uuid":"902117"},"geometry":{"type":"Point","coordinates":[103.6970742498919,19.96147868001988]}},{"type":"Feature","properties":{"name_en":"Nanglouang","did":902,"pid":9,"uuid":"902118"},"geometry":{"type":"Point","coordinates":[103.41992108973353,19.838348440229108]}},{"type":"Feature","properties":{"name_en":"Houaiphad","did":902,"pid":9,"uuid":"902119"},"geometry":{"type":"Point","coordinates":[103.72584639001275,19.544232660102843]}},{"type":"Feature","properties":{"name_en":"Nongold","did":902,"pid":9,"uuid":"902120"},"geometry":{"type":"Point","coordinates":[103.68132146969705,19.811743939865412]}},{"type":"Feature","properties":{"name_en":"Kangkhae","did":902,"pid":9,"uuid":"902121"},"geometry":{"type":"Point","coordinates":[103.66417746040678,19.60115071966269]}},{"type":"Feature","properties":{"name_en":"Nheo","did":902,"pid":9,"uuid":"902122"},"geometry":{"type":"Point","coordinates":[103.66859623026627,19.593050790241186]}},{"type":"Feature","properties":{"name_en":"Tard","did":902,"pid":9,"uuid":"902123"},"geometry":{"type":"Point","coordinates":[103.59675300009349,19.590526000045102]}},{"type":"Feature","properties":{"name_en":"Phoncheng","did":902,"pid":9,"uuid":"902125"},"geometry":{"type":"Point","coordinates":[103.54964511994481,19.537526459960272]}},{"type":"Feature","properties":{"name_en":"Korkhai","did":902,"pid":9,"uuid":"902127"},"geometry":{"type":"Point","coordinates":[103.61866163028715,19.642749439905565]}},{"type":"Feature","properties":{"name_en":"Longpiew","did":902,"pid":9,"uuid":"902999"},"geometry":{"type":"Point","coordinates":[103.5711955004283,19.661006059881096]}}]}