{"type":"FeatureCollection","features":[{"type":"Feature","properties":{"name_en":"Korsanh","did":903,"pid":9,"uuid":"903001"},"geometry":{"type":"Point","coordinates":[104.05863250990132,19.712686530351064]}},{"type":"Feature","properties":{"name_en":"PhiengHung","did":903,"pid":9,"uuid":"903002"},"geometry":{"type":"Point","coordinates":[104.05264706961967,19.69449386032326]}},{"type":"Feature","properties":{"name_en":"Kocheer","did":903,"pid":9,"uuid":"903003"},"geometry":{"type":"Point","coordinates":[104.10761902979938,19.7056890703938]}},{"type":"Feature","properties":{"name_en":"Phienseun","did":903,"pid":9,"uuid":"903004"},"geometry":{"type":"Point","coordinates":[104.12832651981981,19.726712390290864]}},{"type":"Feature","properties":{"name_en":"Phami","did":903,"pid":9,"uuid":"903005"},"geometry":{"type":"Point","coordinates":[104.1588215601508,19.746069719983904]}},{"type":"Feature","properties":{"name_en":"Sungket","did":903,"pid":9,"uuid":"903006"},"geometry":{"type":"Point","coordinates":[104.09926470021756,19.754842050118008]}},{"type":"Feature","properties":{"name_en":"Sunnkom","did":903,"pid":9,"uuid":"903007"},"geometry":{"type":"Point","coordinates":[104.03085044003848,19.76662609027381]}},{"type":"Feature","properties":{"name_en":"nheer","did":903,"pid":9,"uuid":"903008"},"geometry":{"type":"Point","coordinates":[104.06940869992755,19.765830479901304]}},{"type":"Feature","properties":{"name_en":"Houaikor","did":903,"pid":9,"uuid":"903009"},"geometry":{"type":"Point","coordinates":[103.97500633985693,19.79004638004664]}},{"type":"Feature","properties":{"name_en":"Phacha","did":903,"pid":9,"uuid":"903010"},"geometry":{"type":"Point","coordinates":[104.0068382996488,19.77905250988356]}},{"type":"Feature","properties":{"name_en":"Souangoy","did":903,"pid":9,"uuid":"903011"},"geometry":{"type":"Point","coordinates":[104.05012747025175,19.844675440150137]}},{"type":"Feature","properties":{"name_en":"Houaidanh","did":903,"pid":9,"uuid":"903012"},"geometry":{"type":"Point","coordinates":[104.08865488976495,19.823098319636706]}},{"type":"Feature","properties":{"name_en":"Pho","did":903,"pid":9,"uuid":"903013"},"geometry":{"type":"Point","coordinates":[104.11849119992799,19.78973884996516]}},{"type":"Feature","properties":{"name_en":"Dongkor","did":903,"pid":9,"uuid":"903014"},"geometry":{"type":"Point","coordinates":[104.14389281031657,19.798004330108267]}},{"type":"Feature","properties":{"name_en":"Numkood","did":903,"pid":9,"uuid":"903015"},"geometry":{"type":"Point","coordinates":[104.10243473974788,19.83425145015738]}},{"type":"Feature","properties":{"name_en":"Tinpha","did":903,"pid":9,"uuid":"903016"},"geometry":{"type":"Point","coordinates":[104.18129536998323,19.81308018989691]}},{"type":"Feature","properties":{"name_en":"Bouamphath","did":903,"pid":9,"uuid":"903017"},"geometry":{"type":"Point","coordinates":[104.2040314499919,19.809403210306044]}},{"type":"Feature","properties":{"name_en":"Nong","did":903,"pid":9,"uuid":"903018"},"geometry":{"type":"Point","coordinates":[104.04999747042105,19.80493791991528]}},{"type":"Feature","properties":{"name_en":"Phalao","did":903,"pid":9,"uuid":"903019"},"geometry":{"type":"Point","coordinates":[104.1815904197988,19.840947839642034]}},{"type":"Feature","properties":{"name_en":"Vieng","did":903,"pid":9,"uuid":"903020"},"geometry":{"type":"Point","coordinates":[104.14089502010263,19.84704148029609]}},{"type":"Feature","properties":{"name_en":"Nhordteun","did":903,"pid":9,"uuid":"903021"},"geometry":{"type":"Point","coordinates":[104.10343294017449,19.902400010432313]}},{"type":"Feature","properties":{"name_en":"Phalouag","did":903,"pid":9,"uuid":"903022"},"geometry":{"type":"Point","coordinates":[103.85336086965634,19.48320568955924]}},{"type":"Feature","properties":{"name_en":"Phonghorm","did":903,"pid":9,"uuid":"903023"},"geometry":{"type":"Point","coordinates":[104.21913530965435,19.85040464016094]}},{"type":"Feature","properties":{"name_en":"Sundonhkor","did":903,"pid":9,"uuid":"903024"},"geometry":{"type":"Point","coordinates":[103.95837765029152,19.575330439721792]}},{"type":"Feature","properties":{"name_en":"Sundonhckor","did":903,"pid":9,"uuid":"903025"},"geometry":{"type":"Point","coordinates":[103.96209627973703,19.57805380040346]}},{"type":"Feature","properties":{"name_en":"Phalin","did":903,"pid":9,"uuid":"903026"},"geometry":{"type":"Point","coordinates":[103.88864022016662,19.571147620119415]}},{"type":"Feature","properties":{"name_en":"Nongong","did":903,"pid":9,"uuid":"903027"},"geometry":{"type":"Point","coordinates":[103.96457951037407,19.516701040259033]}},{"type":"Feature","properties":{"name_en":"Tamckoun","did":903,"pid":9,"uuid":"903028"},"geometry":{"type":"Point","coordinates":[103.94406009971839,19.55517547959282]}},{"type":"Feature","properties":{"name_en":"Keopatou","did":903,"pid":9,"uuid":"903029"},"geometry":{"type":"Point","coordinates":[103.94810596005458,19.53627026987721]}},{"type":"Feature","properties":{"name_en":"Nongsamchere","did":903,"pid":9,"uuid":"903030"},"geometry":{"type":"Point","coordinates":[103.9143652804466,19.536831179789985]}},{"type":"Feature","properties":{"name_en":"Tumtoom","did":903,"pid":9,"uuid":"903031"},"geometry":{"type":"Point","coordinates":[103.95518054010292,19.573733519964314]}},{"type":"Feature","properties":{"name_en":"Phahok","did":903,"pid":9,"uuid":"903032"},"geometry":{"type":"Point","coordinates":[103.9660821302539,19.595247850307075]}},{"type":"Feature","properties":{"name_en":"Thumsuea","did":903,"pid":9,"uuid":"903033"},"geometry":{"type":"Point","coordinates":[103.86674459008859,19.531967580176023]}},{"type":"Feature","properties":{"name_en":"Phongsang","did":903,"pid":9,"uuid":"903034"},"geometry":{"type":"Point","coordinates":[103.8216035200653,19.39733753983592]}},{"type":"Feature","properties":{"name_en":"Chameun","did":903,"pid":9,"uuid":"903035"},"geometry":{"type":"Point","coordinates":[103.85980654970237,19.444113669825846]}},{"type":"Feature","properties":{"name_en":"Phonhsay","did":903,"pid":9,"uuid":"903036"},"geometry":{"type":"Point","coordinates":[103.90524761997314,19.441205570398473]}},{"type":"Feature","properties":{"name_en":"Sumyork","did":903,"pid":9,"uuid":"903037"},"geometry":{"type":"Point","coordinates":[103.79184415954474,19.36175819968511]}},{"type":"Feature","properties":{"name_en":"Houaickang","did":903,"pid":9,"uuid":"903038"},"geometry":{"type":"Point","coordinates":[103.78741281001182,19.32489408980705]}},{"type":"Feature","properties":{"name_en":"Nongkill","did":903,"pid":9,"uuid":"903039"},"geometry":{"type":"Point","coordinates":[103.69626892024746,19.37192252015587]}},{"type":"Feature","properties":{"name_en":"Houaithao","did":903,"pid":9,"uuid":"903040"},"geometry":{"type":"Point","coordinates":[103.89684911962517,19.38077741007179]}},{"type":"Feature","properties":{"name_en":"Sunnhom","did":903,"pid":9,"uuid":"903041"},"geometry":{"type":"Point","coordinates":[103.87294879007261,19.38118510992534]}},{"type":"Feature","properties":{"name_en":"Phalunh","did":903,"pid":9,"uuid":"903046"},"geometry":{"type":"Point","coordinates":[103.82180015979337,19.380990820109858]}},{"type":"Feature","properties":{"name_en":"Kabor","did":903,"pid":9,"uuid":"903047"},"geometry":{"type":"Point","coordinates":[103.88883375961989,19.46135247995855]}},{"type":"Feature","properties":{"name_en":"Nhordka","did":903,"pid":9,"uuid":"903048"},"geometry":{"type":"Point","coordinates":[103.81470277966945,19.53564849966897]}},{"type":"Feature","properties":{"name_en":"Phavai","did":903,"pid":9,"uuid":"903050"},"geometry":{"type":"Point","coordinates":[103.8190304402565,19.500306960076998]}},{"type":"Feature","properties":{"name_en":"Houaisouang","did":903,"pid":9,"uuid":"903051"},"geometry":{"type":"Point","coordinates":[103.78560994961988,19.599811209798034]}},{"type":"Feature","properties":{"name_en":"Ckorknou","did":903,"pid":9,"uuid":"903052"},"geometry":{"type":"Point","coordinates":[103.77873704033915,19.495479400104507]}},{"type":"Feature","properties":{"name_en":"Numkonhngoua","did":903,"pid":9,"uuid":"903053"},"geometry":{"type":"Point","coordinates":[103.75074759961355,19.585678479857158]}},{"type":"Feature","properties":{"name_en":"Nummend","did":903,"pid":9,"uuid":"903054"},"geometry":{"type":"Point","coordinates":[103.72725387982742,19.588771830139237]}},{"type":"Feature","properties":{"name_en":"Phangone","did":903,"pid":9,"uuid":"903056"},"geometry":{"type":"Point","coordinates":[103.57972986984242,19.466079709778402]}},{"type":"Feature","properties":{"name_en":"Phaand","did":903,"pid":9,"uuid":"903057"},"geometry":{"type":"Point","coordinates":[103.73911033001234,19.506171690170298]}},{"type":"Feature","properties":{"name_en":"Bouamdow","did":903,"pid":9,"uuid":"903058"},"geometry":{"type":"Point","coordinates":[103.70655435024148,19.464268040436142]}},{"type":"Feature","properties":{"name_en":"Phounong","did":903,"pid":9,"uuid":"903059"},"geometry":{"type":"Point","coordinates":[103.64197564015137,19.501570359946935]}},{"type":"Feature","properties":{"name_en":"Phaor","did":903,"pid":9,"uuid":"903060"},"geometry":{"type":"Point","coordinates":[103.80777303967595,19.438263939985003]}},{"type":"Feature","properties":{"name_en":"Nhordhouai","did":903,"pid":9,"uuid":"903061"},"geometry":{"type":"Point","coordinates":[103.82109405981475,19.5519025997254]}},{"type":"Feature","properties":{"name_en":"Numhoiy","did":903,"pid":9,"uuid":"903063"},"geometry":{"type":"Point","coordinates":[103.96102054955709,19.623397800141504]}},{"type":"Feature","properties":{"name_en":"Phiengmone","did":903,"pid":9,"uuid":"903064"},"geometry":{"type":"Point","coordinates":[104.00365124038818,19.650630689992713]}},{"type":"Feature","properties":{"name_en":"SobTand","did":903,"pid":9,"uuid":"903065"},"geometry":{"type":"Point","coordinates":[104.03031063961308,19.67946384986604]}},{"type":"Feature","properties":{"name_en":"Kordoo","did":903,"pid":9,"uuid":"903066"},"geometry":{"type":"Point","coordinates":[104.05355088994366,19.659095160073576]}},{"type":"Feature","properties":{"name_en":"Houaikong","did":903,"pid":9,"uuid":"903067"},"geometry":{"type":"Point","coordinates":[103.96921143000569,19.657272590075777]}},{"type":"Feature","properties":{"name_en":"Thamsay","did":903,"pid":9,"uuid":"903068"},"geometry":{"type":"Point","coordinates":[103.98598160987638,19.496320099790893]}},{"type":"Feature","properties":{"name_en":"Nonghandnuea","did":903,"pid":9,"uuid":"903069"},"geometry":{"type":"Point","coordinates":[103.98856793009678,19.493751390255156]}},{"type":"Feature","properties":{"name_en":"Nongckill","did":903,"pid":9,"uuid":"903070"},"geometry":{"type":"Point","coordinates":[103.98572244040544,19.49327571025104]}},{"type":"Feature","properties":{"name_en":"Numkouang","did":903,"pid":9,"uuid":"903071"},"geometry":{"type":"Point","coordinates":[103.97730775979761,19.503351930065374]}},{"type":"Feature","properties":{"name_en":"Nongsung","did":903,"pid":9,"uuid":"903072"},"geometry":{"type":"Point","coordinates":[103.95911600975812,19.50744389973373]}},{"type":"Feature","properties":{"name_en":"Phackom","did":903,"pid":9,"uuid":"903073"},"geometry":{"type":"Point","coordinates":[103.92196749964103,19.503279600230197]}},{"type":"Feature","properties":{"name_en":"Nonglere","did":903,"pid":9,"uuid":"903074"},"geometry":{"type":"Point","coordinates":[103.87061979961838,19.512459119788062]}},{"type":"Feature","properties":{"name_en":"Ckungphanieng","did":903,"pid":9,"uuid":"903075"},"geometry":{"type":"Point","coordinates":[103.84811170033976,19.515397399644474]}},{"type":"Feature","properties":{"name_en":"Phuckluck","did":903,"pid":9,"uuid":"903077"},"geometry":{"type":"Point","coordinates":[103.94126105038204,19.509391259943182]}},{"type":"Feature","properties":{"name_en":"Keobone","did":903,"pid":9,"uuid":"903078"},"geometry":{"type":"Point","coordinates":[103.90773654031813,19.715316349692884]}},{"type":"Feature","properties":{"name_en":"Houailom","did":903,"pid":9,"uuid":"903079"},"geometry":{"type":"Point","coordinates":[103.94922939002082,19.737313650194633]}},{"type":"Feature","properties":{"name_en":"Hathbor","did":903,"pid":9,"uuid":"903080"},"geometry":{"type":"Point","coordinates":[103.94320313984802,19.79557249033858]}},{"type":"Feature","properties":{"name_en":"Houaina","did":903,"pid":9,"uuid":"903082"},"geometry":{"type":"Point","coordinates":[103.84781917958144,19.71800794966983]}},{"type":"Feature","properties":{"name_en":"Phuckckeretay","did":903,"pid":9,"uuid":"903083"},"geometry":{"type":"Point","coordinates":[103.81674000020597,19.600702289567977]}},{"type":"Feature","properties":{"name_en":"Phucknuea","did":903,"pid":9,"uuid":"903084"},"geometry":{"type":"Point","coordinates":[103.81928046981247,19.60218630959583]}},{"type":"Feature","properties":{"name_en":"Nongkob","did":903,"pid":9,"uuid":"903085"},"geometry":{"type":"Point","coordinates":[103.82250356012693,19.58338075040758]}},{"type":"Feature","properties":{"name_en":"Phamao","did":903,"pid":9,"uuid":"903086"},"geometry":{"type":"Point","coordinates":[103.81403214015833,19.604505920355322]}},{"type":"Feature","properties":{"name_en":"Nhordckor","did":903,"pid":9,"uuid":"903087"},"geometry":{"type":"Point","coordinates":[103.83692404046639,19.60349932992953]}},{"type":"Feature","properties":{"name_en":"Nhordsao","did":903,"pid":9,"uuid":"903088"},"geometry":{"type":"Point","coordinates":[103.87198806022258,19.628227120039377]}},{"type":"Feature","properties":{"name_en":"Korhard","did":903,"pid":9,"uuid":"903089"},"geometry":{"type":"Point","coordinates":[103.87098121997195,19.631197670279292]}},{"type":"Feature","properties":{"name_en":"Keokong","did":903,"pid":9,"uuid":"903090"},"geometry":{"type":"Point","coordinates":[103.90006734970592,19.616498989687077]}},{"type":"Feature","properties":{"name_en":"Thamhip","did":903,"pid":9,"uuid":"903091"},"geometry":{"type":"Point","coordinates":[103.89625493024087,19.645047420181907]}},{"type":"Feature","properties":{"name_en":"Pouhouasung","did":903,"pid":9,"uuid":"903092"},"geometry":{"type":"Point","coordinates":[103.88063299017145,19.616669899628224]}},{"type":"Feature","properties":{"name_en":"Phaphong","did":903,"pid":9,"uuid":"903093"},"geometry":{"type":"Point","coordinates":[103.90761056037269,19.614944229938455]}},{"type":"Feature","properties":{"name_en":"Phapher","did":903,"pid":9,"uuid":"903094"},"geometry":{"type":"Point","coordinates":[103.93101877984503,19.621759899943594]}},{"type":"Feature","properties":{"name_en":"Vungckam","did":903,"pid":9,"uuid":"903095"},"geometry":{"type":"Point","coordinates":[103.89687392964677,19.666109379852028]}},{"type":"Feature","properties":{"name_en":"Korthong","did":903,"pid":9,"uuid":"903096"},"geometry":{"type":"Point","coordinates":[103.82735525957406,19.60751300960683]}},{"type":"Feature","properties":{"name_en":"Kormone","did":903,"pid":9,"uuid":"903097"},"geometry":{"type":"Point","coordinates":[103.86403900040004,19.620414179899775]}},{"type":"Feature","properties":{"name_en":"Nonghaddtay","did":903,"pid":9,"uuid":"903098"},"geometry":{"type":"Point","coordinates":[103.99533682018402,19.486936309746078]}},{"type":"Feature","properties":{"name_en":"Houaikyling","did":903,"pid":9,"uuid":"903099"},"geometry":{"type":"Point","coordinates":[104.00502788975193,19.491633109987646]}},{"type":"Feature","properties":{"name_en":"Phaka","did":903,"pid":9,"uuid":"903101"},"geometry":{"type":"Point","coordinates":[104.03032498047195,19.493432709894865]}},{"type":"Feature","properties":{"name_en":"Dindam","did":903,"pid":9,"uuid":"903103"},"geometry":{"type":"Point","coordinates":[104.07731979009937,19.47949964041001]}},{"type":"Feature","properties":{"name_en":"Thamphong","did":903,"pid":9,"uuid":"903104"},"geometry":{"type":"Point","coordinates":[104.06620975030641,19.50932764004928]}},{"type":"Feature","properties":{"name_en":"Houaickung","did":903,"pid":9,"uuid":"903105"},"geometry":{"type":"Point","coordinates":[104.06874132971738,19.58278354005719]}},{"type":"Feature","properties":{"name_en":"Borkser","did":903,"pid":9,"uuid":"903108"},"geometry":{"type":"Point","coordinates":[104.04456305959795,19.54723505024625]}},{"type":"Feature","properties":{"name_en":"Houailom","did":903,"pid":9,"uuid":"903109"},"geometry":{"type":"Point","coordinates":[104.05277875018471,19.565419930445422]}},{"type":"Feature","properties":{"name_en":"Sunnhom","did":903,"pid":9,"uuid":"903110"},"geometry":{"type":"Point","coordinates":[104.0583434099438,19.59676632034156]}},{"type":"Feature","properties":{"name_en":"Soomphay","did":903,"pid":9,"uuid":"903111"},"geometry":{"type":"Point","coordinates":[104.01730443984401,19.623060260442834]}},{"type":"Feature","properties":{"name_en":"Phavand","did":903,"pid":9,"uuid":"903112"},"geometry":{"type":"Point","coordinates":[104.01765823976112,19.463457009632865]}},{"type":"Feature","properties":{"name_en":"Namueang","did":903,"pid":9,"uuid":"903113"},"geometry":{"type":"Point","coordinates":[104.00598331113143,19.417222714810187]}},{"type":"Feature","properties":{"name_en":"Kangladd","did":903,"pid":9,"uuid":"903114"},"geometry":{"type":"Point","coordinates":[103.96720932953055,19.447165689709518]}},{"type":"Feature","properties":{"name_en":"Houaiduea","did":903,"pid":9,"uuid":"903115"},"geometry":{"type":"Point","coordinates":[103.937576699739,19.462707330147317]}},{"type":"Feature","properties":{"name_en":"Longkaung","did":903,"pid":9,"uuid":"903116"},"geometry":{"type":"Point","coordinates":[104.05830024992552,19.46509692979318]}},{"type":"Feature","properties":{"name_en":"Hohailand","did":903,"pid":9,"uuid":"903117"},"geometry":{"type":"Point","coordinates":[103.90889089969615,19.725610750037262]}},{"type":"Feature","properties":{"name_en":"Songhong","did":903,"pid":9,"uuid":"903118"},"geometry":{"type":"Point","coordinates":[103.90993720992292,19.746736419733]}},{"type":"Feature","properties":{"name_en":"Samchere","did":903,"pid":9,"uuid":"903119"},"geometry":{"type":"Point","coordinates":[103.91585357012652,19.379982719964552]}}]}