{"type":"FeatureCollection","features":[{"type":"Feature","properties":{"name_en":"Siphom","did":904,"pid":9,"uuid":"904001"},"geometry":{"type":"Point","coordinates":[103.36549001958754,19.332837289983303]}},{"type":"Feature","properties":{"name_en":"Pheervat","did":904,"pid":9,"uuid":"904002"},"geometry":{"type":"Point","coordinates":[103.36828580022826,19.331893059740377]}},{"type":"Feature","properties":{"name_en":"Nasay","did":904,"pid":9,"uuid":"904003"},"geometry":{"type":"Point","coordinates":[103.37066140037354,19.34177825973288]}},{"type":"Feature","properties":{"name_en":"Houychae","did":904,"pid":9,"uuid":"904004"},"geometry":{"type":"Point","coordinates":[103.37605299999187,19.3601040001009]}},{"type":"Feature","properties":{"name_en":"Nasy","did":904,"pid":9,"uuid":"904005"},"geometry":{"type":"Point","coordinates":[103.36729455990913,19.32605918042652]}},{"type":"Feature","properties":{"name_en":"Phonhnhang","did":904,"pid":9,"uuid":"904006"},"geometry":{"type":"Point","coordinates":[103.3708168804685,19.322447500116006]}},{"type":"Feature","properties":{"name_en":"Nahor","did":904,"pid":9,"uuid":"904007"},"geometry":{"type":"Point","coordinates":[103.36502298017638,19.29303557003309]}},{"type":"Feature","properties":{"name_en":"Sung","did":904,"pid":9,"uuid":"904009"},"geometry":{"type":"Point","coordinates":[103.37686007003983,19.345454480348973]}},{"type":"Feature","properties":{"name_en":"Naou","did":904,"pid":9,"uuid":"904010"},"geometry":{"type":"Point","coordinates":[103.33038978988746,19.35173050977565]}},{"type":"Feature","properties":{"name_en":"Phosy","did":904,"pid":9,"uuid":"904012"},"geometry":{"type":"Point","coordinates":[103.39165103000674,19.32557420008909]}},{"type":"Feature","properties":{"name_en":"Thoom","did":904,"pid":9,"uuid":"904014"},"geometry":{"type":"Point","coordinates":[103.4053995297785,19.316664740126953]}},{"type":"Feature","properties":{"name_en":"Phay","did":904,"pid":9,"uuid":"904015"},"geometry":{"type":"Point","coordinates":[103.40260643032533,19.32783077036614]}},{"type":"Feature","properties":{"name_en":"Napho","did":904,"pid":9,"uuid":"904016"},"geometry":{"type":"Point","coordinates":[103.3707980302901,19.322443810054832]}},{"type":"Feature","properties":{"name_en":"Sunsing","did":904,"pid":9,"uuid":"904017"},"geometry":{"type":"Point","coordinates":[103.43786105030306,19.332712900140965]}},{"type":"Feature","properties":{"name_en":"Sumnhong","did":904,"pid":9,"uuid":"904018"},"geometry":{"type":"Point","coordinates":[103.46058387968618,19.327638159961975]}},{"type":"Feature","properties":{"name_en":"Phouymamueang","did":904,"pid":9,"uuid":"904019"},"geometry":{"type":"Point","coordinates":[103.46055646952937,19.327633629759053]}},{"type":"Feature","properties":{"name_en":"Nathong","did":904,"pid":9,"uuid":"904020"},"geometry":{"type":"Point","coordinates":[103.47799887961779,19.315507529575452]}},{"type":"Feature","properties":{"name_en":"Nalam","did":904,"pid":9,"uuid":"904021"},"geometry":{"type":"Point","coordinates":[103.5183888402412,19.307746229995008]}},{"type":"Feature","properties":{"name_en":"Kanghong","did":904,"pid":9,"uuid":"904022"},"geometry":{"type":"Point","coordinates":[103.37407534999123,19.43290430034183]}},{"type":"Feature","properties":{"name_en":"Thalin","did":904,"pid":9,"uuid":"904023"},"geometry":{"type":"Point","coordinates":[103.45323856958562,19.429741140141342]}},{"type":"Feature","properties":{"name_en":"Houaihok","did":904,"pid":9,"uuid":"904024"},"geometry":{"type":"Point","coordinates":[103.39508283000121,19.471789709958763]}},{"type":"Feature","properties":{"name_en":"Sunnoy","did":904,"pid":9,"uuid":"904025"},"geometry":{"type":"Point","coordinates":[103.59526681978197,19.338623559676495]}},{"type":"Feature","properties":{"name_en":"Thandthong","did":904,"pid":9,"uuid":"904026"},"geometry":{"type":"Point","coordinates":[103.56483949996121,19.341368049939003]}},{"type":"Feature","properties":{"name_en":"Kalp","did":904,"pid":9,"uuid":"904027"},"geometry":{"type":"Point","coordinates":[103.66063358975819,19.33185735969751]}},{"type":"Feature","properties":{"name_en":"Thandphoun","did":904,"pid":9,"uuid":"904028"},"geometry":{"type":"Point","coordinates":[103.6966473604454,19.328215919653793]}},{"type":"Feature","properties":{"name_en":"Keoleuk","did":904,"pid":9,"uuid":"904029"},"geometry":{"type":"Point","coordinates":[103.5806675500793,19.362237649583477]}},{"type":"Feature","properties":{"name_en":"Phackao","did":904,"pid":9,"uuid":"904031"},"geometry":{"type":"Point","coordinates":[103.65923935026238,19.360474429861316]}},{"type":"Feature","properties":{"name_en":"Houai","did":904,"pid":9,"uuid":"904032"},"geometry":{"type":"Point","coordinates":[103.63460854045022,19.369686230343316]}},{"type":"Feature","properties":{"name_en":"Phaueang","did":904,"pid":9,"uuid":"904033"},"geometry":{"type":"Point","coordinates":[103.44578421041652,19.406324109922142]}},{"type":"Feature","properties":{"name_en":"Phacka","did":904,"pid":9,"uuid":"904034"},"geometry":{"type":"Point","coordinates":[103.55107079955478,19.424685010432587]}},{"type":"Feature","properties":{"name_en":"Namueang","did":904,"pid":9,"uuid":"904035"},"geometry":{"type":"Point","coordinates":[103.59213659980642,19.250955560265698]}},{"type":"Feature","properties":{"name_en":"Siviengkam","did":904,"pid":9,"uuid":"904036"},"geometry":{"type":"Point","coordinates":[103.63525839014589,19.258331049911764]}},{"type":"Feature","properties":{"name_en":"Sybounhueang","did":904,"pid":9,"uuid":"904037"},"geometry":{"type":"Point","coordinates":[103.59107964020295,19.270255480125464]}},{"type":"Feature","properties":{"name_en":"Aom","did":904,"pid":9,"uuid":"904038"},"geometry":{"type":"Point","coordinates":[103.55314868040078,19.294282040047744]}},{"type":"Feature","properties":{"name_en":"Phoukapha","did":904,"pid":9,"uuid":"904039"},"geometry":{"type":"Point","coordinates":[103.35782720031905,19.17817473975755]}},{"type":"Feature","properties":{"name_en":"Keokaung","did":904,"pid":9,"uuid":"904040"},"geometry":{"type":"Point","coordinates":[103.37087296036634,19.248845420412945]}},{"type":"Feature","properties":{"name_en":"Sunlouang","did":904,"pid":9,"uuid":"904041"},"geometry":{"type":"Point","coordinates":[103.37262829967538,19.23190232031409]}},{"type":"Feature","properties":{"name_en":"Nong","did":904,"pid":9,"uuid":"904042"},"geometry":{"type":"Point","coordinates":[103.41738146007873,19.239643100180984]}},{"type":"Feature","properties":{"name_en":"Phapherng","did":904,"pid":9,"uuid":"904043"},"geometry":{"type":"Point","coordinates":[103.36695333031032,19.23145129003008]}},{"type":"Feature","properties":{"name_en":"Tunhmuean","did":904,"pid":9,"uuid":"904044"},"geometry":{"type":"Point","coordinates":[103.49613078036843,19.243474630424405]}},{"type":"Feature","properties":{"name_en":"Tunhtay","did":904,"pid":9,"uuid":"904045"},"geometry":{"type":"Point","coordinates":[103.51633351024645,19.233516009887712]}},{"type":"Feature","properties":{"name_en":"Phieng","did":904,"pid":9,"uuid":"904046"},"geometry":{"type":"Point","coordinates":[103.54005974969907,19.235409900305406]}},{"type":"Feature","properties":{"name_en":"phuckhing","did":904,"pid":9,"uuid":"904047"},"geometry":{"type":"Point","coordinates":[103.53261225978984,19.188814559655658]}},{"type":"Feature","properties":{"name_en":"Phong","did":904,"pid":9,"uuid":"904048"},"geometry":{"type":"Point","coordinates":[103.57567219026508,19.1369771901705]}},{"type":"Feature","properties":{"name_en":"Tham","did":904,"pid":9,"uuid":"904049"},"geometry":{"type":"Point","coordinates":[103.2640157595396,19.39343836041326]}},{"type":"Feature","properties":{"name_en":"Phonexai","did":904,"pid":9,"uuid":"904050"},"geometry":{"type":"Point","coordinates":[103.24300500015184,19.375044000438503]}},{"type":"Feature","properties":{"name_en":"Dongdan","did":904,"pid":9,"uuid":"904051"},"geometry":{"type":"Point","coordinates":[103.2274755303892,19.377877359632038]}},{"type":"Feature","properties":{"name_en":"Nhoun","did":904,"pid":9,"uuid":"904052"},"geometry":{"type":"Point","coordinates":[103.27900076046033,19.367622600449458]}},{"type":"Feature","properties":{"name_en":"Nongphue","did":904,"pid":9,"uuid":"904053"},"geometry":{"type":"Point","coordinates":[103.30744969995249,19.35942502038053]}},{"type":"Feature","properties":{"name_en":"Koua","did":904,"pid":9,"uuid":"904054"},"geometry":{"type":"Point","coordinates":[103.30962430033964,19.357434399749543]}},{"type":"Feature","properties":{"name_en":"Nongnum","did":904,"pid":9,"uuid":"904055"},"geometry":{"type":"Point","coordinates":[103.31915771019497,19.352327889665975]}},{"type":"Feature","properties":{"name_en":"Bouanuea","did":904,"pid":9,"uuid":"904057"},"geometry":{"type":"Point","coordinates":[103.21844570045326,19.362123489934934]}},{"type":"Feature","properties":{"name_en":"Nachan","did":904,"pid":9,"uuid":"904058"},"geometry":{"type":"Point","coordinates":[103.21936800033573,19.34377199987806]}},{"type":"Feature","properties":{"name_en":"Bouatay","did":904,"pid":9,"uuid":"904059"},"geometry":{"type":"Point","coordinates":[103.21522847977027,19.3425452097557]}},{"type":"Feature","properties":{"name_en":"Ckex","did":904,"pid":9,"uuid":"904060"},"geometry":{"type":"Point","coordinates":[103.58924013998897,19.22328967007259]}},{"type":"Feature","properties":{"name_en":"Nasom","did":904,"pid":9,"uuid":"904061"},"geometry":{"type":"Point","coordinates":[103.61118899997373,19.216856979583845]}},{"type":"Feature","properties":{"name_en":"Nabong","did":904,"pid":9,"uuid":"904062"},"geometry":{"type":"Point","coordinates":[103.62034311999822,19.259989489708897]}},{"type":"Feature","properties":{"name_en":"Dorkmay","did":904,"pid":9,"uuid":"904064"},"geometry":{"type":"Point","coordinates":[103.66727607980899,19.234549749773127]}},{"type":"Feature","properties":{"name_en":"Nonglouang","did":904,"pid":9,"uuid":"904065"},"geometry":{"type":"Point","coordinates":[103.56278324984412,19.290483780280734]}},{"type":"Feature","properties":{"name_en":"Nator","did":904,"pid":9,"uuid":"904067"},"geometry":{"type":"Point","coordinates":[103.29383974975248,19.38161946033586]}},{"type":"Feature","properties":{"name_en":"Thong","did":904,"pid":9,"uuid":"904069"},"geometry":{"type":"Point","coordinates":[103.23896923561296,19.369693740697787]}},{"type":"Feature","properties":{"name_en":"Numphanh","did":904,"pid":9,"uuid":"904070"},"geometry":{"type":"Point","coordinates":[103.42952624978396,19.417143050302023]}},{"type":"Feature","properties":{"name_en":"Naphasard","did":904,"pid":9,"uuid":"904071"},"geometry":{"type":"Point","coordinates":[103.59240658024265,19.23840240998765]}},{"type":"Feature","properties":{"name_en":"Phern","did":904,"pid":9,"uuid":"904072"},"geometry":{"type":"Point","coordinates":[103.71145080969997,19.15285694976365]}},{"type":"Feature","properties":{"name_en":"Nnahone","did":904,"pid":9,"uuid":"904073"},"geometry":{"type":"Point","coordinates":[103.70541684006055,19.156431840284167]}},{"type":"Feature","properties":{"name_en":"Nameang","did":904,"pid":9,"uuid":"904074"},"geometry":{"type":"Point","coordinates":[103.7036399597297,19.165280440228127]}},{"type":"Feature","properties":{"name_en":"Pouvieng","did":904,"pid":9,"uuid":"904075"},"geometry":{"type":"Point","coordinates":[103.69481550041455,19.15787771024198]}},{"type":"Feature","properties":{"name_en":"Sisiengmay","did":904,"pid":9,"uuid":"904076"},"geometry":{"type":"Point","coordinates":[103.7007057096829,19.151311410319135]}},{"type":"Feature","properties":{"name_en":"Nady","did":904,"pid":9,"uuid":"904080"},"geometry":{"type":"Point","coordinates":[103.70359343995334,19.165298970212895]}},{"type":"Feature","properties":{"name_en":"Yiemg","did":904,"pid":9,"uuid":"904082"},"geometry":{"type":"Point","coordinates":[103.68536816957753,19.179258190081086]}},{"type":"Feature","properties":{"name_en":"Hinngon","did":904,"pid":9,"uuid":"904083"},"geometry":{"type":"Point","coordinates":[103.68041722961833,19.186175350130675]}},{"type":"Feature","properties":{"name_en":"Yieng","did":904,"pid":9,"uuid":"904085"},"geometry":{"type":"Point","coordinates":[103.69121320981894,19.185629020009024]}},{"type":"Feature","properties":{"name_en":"Sumkaung","did":904,"pid":9,"uuid":"904086"},"geometry":{"type":"Point","coordinates":[103.71143060969473,19.152845470060385]}},{"type":"Feature","properties":{"name_en":"Thamhoualao","did":904,"pid":9,"uuid":"904087"},"geometry":{"type":"Point","coordinates":[103.63863117961587,19.094188240334717]}},{"type":"Feature","properties":{"name_en":"Hoy","did":904,"pid":9,"uuid":"904088"},"geometry":{"type":"Point","coordinates":[103.25285869974363,19.384871640211912]}},{"type":"Feature","properties":{"name_en":"Phuksouy","did":904,"pid":9,"uuid":"904089"},"geometry":{"type":"Point","coordinates":[103.42337359990684,19.37847113025249]}},{"type":"Feature","properties":{"name_en":"Phucksoua","did":904,"pid":9,"uuid":"904090"},"geometry":{"type":"Point","coordinates":[103.5394069598226,19.340834880189597]}}]}