{"type":"FeatureCollection","features":[{"type":"Feature","properties":{"name_en":"Thamnong","did":905,"pid":9,"uuid":"905003"},"geometry":{"type":"Point","coordinates":[103.9917684,19.17172179999998]}},{"type":"Feature","properties":{"name_en":"Sumthong  thumtath","did":905,"pid":9,"uuid":"905004"},"geometry":{"type":"Point","coordinates":[103.96793227019424,19.11529621958612]}},{"type":"Feature","properties":{"name_en":"Samchere","did":905,"pid":9,"uuid":"905006"},"geometry":{"type":"Point","coordinates":[103.91132046954971,19.212602990329795]}},{"type":"Feature","properties":{"name_en":"Phacka","did":905,"pid":9,"uuid":"905007"},"geometry":{"type":"Point","coordinates":[103.90135497963487,19.238831639981576]}},{"type":"Feature","properties":{"name_en":"Mor","did":905,"pid":9,"uuid":"905009"},"geometry":{"type":"Point","coordinates":[103.9054996604525,19.1622346296665]}},{"type":"Feature","properties":{"name_en":"Numchaotay","did":905,"pid":9,"uuid":"905011"},"geometry":{"type":"Point","coordinates":[103.92833834005815,19.155907800023577]}},{"type":"Feature","properties":{"name_en":"Phoulin+phoumone","did":905,"pid":9,"uuid":"905012"},"geometry":{"type":"Point","coordinates":[103.90117787036209,19.23755021968107]}},{"type":"Feature","properties":{"name_en":"Thongper","did":905,"pid":9,"uuid":"905017"},"geometry":{"type":"Point","coordinates":[104.04435000028525,18.94301699996084]}},{"type":"Feature","properties":{"name_en":"Namueang","did":905,"pid":9,"uuid":"905018"},"geometry":{"type":"Point","coordinates":[104.00271876047431,18.91167145961759]}},{"type":"Feature","properties":{"name_en":"Chalernmai","did":905,"pid":9,"uuid":"905019"},"geometry":{"type":"Point","coordinates":[104.15710000021618,18.86843299984534]}},{"type":"Feature","properties":{"name_en":"Ckungvieng","did":905,"pid":9,"uuid":"905021"},"geometry":{"type":"Point","coordinates":[103.99296935005266,18.92875486975926]}},{"type":"Feature","properties":{"name_en":"Numyend","did":905,"pid":9,"uuid":"905022"},"geometry":{"type":"Point","coordinates":[103.98578299964649,18.935866999889072]}},{"type":"Feature","properties":{"name_en":"Numsoy","did":905,"pid":9,"uuid":"905023"},"geometry":{"type":"Point","coordinates":[103.97433100960421,18.999540710410294]}},{"type":"Feature","properties":{"name_en":"Phadang","did":905,"pid":9,"uuid":"905024"},"geometry":{"type":"Point","coordinates":[103.93430188963605,19.080924470353153]}},{"type":"Feature","properties":{"name_en":"Ckungvieng","did":905,"pid":9,"uuid":"905025"},"geometry":{"type":"Point","coordinates":[103.89183992957672,19.182209959972013]}},{"type":"Feature","properties":{"name_en":"Nackonetay","did":905,"pid":9,"uuid":"905026"},"geometry":{"type":"Point","coordinates":[103.95884879997172,19.07173497001476]}},{"type":"Feature","properties":{"name_en":"Namone","did":905,"pid":9,"uuid":"905027"},"geometry":{"type":"Point","coordinates":[103.92489379025362,19.12709719011681]}},{"type":"Feature","properties":{"name_en":"Siengmend","did":905,"pid":9,"uuid":"905028"},"geometry":{"type":"Point","coordinates":[103.9448670002287,19.096000000142933]}},{"type":"Feature","properties":{"name_en":"York  -moon","did":905,"pid":9,"uuid":"905029"},"geometry":{"type":"Point","coordinates":[103.85706994962064,19.2155099202591]}},{"type":"Feature","properties":{"name_en":"Numngath","did":905,"pid":9,"uuid":"905031"},"geometry":{"type":"Point","coordinates":[104.05634373996122,19.102883959615962]}},{"type":"Feature","properties":{"name_en":"Namsong","did":905,"pid":9,"uuid":"905032"},"geometry":{"type":"Point","coordinates":[103.97093986022362,19.05618116976063]}},{"type":"Feature","properties":{"name_en":"Numyiemg","did":905,"pid":9,"uuid":"905033"},"geometry":{"type":"Point","coordinates":[103.98438299974299,19.039850000229933]}},{"type":"Feature","properties":{"name_en":"Nummong","did":905,"pid":9,"uuid":"905034"},"geometry":{"type":"Point","coordinates":[103.90044160011738,19.05020630034006]}},{"type":"Feature","properties":{"name_en":"Namthieng","did":905,"pid":9,"uuid":"905035"},"geometry":{"type":"Point","coordinates":[103.95995219020682,19.142458030103075]}},{"type":"Feature","properties":{"name_en":"Numkeng","did":905,"pid":9,"uuid":"905036"},"geometry":{"type":"Point","coordinates":[103.81490998020685,19.15331000032585]}},{"type":"Feature","properties":{"name_en":"Numlieng Numchath","did":905,"pid":9,"uuid":"905038"},"geometry":{"type":"Point","coordinates":[103.91762425003579,19.064722579610766]}},{"type":"Feature","properties":{"name_en":"Siengmend","did":905,"pid":9,"uuid":"905039"},"geometry":{"type":"Point","coordinates":[103.95339418969645,19.0864580302874]}},{"type":"Feature","properties":{"name_en":"Namtark","did":905,"pid":9,"uuid":"905040"},"geometry":{"type":"Point","coordinates":[104.13268299980341,18.850832999879188]}}]}