{"type":"FeatureCollection","features":[{"type":"Feature","properties":{"name_en":"Longkao","did":906,"pid":9,"uuid":"906001"},"geometry":{"type":"Point","coordinates":[103.27281643020625,19.867951650117647]}},{"type":"Feature","properties":{"name_en":"Longckanh","did":906,"pid":9,"uuid":"906002"},"geometry":{"type":"Point","coordinates":[103.15778399984694,19.849546999888965]}},{"type":"Feature","properties":{"name_en":"Mouangckam","did":906,"pid":9,"uuid":"906003"},"geometry":{"type":"Point","coordinates":[103.26022999027819,19.827929990258703]}},{"type":"Feature","properties":{"name_en":"Nhordphere","did":906,"pid":9,"uuid":"906004"},"geometry":{"type":"Point","coordinates":[103.24885994019365,19.735529979935222]}},{"type":"Feature","properties":{"name_en":"Lerethong","did":906,"pid":9,"uuid":"906005"},"geometry":{"type":"Point","coordinates":[103.22016993988788,19.702269919655862]}},{"type":"Feature","properties":{"name_en":"Yai","did":906,"pid":9,"uuid":"906006"},"geometry":{"type":"Point","coordinates":[103.19513998979575,19.710029970392764]}},{"type":"Feature","properties":{"name_en":"Choiy","did":906,"pid":9,"uuid":"906007"},"geometry":{"type":"Point","coordinates":[103.19789997983725,19.65962992001851]}},{"type":"Feature","properties":{"name_en":"Misay","did":906,"pid":9,"uuid":"906008"},"geometry":{"type":"Point","coordinates":[103.16328992968134,19.690739939910763]}},{"type":"Feature","properties":{"name_en":"Bong","did":906,"pid":9,"uuid":"906009"},"geometry":{"type":"Point","coordinates":[103.13729999994311,19.69145994983778]}},{"type":"Feature","properties":{"name_en":"Vungtong","did":906,"pid":9,"uuid":"906010"},"geometry":{"type":"Point","coordinates":[102.99067997047979,19.82597993955482]}},{"type":"Feature","properties":{"name_en":"Longhung","did":906,"pid":9,"uuid":"906011"},"geometry":{"type":"Point","coordinates":[103.05771099953411,19.762003999690656]}},{"type":"Feature","properties":{"name_en":"Miang","did":906,"pid":9,"uuid":"906012"},"geometry":{"type":"Point","coordinates":[103.03113991982663,19.70736000035563]}},{"type":"Feature","properties":{"name_en":"Bongmuck","did":906,"pid":9,"uuid":"906013"},"geometry":{"type":"Point","coordinates":[103.14146998990054,19.65712993039722]}},{"type":"Feature","properties":{"name_en":"Hangouam","did":906,"pid":9,"uuid":"906014"},"geometry":{"type":"Point","coordinates":[103.15191995984063,19.597199999843607]}},{"type":"Feature","properties":{"name_en":"Nasaithong","did":906,"pid":9,"uuid":"906015"},"geometry":{"type":"Point","coordinates":[103.11460992954716,19.61207996979039]}},{"type":"Feature","properties":{"name_en":"Phouvieng","did":906,"pid":9,"uuid":"906016"},"geometry":{"type":"Point","coordinates":[103.08557996977211,19.568369940188006]}},{"type":"Feature","properties":{"name_en":"Sai","did":906,"pid":9,"uuid":"906017"},"geometry":{"type":"Point","coordinates":[103.0081699900308,19.52095996955604]}},{"type":"Feature","properties":{"name_en":"aung","did":906,"pid":9,"uuid":"906018"},"geometry":{"type":"Point","coordinates":[102.979409920088,19.589979990103036]}},{"type":"Feature","properties":{"name_en":"Song","did":906,"pid":9,"uuid":"906019"},"geometry":{"type":"Point","coordinates":[102.98790800040588,19.559641000005474]}},{"type":"Feature","properties":{"name_en":"Nongkung","did":906,"pid":9,"uuid":"906020"},"geometry":{"type":"Point","coordinates":[102.94498997034343,19.551540000436187]}},{"type":"Feature","properties":{"name_en":"Sucksord","did":906,"pid":9,"uuid":"906021"},"geometry":{"type":"Point","coordinates":[102.90256998989034,19.56452994042492]}},{"type":"Feature","properties":{"name_en":"Nackouan","did":906,"pid":9,"uuid":"906022"},"geometry":{"type":"Point","coordinates":[102.90621998018304,19.54481997982987]}},{"type":"Feature","properties":{"name_en":"Nongtung","did":906,"pid":9,"uuid":"906023"},"geometry":{"type":"Point","coordinates":[102.89114998980787,19.51867991996648]}},{"type":"Feature","properties":{"name_en":"Su","did":906,"pid":9,"uuid":"906024"},"geometry":{"type":"Point","coordinates":[102.88046992985261,19.528189940043728]}},{"type":"Feature","properties":{"name_en":"Phungpha","did":906,"pid":9,"uuid":"906025"},"geometry":{"type":"Point","coordinates":[102.79867998981709,19.51319999991164]}},{"type":"Feature","properties":{"name_en":"Numchust","did":906,"pid":9,"uuid":"906026"},"geometry":{"type":"Point","coordinates":[102.72146991993121,19.486069960096604]}},{"type":"Feature","properties":{"name_en":"Numsam","did":906,"pid":9,"uuid":"906027"},"geometry":{"type":"Point","coordinates":[102.76564573977869,19.44524480972269]}},{"type":"Feature","properties":{"name_en":"Siengdaad","did":906,"pid":9,"uuid":"906028"},"geometry":{"type":"Point","coordinates":[102.71096999989086,19.424909980362234]}},{"type":"Feature","properties":{"name_en":"Phand","did":906,"pid":9,"uuid":"906029"},"geometry":{"type":"Point","coordinates":[103.05936396977383,19.610322789838555]}},{"type":"Feature","properties":{"name_en":"Keuk","did":906,"pid":9,"uuid":"906030"},"geometry":{"type":"Point","coordinates":[103.0943599296992,19.66771997008251]}},{"type":"Feature","properties":{"name_en":"Houadtunh","did":906,"pid":9,"uuid":"906031"},"geometry":{"type":"Point","coordinates":[103.14163998041174,19.578189919945725]}},{"type":"Feature","properties":{"name_en":"Phienglouang","did":906,"pid":9,"uuid":"906032"},"geometry":{"type":"Point","coordinates":[103.07786694006916,19.530190699763438]}},{"type":"Feature","properties":{"name_en":"Langchong","did":906,"pid":9,"uuid":"906033"},"geometry":{"type":"Point","coordinates":[103.0089299795659,19.79876993033903]}},{"type":"Feature","properties":{"name_en":"Phoua","did":906,"pid":9,"uuid":"906034"},"geometry":{"type":"Point","coordinates":[103.00965996038866,19.56618996980314]}},{"type":"Feature","properties":{"name_en":"Dook","did":906,"pid":9,"uuid":"906035"},"geometry":{"type":"Point","coordinates":[102.95764998975383,19.504629919832592]}},{"type":"Feature","properties":{"name_en":"Mang","did":906,"pid":9,"uuid":"906036"},"geometry":{"type":"Point","coordinates":[102.9033999702754,19.515119960219238]}},{"type":"Feature","properties":{"name_en":"Chormsy","did":906,"pid":9,"uuid":"906037"},"geometry":{"type":"Point","coordinates":[102.83728996969425,19.535219929757936]}},{"type":"Feature","properties":{"name_en":"Naka","did":906,"pid":9,"uuid":"906038"},"geometry":{"type":"Point","coordinates":[103.1771299595299,19.793099990327814]}},{"type":"Feature","properties":{"name_en":"Phouseo","did":906,"pid":9,"uuid":"906039"},"geometry":{"type":"Point","coordinates":[102.97002998042383,19.640029930254425]}},{"type":"Feature","properties":{"name_en":"Siengnha","did":906,"pid":9,"uuid":"906040"},"geometry":{"type":"Point","coordinates":[102.86711998996111,19.493339919636878]}},{"type":"Feature","properties":{"name_en":"Somboun","did":906,"pid":9,"uuid":"906041"},"geometry":{"type":"Point","coordinates":[102.68499993009978,19.46833000006686]}},{"type":"Feature","properties":{"name_en":"sayoudom","did":906,"pid":9,"uuid":"906042"},"geometry":{"type":"Point","coordinates":[102.67392995031999,19.46936994003621]}},{"type":"Feature","properties":{"name_en":"Piengdee","did":906,"pid":9,"uuid":"906043"},"geometry":{"type":"Point","coordinates":[103.23179999990633,19.885794999901858]}},{"type":"Feature","properties":{"name_en":"Sopkhao","did":906,"pid":9,"uuid":"906044"},"geometry":{"type":"Point","coordinates":[103.19079400009251,19.865608000238815]}}]}