{"type":"FeatureCollection","features":[{"type":"Feature","properties":{"name_en":"Napheer","did":907,"pid":9,"uuid":"907001"},"geometry":{"type":"Point","coordinates":[103.09884071978831,19.28121314024065]}},{"type":"Feature","properties":{"name_en":"Horsay","did":907,"pid":9,"uuid":"907002"},"geometry":{"type":"Point","coordinates":[103.13112765014621,19.28555982985657]}},{"type":"Feature","properties":{"name_en":"Phonh","did":907,"pid":9,"uuid":"907004"},"geometry":{"type":"Point","coordinates":[103.11152640039043,19.26562113011957]}},{"type":"Feature","properties":{"name_en":"Nhoua","did":907,"pid":9,"uuid":"907005"},"geometry":{"type":"Point","coordinates":[103.14931452994499,19.329923739609434]}},{"type":"Feature","properties":{"name_en":"Phatai","did":907,"pid":9,"uuid":"907006"},"geometry":{"type":"Point","coordinates":[103.25509557986231,19.17309808026858]}},{"type":"Feature","properties":{"name_en":"Nakue","did":907,"pid":9,"uuid":"907010"},"geometry":{"type":"Point","coordinates":[103.22783359997062,19.194615679584494]}},{"type":"Feature","properties":{"name_en":"Tao","did":907,"pid":9,"uuid":"907012"},"geometry":{"type":"Point","coordinates":[103.17718016957973,19.344850229927328]}},{"type":"Feature","properties":{"name_en":"Korsim","did":907,"pid":9,"uuid":"907013"},"geometry":{"type":"Point","coordinates":[103.17340855978637,19.221879499909146]}},{"type":"Feature","properties":{"name_en":"Numka","did":907,"pid":9,"uuid":"907014"},"geometry":{"type":"Point","coordinates":[103.05738525000226,19.28387918016542]}},{"type":"Feature","properties":{"name_en":"Phanuea","did":907,"pid":9,"uuid":"907015"},"geometry":{"type":"Point","coordinates":[103.24988178001662,19.17916708030263]}},{"type":"Feature","properties":{"name_en":"Sorm","did":907,"pid":9,"uuid":"907016"},"geometry":{"type":"Point","coordinates":[103.18414703990845,19.218367230437188]}},{"type":"Feature","properties":{"name_en":"Soua","did":907,"pid":9,"uuid":"907019"},"geometry":{"type":"Point","coordinates":[103.09132861005,19.297739490429933]}},{"type":"Feature","properties":{"name_en":"Thang","did":907,"pid":9,"uuid":"907020"},"geometry":{"type":"Point","coordinates":[103.08201288046452,19.295988010415446]}},{"type":"Feature","properties":{"name_en":"Horkang","did":907,"pid":9,"uuid":"907021"},"geometry":{"type":"Point","coordinates":[103.17038394980072,19.313695529901857]}},{"type":"Feature","properties":{"name_en":"Nako","did":907,"pid":9,"uuid":"907022"},"geometry":{"type":"Point","coordinates":[103.17043399047098,19.31370157041618]}},{"type":"Feature","properties":{"name_en":"Nasom","did":907,"pid":9,"uuid":"907024"},"geometry":{"type":"Point","coordinates":[103.10513134017293,19.343873489865405]}},{"type":"Feature","properties":{"name_en":"Nong","did":907,"pid":9,"uuid":"907026"},"geometry":{"type":"Point","coordinates":[103.19636844011919,19.21395742031684]}},{"type":"Feature","properties":{"name_en":"Siengdi","did":907,"pid":9,"uuid":"907028"},"geometry":{"type":"Point","coordinates":[103.14543429976116,19.296530570240492]}},{"type":"Feature","properties":{"name_en":"Thoom","did":907,"pid":9,"uuid":"907030"},"geometry":{"type":"Point","coordinates":[103.21298799025624,19.210891830053225]}},{"type":"Feature","properties":{"name_en":"Navanh","did":907,"pid":9,"uuid":"907031"},"geometry":{"type":"Point","coordinates":[103.10673202994501,19.303556279764905]}},{"type":"Feature","properties":{"name_en":"Hai","did":907,"pid":9,"uuid":"907033"},"geometry":{"type":"Point","coordinates":[103.1276492396728,19.270185579822467]}},{"type":"Feature","properties":{"name_en":"Phosi","did":907,"pid":9,"uuid":"907034"},"geometry":{"type":"Point","coordinates":[103.17740228991052,19.34480983032006]}},{"type":"Feature","properties":{"name_en":"Lathsand","did":907,"pid":9,"uuid":"907040"},"geometry":{"type":"Point","coordinates":[103.11687530966225,19.296467290190172]}},{"type":"Feature","properties":{"name_en":"Chanam","did":907,"pid":9,"uuid":"907041"},"geometry":{"type":"Point","coordinates":[103.22902182020754,19.125552069871524]}},{"type":"Feature","properties":{"name_en":"Phong","did":907,"pid":9,"uuid":"907042"},"geometry":{"type":"Point","coordinates":[103.27710528037343,19.256772179726784]}},{"type":"Feature","properties":{"name_en":"Namoon","did":907,"pid":9,"uuid":"907046"},"geometry":{"type":"Point","coordinates":[103.13345680961072,19.292427959839245]}},{"type":"Feature","properties":{"name_en":"Nahong","did":907,"pid":9,"uuid":"907048"},"geometry":{"type":"Point","coordinates":[103.11688947000857,19.296463009828674]}},{"type":"Feature","properties":{"name_en":"Nasay","did":907,"pid":9,"uuid":"907049"},"geometry":{"type":"Point","coordinates":[103.17673626047859,19.170189389625428]}},{"type":"Feature","properties":{"name_en":"Namsiem","did":907,"pid":9,"uuid":"907051"},"geometry":{"type":"Point","coordinates":[103.07231534982883,19.212244410127525]}},{"type":"Feature","properties":{"name_en":"Tumtamlueng","did":907,"pid":9,"uuid":"907052"},"geometry":{"type":"Point","coordinates":[102.97275233983365,19.203677940426886]}},{"type":"Feature","properties":{"name_en":"Namsear","did":907,"pid":9,"uuid":"907053"},"geometry":{"type":"Point","coordinates":[103.1068280100441,19.15374777955436]}},{"type":"Feature","properties":{"name_en":"Napan","did":907,"pid":9,"uuid":"907054"},"geometry":{"type":"Point","coordinates":[103.21498540026018,19.12075421605882]}}]}