{"type":"FeatureCollection","features":[{"type":"Feature","properties":{"id":4,"name_lo":"ສະໜາມບິນສາກົນວັດໄຕ","name_en":"WATTAY INTERNATIONAL AIRPORT","type":"airport","crossing_type":"airport","is_open":true,"visa":true,"e_visa":true,"province_en":"Vientiane capital"},"geometry":{"type":"Point","coordinates":[102.56863829999999,17.9751001]}},{"type":"Feature","properties":{"id":10,"name_lo":"ສະໜາມບິນສາກົນຫຼວງພະບາງ","name_en":"LUANGPRABANG INTERNATIONAL AIRPORT","type":"airport","crossing_type":"airport","is_open":true,"visa":true,"e_visa":true,"province_en":"Luang Prabang Province"},"geometry":{"type":"Point","coordinates":[102.16410239666575,19.901193096993428]}},{"type":"Feature","properties":{"id":11,"name_lo":"ສະໜາມບິນສາກົນສະຫວັນນະເຂດ","name_en":"SAVANNAKHET INTERNATIONAL AIRPORT","type":"airport","crossing_type":"airport","is_open":false,"visa":false,"e_visa":false,"province_en":"Savannakhet Province"},"geometry":{"type":"Point","coordinates":[104.76045977600076,16.556801684195577]}},{"type":"Feature","properties":{"id":12,"name_lo":"ສະໜາມບິນສາກົນປາກເຊ","name_en":"PAKSE INTERNATIONAL AIRPORT","type":"airport","crossing_type":"airport","is_open":true,"visa":true,"e_visa":true,"province_en":"Champasak Province"},"geometry":{"type":"Point","coordinates":[105.77768281602441,15.131960459497346]}},{"type":"Feature","properties":{"id":13,"name_lo":"ດ່ານສາກົນຂົວມິດຕະພາບ ລາວ-ໄທ ແຫ່ງທີ 1","name_en":"FRIENDSHIP BRIDGE 1","type":"thailand","crossing_type":"friendship_bridge","is_open":true,"visa":true,"e_visa":true,"province_en":"Vientiane capital"},"geometry":{"type":"Point","coordinates":[102.70830159562797,17.88683320180205]}},{"type":"Feature","properties":{"id":14,"name_lo":"ດ່ານສາກົນຂົວມິດຕະພາບ ລາວ-ໄທ ແຫ່ງທີ 2","name_en":"FRIENDSHIP BRIDGE 2","type":"thailand","crossing_type":"friendship_bridge","is_open":false,"visa":true,"e_visa":true,"province_en":"Savannakhet Province"},"geometry":{"type":"Point","coordinates":[104.75626041141906,16.599579861341304]}},{"type":"Feature","properties":{"id":15,"name_lo":"ດ່ານສາກົນຂົວມິດຕະພາບ ລາວ-ໄທ ແຫ່ງທີ 3","name_en":"FRIENDSHIP BRIDGE 3","type":"thailand","crossing_type":"friendship_bridge","is_open":false,"visa":true,"e_visa":false,"province_en":"Khammouane Province"},"geometry":{"type":"Point","coordinates":[104.73847414838195,17.488315214746763]}},{"type":"Feature","properties":{"id":16,"name_lo":"ດ່ານສາກົນຂົວມິດຕະພາບ ລາວ-ໄທ ແຫ່ງທີ 4","name_en":"FRIENDSHIP BRIDGE 4","type":"thailand","crossing_type":"friendship_bridge","is_open":false,"visa":true,"e_visa":true,"province_en":"Bokeo Province"},"geometry":{"type":"Point","coordinates":[100.45925507523472,20.21682898123702]}},{"type":"Feature","properties":{"id":17,"name_lo":"ດ່ານສາກົນທາງລົດໄຟ ລາວ-ຈີນ","name_en":"LAO CHINA RAILWAY","type":"china","crossing_type":"railway","is_open":false,"visa":false,"e_visa":true,"province_en":"Luang Namtha Province"},"geometry":{"type":"Point","coordinates":[101.67262895957654,21.15467477180446]}},{"type":"Feature","properties":{"id":18,"name_lo":"ດ່ານສາກົນປາງຮົກ","name_en":"PANGHOK","type":"vietnam","crossing_type":"land","is_open":false,"visa":false,"e_visa":false,"province_en":"Phongsaly Province"},"geometry":{"type":"Point","coordinates":[102.8901681,21.2177237]}},{"type":"Feature","properties":{"id":19,"name_lo":"ດ່ານສາກົນລານຕຸຍ","name_en":"LANETOUI","type":"china","crossing_type":"land","is_open":false,"visa":false,"e_visa":false,"province_en":"Phongsaly Province"},"geometry":{"type":"Point","coordinates":[101.71257477529774,22.479055279558445]}},{"type":"Feature","properties":{"id":20,"name_lo":"ດ່ານສາກົນບໍ່ເຕ່ນ","name_en":"BOTEN","type":"china","crossing_type":"land","is_open":false,"visa":true,"e_visa":true,"province_en":"Luang Namtha Province"},"geometry":{"type":"Point","coordinates":[101.67331118878431,21.187329245564726]}},{"type":"Feature","properties":{"id":21,"name_lo":"ດ່ານສາກົນສາມຫຼ່ຽມຄຳ","name_en":"Golden Triangle International Border Immigration Check Point","type":"thailand","crossing_type":"ferry","is_open":false,"visa":true,"e_visa":false,"province_en":"Bokeo Province"},"geometry":{"type":"Point","coordinates":[100.08650183554509,20.35469243743051]}},{"type":"Feature","properties":{"id":22,"name_lo":"ດ່ານສາກົນເມືອງມອມ","name_en":"MEUANGMOM","type":"myanmar","crossing_type":"ferry","is_open":false,"visa":false,"e_visa":false,"province_en":"Bokeo Province"},"geometry":{"type":"Point","coordinates":[100.12149136820508,20.435203431375314]}},{"type":"Feature","properties":{"id":23,"name_lo":"ດ່ານສາກົນນ້ຳໂສຍ","name_en":"NAMSOY","type":"vietnam","crossing_type":"land","is_open":false,"visa":false,"e_visa":false,"province_en":"Houaphanh Province"},"geometry":{"type":"Point","coordinates":[104.61917240045723,20.296637644737523]}},{"type":"Feature","properties":{"id":24,"name_lo":"ດ່ານສາກົນນ້ຳເຫືອງ","name_en":"NAMHEUANG FRIENDSHIP BRIDGE INTERNATIONAL CHECKPOINT","type":"thailand","crossing_type":"friendship_bridge","is_open":false,"visa":true,"e_visa":false,"province_en":"Xayabuli Province"},"geometry":{"type":"Point","coordinates":[101.39640488397276,17.695148161805204]}},{"type":"Feature","properties":{"id":25,"name_lo":"ດ່ານສາກົນນ້ຳເງິນ","name_en":"NAMNGEUN INTERNATIONAL CHECKPOINT","type":"thailand","crossing_type":"land","is_open":false,"visa":false,"e_visa":false,"province_en":"Xayabuli Province"},"geometry":{"type":"Point","coordinates":[101.09436056677264,19.600565408851]}},{"type":"Feature","properties":{"id":26,"name_lo":"ດ່ານສາກົນພູດູ່","name_en":"PHOUDOU INTERNATIONAL BORDER CHECKPOINT","type":"thailand","crossing_type":"land","is_open":false,"visa":false,"e_visa":false,"province_en":"Xayabuli Province"},"geometry":{"type":"Point","coordinates":[101.1773730602831,18.109036942175074]}},{"type":"Feature","properties":{"id":27,"name_lo":"ດ່ານສາກົນປາງມອນ","name_en":"PANGMON INTERNATIONAL BODER CHECKPOINT","type":"thailand","crossing_type":"land","is_open":false,"visa":false,"e_visa":false,"province_en":"Xayabuli Province"},"geometry":{"type":"Point","coordinates":[100.43597615444807,19.675612890828177]}},{"type":"Feature","properties":{"id":28,"name_lo":"ດ່ານສາກົນນ້ຳກັ່ນ","name_en":"NAMKAN INTERNATIONAL CHECKPOINT","type":"vietnam","crossing_type":"land","is_open":false,"visa":false,"e_visa":false,"province_en":"Xiangkhouang Province"},"geometry":{"type":"Point","coordinates":[104.08232739689812,19.47128085695927]}},{"type":"Feature","properties":{"id":29,"name_lo":"ດ່ານສາກົນນ້ຳພາວ","name_en":"NAMPHAO INTERNATIONAL CHECKPOINT","type":"vietnam","crossing_type":"land","is_open":false,"visa":false,"e_visa":false,"province_en":"Borikhamxay Province"},"geometry":{"type":"Point","coordinates":[105.15856971949178,18.38389602231294]}},{"type":"Feature","properties":{"id":30,"name_lo":"ດ່ານສາກົນຂົວມິດຕະພາບລາວ-ໄທ 5","name_en":"The Fifth Lao-Thai Friendship Bridge","type":"thailand","crossing_type":"friendship_bridge","is_open":false,"visa":false,"e_visa":false,"province_en":"Borikhamxay Province"},"geometry":{"type":"Point","coordinates":[103.57124370264134,18.427978361333853]}},{"type":"Feature","properties":{"id":31,"name_lo":"ດ່ານສາກົນນາເພົ້າ","name_en":"NAPHAO INTERNATIONAL BORDER CHECKPOINT","type":"vietnam","crossing_type":"land","is_open":false,"visa":false,"e_visa":false,"province_en":"Khammouane Province"},"geometry":{"type":"Point","coordinates":[105.75160898788702,17.663264011974015]}},{"type":"Feature","properties":{"id":32,"name_lo":"ດ່ານສາກົນແດນສະຫວັນ","name_en":"DANSAVAN INTERNATIONAL BORDER GATE","type":"vietnam","crossing_type":"land","is_open":false,"visa":true,"e_visa":false,"province_en":"Savannakhet Province"},"geometry":{"type":"Point","coordinates":[106.58598911098953,16.622606881197875]}},{"type":"Feature","properties":{"id":33,"name_lo":"ດ່ານສາກົນວັງເຕົ່າ","name_en":"VANGTAO INTERNATIONAL BORDER CHECKPOINT","type":"thailand","crossing_type":"land","is_open":false,"visa":true,"e_visa":false,"province_en":"Champasak Province"},"geometry":{"type":"Point","coordinates":[105.46609457597701,15.131966685419757]}},{"type":"Feature","properties":{"id":34,"name_lo":"ດ່ານສາກົນໜອງນົກຂຽນ","name_en":"NONGNOKKHEANE INTERNATIONAL BORDER CHECKPOINT","type":"cambodia","crossing_type":"land","is_open":false,"visa":true,"e_visa":false,"province_en":"Champasak Province"},"geometry":{"type":"Point","coordinates":[106.026489,13.9257369]}},{"type":"Feature","properties":{"id":35,"name_lo":"ດ່ານສາກົນດາກຕະອອກ","name_en":"DAK TA OCK INTERNATIONAL BORDER CHECKPOINT","type":"vietnam","crossing_type":"land","is_open":false,"visa":false,"e_visa":false,"province_en":"Sekong Province"},"geometry":{"type":"Point","coordinates":[107.3645997539891,15.541372142315323]}},{"type":"Feature","properties":{"id":36,"name_lo":"ດ່ານສາກົນລະໄລ","name_en":"LA LAI INTERNATIONAL CHECKPOINT","type":"vietnam","crossing_type":"land","is_open":false,"visa":false,"e_visa":false,"province_en":"Salavan Province"},"geometry":{"type":"Point","coordinates":[106.94205736211545,16.30110125804104]}},{"type":"Feature","properties":{"id":37,"name_lo":"ດ່ານສາກົນພູເກືອ","name_en":"PHOUKEUA INTERNATIONAL BORDER CHECK POINT","type":"vietnam","crossing_type":"land","is_open":false,"visa":false,"e_visa":false,"province_en":"Attapeu Province"},"geometry":{"type":"Point","coordinates":[107.55006567510829,14.70717768579188]}},{"type":"Feature","properties":{"id":38,"name_lo":"ດ່ານສາກົນບ້ານວັງ","name_en":"BANVANG INTERNATIONAL BORDER CHECKPOINT","type":"thailand","crossing_type":"ferry","is_open":false,"visa":false,"e_visa":false,"province_en":"Vientiane Province"},"geometry":{"type":"Point","coordinates":[101.85689223737195,18.045738097264863]}},{"type":"Feature","properties":{"id":39,"name_lo":"ດ່ານສາກົນປາກຕະພານ","name_en":"PAKTAPHAN INTERNATIONAL BORDER CHECKPOINT","type":"thailand","crossing_type":"ferry","is_open":false,"visa":false,"e_visa":false,"province_en":"Salavan Province"},"geometry":{"type":"Point","coordinates":[105.3484115600586,15.929789543151855]}},{"type":"Feature","properties":{"id":40,"name_lo":"ດ່ານສາກົນປ່າຮ່າງ","name_en":"PAHANG INTERNATIONAL BORDER CHECKPOINT","type":"vietnam","crossing_type":"land","is_open":false,"visa":false,"e_visa":false,"province_en":"Houaphanh Province"},"geometry":{"type":"Point","coordinates":[104.48549977608221,20.726519180848374]}},{"type":"Feature","properties":{"id":41,"name_lo":"ສະຖານີລົດໄຟຄຳສະຫວາດ","name_en":"KHAMSAVATH STATION","type":"thailand","crossing_type":"railway","is_open":false,"visa":true,"e_visa":true,"province_en":"Vientiane capital"},"geometry":{"type":"Point","coordinates":[102.67231214780504,17.955661921280623]}}]}