{"type":"FeatureCollection","features":[{"type":"Feature","properties":{"name":"Hongsa","mw":1878,"fuel":"Coal","year":"2016.0"},"geometry":{"type":"Point","coordinates":[101.28,19.691]}},{"type":"Feature","properties":{"name":"Houay Ho","mw":157,"fuel":"Hydro","year":"1999.0"},"geometry":{"type":"Point","coordinates":[104.5625,18.2606]}},{"type":"Feature","properties":{"name":"Nam Leuk","mw":60,"fuel":"Hydro","year":"2000.0"},"geometry":{"type":"Point","coordinates":[102.3251,18.3149]}},{"type":"Feature","properties":{"name":"Nam Lik 1-2","mw":100,"fuel":"Hydro","year":"2010.0"},"geometry":{"type":"Point","coordinates":[102.1162,18.7942]}},{"type":"Feature","properties":{"name":"Nam Long","mw":5,"fuel":"Hydro","year":""},"geometry":{"type":"Point","coordinates":[100.8979,20.9239]}},{"type":"Feature","properties":{"name":"Nam Nga","mw":14.5,"fuel":"Hydro","year":""},"geometry":{"type":"Point","coordinates":[101.9338,20.1828]}},{"type":"Feature","properties":{"name":"Nam Ngiep 3A","mw":44,"fuel":"Hydro","year":""},"geometry":{"type":"Point","coordinates":[103.3417,19.2885]}},{"type":"Feature","properties":{"name":"Nam Ngum 1","mw":155,"fuel":"Hydro","year":"1990.0"},"geometry":{"type":"Point","coordinates":[106.2788,15.4919]}},{"type":"Feature","properties":{"name":"Nam Ngum 2","mw":735,"fuel":"Hydro","year":"2011.0"},"geometry":{"type":"Point","coordinates":[102.6107,19.3394]}},{"type":"Feature","properties":{"name":"Nam Pha Gnai","mw":19.2,"fuel":"Hydro","year":""},"geometry":{"type":"Point","coordinates":[102.8733,19.0133]}},{"type":"Feature","properties":{"name":"Nam Samoy","mw":5,"fuel":"Hydro","year":""},"geometry":{"type":"Point","coordinates":[102.3441,19.2954]}},{"type":"Feature","properties":{"name":"Nam Sana","mw":14,"fuel":"Hydro","year":""},"geometry":{"type":"Point","coordinates":[102.3109,19.2047]}},{"type":"Feature","properties":{"name":"Nam Sim","mw":9.36,"fuel":"Hydro","year":""},"geometry":{"type":"Point","coordinates":[104.3813,20.3457]}},{"type":"Feature","properties":{"name":"Nam Theun 2","mw":1070,"fuel":"Hydro","year":"2010.0"},"geometry":{"type":"Point","coordinates":[102.947,18.4375]}},{"type":"Feature","properties":{"name":"Nan Mang 3","mw":40,"fuel":"Hydro","year":"2011.0"},"geometry":{"type":"Point","coordinates":[102.4033,18.2997]}},{"type":"Feature","properties":{"name":"Theun Hinboun","mw":280,"fuel":"Hydro","year":"2012.0"},"geometry":{"type":"Point","coordinates":[104.5389,18.2098]}},{"type":"Feature","properties":{"name":"Xe Namnoy 2 - Xe Katam !","mw":15,"fuel":"Hydro","year":""},"geometry":{"type":"Point","coordinates":[106.6067,15.1217]}},{"type":"Feature","properties":{"name":"Xekaman 3","mw":250,"fuel":"Hydro","year":"2012.0"},"geometry":{"type":"Point","coordinates":[107.4064,15.3755]}},{"type":"Feature","properties":{"name":"Xenamnoy 1","mw":14.8,"fuel":"Hydro","year":""},"geometry":{"type":"Point","coordinates":[106.7103,15.15]}},{"type":"Feature","properties":{"name":"Xeset 1","mw":121,"fuel":"Hydro","year":"1990.0"},"geometry":{"type":"Point","coordinates":[106.2764,15.5034]}}]}