{"type":"FeatureCollection","features":[{"type":"Feature","properties":{"name":"","rank":9},"geometry":{"type":"LineString","coordinates":[[102.7656,14.0875],[102.8665,14.0621],[102.8945,14.0446],[102.9375,13.9978],[102.956,13.9706],[102.9709,13.942]]}},{"type":"Feature","properties":{"name":"","rank":9},"geometry":{"type":"LineString","coordinates":[[102.9709,13.942],[102.9784,13.9224],[102.9877,13.8777],[102.9877,13.8574],[102.9833,13.8382],[102.9589,13.7748],[102.9545,13.7287],[102.9561,13.6987],[102.9622,13.674],[102.9863,13.6265],[103.0054,13.6027],[103.0216,13.5955],[103.0391,13.5925],[103.0605,13.5808],[103.0789,13.5736],[103.0981,13.574],[103.1169,13.5719],[103.1343,13.5572],[103.1685,13.4962],[103.186,13.4798],[103.2007,13.4734],[103.2402,13.462],[103.2507,13.4569],[103.2579,13.4405],[103.2634,13.3972],[103.2721,13.3743],[103.2783,13.3616],[103.2798,13.3567],[103.2821,13.3544],[103.2913,13.35],[103.2959,13.35],[103.2996,13.3532],[103.303,13.3568],[103.3064,13.358],[103.3131,13.3553],[103.3251,13.3483],[103.3694,13.329],[103.387,13.3175],[103.3953,13.3046],[103.3889,13.2907],[103.3767,13.2772],[103.3732,13.2626],[103.3928,13.2454],[103.4096,13.2408],[103.4218,13.245],[103.4336,13.2522],[103.4496,13.2567],[103.4639,13.2551],[103.5095,13.2426],[103.5282,13.242],[103.5395,13.2446],[103.563,13.262],[103.5769,13.2659]]}},{"type":"Feature","properties":{"name":"Ngun","rank":8},"geometry":{"type":"LineString","coordinates":[[102.7807,18.7149],[102.7744,18.6975],[102.7459,18.6739],[102.7334,18.6668],[102.7135,18.6503],[102.7002,18.6307],[102.6887,18.6119],[102.6746,18.5924],[102.6428,18.5747],[102.6052,18.5666],[102.5881,18.5622],[102.5768,18.5552],[102.5671,18.5504]]}},{"type":"Feature","properties":{"name":"Ngun","rank":8},"geometry":{"type":"LineString","coordinates":[[103.205,19.6839],[103.1746,19.6494],[103.1577,19.6389],[103.0969,19.6202],[103.08,19.6113],[103.0681,19.5966],[103.064,19.5781],[103.0625,19.5384],[103.0556,19.5198],[103.0505,19.5153],[103.0368,19.5074],[103.0313,19.5034],[102.9724,19.4243],[102.9599,19.4141],[102.9537,19.4105],[102.9479,19.4078]]}},{"type":"Feature","properties":{"name":"Ngun","rank":8},"geometry":{"type":"LineString","coordinates":[[102.5671,18.5504],[102.5443,18.5261],[102.5265,18.5187],[102.5134,18.5106],[102.5137,18.4845],[102.5333,18.4078],[102.5336,18.397],[102.5302,18.3758],[102.5315,18.3675],[102.5374,18.3696],[102.5492,18.3719],[102.5591,18.3683],[102.559,18.3526],[102.5524,18.3454],[102.5322,18.3392],[102.5261,18.3355],[102.5205,18.3243],[102.5217,18.3225],[102.5282,18.3216],[102.5381,18.3138],[102.5542,18.3067],[102.5582,18.3006],[102.5491,18.2901],[102.5383,18.2884],[102.5241,18.2904],[102.5116,18.29],[102.5059,18.2817],[102.5107,18.277],[102.522,18.275],[102.5332,18.2706],[102.538,18.2589],[102.5376,18.2417],[102.5391,18.2374],[102.5422,18.2385],[102.569,18.234],[102.5771,18.2303],[102.5785,18.2251],[102.5759,18.2081],[102.5781,18.2022],[102.5829,18.2008],[102.5862,18.2028],[102.5886,18.2053],[102.5911,18.206],[102.6279,18.1965],[102.6372,18.1895],[102.6311,18.1735],[102.6232,18.1708],[102.6143,18.1728],[102.6066,18.17],[102.6034,18.153],[102.6054,18.1356],[102.6104,18.1343],[102.6179,18.1402],[102.6261,18.1441],[102.6573,18.1497],[102.6686,18.1497],[102.6997,18.1393],[102.7109,18.1397],[102.7169,18.1441],[102.7217,18.1516],[102.7275,18.1589],[102.7376,18.1626],[102.7523,18.1577],[102.7727,18.132],[102.7856,18.1254],[102.7966,18.1279],[102.8013,18.1347],[102.8044,18.1428],[102.8106,18.1487],[102.8208,18.152],[102.8484,18.1573],[102.8502,18.1646],[102.8523,18.17],[102.8559,18.1737],[102.8615,18.1746],[102.874,18.1732],[102.8794,18.1745],[102.8868,18.1809],[102.8927,18.1879],[102.8991,18.1939],[102.9089,18.1969],[102.9299,18.1922],[102.9731,18.1715],[102.9946,18.1733],[102.9947,18.1792],[102.989,18.1881],[102.9868,18.1956],[102.9973,18.1978],[103.0109,18.1939],[103.0132,18.1869],[103.01,18.1779],[103.0079,18.168],[103.0054,18.161],[103.0005,18.1549],[102.9968,18.1477],[102.9981,18.1367],[103.0049,18.1254],[103.0139,18.1201],[103.0244,18.1204],[103.0355,18.1262],[103.0474,18.144],[103.0566,18.1636],[103.0683,18.1679],[103.0868,18.1397]]}},{"type":"Feature","properties":{"name":"Ngun","rank":8},"geometry":{"type":"LineString","coordinates":[[102.9479,19.4078],[102.9309,19.4045],[102.9141,19.4074],[102.8965,19.4152],[102.8774,19.4263],[102.8497,19.437],[102.8196,19.4382],[102.7901,19.4309],[102.7643,19.416],[102.7494,19.3902],[102.7429,19.352],[102.7459,19.3144],[102.7589,19.2906],[102.7936,19.2763],[102.8092,19.267],[102.8186,19.251],[102.818,19.2404],[102.8077,19.2181],[102.8048,19.207],[102.8057,19.1978],[102.8149,19.1683],[102.8336,19.1376],[102.8599,19.1076],[102.88,19.0748],[102.8818,19.0357],[102.8748,19.0175],[102.8653,19.0055],[102.8526,18.9969],[102.8137,18.9782],[102.7996,18.9688],[102.7893,18.9561],[102.7792,18.9357],[102.7733,18.9188],[102.771,18.877],[102.762,18.8426],[102.7643,18.821],[102.7666,18.8173],[102.7764,18.805],[102.7794,18.7998],[102.781,18.7134]]}},{"type":"Feature","properties":{"name":"Mun","rank":8},"geometry":{"type":"LineString","coordinates":[[102.0024,14.277],[102.0676,14.3558],[102.0681,14.3671],[102.0648,14.3844],[102.0647,14.4003],[102.0745,14.4073],[102.0863,14.413],[102.0937,14.4266],[102.0974,14.4426],[102.0986,14.4558],[102.1085,14.4509],[102.1123,14.4483],[102.1381,14.4716],[102.1614,14.5034],[102.1774,14.542],[102.1806,14.5855]]}},{"type":"Feature","properties":{"name":"Mun","rank":8},"geometry":{"type":"LineString","coordinates":[[102.1806,14.5855],[102.176,14.6029],[102.1628,14.6291],[102.1602,14.6507],[102.1655,14.6624],[102.1915,14.6887],[102.2011,14.7028],[102.2087,14.7368],[102.2085,14.8387],[102.2131,14.8786],[102.2185,14.8989],[102.2252,14.9076],[102.2432,14.913],[102.2485,14.9271],[102.2495,14.9691],[102.2559,14.9908],[102.2655,15.0096],[102.2773,15.0253],[102.342,15.0841],[102.352,15.0994],[102.3662,15.0926],[102.3582,15.1131],[102.3701,15.1297],[102.3723,15.1336],[102.3738,15.1431],[102.372,15.1611],[102.3723,15.1745],[102.3759,15.1892],[102.3824,15.2004],[102.3907,15.2088],[102.4338,15.2372],[102.4465,15.2375],[102.4736,15.2347],[102.489,15.2372],[102.5024,15.2418],[102.5095,15.2453],[102.5579,15.2857],[102.5859,15.3192]]}},{"type":"Feature","properties":{"name":"Mun","rank":8},"geometry":{"type":"LineString","coordinates":[[102.5859,15.3192],[102.5897,15.3144],[102.5938,15.3116],[102.5969,15.3133],[102.6005,15.332],[102.6059,15.3321],[102.6127,15.33],[102.6194,15.3328],[102.625,15.3425],[102.634,15.3644],[102.6399,15.3738],[102.6404,15.3674],[102.6418,15.366],[102.646,15.3663],[102.6523,15.3723],[102.6601,15.3743],[102.6677,15.3724],[102.6739,15.3663],[102.6995,15.3858],[102.7134,15.3925],[102.7293,15.3942],[102.7378,15.3916],[102.7481,15.3825],[102.7528,15.3806],[102.7636,15.3838],[102.7712,15.3897],[102.7773,15.3926],[102.7838,15.3868],[102.8002,15.39],[102.8206,15.3874],[102.838,15.389],[102.8453,15.4045],[102.853,15.4048],[102.8993,15.3738],[102.9067,15.376],[102.9512,15.3806],[102.9533,15.3876],[102.9751,15.429],[102.98,15.4296],[102.9814,15.428],[102.9833,15.4271],[102.9893,15.4215],[102.9955,15.4215],[103.0015,15.4305],[103.0303,15.4488],[103.0371,15.4414],[103.0518,15.4555],[103.0576,15.4632],[103.059,15.4539],[103.0617,15.4465],[103.066,15.4403],[103.0713,15.4352],[103.0771,15.4377],[103.079,15.4374],[103.0805,15.436],[103.085,15.4352],[103.1054,15.4488],[103.1,15.4378],[103.1024,15.4289],[103.1099,15.4215],[103.119,15.4147],[103.1298,15.4191],[103.1333,15.4215],[103.1333,15.4147],[103.1401,15.4147],[103.1401,15.4215],[103.147,15.4215],[103.1497,15.4062],[103.1631,15.3809],[103.1675,15.3663],[103.1909,15.3712],[103.2036,15.3581],[103.2119,15.344],[103.2227,15.3458],[103.2289,15.3458],[103.2329,15.3331],[103.252,15.3234],[103.2568,15.3116],[103.2696,15.3218],[103.2791,15.3207],[103.2866,15.3151],[103.294,15.3116],[103.3036,15.315],[103.3154,15.3295],[103.3217,15.3328],[103.3323,15.3359],[103.3538,15.3496],[103.3667,15.3527],[103.3736,15.3495],[103.3821,15.3438],[103.3914,15.3406],[103.4009,15.3458],[103.407,15.3458],[103.4067,15.3413],[103.4084,15.3403],[103.4112,15.3405],[103.4146,15.3396],[103.4031,15.3302],[103.4124,15.3218],[103.4292,15.3223],[103.4412,15.3396],[103.4343,15.3396],[103.4343,15.3458],[103.4539,15.3396],[103.4685,15.3328],[103.469,15.3311],[103.476,15.3192],[103.4816,15.3151],[103.4865,15.3141],[103.4912,15.3138],[103.4965,15.3116],[103.4985,15.3082],[103.4976,15.3045],[103.4977,15.301],[103.5026,15.298],[103.5089,15.2971],[103.5201,15.2981],[103.5237,15.298],[103.5409,15.2934],[103.5486,15.2901],[103.5579,15.2844],[103.5712,15.2946],[103.6086,15.3083],[103.6262,15.3192],[103.637,15.3316],[103.6608,15.3738],[103.6709,15.3564],[103.6738,15.34],[103.6797,15.3343],[103.6984,15.3492],[103.7081,15.3611],[103.7109,15.3659],[103.7161,15.3667],[103.7477,15.3649],[103.7533,15.3687],[103.7564,15.3806],[103.7749,15.3785],[103.7866,15.3925],[103.7954,15.4073],[103.8117,15.4079],[103.8168,15.4151],[103.8174,15.4356],[103.8266,15.4539],[103.8457,15.463],[103.8738,15.4632],[103.8785,15.4645],[103.8824,15.4682],[103.8871,15.4709],[103.8942,15.4694],[103.8958,15.4659],[103.8974,15.4534],[103.9004,15.4488],[103.9094,15.4432],[103.916,15.4405],[103.9252,15.44],[103.9421,15.4414],[103.9355,15.4265],[103.9451,15.4217],[103.9617,15.4236],[103.9762,15.429],[103.9771,15.4164],[103.9857,15.4102],[103.9998,15.4082],[104.0341,15.409],[104.0496,15.4075],[104.0608,15.4021],[104.0649,15.3905],[104.068,15.3758],[104.0763,15.3638],[104.0883,15.3557],[104.1174,15.3494],[104.1284,15.3435],[104.1377,15.3404],[104.1476,15.3458],[104.1538,15.3458],[104.1648,15.3276],[104.2012,15.3032],[104.209,15.2881],[104.2138,15.2813],[104.2245,15.2769],[104.2359,15.2737],[104.2431,15.2707],[104.2475,15.2613],[104.2505,15.2388],[104.2574,15.2298],[104.2637,15.2298],[104.2773,15.2469],[104.3023,15.2363],[104.3529,15.2018],[104.3591,15.201],[104.3772,15.2018],[104.3865,15.1966],[104.3845,15.1851],[104.3806,15.1735],[104.384,15.1683],[104.4492,15.1435],[104.4607,15.1373],[104.4863,15.1417],[104.5249,15.1541],[104.5351,15.1536],[104.5615,15.148],[104.6759,15.1456],[104.6943,15.1422],[104.7092,15.1336],[104.7209,15.1399],[104.7295,15.1477],[104.7349,15.1579],[104.7365,15.1715],[104.7229,15.1721],[104.7117,15.1749],[104.7024,15.182]]}},{"type":"Feature","properties":{"name":"Mun","rank":8},"geometry":{"type":"LineString","coordinates":[[104.7024,15.182],[104.7904,15.2408],[104.8004,15.2429],[104.8157,15.2434],[104.8261,15.2404],[104.823,15.2336],[104.8135,15.2266],[104.8048,15.2229],[104.8048,15.2154],[104.821,15.2119],[104.8317,15.2127],[104.8533,15.2229],[104.9221,15.2403],[104.9312,15.2405],[104.9685,15.2591],[104.9734,15.2639],[104.9863,15.2665],[105.0161,15.2794],[105.1265,15.3087],[105.1831,15.3121],[105.2021,15.311],[105.2172,15.3043],[105.2231,15.2881],[105.2243,15.2788],[105.2275,15.2718],[105.2498,15.2448],[105.2566,15.2397],[105.2661,15.2379],[105.2756,15.2405],[105.2843,15.2468],[105.2915,15.255],[105.304,15.2725],[105.3121,15.2788],[105.322,15.2827],[105.3481,15.2879],[105.353,15.2899],[105.3569,15.2927],[105.3642,15.2991],[105.3683,15.301],[105.369,15.3041],[105.3803,15.307],[105.3909,15.3074],[105.401,15.3055],[105.4166,15.2988],[105.4307,15.2902],[105.4443,15.277],[105.4484,15.2747],[105.4507,15.2703],[105.4548,15.2689],[105.4595,15.2701],[105.463,15.2732],[105.4649,15.2779],[105.4666,15.2893],[105.4679,15.2946],[105.4726,15.3036],[105.4757,15.3075],[105.4801,15.3109],[105.4859,15.3135],[105.4993,15.3175],[105.5038,15.3202]]}},{"type":"Feature","properties":{"name":"Chi","rank":8},"geometry":{"type":"LineString","coordinates":[[101.4059,16.3737],[101.398,16.3592],[101.4072,16.3509],[101.4252,16.3472],[101.444,16.3464],[101.4594,16.3477],[101.464,16.3461],[101.4749,16.3402],[101.4771,16.3373],[101.4918,16.3238],[101.4954,16.3228],[101.4976,16.3199],[101.5022,16.317],[101.5068,16.3117],[101.509,16.302],[101.5061,16.2938],[101.4929,16.2798],[101.4885,16.2713],[101.4877,16.2532],[101.4929,16.2369],[101.5026,16.2242],[101.5157,16.2167],[101.5317,16.2145],[101.5881,16.2167],[101.5917,16.207],[101.5854,16.1643],[101.5949,16.1546],[101.5978,16.1525],[101.6006,16.1478],[101.6056,16.1431],[101.6467,16.1347]]}},{"type":"Feature","properties":{"name":"Chi","rank":8},"geometry":{"type":"LineString","coordinates":[[101.6467,16.1347],[101.6598,16.1244],[101.6807,16.0975],[101.6946,16.0863],[101.6837,16.0714],[101.6794,16.0482],[101.6772,16.0174],[101.6787,16.0109],[101.6853,15.9954],[101.6901,15.9772],[101.6871,15.9622],[101.6978,15.9542],[101.7039,15.9385],[101.7085,15.9211],[101.715,15.9081],[101.715,15.9007],[101.7112,15.8893],[101.7166,15.8733],[101.7271,15.8591],[101.7389,15.8529],[101.7437,15.8432],[101.7454,15.8237],[101.7512,15.8085],[101.769,15.812],[101.7786,15.8023],[101.7882,15.7896],[101.7986,15.7813],[101.8106,15.7846],[101.8148,15.7736],[101.8188,15.7468],[101.8243,15.7369],[101.8306,15.7369],[101.8478,15.7333],[101.9019,15.6788],[101.9268,15.6612],[101.9442,15.6748],[101.9619,15.6845],[101.9791,15.6894],[101.9956,15.6884],[101.9963,15.695],[101.9979,15.6964],[102.0024,15.6959],[102.0072,15.6923],[102.0181,15.6859],[102.0229,15.6822],[102.027,15.6771],[102.0326,15.6666],[102.0366,15.6612],[102.0777,15.6315],[102.0844,15.6196],[102.1033,15.633],[102.1191,15.6475],[102.1243,15.6541],[102.1328,15.6748],[102.1353,15.6764],[102.1391,15.6768],[102.1431,15.6779],[102.1465,15.6822],[102.1469,15.6869],[102.1455,15.6977],[102.1465,15.7021],[102.1588,15.7174],[102.1624,15.7261],[102.1602,15.7369],[102.1755,15.7454],[102.2033,15.7446],[102.2146,15.7505],[102.2085,15.7573],[102.2124,15.757],[102.2141,15.7581],[102.2146,15.7606],[102.2146,15.7642],[102.2222,15.7505],[102.2402,15.7527],[102.2532,15.7613],[102.2768,15.7846],[102.3074,15.8016],[102.3227,15.8068],[102.3313,15.8057],[102.3367,15.8167],[102.3359,15.826],[102.3331,15.8362],[102.3313,15.8499],[102.3346,15.8638],[102.3486,15.8803],[102.352,15.8908],[102.3563,15.895],[102.365,15.9083],[102.3716,15.9222],[102.3692,15.9287],[102.3776,15.9537],[102.3792,15.9659]]}},{"type":"Feature","properties":{"name":"Chi","rank":8},"geometry":{"type":"LineString","coordinates":[[102.3792,15.9659],[102.3818,15.9764],[102.3887,15.9822],[102.4065,15.9901],[102.4179,15.9979],[102.427,16.0059],[102.4562,16.0433],[102.4887,16.0703],[102.5026,16.0931],[102.5073,16.0839],[102.5172,16.0792],[102.5438,16.072],[102.5368,16.0795],[102.5779,16.0931],[102.5752,16.1003],[102.584,16.1142],[102.5859,16.1273],[102.592,16.1246],[102.5982,16.1204],[102.6229,16.1383],[102.6536,16.1676],[102.6736,16.1956],[102.6671,16.2092],[102.6694,16.22],[102.6749,16.2274],[102.6835,16.2308],[102.6952,16.2303],[102.6924,16.2341],[102.6877,16.244],[102.7156,16.2508],[102.7371,16.2464],[102.7618,16.2734],[102.7822,16.3106],[102.7945,16.3507],[102.8044,16.3611],[102.8178,16.3685],[102.8316,16.3737],[102.8476,16.3773],[102.8611,16.3773],[102.8931,16.3737],[102.8931,16.3812],[102.8862,16.3812],[102.8862,16.3873],[102.9421,16.3797],[102.9546,16.3737],[102.9546,16.3675],[102.9478,16.3675],[102.9478,16.3607],[102.9648,16.3544],[102.979,16.3406],[102.9894,16.3231],[102.9955,16.3054],[103.0029,16.3054],[103.0109,16.3117],[103.016,16.3085],[103.0203,16.3021],[103.0269,16.2986],[103.0414,16.2974],[103.0471,16.2938],[103.0505,16.2875],[103.0801,16.2481],[103.0953,16.2374],[103.119,16.2365],[103.1128,16.2228],[103.1234,16.2233],[103.1265,16.2228],[103.1265,16.2167],[103.1206,16.2134],[103.1179,16.2103],[103.1162,16.2069],[103.1128,16.2023],[103.1438,16.196],[103.167,16.1946],[103.2413,16.208],[103.2521,16.2115],[103.2631,16.2167],[103.2738,16.2233],[103.283,16.2275],[103.2942,16.2262],[103.3114,16.2167],[103.3121,16.2232],[103.3104,16.2264],[103.3075,16.2281],[103.3047,16.2303],[103.3269,16.2261],[103.3362,16.2263],[103.3456,16.2303],[103.3549,16.2241],[103.3657,16.2274],[103.3872,16.244],[103.3872,16.2365],[103.3967,16.2416],[103.4068,16.2385],[103.4146,16.244],[103.4213,16.244],[103.448,16.2092],[103.4503,16.2037],[103.4509,16.1972],[103.4527,16.1917],[103.4583,16.1893],[103.4631,16.1922],[103.4701,16.2053],[103.476,16.2092],[103.4889,16.2103],[103.5237,16.2092],[103.5336,16.212],[103.5482,16.2197],[103.5579,16.2228],[103.5669,16.2054],[103.5879,16.2008],[103.606,16.2056],[103.6063,16.2228],[103.6174,16.2167],[103.625,16.208],[103.6301,16.1999],[103.6343,16.1956],[103.6465,16.1949],[103.6543,16.199],[103.6604,16.2014],[103.6677,16.1956],[103.6746,16.2023],[103.6699,16.2074],[103.6654,16.2139],[103.6608,16.2167],[103.6608,16.2228],[103.6787,16.2215],[103.6867,16.2199],[103.6951,16.2167],[103.6951,16.2303],[103.7019,16.2303],[103.7124,16.2247],[103.7263,16.2214],[103.7383,16.2164],[103.7434,16.2058],[103.7502,16.1987],[103.7659,16.1883],[103.7843,16.1791],[103.7986,16.1757],[103.7986,16.1689],[103.7924,16.166],[103.7896,16.1633],[103.7844,16.1546],[103.7978,16.1543],[103.8087,16.1497],[103.8159,16.1416],[103.8186,16.131],[103.8271,16.1215],[103.8652,16.1155],[103.8738,16.1037],[103.8772,16.0969],[103.8939,16.0769],[103.9004,16.0658],[103.905,16.0511],[103.9075,16.0364],[103.9084,16.0037],[103.9141,16.0037],[103.9251,16.0079],[103.9238,15.9915],[103.9141,15.9591],[103.9114,15.9567],[103.9049,15.9551],[103.8982,15.9513],[103.8942,15.9423],[103.8951,15.9317],[103.8995,15.9217],[103.9063,15.9135],[103.9141,15.9081],[103.9145,15.93],[103.9221,15.944],[103.9363,15.9487],[103.9558,15.9423],[103.968,15.9305],[103.9793,15.9162],[103.9905,15.9081],[104.0034,15.915],[104.0098,15.915],[104.0131,15.8986],[104.0203,15.888],[104.0291,15.8789],[104.0377,15.8672],[104.0271,15.8629],[104.0178,15.8552],[104.0133,15.8465],[104.0171,15.8392],[104.0171,15.8331],[104.0082,15.8287],[104.0038,15.8205],[104.0042,15.8099],[104.0098,15.7983],[104.0302,15.805],[104.0554,15.8094],[104.0733,15.8204],[104.0718,15.8467],[104.1114,15.8232],[104.1314,15.7877],[104.1355,15.7455],[104.127,15.7021],[104.1332,15.7021],[104.1442,15.7083],[104.1554,15.7017],[104.166,15.6871],[104.1948,15.6287],[104.2158,15.5997],[104.238,15.5582],[104.2396,15.5513],[104.277,15.5237],[104.2841,15.5212],[104.2862,15.5097],[104.2955,15.4931],[104.2978,15.4796],[104.3071,15.4562],[104.3287,15.4417],[104.3521,15.442],[104.3667,15.4632],[104.3735,15.4632],[104.381,15.4495],[104.3823,15.4199],[104.3872,15.4011],[104.3911,15.3966],[104.4114,15.3837],[104.4182,15.3776],[104.4236,15.3746],[104.429,15.3769],[104.4355,15.3868],[104.4351,15.3718],[104.4382,15.3499],[104.4355,15.3396],[104.4287,15.3253],[104.4442,15.3179],[104.4536,15.3168],[104.4625,15.3185],[104.4766,15.3192],[104.4783,15.318],[104.4924,15.3129],[104.5005,15.3116],[104.5083,15.3134],[104.5117,15.3175],[104.5137,15.3221],[104.5175,15.3253],[104.5287,15.3289],[104.5419,15.3311],[104.5564,15.3304],[104.572,15.3253],[104.5824,15.3183],[104.5918,15.3099],[104.5999,15.3041],[104.6063,15.3049],[104.613,15.3049],[104.622,15.2886],[104.6382,15.277],[104.6504,15.2657],[104.6472,15.2503],[104.6545,15.2405],[104.6604,15.2387],[104.6628,15.2425],[104.6608,15.2503],[104.6608,15.2564],[104.6741,15.2538],[104.6829,15.2451],[104.6949,15.2229],[104.6938,15.2244],[104.7024,15.2093],[104.7065,15.205],[104.7114,15.2023],[104.7149,15.198],[104.7161,15.1888]]}},{"type":"Feature","properties":{"name":"Da","rank":8},"geometry":{"type":"LineString","coordinates":[[101.2626,23.5079],[101.2802,23.4254],[101.2793,23.4117],[101.2825,23.3961],[101.2512,23.2867],[101.2451,23.2745],[101.2449,23.2648],[101.2588,23.2609],[101.2768,23.2591],[101.2906,23.2544],[101.3171,23.2404],[101.3422,23.2327],[101.349,23.226],[101.3513,23.2093],[101.3427,23.1635],[101.3376,23.151],[101.3396,23.1447],[101.3308,23.1243],[101.3679,23.0881],[101.3821,23.0833],[101.3909,23.0886],[101.427,23.1243],[101.4326,23.1147],[101.4431,23.1099],[101.4674,23.1038],[101.4869,23.0871],[101.4979,23.075],[101.5129,23.0484],[101.5157,23.0411],[101.5164,23.0363],[101.5157,23.0178],[101.5088,23.0154],[101.4674,22.9865],[101.4773,22.981],[101.4836,22.9754],[101.4954,22.9592],[101.5069,22.9312],[101.509,22.9285],[101.5205,22.9054],[101.5226,22.8941],[101.5505,22.8704],[101.5684,22.861],[101.5863,22.8544],[101.6061,22.8506],[101.629,22.8493],[101.6455,22.8553],[101.657,22.8692],[101.6734,22.8978],[101.7006,22.9159],[101.7316,22.9192],[101.7644,22.9083],[101.7964,22.8841],[101.8196,22.8474],[101.8344,22.83],[101.8547,22.8226],[101.8604,22.8195],[101.8652,22.8124],[101.8716,22.8053],[101.8823,22.8021],[101.895,22.8038],[101.9041,22.8077],[101.9118,22.8123],[101.9199,22.8158],[101.9274,22.8177],[101.9336,22.8183],[101.94,22.8177],[101.9478,22.8158],[101.9614,22.8059],[101.9705,22.8017],[101.9745,22.8052],[101.9804,22.8021],[102.0161,22.7674],[102.0361,22.7356],[102.0522,22.7029],[102.0725,22.6735],[102.1047,22.6513],[102.164,22.6265],[102.1843,22.6234],[102.2265,22.6241],[102.2471,22.6223],[102.2632,22.6166],[102.2766,22.6014],[102.293,22.5683],[102.3075,22.562],[102.3792,22.5756],[102.4018,22.5745],[102.458,22.562],[102.5085,22.5668],[102.5232,22.562],[102.527,22.5576],[102.537,22.5417],[102.5438,22.5346],[102.5513,22.5311],[102.5605,22.5284],[102.5683,22.5245],[102.5775,22.5073],[102.6449,22.4362],[102.6628,22.4237],[102.7014,22.4144],[102.7372,22.3929],[102.7768,22.3604],[102.8003,22.3309],[102.8176,22.2971],[102.8254,22.2603],[102.8248,22.2526],[102.8233,22.2479],[102.8229,22.2425],[102.8254,22.233],[102.8285,22.2283],[102.8373,22.2192],[102.8455,22.2054],[102.8604,22.2054],[102.8896,22.2125],[102.9084,22.2029],[102.9165,22.1807],[102.9224,22.1557],[102.9347,22.1374],[102.9519,22.1362],[103.0403,22.1477],[103.0667,22.14],[103.0958,22.1222],[103.1401,22.0856],[103.1773,22.088],[103.2644,22.048],[103.2842,22.0543],[103.2809,22.0575],[103.2734,22.0628],[103.2661,22.0692],[103.2631,22.076],[103.2665,22.0816],[103.324,22.1495],[103.3388,22.1579],[103.3609,22.1581],[103.3832,22.15],[103.4001,22.1363],[103.407,22.12],[103.4097,22.0958],[103.4165,22.0814],[103.4412,22.0616],[103.4521,22.0484],[103.4583,22.0313],[103.4609,22.0116],[103.4617,21.9903],[103.4653,21.9855],[103.4739,21.9796],[103.484,21.9745],[103.4927,21.9723],[103.4975,21.9678],[103.5439,21.8931],[103.551,21.8767],[103.5552,21.8577],[103.5597,21.813],[103.5647,21.7948],[103.5808,21.77],[103.5858,21.76],[103.5845,21.7595],[103.5854,21.7438],[103.5858,21.7433],[103.5876,21.7399],[103.5961,21.7354],[103.5989,21.7333],[103.6254,21.6895],[103.6426,21.6724],[103.6608,21.6713],[103.6733,21.6656],[103.6763,21.6668],[103.6814,21.6713],[103.7041,21.6614],[103.7495,21.6522],[103.7671,21.6402],[103.8059,21.5816],[103.8117,21.5651],[103.8151,21.5586],[103.8243,21.5535],[103.853,21.547]]}},{"type":"Feature","properties":{"name":"Da","rank":8},"geometry":{"type":"LineString","coordinates":[[103.853,21.547],[103.9004,21.5409],[103.9126,21.5337],[103.9211,21.527],[103.9306,21.5223],[103.9585,21.5175],[103.9677,21.5103],[103.9836,21.4931],[103.9952,21.4986],[104.0034,21.4968],[104.0171,21.4857],[104.0343,21.4634],[104.0377,21.4621],[104.0465,21.4515],[104.0898,21.4385],[104.106,21.4317],[104.1115,21.4256],[104.1327,21.3973],[104.1506,21.3798],[104.1601,21.3643],[104.1618,21.3375],[104.1675,21.3218],[104.178,21.3134],[104.2092,21.2957],[104.2239,21.2723],[104.2773,21.2529],[104.2834,21.2462],[104.2909,21.2312],[104.2978,21.2256],[104.364,21.2137],[104.3813,21.2014],[104.4286,21.1436],[104.4413,21.1339],[104.4594,21.13],[104.4723,21.1247],[104.5112,21.0891],[104.5157,21.0814],[104.5144,21.0767],[104.5149,21.0731],[104.5249,21.0686],[104.5317,21.0689],[104.5406,21.0718],[104.5483,21.0756],[104.5515,21.0785],[104.5537,21.0831],[104.5581,21.0807],[104.5626,21.0738],[104.5671,21.0535],[104.5736,21.0482],[104.5825,21.0486],[104.5925,21.0543],[104.6184,21.0357],[104.6539,21.035],[104.688,21.0476],[104.7092,21.0686],[104.728,21.062],[104.7666,21.0533],[104.7813,21.0441],[104.7976,21.0372],[104.8472,21.0366],[104.8669,21.0338],[104.8776,21.025],[104.8915,21.0086],[104.9033,20.9903],[104.9133,20.9637],[104.9966,20.877],[105.004,20.8731],[105.0134,20.8603],[105.0864,20.8131],[105.0907,20.8073],[105.0928,20.7943],[105.0886,20.7927],[105.0811,20.783],[105.0768,20.7721],[105.0829,20.7669],[105.0933,20.7657],[105.1167,20.7595],[105.1294,20.7613],[105.1368,20.7654],[105.142,20.77],[105.1475,20.7731],[105.1788,20.7727],[105.1965,20.7746],[105.2129,20.784],[105.2286,20.7967],[105.2442,20.8032],[105.3048,20.8109],[105.3248,20.8176],[105.34,20.8288],[105.3461,20.8455],[105.343,20.8507],[105.3293,20.8604],[105.3262,20.8659],[105.3324,20.9103],[105.3326,20.9564],[105.3296,20.9813],[105.3228,20.9923],[105.3154,20.9998],[105.2906,21.0382],[105.2847,21.0543],[105.2865,21.0755],[105.302,21.1043],[105.3057,21.1266],[105.3005,21.1412],[105.2896,21.1549],[105.2818,21.1707],[105.2847,21.1915],[105.3027,21.2095],[105.3264,21.221],[105.3428,21.2381],[105.3398,21.2734]]}},{"type":"Feature","properties":{"name":"Cả","rank":8},"geometry":{"type":"LineString","coordinates":[[103.8323,19.8998],[103.8385,19.8702],[103.855,19.8554],[103.9004,19.8341],[103.9086,19.8257],[103.9284,19.7936],[103.9385,19.7877],[103.9521,19.7826],[103.9643,19.7753],[103.9693,19.7626],[103.9722,19.7461],[103.98,19.7322],[103.9917,19.7209],[104.0066,19.7117]]}},{"type":"Feature","properties":{"name":"Cả","rank":8},"geometry":{"type":"LineString","coordinates":[[104.0066,19.7117],[104.0304,19.7022],[104.1001,19.6872],[104.1578,19.6879],[104.2686,19.7166],[104.3274,19.7184],[104.3291,19.7055],[104.3386,19.6848],[104.3418,19.6736],[104.3379,19.6568],[104.3168,19.6285],[104.315,19.6127],[104.3281,19.5983],[104.3506,19.5915],[104.4551,19.5759],[104.4834,19.5675],[104.5122,19.5536],[104.5442,19.5298],[104.5562,19.5235],[104.5825,19.5174],[104.5952,19.5126],[104.605,19.5034],[104.6072,19.4802],[104.5925,19.458],[104.5515,19.4232],[104.5167,19.406],[104.5112,19.3998],[104.5089,19.3891],[104.5032,19.3791],[104.4781,19.346],[104.4695,19.3427],[104.4525,19.3418],[104.438,19.3375],[104.4211,19.3185],[104.4076,19.3139],[104.4124,19.2986],[104.4194,19.2853],[104.4299,19.2759],[104.4454,19.2723],[104.457,19.2681],[104.4893,19.2498],[104.5005,19.2456],[104.5123,19.243],[104.5515,19.2252],[104.567,19.221],[104.5993,19.2177],[104.6577,19.2047],[104.6675,19.1971],[104.6726,19.1638],[104.6778,19.1563],[104.7092,19.15],[104.7134,19.1452],[104.7195,19.132],[104.7229,19.1283],[104.7363,19.1265],[104.7455,19.1291],[104.7537,19.128],[104.7644,19.1153],[104.7809,19.1158],[104.8543,19.0608],[104.8726,19.0507],[104.9075,19.0432],[104.9384,19.0291],[104.9529,19.0259],[104.9683,19.0247],[104.9736,19.0234],[104.9778,19.0216]]}},{"type":"Feature","properties":{"name":"Cả","rank":8},"geometry":{"type":"LineString","coordinates":[[104.9778,19.0216],[104.9853,19.0128],[104.9874,19.0012],[104.9913,18.9888],[105.004,18.9775],[105.0241,18.9891],[105.0466,18.9766],[105.065,18.9527],[105.073,18.9303],[105.0792,18.9303],[105.0857,18.9497],[105.0986,18.9545],[105.1138,18.9472],[105.1275,18.9303],[105.1338,18.9303],[105.1372,18.936],[105.1442,18.9448],[105.1475,18.9508],[105.1675,18.9423],[105.23,18.9303],[105.2573,18.9166],[105.2673,18.9162],[105.2769,18.9179],[105.2867,18.9156],[105.2983,18.9029],[105.2868,18.9044],[105.2769,18.9029],[105.2691,18.8981],[105.2642,18.8894],[105.2765,18.887],[105.2847,18.883],[105.2895,18.8753],[105.2915,18.862],[105.2846,18.8573],[105.2799,18.8531],[105.2778,18.8483],[105.28,18.8426],[105.2844,18.8389],[105.2891,18.8364],[105.2915,18.8341],[105.2893,18.8179],[105.287,18.8093],[105.2847,18.8074],[105.29,18.8022],[105.302,18.7962],[105.3057,18.7931],[105.3081,18.7925],[105.3167,18.7936],[105.3193,18.7931],[105.3201,18.7902],[105.3188,18.7824],[105.3193,18.7795],[105.3215,18.7748],[105.3262,18.759],[105.3323,18.7544],[105.3691,18.7324],[105.4032,18.694],[105.412,18.6867],[105.4219,18.6833],[105.4334,18.687],[105.4442,18.6946],[105.4542,18.6983],[105.4634,18.6901],[105.4702,18.6901],[105.4895,18.7036],[105.5081,18.6863],[105.5317,18.6423],[105.5694,18.6218],[105.5758,18.6209],[105.5891,18.6166],[105.6079,18.6133],[105.6107,18.6075],[105.6108,18.6004],[105.6143,18.5939],[105.6392,18.5768],[105.6616,18.5701],[105.6807,18.5772],[105.6956,18.6013],[105.693,18.6008],[105.6905,18.607],[105.6887,18.6154],[105.6887,18.6218],[105.693,18.6258],[105.7,18.6274],[105.7063,18.6304],[105.7091,18.6389],[105.7144,18.6477],[105.7266,18.6545],[105.7507,18.6628]]}},{"type":"Feature","properties":{"name":"Zuo","rank":8},"geometry":{"type":"LineString","coordinates":[[105.9021,22.9331],[105.9819,22.7933],[106.0139,22.7588],[106.0321,22.7488],[106.1104,22.7264],[106.1393,22.7225]]}},{"type":"Feature","properties":{"name":"Zuo","rank":8},"geometry":{"type":"LineString","coordinates":[[106.1393,22.7225],[106.1479,22.7205],[106.1568,22.717],[106.1669,22.7117],[106.1784,22.7039],[106.1808,22.7],[106.1829,22.6892],[106.1871,22.6846],[106.1921,22.6841],[106.1974,22.687],[106.2018,22.6903],[106.2051,22.6914],[106.2299,22.6812],[106.2906,22.6472],[106.3074,22.6351],[106.3315,22.607],[106.3748,22.584],[106.3993,22.5571],[106.4091,22.5523],[106.4163,22.5548],[106.428,22.5693],[106.4382,22.5716],[106.4478,22.5682],[106.5074,22.5316],[106.5595,22.4863],[106.6262,22.4526],[106.7256,22.3807],[106.939,22.3205],[106.9618,22.3245],[106.9841,22.3419],[106.9978,22.3631],[107.0028,22.3688],[107.0155,22.3778],[107.0189,22.3763],[107.0191,22.371],[107.022,22.3685],[107.0365,22.3734],[107.0445,22.3806],[107.052,22.39],[107.0642,22.4012],[107.0811,22.4096],[107.1021,22.4144],[107.1228,22.4142],[107.1382,22.4078],[107.1446,22.3998],[107.1469,22.3919],[107.1476,22.3847],[107.1497,22.3785],[107.1557,22.3674],[107.1559,22.3651],[107.1582,22.3658],[107.1701,22.3639],[107.2131,22.3514],[107.2316,22.3497],[107.2465,22.3553],[107.2524,22.3643],[107.254,22.3732],[107.2587,22.3815],[107.3208,22.4124],[107.3218,22.4139],[107.337,22.4256],[107.3379,22.4248],[107.3525,22.4436],[107.3561,22.4549],[107.3589,22.4599],[107.3754,22.4662],[107.3803,22.4689],[107.4174,22.5143],[107.4347,22.5271],[107.4465,22.5226],[107.4927,22.4951],[107.5127,22.488],[107.5136,22.499],[107.5209,22.5103],[107.5313,22.52],[107.5564,22.5349],[107.5653,22.5423],[107.5715,22.5511],[107.5776,22.564],[107.5858,22.5956],[107.5913,22.6096],[107.6021,22.6187],[107.6115,22.6245],[107.613,22.6301],[107.6122,22.6358],[107.6152,22.6422],[107.621,22.6475],[107.6399,22.6596],[107.672,22.6679],[107.7035,22.6622],[107.7349,22.6519],[107.7808,22.6441],[107.804,22.6346],[107.8208,22.6344],[107.854,22.644],[107.8699,22.6463],[107.8831,22.6411],[107.8894,22.6599],[107.901,22.6738],[107.9327,22.6957],[107.9346,22.6988],[107.9373,22.7091],[107.9392,22.713],[107.9438,22.7152],[107.9533,22.7108],[107.9575,22.7127],[107.9617,22.7206],[107.9636,22.7286],[107.9648,22.7377],[107.9726,22.7528],[107.9751,22.7567],[107.9839,22.7622],[108.0015,22.7625],[108.0104,22.7676],[108.0203,22.7867],[108.021,22.8048],[108.0243,22.8213],[108.0426,22.8358],[108.0271,22.8402],[108.0421,22.8556],[108.0571,22.85],[108.0737,22.8383],[108.0938,22.8353],[108.0923,22.8444]]}},{"type":"Feature","properties":{"name":"","rank":8},"geometry":{"type":"LineString","coordinates":[[102.6119,16.7716],[102.6119,16.7716],[102.6119,16.7716],[102.6119,16.7716],[102.6119,16.7716],[102.6313,16.7722],[102.6516,16.7681],[102.6697,16.7607],[102.6815,16.751],[102.6877,16.751],[102.6969,16.759],[102.6988,16.7539],[102.6984,16.744],[102.7014,16.7374],[102.7119,16.7347],[102.7191,16.7352],[102.726,16.7368],[102.7354,16.7374],[102.7701,16.7306],[102.7739,16.726],[102.777,16.7194],[102.7816,16.7184],[102.7906,16.7306],[102.7915,16.7114],[102.8059,16.7158],[102.8247,16.7293],[102.8391,16.7374],[102.833,16.7287],[102.8323,16.7211],[102.8365,16.7148],[102.8453,16.7095],[102.8256,16.696],[102.8228,16.6832],[102.8279,16.6674],[102.8316,16.6449],[102.8543,16.6269],[102.8596,16.6207],[102.8591,16.6009],[102.8627,16.593],[102.8726,16.6002],[102.8862,16.5872],[102.8824,16.5764],[102.8862,16.5655],[102.8822,16.556],[102.8868,16.546],[102.8962,16.5374],[102.9067,16.532],[102.8993,16.5245],[102.9023,16.5175],[102.9048,16.5158],[102.9045,16.5151],[102.8993,16.5109],[102.8993,16.504],[102.9091,16.4986],[102.9084,16.4925],[102.9018,16.487],[102.8931,16.4835],[102.9038,16.4713],[102.9124,16.458],[102.9216,16.4508],[102.9347,16.4562],[102.9507,16.4319],[102.9546,16.4221],[102.9561,16.4147],[102.953,16.403],[102.9409,16.3812]]}},{"type":"Feature","properties":{"name":"Mae Klong","rank":7},"geometry":{"type":"LineString","coordinates":[[99.6689,13.9412],[99.7412,13.9487],[99.7462,13.9517],[99.7502,13.9571],[99.7551,13.9615],[99.7617,13.9617],[99.7665,13.9573],[99.7673,13.9517],[99.7651,13.9479],[99.7617,13.9487],[99.7659,13.9426],[99.7754,13.9207],[99.7966,13.8964],[99.8232,13.8729],[99.8682,13.8469],[99.8778,13.832],[99.8804,13.8109],[99.8743,13.7899],[99.8511,13.7494],[99.8568,13.7408],[99.8638,13.7242],[99.8652,13.7082],[99.8545,13.701],[99.8389,13.6961],[99.832,13.6835],[99.8305,13.6671],[99.8306,13.6504],[99.8271,13.6413],[99.812,13.6176],[99.8096,13.606],[99.8132,13.6003],[99.8275,13.593],[99.8306,13.5886],[99.8293,13.5635],[99.8306,13.5576],[99.8386,13.5508],[99.8689,13.5337],[99.8818,13.5303],[99.9028,13.531],[99.9102,13.5262],[99.9229,13.513],[99.9562,13.4493],[99.9771,13.4212],[100.0014,13.4205],[99.9978,13.3954],[99.9979,13.3837],[100.0014,13.372]]}},{"type":"Feature","properties":{"name":"Yom","rank":7},"geometry":{"type":"LineString","coordinates":[[100.6126,18.0397],[100.5906,18.036],[100.5685,18.0272],[100.5449,18.0128],[100.5263,17.9974],[100.4858,17.9375],[100.4741,17.9105],[100.4707,17.8869],[100.4878,17.8633],[100.5115,17.8443],[100.525,17.8261],[100.5401,17.7967],[100.5519,17.7766]]}},{"type":"Feature","properties":{"name":"Yom","rank":7},"geometry":{"type":"LineString","coordinates":[[101.1807,19.3276],[101.1729,19.3439],[101.1621,19.4151],[101.1523,19.4462],[101.1118,19.5131],[101.1011,19.524],[101.075,19.5416],[101.064,19.5541],[101.0571,19.5541],[101.0469,19.5411],[101.0274,19.5247],[101.0056,19.5162],[100.9882,19.5268]]}},{"type":"Feature","properties":{"name":"Yom","rank":7},"geometry":{"type":"LineString","coordinates":[[100.9882,19.5268],[100.9813,19.5268],[100.9727,19.5172],[100.9626,19.5155],[100.9324,19.5211],[100.9265,19.5242],[100.9216,19.5259],[100.9163,19.523],[100.8877,19.4997],[100.8798,19.4857],[100.8738,19.4698],[100.8715,19.4579],[100.8752,19.4443],[100.8813,19.431],[100.8835,19.4209],[100.854,19.4049],[100.8463,19.3769],[100.8469,19.3448],[100.8545,19.2922],[100.8503,19.2639],[100.8379,19.2401],[100.8163,19.2252],[100.8163,19.2177],[100.8238,19.2144],[100.8292,19.2086],[100.8374,19.191],[100.8218,19.1826],[100.8146,19.173],[100.809,19.1251],[100.7896,19.0737],[100.7875,19.0552],[100.7896,19.0122],[100.7766,18.9601],[100.776,18.944],[100.7804,18.9258],[100.7887,18.9091],[100.7991,18.8943],[100.8101,18.8819],[100.8194,18.8782],[100.828,18.8808],[100.8342,18.8804],[100.8374,18.8682],[100.8101,18.8483],[100.8052,18.8332],[100.8005,18.7952],[100.7959,18.7795],[100.7759,18.7537],[100.7688,18.7369],[100.776,18.7242],[100.7685,18.7208],[100.7616,18.7168],[100.7623,18.7125],[100.7631,18.7116],[100.7649,18.7118],[100.7685,18.7106],[100.7628,18.6999],[100.7637,18.6896],[100.7688,18.6796],[100.776,18.6702],[100.7616,18.6628],[100.7719,18.6579],[100.776,18.6566],[100.7627,18.6413],[100.7676,18.5945],[100.7616,18.5734],[100.766,18.5721],[100.7691,18.5706],[100.7715,18.569],[100.7729,18.5672]]}},{"type":"Feature","properties":{"name":"Yom","rank":7},"geometry":{"type":"LineString","coordinates":[[100.5519,17.7766],[100.5557,17.7708],[100.5604,17.7668],[100.5668,17.7653],[100.5674,17.7595],[100.5514,17.7473],[100.5321,17.7363],[100.5227,17.7342],[100.5053,17.7188],[100.4673,17.7068],[100.4312,17.7059],[100.4189,17.7237],[100.4128,17.7237],[100.4055,17.7139],[100.3972,17.7112],[100.3897,17.7149],[100.3849,17.7237],[100.3711,17.6956],[100.3513,17.6802],[100.2554,17.6442],[100.2378,17.6418],[100.2276,17.6433],[100.2226,17.648],[100.2207,17.6555],[100.2205,17.6656],[100.2169,17.6667],[100.1931,17.6691],[100.1475,17.6558],[100.1264,17.6459],[100.1174,17.6312],[100.1145,17.6275],[100.1084,17.6221],[100.1036,17.6138],[100.1044,17.6008],[100.1098,17.5961],[100.1386,17.5803],[100.1311,17.5598],[100.1272,17.5626],[100.1174,17.5673],[100.1135,17.5495],[100.1166,17.5369],[100.1221,17.5231],[100.1279,17.4811],[100.1392,17.4444],[100.1386,17.4295],[100.1323,17.4216],[100.1246,17.4202],[100.1169,17.4199],[100.1106,17.4158],[100.1104,17.4069],[100.1157,17.3981],[100.1177,17.3912],[100.1075,17.3885],[100.0863,17.377],[100.0801,17.3748],[100.0724,17.3697],[100.0694,17.3578],[100.0702,17.3333],[100.0738,17.3142],[100.0872,17.284],[100.09,17.2687],[100.0847,17.251],[100.0736,17.2379],[100.064,17.2237],[100.0634,17.2029],[100.0775,17.1725],[100.1017,17.1437],[100.1666,17.085],[100.1772,17.0703],[100.1803,17.0568],[100.1651,17.0521],[100.1651,17.0459],[100.1767,17.0414],[100.2,17.0248],[100.2,17.0186],[100.1863,17.0186],[100.1863,17.0111],[100.2012,17.0015],[100.208,16.9882],[100.2126,16.9728],[100.2205,16.9565]]}},{"type":"Feature","properties":{"name":"Yom","rank":7},"geometry":{"type":"LineString","coordinates":[[100.7729,18.5672],[100.7741,18.5631],[100.7745,18.5529],[100.776,18.5467],[100.7959,18.5089],[100.8013,18.503],[100.8251,18.4979],[100.8306,18.4949],[100.8342,18.4605],[100.8374,18.4505],[100.853,18.4221],[100.8624,18.3995],[100.8613,18.389],[100.8749,18.3817],[100.8878,18.3643],[100.897,18.3439],[100.8995,18.3276],[100.8905,18.3087],[100.8635,18.2936],[100.8579,18.2761],[100.8538,18.2539],[100.8441,18.2395],[100.8328,18.2269],[100.8237,18.2103],[100.8198,18.1884],[100.8197,18.1699],[100.8174,18.1536],[100.8066,18.1383],[100.7033,18.0504],[100.6731,18.0377],[100.6455,18.0465],[100.6375,18.0422],[100.6278,18.0405],[100.6126,18.0397]]}},{"type":"Feature","properties":{"name":"Yom","rank":7},"geometry":{"type":"LineString","coordinates":[[100.2205,16.9565],[100.2067,16.9565],[100.2067,16.9497],[100.2175,16.944],[100.2188,16.9345],[100.2177,16.9224],[100.2205,16.9087],[100.2241,16.9063],[100.2376,16.9026],[100.2409,16.9012],[100.2484,16.8746],[100.2478,16.8696],[100.2436,16.8662],[100.2397,16.8619],[100.2409,16.8541],[100.2581,16.8485],[100.262,16.8466],[100.2685,16.8383],[100.2724,16.8309],[100.2729,16.8229],[100.2688,16.8131],[100.2594,16.805],[100.2485,16.8034],[100.2372,16.8032],[100.2273,16.7989],[100.2177,16.7869],[100.2169,16.7777],[100.2378,16.7402],[100.2825,16.6828],[100.2772,16.6742],[100.275,16.6691],[100.2688,16.6691],[100.2549,16.6766],[100.2539,16.6606],[100.262,16.6245],[100.2608,16.613],[100.2558,16.5936],[100.2546,16.5835],[100.2561,16.5722],[100.262,16.5509],[100.262,16.5382],[100.2715,16.5425],[100.275,16.545],[100.2793,16.5392],[100.2815,16.5327],[100.2825,16.5146],[100.2867,16.5101],[100.2961,16.5114],[100.3056,16.5161],[100.314,16.5258],[100.3229,16.5247],[100.3321,16.5211],[100.3372,16.5183],[100.3391,16.5097],[100.3365,16.4868],[100.3372,16.4774],[100.3446,16.4619],[100.3818,16.4187],[100.3904,16.403],[100.3884,16.3894],[100.384,16.374],[100.3849,16.3532],[100.3889,16.351],[100.396,16.3512],[100.4029,16.3483],[100.4081,16.3264],[100.417,16.308],[100.4189,16.302],[100.4259,16.2505],[100.4265,16.2303],[100.4236,16.2103],[100.4146,16.1819],[100.4027,16.111],[100.406,16.0999],[100.406,16.0931],[100.3888,16.0677],[100.3752,16.0378],[100.3564,16.0098],[100.3234,15.9901],[100.3274,15.9808],[100.3206,15.9698],[100.303,15.9492],[100.2998,15.9373],[100.2961,15.8973],[100.2887,15.8897],[100.2559,15.875],[100.2484,15.8638],[100.251,15.8358],[100.2475,15.8256],[100.2348,15.8188],[100.2367,15.816],[100.2372,15.8149],[100.238,15.814],[100.2409,15.812],[100.2409,15.8057],[100.2382,15.8039],[100.2367,15.804],[100.2357,15.8031],[100.2348,15.7983],[100.2273,15.7983],[100.2251,15.8028],[100.2222,15.8077],[100.2205,15.812],[100.2143,15.812],[100.2175,15.8023],[100.2246,15.7956],[100.2316,15.7921],[100.2348,15.7921],[100.2329,15.7816],[100.228,15.7785],[100.2229,15.7761],[100.2205,15.7676],[100.2173,15.7624],[100.2031,15.7569],[100.2,15.7539],[100.1964,15.7547],[100.1886,15.7478],[100.1815,15.7398],[100.1794,15.7369],[100.1407,15.7066]]}},{"type":"Feature","properties":{"name":"Ping","rank":7},"geometry":{"type":"LineString","coordinates":[[99.4976,16.519],[99.5232,16.4685],[99.5366,16.4484],[99.5488,16.4363],[99.5406,16.4138],[99.5603,16.3901],[99.5914,16.3706],[99.6177,16.3607],[99.6553,16.3541],[99.6665,16.3456],[99.6792,16.3265],[99.7053,16.2701],[99.7402,16.2227],[99.7544,16.2084],[99.7913,16.1935],[99.8004,16.1735],[99.8032,16.1517],[99.8033,16.1378],[99.8613,16.0758],[99.8743,16.0585],[99.8804,16.0417],[99.8794,16.0239],[99.8716,16.0037],[99.8926,15.9876],[99.974,15.9492],[100.0349,15.9092],[100.0632,15.8814],[100.0634,15.8604],[100.0811,15.842],[100.0889,15.8155],[100.09,15.7676],[100.0984,15.7545],[100.1179,15.7391],[100.1589,15.7164]]}},{"type":"Feature","properties":{"name":"Sreng","rank":7},"geometry":{"type":"LineString","coordinates":[[104.2649,14.2601],[104.2285,14.2803],[104.1921,14.2858],[104.1553,14.2799],[103.9188,14.1774]]}},{"type":"Feature","properties":{"name":"Sreng","rank":7},"geometry":{"type":"LineString","coordinates":[[103.9188,14.1774],[103.8502,14.1484],[103.8127,14.1245],[103.6865,13.9952],[103.6724,13.986],[103.6159,13.9666],[103.5977,13.9577],[103.5546,13.9229],[103.5386,13.9143],[103.5187,13.9091],[103.4795,13.9048],[103.4605,13.9002],[103.433,13.8871],[103.4203,13.8719],[103.4175,13.8503],[103.4197,13.8066],[103.4169,13.7737],[103.4314,13.7155],[103.4297,13.6971],[103.4185,13.6757],[103.4087,13.6632],[103.4032,13.6483],[103.4053,13.4282],[103.4219,13.3824],[103.4612,13.357],[103.4717,13.3574],[103.4977,13.3629],[103.5061,13.3625],[103.5142,13.3535],[103.5271,13.3113],[103.5569,13.278],[103.5979,13.257],[103.6874,13.2247]]}},{"type":"Feature","properties":{"name":"Ou","rank":7},"geometry":{"type":"LineString","coordinates":[[101.7593,22.4341],[101.7529,22.4219],[101.7507,22.4058],[101.7529,22.3749],[101.7589,22.3581],[101.7891,22.3113],[101.8098,22.2589],[101.819,22.2101],[101.8149,22.1627],[101.796,22.1147]]}},{"type":"Feature","properties":{"name":"Ou","rank":7},"geometry":{"type":"LineString","coordinates":[[101.796,22.1147],[101.7788,22.0708],[101.7755,22.045],[101.7852,22.03],[101.7944,22.0305],[101.8008,22.0365],[101.8061,22.0441],[101.8123,22.0493],[101.8234,22.0529],[101.8336,22.0548],[101.8441,22.055],[101.8683,22.0521],[101.8764,22.0519],[101.9097,22.0618],[101.9495,22.0621],[101.9608,22.0643],[101.9906,22.0787],[102.0146,22.0838],[102.0654,22.0844],[102.0906,22.0894],[102.1399,22.1066],[102.1602,22.1177],[102.1708,22.122],[102.1826,22.1241],[102.2258,22.1125],[102.2539,22.08],[102.3115,21.9448],[102.3153,21.9174],[102.3053,21.8911],[102.2865,21.8718],[102.2084,21.8206],[102.199,21.8128],[102.1913,21.8037],[102.1867,21.7928],[102.1869,21.777],[102.2037,21.7288],[102.2087,21.7058],[102.2126,21.6951],[102.2192,21.6852],[102.2284,21.6788],[102.2493,21.6707],[102.2572,21.6627],[102.2578,21.6553],[102.2548,21.6469],[102.2523,21.6375],[102.2551,21.6271],[102.2621,21.6215],[102.2922,21.6099],[102.313,21.5927],[102.3261,21.5737],[102.3325,21.5516],[102.3333,21.5049],[102.3422,21.4517],[102.3435,21.4256],[102.3399,21.3785],[102.3467,21.3521],[102.3533,21.3378],[102.359,21.3281],[102.3809,21.3043],[102.3868,21.2933],[102.3905,21.2888],[102.4011,21.2821],[102.4122,21.2794],[102.437,21.2776],[102.4587,21.2656],[102.4687,21.2429],[102.4767,21.1356],[102.4846,21.1068],[102.4978,21.0853],[102.5159,21.0762],[102.5398,21.0733],[102.6615,21.0745],[102.6861,21.0655],[102.7122,21.0464],[102.7344,21.0227],[102.7478,20.9999],[102.7692,20.9109],[102.7683,20.8911],[102.7561,20.8782],[102.7221,20.8583],[102.7163,20.8519],[102.7067,20.8367],[102.7006,20.8306],[102.6912,20.8266],[102.6681,20.8207],[102.6608,20.8169],[102.6528,20.7921],[102.6577,20.7628],[102.6665,20.7327],[102.6701,20.7061],[102.6659,20.6871],[102.6521,20.6524],[102.6456,20.6085],[102.6433,20.6016]]}},{"type":"Feature","properties":{"name":"Ou","rank":7},"geometry":{"type":"LineString","coordinates":[[102.6433,20.6016],[102.6381,20.5927],[102.6308,20.5852],[102.6211,20.5789],[102.6085,20.574],[102.6008,20.5746],[102.5949,20.5787],[102.5889,20.5816],[102.5806,20.5786],[102.5767,20.5719],[102.5698,20.5412],[102.5706,20.5031],[102.5681,20.4868],[102.5572,20.4702],[102.4661,20.409],[102.4412,20.3815],[102.4351,20.3656],[102.4324,20.3153],[102.4213,20.2928],[102.3783,20.2686],[102.36,20.2506],[102.319,20.1463],[102.303,20.1192],[102.2793,20.0887],[102.2517,20.0628],[102.2242,20.0487]]}},{"type":"Feature","properties":{"name":"Kong","rank":7},"geometry":{"type":"LineString","coordinates":[[107.3677,16.1074],[107.3198,16.1819],[107.2932,16.2092],[107.2593,16.2276],[107.2485,16.2303],[107.2,16.223],[107.1541,16.2039],[107.115,16.1776],[107.0872,16.1484],[107.0963,16.1292],[107.0855,16.1282],[107.053,16.1409]]}},{"type":"Feature","properties":{"name":"Kong","rank":7},"geometry":{"type":"LineString","coordinates":[[107.053,16.1409],[107.0584,16.1077],[107.0522,16.0755],[107.0361,16.047],[107.0113,16.0248],[106.9658,15.9996],[106.9463,15.9828],[106.9294,15.9559],[106.912,15.902],[106.8988,15.8782],[106.8743,15.8604],[106.8411,15.8529],[106.7803,15.8485],[106.7588,15.8331],[106.7641,15.8231],[106.7685,15.8091],[106.7712,15.7942],[106.7725,15.7813],[106.769,15.767],[106.7571,15.7411],[106.7588,15.7294],[106.7689,15.7256],[106.8043,15.7224],[106.8121,15.7198],[106.809,15.6911],[106.8145,15.682],[106.8333,15.6884],[106.8295,15.6718],[106.7996,15.6526],[106.7922,15.6375],[106.7854,15.5482],[106.7892,15.5418],[106.7971,15.539],[106.8043,15.5349],[106.8059,15.5246],[106.8008,15.5198],[106.7725,15.5109],[106.7517,15.5003],[106.7416,15.4873],[106.7309,15.4488],[106.7356,15.4509],[106.7472,15.4537],[106.752,15.4557],[106.7543,15.4389],[106.7738,15.4172],[106.7786,15.4045],[106.7793,15.3753],[106.772,15.3692],[106.752,15.3601],[106.725,15.3424],[106.7115,15.3306],[106.7177,15.318],[106.7219,15.3018],[106.7293,15.2855],[106.7415,15.2781],[106.765,15.2698],[106.7804,15.2493],[106.804,15.1863],[106.8064,15.1819],[106.809,15.1782],[106.8174,15.1612],[106.8259,15.121],[106.8333,15.1056],[106.8478,15.0953],[106.8769,15.0862],[106.8879,15.0721],[106.8696,15.0521],[106.8789,14.998],[106.8674,14.9691],[106.8725,14.9651],[106.8816,14.9486],[106.8608,14.9427],[106.8445,14.9283],[106.8349,14.9088],[106.8333,14.8872],[106.8376,14.8789],[106.8442,14.8725],[106.8469,14.8665],[106.84,14.8592],[106.8289,14.8561],[106.8041,14.8567],[106.7922,14.8524],[106.818,14.8408],[106.8301,14.8309],[106.8333,14.8182],[106.8264,14.8146],[106.7969,14.8208],[106.782,14.8148],[106.7559,14.7979],[106.752,14.7943],[106.7465,14.7691],[106.7445,14.7636],[106.733,14.7595],[106.7198,14.7595],[106.7087,14.7557],[106.7041,14.7401],[106.6998,14.7329],[106.6794,14.7082],[106.6725,14.7028],[106.6628,14.7022],[106.6529,14.6997],[106.6453,14.6942],[106.6421,14.6848],[106.6377,14.6809],[106.6162,14.6818],[106.6079,14.6811],[106.5947,14.6754],[106.5868,14.6674],[106.5842,14.6589],[106.5865,14.6499],[106.5865,14.6429],[106.5634,14.6354],[106.5569,14.624],[106.5524,14.6105],[106.5459,14.5991],[106.5269,14.5977],[106.5121,14.5905],[106.4906,14.5712],[106.4834,14.5677],[106.4767,14.5671],[106.4719,14.5643],[106.4701,14.5545],[106.4707,14.5448],[106.4728,14.5377],[106.4771,14.5328],[106.4844,14.5302],[106.4844,14.524],[106.4691,14.5249],[106.4563,14.5281],[106.4456,14.5293],[106.436,14.524],[106.434,14.5198],[106.4322,14.5126],[106.4334,14.5059],[106.4448,14.4997],[106.4405,14.4928],[106.4331,14.4868],[106.4292,14.4862],[106.4188,14.4667],[106.3936,14.4563],[106.333,14.4483]]}},{"type":"Feature","properties":{"name":"Kong","rank":7},"geometry":{"type":"LineString","coordinates":[[106.333,14.4483],[106.3354,14.4356],[106.339,14.4274],[106.3413,14.4195],[106.3403,14.4073],[106.3362,14.3986],[106.3302,14.3913],[106.3257,14.3817],[106.3262,14.3664],[106.3311,14.3575],[106.339,14.3494],[106.3456,14.3395],[106.3467,14.3248],[106.3407,14.3125],[106.3313,14.3116],[106.321,14.3193],[106.3125,14.3322],[106.2988,14.3179],[106.3154,14.2969],[106.3237,14.2893],[106.333,14.2838],[106.3474,14.28],[106.3576,14.2794],[106.3658,14.2758],[106.3745,14.2634],[106.3484,14.246],[106.3691,14.2228],[106.4292,14.1814],[106.4297,14.159],[106.4151,14.1455],[106.3975,14.1337],[106.3889,14.1163],[106.387,14.0931],[106.3813,14.0749],[106.3723,14.0592],[106.3497,14.0318],[106.3159,13.9996],[106.3072,13.9838],[106.308,13.966],[106.3117,13.9488],[106.3125,13.9344],[106.3023,13.9158],[106.2988,13.9064],[106.2976,13.8851],[106.2955,13.8765],[106.2886,13.8729],[106.2695,13.8458]]}},{"type":"Feature","properties":{"name":"Kong","rank":7},"geometry":{"type":"LineString","coordinates":[[106.2695,13.8458],[106.2504,13.8183],[106.2522,13.8048],[106.2572,13.7973],[106.2609,13.7901],[106.2578,13.7774],[106.2305,13.7426],[106.2158,13.7391],[106.2025,13.7401],[106.1897,13.739],[106.176,13.7289],[106.1714,13.7196],[106.1664,13.6935],[106.1624,13.6805],[106.1576,13.6748],[106.135,13.6538],[106.0772,13.5865],[106.0577,13.5744],[106.0318,13.5712]]}},{"type":"Feature","properties":{"name":"Chao Phraya","rank":7},"geometry":{"type":"LineString","coordinates":[[100.1407,15.7066],[100.134,15.7033],[100.1309,15.7024],[100.1279,15.7021],[100.1184,15.6966],[100.0969,15.6543],[100.1044,15.6543],[100.0956,15.6361],[100.0956,15.6223],[100.0981,15.609],[100.0969,15.5922],[100.0934,15.5877],[100.0771,15.573],[100.0803,15.5651],[100.0859,15.5628],[100.0922,15.5621],[100.0969,15.5587],[100.1003,15.5574],[100.1049,15.5587],[100.1089,15.5591],[100.1106,15.555],[100.1089,15.5466],[100.1069,15.5432],[100.1044,15.545],[100.1025,15.5441],[100.1001,15.5386],[100.0979,15.5322],[100.0969,15.528],[100.0991,15.5233],[100.1038,15.52],[100.1084,15.5183],[100.1106,15.5178],[100.1106,15.4632],[100.1257,15.4682],[100.1308,15.4559],[100.1273,15.437],[100.1174,15.4215],[100.108,15.4185],[100.0902,15.4208],[100.0833,15.4147],[100.0836,15.4076],[100.0938,15.3884],[100.0969,15.3806],[100.0912,15.3839],[100.0702,15.3868],[100.0702,15.3806],[100.0868,15.3685],[100.092,15.3535],[100.0881,15.3365],[100.0683,15.3066],[100.0584,15.2872],[100.0596,15.2717],[100.0833,15.2707],[100.0795,15.2639],[100.0786,15.2559],[100.0803,15.2469],[100.0839,15.2374],[100.1158,15.187],[100.1215,15.1804],[100.1293,15.1761],[100.1416,15.1745],[100.1897,15.182],[100.2078,15.1818],[100.2271,15.1788],[100.2422,15.1695],[100.2512,15.1428],[100.2688,15.1199],[100.2887,15.0721],[100.2921,15.0742],[100.2996,15.0769],[100.303,15.0789],[100.3313,15.0146],[100.3337,15.0032],[100.3457,14.9904],[100.3787,14.9138],[100.3849,14.9138],[100.3936,14.9189],[100.4001,14.9088],[100.4044,14.8919],[100.406,14.8766],[100.4097,14.8663],[100.4186,14.8595],[100.4297,14.8551],[100.4401,14.8524],[100.4401,14.8462],[100.438,14.8311],[100.447,14.7636],[100.447,14.7189],[100.4492,14.711],[100.4604,14.6863],[100.4641,14.6811],[100.4645,14.6697],[100.447,14.5445],[100.4507,14.5341],[100.4562,14.524],[100.4573,14.5123],[100.447,14.4968],[100.4583,14.4824],[100.4595,14.4661],[100.4526,14.4514],[100.4401,14.4421],[100.4449,14.4254],[100.4396,14.4078],[100.4309,14.391],[100.4265,14.3763],[100.4302,14.3619],[100.4504,14.3189],[100.4607,14.305],[100.4688,14.3023],[100.4743,14.3067],[100.4802,14.3083],[100.4885,14.2975],[100.4905,14.2882],[100.4885,14.2534],[100.4909,14.2369],[100.5029,14.2076],[100.5084,14.1883],[100.5121,14.1627],[100.5152,14.1541],[100.5431,14.1231],[100.5431,14.0958],[100.541,14.0924],[100.536,14.0904],[100.5312,14.0877],[100.5288,14.0818],[100.532,14.0749],[100.5391,14.0704],[100.5463,14.0673],[100.5501,14.0647],[100.5528,14.0556],[100.553,14.0507],[100.5501,14.0374],[100.5466,14.0323],[100.5413,14.0204],[100.5411,14.0082],[100.5712,13.9953],[100.574,13.9779],[100.5425,13.8378],[100.5288,13.8046],[100.5084,13.7826],[100.498,13.7674],[100.4947,13.7494],[100.5012,13.7397],[100.5109,13.728],[100.5127,13.7149],[100.4947,13.701],[100.4947,13.6948],[100.5084,13.6884],[100.5293,13.6813],[100.5486,13.6816],[100.5569,13.6979],[100.5611,13.7036],[100.5706,13.708],[100.58,13.7091],[100.5842,13.7047],[100.5863,13.7013],[100.5909,13.6996],[100.5957,13.6971],[100.5978,13.6914],[100.5967,13.6853],[100.5943,13.6821],[100.592,13.68],[100.5909,13.6771],[100.5831,13.6635],[100.5497,13.6577],[100.5431,13.6402],[100.5518,13.6267],[100.5874,13.6166],[100.5978,13.6123]]}},{"type":"Feature","properties":{"name":"Chao Phraya","rank":7},"geometry":{"type":"LineString","coordinates":[[100.0833,15.2372],[100.0751,15.2247],[100.054,15.1785],[100.0524,15.1634],[100.0439,15.1531],[100.0341,15.1443],[100.0293,15.1435],[100.0244,15.1383],[100.019,15.1336],[100.0142,15.1307],[100.0159,15.1249],[100.02,15.1201],[100.0225,15.1199],[100.0239,15.1141],[100.0272,15.109],[100.0298,15.1024],[100.0293,15.0926],[100.0224,15.0801],[100.0142,15.0732],[100.0109,15.0666],[100.019,15.055],[100.0298,15.0495],[100.0415,15.0458],[100.0471,15.0399],[100.0392,15.0274],[100.0243,15.0112],[100.0178,15.0008],[100.0156,14.9902],[100.0248,14.9742],[100.0619,14.9591],[100.0702,14.9387],[100.074,14.9013],[100.0833,14.8666],[100.1016,14.8352],[100.1044,14.8257],[100.1021,14.8148],[100.0923,14.8035],[100.09,14.7943],[100.0969,14.709],[100.1028,14.6954],[100.1143,14.6794],[100.1284,14.6661],[100.1416,14.6606],[100.1471,14.6506],[100.1479,14.6284],[100.1448,14.593],[100.1216,14.5241],[100.1174,14.4875],[100.1249,14.4483],[100.1365,14.4427],[100.1386,14.4421],[100.1387,14.4373],[100.1373,14.4254],[100.1386,14.421],[100.1485,14.4086],[100.1552,14.4033],[100.1621,14.4011],[100.161,14.3916],[100.1448,14.3322],[100.1456,14.3265],[100.152,14.3233],[100.1521,14.3179],[100.1494,14.3123],[100.1411,14.3029],[100.1386,14.2975],[100.1318,14.2658],[100.1283,14.232],[100.1174,14.1956],[100.1174,14.1746],[100.1284,14.1595],[100.1311,14.1541],[100.1314,14.1438],[100.1287,14.1276],[100.1311,14.1199],[100.1379,14.113],[100.1453,14.1105],[100.1526,14.1092],[100.1589,14.1057],[100.165,14.1004],[100.1675,14.0989],[100.169,14.0957],[100.1726,14.0852],[100.1771,14.0138],[100.1835,13.9797],[100.2,13.9754],[100.2141,13.9269],[100.2241,13.8355],[100.2205,13.8245],[100.2115,13.8198],[100.1982,13.8151],[100.1892,13.8065],[100.1931,13.7904],[100.203,13.7871],[100.2343,13.7894],[100.2409,13.7869],[100.2475,13.7738],[100.2617,13.7737],[100.276,13.7769],[100.2825,13.7736],[100.2789,13.755],[100.2695,13.7516],[100.2563,13.7531],[100.2409,13.7494],[100.2379,13.741],[100.2356,13.7283],[100.2295,13.7211],[100.2143,13.7289],[100.2048,13.7139],[100.2143,13.7087],[100.2409,13.7084],[100.2433,13.7034],[100.2417,13.6955],[100.2432,13.689],[100.2546,13.688],[100.2582,13.6912],[100.2607,13.698],[100.2621,13.7065],[100.262,13.7147],[100.2724,13.7076],[100.2734,13.6964],[100.2689,13.6841],[100.262,13.6737],[100.2666,13.6697],[100.2668,13.6691],[100.2647,13.6674],[100.262,13.66],[100.2405,13.6669],[100.231,13.6675],[100.2209,13.6638],[100.2209,13.6552],[100.2268,13.646],[100.2348,13.6402],[100.2245,13.6343],[100.2205,13.6328],[100.2205,13.6265],[100.2251,13.6244],[100.2297,13.621],[100.2348,13.6191],[100.2348,13.6123],[100.2299,13.5924],[100.2439,13.5653],[100.2634,13.5379],[100.275,13.5167]]}},{"type":"Feature","properties":{"name":"Hong","rank":6},"geometry":{"type":"LineString","coordinates":[[102.1191,23.5141],[102.1357,23.4805],[102.1684,23.4689],[102.209,23.4641],[102.2495,23.4504],[102.3076,23.4188],[102.3424,23.4052],[102.3792,23.3964],[102.4259,23.397],[102.4509,23.3946],[102.4618,23.3855],[102.4661,23.3774],[102.4763,23.3771],[102.4993,23.3821],[102.5067,23.3796],[102.5413,23.3542],[102.5572,23.3474],[102.5868,23.3407],[102.5916,23.3374],[102.6008,23.3278],[102.6851,23.2946],[102.6877,23.2927],[102.698,23.2946],[102.7144,23.3041],[102.7256,23.3064],[102.762,23.304],[102.7792,23.2999],[102.8189,23.2844],[102.8254,23.2791],[102.8367,23.2553],[102.8484,23.2474],[102.8546,23.2282],[102.8627,23.2238],[102.876,23.2222],[102.8845,23.2185],[102.8912,23.2141],[102.8993,23.2108],[102.9063,23.2105],[102.912,23.212],[102.9182,23.213],[102.9272,23.2108],[102.9338,23.206],[102.9407,23.1992],[102.9484,23.193],[102.9756,23.1863],[103.0234,23.1562],[103.0645,23.1419],[103.0762,23.1306],[103.0844,23.1246],[103.0955,23.1221],[103.1329,23.1179],[103.1743,23.1084],[103.2878,23.0616],[103.3285,23.0325],[103.3608,23.0143],[103.3901,22.9914],[103.418,22.9776],[103.4618,22.9431],[103.5195,22.9105],[103.5442,22.8887],[103.5575,22.8685],[103.5647,22.8607],[103.5688,22.8596],[103.5811,22.8613],[103.5858,22.8607],[103.5889,22.8575],[103.5899,22.8536],[103.5903,22.8502],[103.592,22.8477],[103.6054,22.8378],[103.6466,22.7993],[103.6466,22.7993],[103.6466,22.7993],[103.6466,22.7993],[103.6466,22.7993],[103.6582,22.7935],[103.7261,22.7165],[103.7939,22.6596],[103.8049,22.6476],[103.8093,22.639],[103.8295,22.6094],[103.8359,22.6029],[103.8438,22.5995],[103.8663,22.5756],[103.8722,22.5738],[103.8882,22.572],[103.8942,22.5694],[103.9023,22.5588],[103.9168,22.5335],[103.9251,22.5284],[103.9403,22.5248],[103.9506,22.5167],[103.9592,22.5073],[103.9693,22.5005],[103.9771,22.4877],[103.988,22.4758],[104.0518,22.4241]]}},{"type":"Feature","properties":{"name":"Hong","rank":6},"geometry":{"type":"LineString","coordinates":[[104.0518,22.4241],[104.0991,22.3838],[104.127,22.3702],[104.1377,22.3616],[104.1808,22.316],[104.2227,22.2814],[104.2306,22.277],[104.2437,22.2716],[104.2499,22.2678],[104.2556,22.2618],[104.2646,22.2477],[104.271,22.2404],[104.3081,22.2153],[104.3188,22.205],[104.3325,22.1753],[104.3418,22.1647],[104.3529,22.1715],[104.3598,22.1715],[104.3643,22.1597],[104.3696,22.1527],[104.384,22.1405],[104.4076,22.1095],[104.4215,22.0985],[104.4696,22.0685],[104.4714,22.0645],[104.4864,22.0446],[104.4902,22.0446],[104.4934,22.0391],[104.5925,21.9592],[104.5874,21.9493],[104.5943,21.9381],[104.6205,21.9177],[104.6249,21.922],[104.6276,21.9234],[104.6404,21.9251],[104.6455,21.9046],[104.7365,21.8358],[104.7553,21.811],[104.7671,21.7996],[104.7813,21.7948],[104.7915,21.7943],[104.7988,21.7919],[104.8033,21.7867],[104.8048,21.7777],[104.8041,21.7665],[104.8034,21.7631],[104.8123,21.7538],[104.8464,21.7259],[104.8564,21.7132],[104.863,21.7077],[104.8706,21.7054],[104.8745,21.7032],[104.874,21.6939],[104.8774,21.6917],[104.8833,21.6928],[104.8859,21.6951],[104.8879,21.6975],[104.8907,21.6986],[104.9003,21.6965],[104.9059,21.6913],[104.9146,21.6781],[104.9208,21.6734],[104.9265,21.6697],[104.9315,21.6651],[104.9352,21.6576],[104.9355,21.6478],[104.9308,21.6439],[104.9249,21.6409],[104.9221,21.6334],[104.921,21.6203],[104.9201,21.6155],[104.9228,21.6153],[104.9321,21.616],[104.9434,21.6143],[104.9533,21.6097],[104.9622,21.6031],[105.0488,21.503],[105.0574,21.4965],[105.0867,21.4801],[105.1371,21.4318],[105.1588,21.404],[105.1754,21.3764],[105.1831,21.3481],[105.1885,21.3423],[105.1995,21.3399],[105.2009,21.3476],[105.2007,21.3577],[105.2058,21.3628],[105.2117,21.3735],[105.2148,21.3935],[105.2245,21.405],[105.2505,21.3901],[105.2583,21.3773],[105.2747,21.3336],[105.2778,21.3184],[105.2756,21.309],[105.2664,21.2998],[105.2642,21.2908],[105.2681,21.284],[105.2915,21.2666],[105.303,21.2609],[105.312,21.2593],[105.3293,21.2604],[105.3362,21.2658],[105.3484,21.2921],[105.3535,21.3013],[105.3735,21.309],[105.3949,21.3115],[105.4145,21.3071],[105.4259,21.2921]]}},{"type":"Feature","properties":{"name":"Hong","rank":6},"geometry":{"type":"LineString","coordinates":[[106.501,20.2995],[106.4924,20.2902],[106.4868,20.2864],[106.4809,20.2841],[106.4746,20.2831],[106.4617,20.2833],[106.4551,20.2845],[106.4498,20.2872],[106.4094,20.3163],[106.3945,20.333],[106.3862,20.3404],[106.3545,20.3555],[106.3491,20.3645],[106.3342,20.3656],[106.3228,20.3607],[106.302,20.3414],[106.2913,20.3342],[106.2781,20.3295],[106.2673,20.3315],[106.2639,20.3441],[106.2681,20.3569],[106.2747,20.3675],[106.2798,20.3784],[106.2793,20.3925],[106.272,20.4061],[106.2613,20.411],[106.2336,20.4096],[106.2193,20.4136],[106.2139,20.4243],[106.2139,20.4386],[106.2179,20.4612],[106.2175,20.4685],[106.2145,20.4749],[106.208,20.4801],[106.2017,20.4825],[106.1953,20.4842],[106.1895,20.4864],[106.1841,20.4908],[106.1774,20.5037],[106.172,20.5326],[106.1676,20.5463],[106.1582,20.5579],[106.1365,20.5752],[106.13,20.5887],[106.1276,20.6168],[106.125,20.6251],[106.1121,20.6315],[106.0762,20.6151],[106.0593,20.6166],[106.0534,20.6223],[106.0313,20.6534],[106.0268,20.6632],[106.0249,20.6737],[106.0271,20.6846],[106.031,20.694],[106.0327,20.7019],[106.0299,20.708],[106.02,20.7123],[105.9905,20.7141],[105.9811,20.7171],[105.9683,20.7317],[105.9644,20.7709],[105.956,20.7867],[105.9473,20.7911],[105.9282,20.7958],[105.92,20.8013],[105.9148,20.8096],[105.9121,20.8194],[105.9111,20.8297],[105.9114,20.8396],[105.9165,20.8559],[105.9236,20.8721],[105.9246,20.8867],[105.9103,20.8978],[105.9011,20.902],[105.8961,20.9072],[105.895,20.9143],[105.8993,20.9339],[105.8959,20.9386],[105.8901,20.9426],[105.8845,20.9498],[105.8855,20.9667],[105.895,20.984],[105.9009,21.0004],[105.8907,21.0154],[105.8595,21.0306],[105.8511,21.0397],[105.8469,21.0499],[105.8411,21.0708],[105.8341,21.0791],[105.8225,21.0856],[105.7489,21.1092],[105.7382,21.114],[105.7085,21.1368],[105.6699,21.1575],[105.6563,21.1605],[105.5141,21.1674],[105.5035,21.1695],[105.4942,21.1737],[105.4771,21.1859],[105.4653,21.1967],[105.4556,21.2085],[105.4398,21.2359],[105.4338,21.2525],[105.4259,21.2921]]}},{"type":"Feature","properties":{"name":"Lancang","rank":2},"geometry":{"type":"LineString","coordinates":[[100.1386,23.4731],[100.134,23.4674],[100.1202,23.4542],[100.1174,23.4492],[100.1044,23.4117],[100.0743,23.3609],[100.0702,23.3468],[100.0723,23.3297],[100.0813,23.2933],[100.0833,23.2714],[100.0774,23.2538],[100.0505,23.2272],[100.043,23.2124],[100.0959,23.1712],[100.114,23.1652],[100.12,23.1551],[100.143,23.0713],[100.1467,23.0652],[100.1614,23.0607],[100.1819,23.0498],[100.1863,23.0449],[100.193,23.0307],[100.2086,23.0137],[100.2268,23.003],[100.2409,23.0076],[100.2484,23.0076],[100.2571,22.9708],[100.262,22.9592],[100.269,22.9497],[100.2743,22.9483],[100.2961,22.9592],[100.2918,22.9155],[100.3009,22.8789],[100.355,22.791],[100.3618,22.7768],[100.3655,22.7462],[100.3701,22.7266],[100.3712,22.7165],[100.3628,22.6824],[100.3645,22.6718],[100.3684,22.6704],[100.3923,22.6575],[100.4022,22.6498],[100.4377,22.612],[100.5127,22.5517],[100.5333,22.5397],[100.5534,22.5346],[100.5679,22.5269],[100.5727,22.5091],[100.5706,22.4732],[100.575,22.4509],[100.5747,22.4376],[100.5668,22.4316],[100.5641,22.4254],[100.5731,22.4119],[100.5851,22.3989],[100.5909,22.3937],[100.5951,22.3865],[100.6251,22.3633],[100.6467,22.3266],[100.6593,22.3149],[100.6396,22.3094],[100.6313,22.3061],[100.6251,22.3019],[100.6138,22.2884],[100.6093,22.2785],[100.6152,22.2739],[100.6376,22.2625],[100.6608,22.2591],[100.6711,22.2559],[100.6794,22.2515],[100.6995,22.2371],[100.7025,22.2314],[100.71,22.2091],[100.7139,22.1749],[100.717,22.1686],[100.7312,22.1514],[100.7344,22.1405],[100.7312,22.1328],[100.7243,22.1251],[100.7193,22.1174],[100.7207,22.1095],[100.731,22.1087],[100.7572,22.0989],[100.7779,22.0876],[100.7626,22.0717],[100.7714,22.0488],[100.7959,22.0139],[100.804,22.0104],[100.8208,22.0093],[100.8306,22.007],[100.8557,21.9895],[100.8673,21.9835],[100.8704,21.9757],[100.8715,21.9555],[100.8745,21.9438],[100.8817,21.9374],[100.8909,21.9326],[100.8995,21.9251],[100.906,21.9136],[100.9101,21.9008],[100.9125,21.8733],[100.9179,21.861],[100.9299,21.8536],[100.9419,21.8492],[100.9473,21.8463],[101.0298,21.8494],[101.0674,21.8289],[101.0708,21.8225],[101.0684,21.8084],[101.0688,21.7944],[101.0811,21.788],[101.108,21.7914],[101.1738,21.8153],[101.1738,21.8153],[101.1738,21.8153],[101.1738,21.8153],[101.1738,21.8153],[101.1813,21.7969],[101.1631,21.7841],[101.1187,21.7669],[101.1187,21.76],[101.1245,21.7444],[101.1273,21.6953],[101.1359,21.6849],[101.1488,21.6769],[101.1611,21.6586],[101.1685,21.638],[101.1664,21.6235],[101.1736,21.6121],[101.1672,21.6004],[101.1575,21.5864],[101.1539,21.5682],[101.1587,21.5529],[101.1608,21.5349],[101.1568,21.5199],[101.1428,21.5136],[101.0032,21.4062],[100.9097,21.3603],[100.8958,21.356],[100.8621,21.3235],[100.8511,21.315],[100.8142,21.3004],[100.7916,21.2976],[100.7722,21.3045],[100.7646,21.3094],[100.7563,21.3126],[100.7475,21.3145],[100.738,21.315],[100.7251,21.3119],[100.7217,21.3039],[100.7222,21.2929],[100.7207,21.2808],[100.6892,21.1595],[100.6372,21.0699],[100.6251,21.0543],[100.6064,21.0441],[100.5615,21.0353],[100.5431,21.0276],[100.5556,21.0001],[100.5569,20.9923],[100.5517,20.9855],[100.533,20.9737],[100.5288,20.9686],[100.5268,20.9471],[100.5173,20.9065],[100.5152,20.8867],[100.5339,20.8741],[100.6226,20.8887],[100.6518,20.883],[100.6518,20.8768],[100.6262,20.8537],[100.5985,20.8337],[100.5686,20.818],[100.5364,20.8079],[100.5131,20.8072],[100.4705,20.8185],[100.3834,20.8319],[100.3645,20.8284],[100.3508,20.8155],[100.3417,20.7997],[100.3293,20.7862],[100.2898,20.7752],[100.2743,20.7622],[100.2484,20.7322],[100.2214,20.7098],[100.2109,20.6976],[100.2067,20.681],[100.2021,20.6681],[100.1797,20.6384],[100.1726,20.6223],[100.1726,20.6092],[100.1598,20.5829],[100.1488,20.5483],[100.1363,20.4594],[100.1271,20.428],[100.1249,20.4066],[100.1207,20.389],[100.1108,20.3751],[100.0993,20.3624],[100.0967,20.3486],[100.0972,20.3352],[100.0989,20.318],[100.0969,20.2834],[100.1025,20.2638],[100.1162,20.2482],[100.1343,20.2393],[100.1521,20.2393],[100.1674,20.2539],[100.1669,20.2928],[100.176,20.3008],[100.1792,20.3027],[100.2014,20.3105],[100.2067,20.3113],[100.2089,20.3132],[100.2205,20.3492],[100.24,20.373],[100.27,20.392],[100.3061,20.3998],[100.344,20.3902],[100.3639,20.3692],[100.4214,20.2503],[100.447,20.2182],[100.4518,20.2105],[100.4569,20.1966],[100.4607,20.1909],[100.4684,20.1859],[100.4853,20.179],[100.4885,20.1735],[100.496,20.1651],[100.5125,20.1555],[100.5288,20.15],[100.5364,20.1537],[100.5418,20.1669],[100.5547,20.1704],[100.5704,20.168],[100.5842,20.1636],[100.5945,20.1284],[100.5842,20.0128],[100.593,19.8194],[100.6016,19.8029],[100.6217,19.8104],[100.6319,19.8159],[100.6418,19.8165],[100.6555,19.8135],[100.6688,19.8151],[100.6782,19.8188],[100.7485,19.858],[100.7795,19.8849],[100.7921,19.8911],[100.8059,19.892],[100.928,19.8733],[100.9745,19.8596],[101.0094,19.8341],[101.0131,19.8411],[101.0195,19.8502],[101.0224,19.8557],[101.0298,19.8557],[101.0432,19.8409],[101.0596,19.8459],[101.0844,19.8688],[101.1094,19.8857],[101.1187,19.8893],[101.1313,19.8887],[101.142,19.8839],[101.1504,19.8782],[101.1695,19.869],[101.2346,19.8278],[101.2579,19.8214],[101.5595,19.8235],[101.5969,19.8314],[101.6189,19.8557],[101.6068,19.8632],[101.6194,19.8745],[101.6411,19.8848],[101.6563,19.8893],[101.6665,19.8951],[101.6958,19.9223],[101.7076,19.9309],[101.748,19.9412],[101.8293,19.9481],[101.8652,19.9575],[101.8987,19.9794],[101.9502,20.0342],[101.9745,20.0537],[101.9922,20.0596],[102.0471,20.0537],[102.0636,20.0582],[102.1191,20.0885],[102.158,20.0922],[102.1907,20.0807],[102.2168,20.0575],[102.2358,20.0264],[102.2465,19.9881],[102.2409,19.9588],[102.2224,19.9358],[102.1942,19.9166],[102.185,19.9124],[102.1674,19.9068],[102.1602,19.9029],[102.1415,19.8793],[102.1362,19.8756],[102.1272,19.8735],[102.1177,19.8641],[102.1085,19.8619],[102.0859,19.8602],[102.0454,19.852],[102.0388,19.8488],[102.0298,19.8415],[102.0238,19.8321],[102.0116,19.8059],[102.0059,19.8005],[101.9932,19.7944],[101.8936,19.7056],[101.8857,19.6872],[101.8767,19.6794],[101.8355,19.658],[101.8243,19.6497],[101.8149,19.615],[101.8167,19.4815],[101.8209,19.4672],[101.8291,19.4541],[101.8413,19.4409],[101.8569,19.4312],[101.8964,19.4144],[101.9063,19.4033],[101.8994,19.3934],[101.8662,19.3603],[101.8584,19.3449],[101.8533,19.3255],[101.8303,19.2923],[101.8243,19.2791],[101.824,19.2602],[101.8306,19.2009],[101.8287,19.1808],[101.8203,19.1473],[101.8086,19.0326],[101.8049,19.0213],[101.8031,19.0106],[101.8069,19.002],[101.8123,18.9943],[101.8149,18.9851],[101.8169,18.9644],[101.8159,18.9413],[101.8057,18.9042],[101.8032,18.8856],[101.8088,18.8703],[101.851,18.8267],[101.8617,18.7934],[101.8543,18.7634],[101.8243,18.7037],[101.8196,18.6827],[101.8151,18.6408],[101.8106,18.6218],[101.7793,18.5689],[101.7638,18.5496],[101.7426,18.5023],[101.7322,18.4915],[101.73,18.4885],[101.7076,18.471],[101.696,18.4667],[101.6832,18.4644],[101.6707,18.4654],[101.6598,18.471],[101.6445,18.4576],[101.6264,18.4212],[101.6151,18.4055],[101.593,18.3909],[101.5777,18.3851],[101.5742,18.3758],[101.5734,18.3644],[101.571,18.3549],[101.5615,18.3413],[101.547,18.3254],[101.5299,18.3121],[101.5125,18.3065],[101.4905,18.303],[101.4812,18.2938],[101.4762,18.2807],[101.4674,18.2656],[101.4208,18.2147],[101.4032,18.1822],[101.3991,18.1414],[101.4043,18.1278],[101.4229,18.0964],[101.427,18.084],[101.4332,18.0123],[101.4309,17.9826],[101.4246,17.9547],[101.4236,17.9289],[101.4448,17.8949],[101.4495,17.8848],[101.4563,17.8774],[101.4712,17.8745],[101.4954,17.8791],[101.5042,17.8758],[101.509,17.8609],[101.5157,17.8609],[101.5232,17.8666],[101.5374,17.8736],[101.5512,17.8752],[101.5574,17.8646],[101.5547,17.8571],[101.5368,17.8267],[101.5368,17.8205],[101.5435,17.8155],[101.5502,17.8139],[101.557,17.8155],[101.5636,17.8205]]}},{"type":"Feature","properties":{"name":"Mekong","rank":2},"geometry":{"type":"LineString","coordinates":[[101.5636,17.8205],[101.5636,17.8205],[101.5636,17.8205],[101.5636,17.8205],[101.5636,17.8205],[101.5702,17.8291],[101.5748,17.84],[101.5772,17.8531],[101.5772,17.8683],[101.6,17.8546],[101.6108,17.8657],[101.6194,17.8848],[101.6358,17.895],[101.7288,17.9124],[101.7323,17.9322],[101.7566,17.998],[101.7654,18.0405],[101.7735,18.0588],[101.7901,18.0737],[101.7964,18.0737],[101.8057,18.0626],[101.8449,18.0523],[101.8835,18.0311],[101.9038,18.0373],[102.0709,18.2087],[102.0781,18.2141],[102.1533,18.2103],[102.1716,18.2005],[102.1781,18.1862],[102.1816,18.1695],[102.1912,18.1523],[102.2214,18.1318],[102.2252,18.1284],[102.2328,18.1244],[102.2563,18.0943],[102.3064,18.0516],[102.3362,18.0372],[102.3662,18.039],[102.3849,18.0162],[102.412,17.9944],[102.4451,17.9779],[102.4816,17.9713],[102.5673,17.971],[102.5993,17.9554],[102.6119,17.9155],[102.5952,17.8503],[102.5949,17.841],[102.6089,17.8372],[102.6603,17.8131],[102.6825,17.8103],[102.6825,17.8176],[102.6731,17.8319],[102.6671,17.8503],[102.6728,17.8655],[102.6865,17.8737],[102.7218,17.882],[102.7371,17.8906],[102.7735,17.9229],[102.8316,17.9534],[102.8376,17.9639],[102.8523,17.9722],[102.9384,18.0091],[102.9546,18.0123],[102.9726,18.0079],[103.0034,17.9887],[103.02,17.9844],[103.0376,17.9909],[103.0491,18.0051],[103.0579,18.0195],[103.0679,18.0259],[103.0728,18.0358],[103.0645,18.0943],[103.0659,18.1125],[103.071,18.1258],[103.0797,18.135],[103.0923,18.1414]]}},{"type":"Feature","properties":{"name":"Mekong","rank":2},"geometry":{"type":"LineString","coordinates":[[103.0903,18.137],[103.0886,18.135],[103.1099,18.142],[103.1265,18.152],[103.1382,18.1669],[103.1448,18.1882],[103.1506,18.2217],[103.157,18.2372],[103.1679,18.2499],[103.1763,18.2551],[103.1848,18.2579],[103.2147,18.2625],[103.2363,18.2702],[103.273,18.2762],[103.2861,18.2805],[103.295,18.288],[103.296,18.2971],[103.29,18.3054],[103.2482,18.3328],[103.2397,18.3362],[103.2377,18.3417],[103.2351,18.3455],[103.2332,18.3495],[103.2335,18.356],[103.2437,18.3803],[103.2605,18.4004],[103.2821,18.4157],[103.3065,18.4258],[103.3862,18.4417],[103.3962,18.4416],[103.4511,18.4255],[103.4696,18.4222],[103.4743,18.4223],[103.4888,18.4246],[103.4973,18.4239],[103.5229,18.4179],[103.5484,18.4156],[103.6066,18.4006],[103.621,18.3909],[103.6296,18.3834],[103.6382,18.3782],[103.6952,18.3534],[103.7087,18.3499],[103.7667,18.3469],[103.7843,18.3441],[103.801,18.3384],[103.8169,18.3306],[103.8317,18.3209],[103.8418,18.3093],[103.8484,18.2966],[103.8574,18.2866],[103.8735,18.2835],[103.8809,18.2846],[103.8855,18.2872],[103.8893,18.2913],[103.8933,18.2974],[103.9098,18.3155],[103.9291,18.3278],[103.9509,18.3332],[103.975,18.3309],[103.9998,18.3187],[104.0183,18.2993],[104.0681,18.2156],[104.1106,18.1148],[104.122,18.0955],[104.1353,18.0799],[104.1978,18.0258],[104.2104,18.0089],[104.2548,17.9152],[104.2639,17.8848],[104.2699,17.8742],[104.2778,17.8649],[104.2872,17.8569],[104.3523,17.8195],[104.3674,17.8007],[104.3899,17.7574],[104.4045,17.7401],[104.4086,17.7339],[104.4114,17.7276],[104.4175,17.7078],[104.4219,17.7],[104.4517,17.6661],[104.4809,17.6406],[104.6361,17.5627],[104.6545,17.5562],[104.7022,17.5275],[104.7143,17.5154],[104.7339,17.4871],[104.7493,17.4583],[104.7563,17.4501],[104.7644,17.4446],[104.7813,17.4354],[104.7886,17.4292],[104.7922,17.4237],[104.816,17.373],[104.8189,17.3613],[104.8198,17.3491],[104.816,17.3003]]}},{"type":"Feature","properties":{"name":"Mekong","rank":2},"geometry":{"type":"LineString","coordinates":[[104.816,17.3003],[104.818,17.2404],[104.814,17.1942],[104.8095,17.1718],[104.7449,17.025],[104.74,17.0028],[104.7493,16.911],[104.7528,16.9],[104.7625,16.8792],[104.766,16.8684],[104.7668,16.8563],[104.765,16.8448],[104.7579,16.8221],[104.756,16.81],[104.7566,16.7987],[104.7781,16.716],[104.7786,16.7051],[104.7772,16.6942],[104.7632,16.6569],[104.7528,16.615],[104.748,16.5721],[104.749,16.5495],[104.7542,16.5291],[104.7647,16.5115],[104.7823,16.4973],[104.8386,16.4679],[104.8551,16.4543],[104.8686,16.4387],[104.8792,16.4221],[104.8873,16.4041],[104.8967,16.3729],[104.9014,16.3626],[104.9077,16.3536],[104.9168,16.3458],[104.9438,16.331],[104.9518,16.3246],[104.9713,16.3045],[104.979,16.2988],[105.0071,16.2838],[105.0151,16.2769],[105.026,16.2578],[105.0293,16.2362],[105.0286,16.1917],[105.0323,16.1655],[105.0422,16.1417],[105.0579,16.1214],[105.0789,16.1057],[105.2371,16.051],[105.2471,16.0493],[105.2883,16.0476],[105.4045,16.019],[105.4142,16.0154],[105.4216,16.0101],[105.4234,16.0024],[105.4177,15.9949],[105.407,15.9891],[105.3861,15.981],[105.3622,15.955],[105.3604,15.9196],[105.3721,15.8823],[105.4117,15.8],[105.4225,15.7841],[105.4353,15.7718],[105.4478,15.7651],[105.462,15.763],[105.5032,15.7664],[105.525,15.7637],[105.5681,15.7496],[105.6126,15.7217],[105.6407,15.6822],[105.6505,15.6348],[105.6404,15.5835],[105.6159,15.5214],[105.6118,15.4996],[105.61,15.4573],[105.604,15.4394],[105.588,15.424],[105.5524,15.4022],[105.5059,15.3878],[105.4859,15.3751],[105.4771,15.353],[105.4829,15.3347],[105.4988,15.3248],[105.519,15.3212],[105.5382,15.3217],[105.5934,15.3319],[105.6139,15.3294],[105.6325,15.3201],[105.6482,15.3059],[105.6597,15.2885],[105.6625,15.2797],[105.665,15.2524],[105.6692,15.2405],[105.6755,15.2298],[105.7667,15.1329]]}},{"type":"Feature","properties":{"name":"Mekong","rank":2},"geometry":{"type":"LineString","coordinates":[[105.7817,15.1206],[105.7815,15.1214],[105.7812,15.1221],[105.7808,15.1227],[105.7802,15.1233],[105.7988,15.1118],[105.8178,15.1031],[105.8339,15.0919],[105.8442,15.0725],[105.8501,15.0508],[105.8551,15.0412],[105.8629,15.0328],[105.89,15.013],[105.897,15.0036],[105.9031,14.9812],[105.8962,14.9119],[105.9043,14.8672],[105.902,14.8348],[105.9031,14.824],[105.9075,14.8138],[105.9284,14.7886],[105.9337,14.7778],[105.9354,14.7665],[105.9346,14.7549],[105.9319,14.7432],[105.9281,14.7322],[105.9231,14.7219],[105.9169,14.7125],[105.8832,14.6809],[105.8767,14.6711],[105.8731,14.6594],[105.8725,14.6475],[105.874,14.6234],[105.873,14.6107],[105.8702,14.5989],[105.8525,14.5521],[105.8492,14.5278],[105.8513,14.4778],[105.8799,14.3552],[105.8801,14.3222],[105.8699,14.2911],[105.8418,14.2307],[105.8375,14.2133],[105.8359,14.1955],[105.84,14.1729],[105.8402,14.1654],[105.8378,14.1577],[105.8245,14.1374],[105.8208,14.1293],[105.8181,14.1207],[105.8164,14.1117],[105.8159,14.1029],[105.8193,14.0869],[105.8271,14.071],[105.8376,14.057],[105.8576,14.0415],[105.8632,14.0355],[105.8728,14.021],[105.8794,14.0139],[105.8871,14.01],[105.9201,14.0045],[105.9335,14.0002],[105.946,13.9937],[105.9683,13.9765],[105.973,13.9717],[105.9763,13.9661],[105.9779,13.958],[105.9766,13.9506],[105.9714,13.9358],[105.9723,13.9197],[105.9805,13.908],[105.9915,13.8978],[106.0007,13.8859],[106.0033,13.8765],[106.0015,13.8684],[105.9858,13.8444],[105.9823,13.8353],[105.975,13.7974],[105.9752,13.7786],[105.9813,13.7619],[105.9946,13.7496],[105.9956,13.7456],[106.0071,13.7386],[106.0171,13.7273],[106.0316,13.7021],[106.0367,13.6863],[106.0368,13.6713],[106.0326,13.6566],[106.021,13.6339],[106.0194,13.6259],[106.0178,13.609],[106.0164,13.6026],[106.0138,13.597],[106.0068,13.5865],[105.9442,13.5139],[105.936,13.4962],[105.9291,13.4667],[105.9257,13.4572],[105.9077,13.4236],[105.9049,13.4064],[105.9124,13.3882],[105.9493,13.3501]]}}]}