{"type":"FeatureCollection","features":[{"type":"Feature","properties":{"did":501,"pid":5,"name_en":"Houixay","name_lo":"ຫ້ວຍຊາຍ","pcode":"LA0501","area_km2":1730.8,"village_count":82,"density":0.047},"geometry":{"type":"Polygon","coordinates":[[[100.84411,20.57091],[100.84514,20.56757],[100.84554,20.56442],[100.84521,20.56229],[100.84427,20.55995],[100.84287,20.55803],[100.84016,20.55509],[100.83908,20.55423],[100.83752,20.55181],[100.83546,20.54918],[100.83469,20.54705],[100.83435,20.54487],[100.83379,20.54111],[100.8329,20.53878],[100.83252,20.53619],[100.83282,20.53355],[100.83435,20.53049],[100.83707,20.52722],[100.83839,20.52412],[100.83905,20.52026],[100.83883,20.51645],[100.83858,20.51303],[100.83943,20.51085],[100.84295,20.50758],[100.8476,20.50542],[100.85236,20.50433],[100.85488,20.50381],[100.85761,20.50252],[100.85938,20.50277],[100.86186,20.50387],[100.86459,20.50365],[100.86748,20.50288],[100.8707,20.50266],[100.87285,20.50335],[100.88087,20.50824],[100.88389,20.5098],[100.88737,20.50988],[100.88898,20.50931],[100.89524,20.50431],[100.89597,20.50381],[100.89645,20.50402],[100.89732,20.50494],[100.89765,20.50515],[100.89875,20.5053],[100.89922,20.50583],[100.89954,20.50648],[100.90064,20.50664],[100.90269,20.50695],[100.90256,20.50662],[100.90251,20.5061],[100.90341,20.5058],[100.90432,20.50552],[100.90486,20.50505],[100.90525,20.5039],[100.90566,20.50391],[100.90576,20.50488],[100.90596,20.50547],[100.9065,20.50581],[100.90718,20.50628],[100.90778,20.50681],[100.90861,20.50683],[100.90938,20.50626],[100.91033,20.50661],[100.91109,20.50611],[100.91136,20.50663],[100.91188,20.50768],[100.91283,20.50809],[100.91345,20.50811],[100.91381,20.50747],[100.9147,20.50729],[100.91587,20.50738],[100.91656,20.50714],[100.91809,20.50681],[100.92001,20.50688],[100.92,20.50756],[100.92039,20.50822],[100.92148,20.50889],[100.92224,20.50955],[100.92385,20.50953],[100.92472,20.51033],[100.92618,20.50972],[100.92739,20.50988],[100.92912,20.50947],[100.93109,20.5084],[100.93244,20.508],[100.93347,20.50828],[100.93468,20.50908],[100.93624,20.50919],[100.93809,20.50857],[100.93879,20.50937],[100.9398,20.50966],[100.94089,20.5102],[100.94175,20.51138],[100.94297,20.51173],[100.94398,20.51247],[100.94527,20.51281],[100.94721,20.51266],[100.94919,20.51255],[100.95133,20.51172],[100.95434,20.50984],[100.95582,20.50704],[100.95903,20.5011],[100.96239,20.4988],[100.96419,20.49683],[100.96677,20.4947],[100.97126,20.49352],[100.97211,20.4908],[100.97461,20.48391],[100.97584,20.48138],[100.97803,20.47924],[100.97943,20.47763],[100.98027,20.47545],[100.98012,20.47298],[100.98083,20.46852],[100.98166,20.46671],[100.98308,20.46418],[100.9843,20.46202],[100.98497,20.45856],[100.9869,20.45056],[100.98755,20.44457],[100.98818,20.44213],[100.99011,20.43983],[100.99365,20.43844],[100.99781,20.43685],[100.99974,20.43612],[100.9998,20.43598],[100.99982,20.43595],[101.00228,20.43103],[101.00268,20.42336],[101.00356,20.42143],[101.00517,20.41529],[101.00682,20.40484],[101.00649,20.40211],[101.00533,20.3932],[101.00691,20.38378],[101.00768,20.37734],[101.00789,20.37212],[101.00892,20.36914],[101.01278,20.35996],[101.01302,20.35939],[101.01229,20.35981],[101.01017,20.36204],[101.00811,20.3645],[101.00599,20.36636],[101.00315,20.36838],[101.00059,20.36976],[100.99981,20.37013],[100.9998,20.37013],[100.99591,20.37194],[100.99333,20.3733],[100.99021,20.37554],[100.98636,20.3779],[100.98119,20.38205],[100.97752,20.38515],[100.97294,20.38843],[100.96874,20.39153],[100.96555,20.39404],[100.95806,20.39895],[100.95595,20.40009],[100.95007,20.40276],[100.94496,20.4042],[100.93942,20.40499],[100.93442,20.405],[100.92835,20.40396],[100.92332,20.40269],[100.91045,20.39866],[100.90517,20.39655],[100.90024,20.39345],[100.89535,20.39034],[100.88903,20.38731],[100.88212,20.38295],[100.87703,20.37929],[100.86972,20.37575],[100.86512,20.37329],[100.86213,20.3712],[100.85755,20.3675],[100.85286,20.36388],[100.85,20.36157],[100.84619,20.35921],[100.83865,20.3547],[100.83361,20.35173],[100.83023,20.34969],[100.82578,20.3475],[100.82171,20.34572],[100.81668,20.34408],[100.81165,20.34276],[100.80603,20.34143],[100.80254,20.34095],[100.79561,20.34022],[100.79254,20.34038],[100.78708,20.34204],[100.78349,20.34344],[100.77697,20.3456],[100.77167,20.34648],[100.76598,20.34708],[100.7599,20.34763],[100.75385,20.34727],[100.74833,20.34682],[100.74332,20.34618],[100.73673,20.34435],[100.73146,20.34141],[100.72726,20.33913],[100.72277,20.33616],[100.71901,20.33366],[100.71874,20.33348],[100.71774,20.33282],[100.71262,20.32925],[100.70819,20.32517],[100.70281,20.31958],[100.6981,20.31422],[100.6954,20.31103],[100.69232,20.30609],[100.68989,20.30286],[100.68692,20.29696],[100.6839,20.29207],[100.68084,20.28617],[100.67707,20.27953],[100.67474,20.27249],[100.6737,20.26867],[100.67054,20.26341],[100.66745,20.25683],[100.66526,20.25249],[100.66252,20.2472],[100.6599,20.24245],[100.65726,20.23742],[100.65371,20.23179],[100.64969,20.2269],[100.64748,20.22389],[100.64886,20.22299],[100.64803,20.22206],[100.64625,20.22003],[100.64448,20.21841],[100.64216,20.21596],[100.63867,20.21194],[100.63553,20.20879],[100.6335,20.20666],[100.62591,20.20045],[100.62217,20.19739],[100.61396,20.19095],[100.61151,20.189],[100.60412,20.18412],[100.5978,20.18063],[100.59422,20.17849],[100.59094,20.17686],[100.58699,20.17499],[100.58207,20.17275],[100.57936,20.17172],[100.57644,20.17028],[100.57574,20.17066],[100.57414,20.1722],[100.5728,20.17307],[100.57127,20.17422],[100.57005,20.17492],[100.56625,20.17607],[100.56347,20.17707],[100.56198,20.17709],[100.56054,20.177],[100.55947,20.17697],[100.55888,20.17667],[100.55769,20.17642],[100.55632,20.17638],[100.5532,20.17653],[100.55141,20.17648],[100.55035,20.176],[100.54904,20.1758],[100.54721,20.17496],[100.54616,20.17381],[100.54472,20.17196],[100.54363,20.17024],[100.54285,20.16836],[100.5418,20.16523],[100.54117,20.16283],[100.54115,20.16278],[100.53935,20.1589],[100.53918,20.15873],[100.53789,20.1575],[100.53498,20.15489],[100.53382,20.15373],[100.53111,20.14999],[100.52904,20.147],[100.52587,20.14523],[100.52277,20.14481],[100.51929,20.14523],[100.51513,20.14631],[100.51247,20.14748],[100.50831,20.15065],[100.50615,20.15291],[100.50441,20.15546],[100.50289,20.15842],[100.5017,20.16025],[100.5005,20.16237],[100.49868,20.16415],[100.49798,20.16484],[100.49479,20.16764],[100.49356,20.16931],[100.49323,20.16975],[100.49121,20.17348],[100.48927,20.17653],[100.48759,20.17869],[100.48629,20.18026],[100.48567,20.18102],[100.48419,20.182],[100.48226,20.1833],[100.47974,20.18566],[100.47865,20.18795],[100.47698,20.18994],[100.47619,20.19048],[100.47231,20.19358],[100.46705,20.19718],[100.46433,20.19827],[100.46122,20.19843],[100.45807,20.19858],[100.45485,20.1993],[100.45416,20.19933],[100.45258,20.20122],[100.45181,20.20408],[100.45234,20.20703],[100.45279,20.20984],[100.45318,20.21314],[100.45434,20.21663],[100.45519,20.21941],[100.45564,20.22256],[100.45485,20.22545],[100.45408,20.22824],[100.45279,20.23072],[100.45057,20.23298],[100.44864,20.2352],[100.44606,20.2367],[100.44323,20.23813],[100.43781,20.24103],[100.43211,20.24332],[100.4292,20.24435],[100.42605,20.24557],[100.42341,20.24686],[100.41838,20.25018],[100.41431,20.2536],[100.41421,20.25376],[100.41267,20.25587],[100.41088,20.25918],[100.41021,20.2618],[100.40979,20.26336],[100.40905,20.26627],[100.40852,20.26769],[100.4076,20.27187],[100.40746,20.27454],[100.40694,20.2768],[100.40583,20.27941],[100.40495,20.28118],[100.40388,20.28357],[100.4025,20.28562],[100.4009,20.28737],[100.3993,20.28879],[100.39794,20.29032],[100.39778,20.29049],[100.39616,20.29216],[100.3948,20.29395],[100.39439,20.29482],[100.39408,20.29548],[100.39259,20.29865],[100.39068,20.30225],[100.39004,20.30409],[100.38832,20.30629],[100.38665,20.30781],[100.38407,20.3108],[100.38196,20.31453],[100.38119,20.31715],[100.38051,20.32042],[100.38018,20.3222],[100.38018,20.32549],[100.37982,20.32838],[100.37877,20.33135],[100.3776,20.33442],[100.37679,20.33723],[100.37637,20.33996],[100.37666,20.34277],[100.37675,20.34567],[100.37648,20.34775],[100.37565,20.3502],[100.37486,20.35116],[100.373,20.35316],[100.37219,20.35395],[100.37096,20.35451],[100.36907,20.35521],[100.36602,20.35562],[100.36543,20.3557],[100.36484,20.35578],[100.36394,20.35572],[100.36208,20.35561],[100.36066,20.3558],[100.36061,20.35584],[100.35981,20.35665],[100.35901,20.35781],[100.35869,20.3593],[100.35828,20.36248],[100.35829,20.36469],[100.35867,20.36679],[100.35876,20.36966],[100.35817,20.37205],[100.35756,20.37403],[100.35639,20.37621],[100.3547,20.37825],[100.35291,20.37941],[100.35184,20.38049],[100.35091,20.3815],[100.34914,20.3827],[100.34703,20.38407],[100.34597,20.38489],[100.34417,20.38618],[100.34306,20.38722],[100.3419,20.38797],[100.34105,20.3886],[100.34076,20.38912],[100.34021,20.39008],[100.33982,20.39046],[100.33926,20.39093],[100.33779,20.39243],[100.3361,20.39375],[100.33457,20.39501],[100.3336,20.39629],[100.3332,20.39696],[100.33261,20.39717],[100.33201,20.39752],[100.33136,20.39838],[100.33082,20.39895],[100.32964,20.39924],[100.32819,20.39934],[100.32583,20.3995],[100.32366,20.39944],[100.32234,20.39944],[100.3202,20.39941],[100.32012,20.39941],[100.31845,20.39953],[100.31742,20.39973],[100.31718,20.39978],[100.31677,20.40018],[100.31656,20.40039],[100.31531,20.4015],[100.31477,20.40198],[100.31349,20.40268],[100.31303,20.4028],[100.3127,20.40289],[100.31108,20.40285],[100.3094,20.40257],[100.30631,20.40136],[100.30364,20.40009],[100.30098,20.39866],[100.29816,20.3983],[100.29636,20.39837],[100.2946,20.39866],[100.29424,20.39864],[100.29303,20.39885],[100.29365,20.39998],[100.29564,20.40362],[100.29679,20.40543],[100.29861,20.40797],[100.30183,20.41107],[100.30582,20.41607],[100.30884,20.41986],[100.31364,20.424],[100.31634,20.4265],[100.31912,20.42882],[100.32196,20.43151],[100.325,20.43402],[100.32961,20.43751],[100.33443,20.44191],[100.33754,20.4446],[100.34,20.44697],[100.34178,20.44919],[100.34493,20.45326],[100.34989,20.45817],[100.35413,20.46137],[100.35798,20.46527],[100.36001,20.46694],[100.36685,20.47127],[100.37138,20.47439],[100.37581,20.47797],[100.37889,20.48052],[100.38348,20.483],[100.40566,20.4936],[100.4104,20.49587],[100.46321,20.50956],[100.4971,20.50508],[100.52396,20.49613],[100.55064,20.48938],[100.55594,20.4856],[100.55938,20.48445],[100.56324,20.48303],[100.5647,20.48242],[100.56677,20.48144],[100.56774,20.48012],[100.56898,20.47829],[100.57029,20.47713],[100.57241,20.47678],[100.57293,20.47718],[100.57368,20.47755],[100.5747,20.47809],[100.57571,20.4785],[100.57682,20.47885],[100.5783,20.47953],[100.57877,20.4798],[100.57946,20.48044],[100.58046,20.48133],[100.58168,20.48182],[100.58276,20.48223],[100.58384,20.48342],[100.58446,20.48311],[100.58488,20.48273],[100.58551,20.48249],[100.58655,20.48187],[100.58765,20.48189],[100.58812,20.48248],[100.5885,20.48384],[100.58923,20.4845],[100.59053,20.48498],[100.59119,20.48565],[100.59291,20.48575],[100.59427,20.48624],[100.59528,20.48665],[100.59604,20.48779],[100.59633,20.48862],[100.59723,20.48877],[100.59832,20.48879],[100.59897,20.48797],[100.59993,20.48786],[100.60094,20.4884],[100.60173,20.4901],[100.60202,20.49101],[100.60289,20.49181],[100.60389,20.49274],[100.60498,20.49334],[100.60579,20.49382],[100.60625,20.49461],[100.60647,20.49608],[100.60943,20.49613],[100.61107,20.49629],[100.61358,20.49726],[100.61542,20.49846],[100.61674,20.49933],[100.61842,20.5006],[100.62044,20.50168],[100.6226,20.50289],[100.6245,20.50352],[100.63246,20.50952],[100.63739,20.51524],[100.63781,20.52059],[100.63909,20.52516],[100.64098,20.52841],[100.64568,20.53253],[100.64975,20.53877],[100.65235,20.5471],[100.65546,20.55732],[100.65676,20.56413],[100.65883,20.56834],[100.66357,20.56922],[100.67552,20.56929],[100.68575,20.56795],[100.70909,20.56426],[100.73419,20.55937],[100.74151,20.55984],[100.74745,20.56007],[100.7537,20.56059],[100.7594,20.5614],[100.76188,20.56188],[100.76635,20.56241],[100.77284,20.56388],[100.77783,20.56585],[100.78094,20.56679],[100.78768,20.56941],[100.79273,20.57055],[100.79895,20.57124],[100.81322,20.57212],[100.81972,20.57236],[100.82624,20.57222],[100.83679,20.57129],[100.84411,20.57091]]]}},{"type":"Feature","properties":{"did":503,"pid":5,"name_en":"Meung","name_lo":"ເມິງ","pcode":"LA0503","area_km2":1601.9,"village_count":28,"density":0.017},"geometry":{"type":"Polygon","coordinates":[[[100.80663,20.66231],[100.80812,20.66096],[100.81181,20.65835],[100.81721,20.65578],[100.82003,20.65318],[100.82273,20.64864],[100.8233,20.64412],[100.82313,20.64173],[100.82067,20.63634],[100.8199,20.63389],[100.81967,20.63073],[100.8207,20.62559],[100.82286,20.62032],[100.8244,20.61482],[100.82401,20.61436],[100.82411,20.61333],[100.82481,20.61238],[100.8252,20.61084],[100.82522,20.60993],[100.82463,20.60876],[100.82446,20.60759],[100.82469,20.60669],[100.82472,20.6056],[100.82424,20.60401],[100.82487,20.60294],[100.82443,20.60103],[100.82481,20.59994],[100.8251,20.59924],[100.82553,20.59809],[100.82577,20.59712],[100.82661,20.5965],[100.82733,20.59516],[100.82804,20.59407],[100.82903,20.593],[100.83022,20.59212],[100.83121,20.59111],[100.83132,20.59016],[100.83364,20.58829],[100.83567,20.586],[100.83847,20.58034],[100.84154,20.57647],[100.84407,20.57102],[100.84411,20.57091],[100.83679,20.57129],[100.82624,20.57222],[100.81972,20.57236],[100.81322,20.57212],[100.79895,20.57124],[100.79273,20.57055],[100.78768,20.56941],[100.78094,20.56679],[100.77783,20.56585],[100.77284,20.56388],[100.76635,20.56241],[100.76188,20.56188],[100.7594,20.5614],[100.7537,20.56059],[100.74745,20.56007],[100.74151,20.55984],[100.73419,20.55937],[100.70909,20.56426],[100.68575,20.56795],[100.67552,20.56929],[100.66357,20.56922],[100.65883,20.56834],[100.65676,20.56413],[100.65546,20.55732],[100.65235,20.5471],[100.64975,20.53877],[100.64568,20.53253],[100.64098,20.52841],[100.63909,20.52516],[100.63781,20.52059],[100.63739,20.51524],[100.63246,20.50952],[100.6245,20.50352],[100.6226,20.50289],[100.62044,20.50168],[100.61842,20.5006],[100.61674,20.49933],[100.61542,20.49846],[100.61358,20.49726],[100.61107,20.49629],[100.60943,20.49613],[100.60647,20.49608],[100.60625,20.49461],[100.60579,20.49382],[100.60498,20.49334],[100.60389,20.49274],[100.60289,20.49181],[100.60202,20.49101],[100.60173,20.4901],[100.60094,20.4884],[100.59993,20.48786],[100.59897,20.48797],[100.59832,20.48879],[100.59723,20.48877],[100.59633,20.48862],[100.59604,20.48779],[100.59528,20.48665],[100.59427,20.48624],[100.59291,20.48575],[100.59119,20.48565],[100.59053,20.48498],[100.58923,20.4845],[100.5885,20.48384],[100.58812,20.48248],[100.58765,20.48189],[100.58655,20.48187],[100.58551,20.48249],[100.58488,20.48273],[100.58446,20.48311],[100.58384,20.48342],[100.58276,20.48223],[100.58168,20.48182],[100.58046,20.48133],[100.57946,20.48044],[100.57877,20.4798],[100.5783,20.47953],[100.57682,20.47885],[100.57571,20.4785],[100.5747,20.47809],[100.57368,20.47755],[100.57293,20.47718],[100.57241,20.47678],[100.57029,20.47713],[100.56898,20.47829],[100.56774,20.48012],[100.56677,20.48144],[100.5647,20.48242],[100.56324,20.48303],[100.55938,20.48445],[100.55594,20.4856],[100.55064,20.48938],[100.54931,20.4913],[100.54863,20.49271],[100.54937,20.49375],[100.55124,20.49486],[100.55163,20.49578],[100.55146,20.49687],[100.55095,20.49815],[100.55027,20.49846],[100.54908,20.49933],[100.54805,20.49957],[100.54737,20.4991],[100.5466,20.49928],[100.54595,20.50055],[100.54531,20.50233],[100.54477,20.50395],[100.54392,20.50496],[100.54259,20.50622],[100.54174,20.50743],[100.54158,20.5082],[100.54168,20.50921],[100.54264,20.50972],[100.54372,20.51006],[100.54486,20.51081],[100.54607,20.51186],[100.54665,20.51297],[100.54689,20.51453],[100.54658,20.51581],[100.54589,20.51664],[100.5447,20.51693],[100.54367,20.51762],[100.54316,20.51832],[100.54204,20.51919],[100.54058,20.51981],[100.53927,20.52029],[100.53844,20.52079],[100.53551,20.52146],[100.53058,20.52118],[100.52545,20.52187],[100.52328,20.5221],[100.52316,20.52211],[100.51847,20.5232],[100.51548,20.52455],[100.51066,20.52825],[100.5061,20.53159],[100.50192,20.53524],[100.49908,20.53694],[100.49405,20.53974],[100.48656,20.54488],[100.47962,20.54913],[100.4753,20.55323],[100.47049,20.55686],[100.46848,20.55832],[100.46723,20.55865],[100.4666,20.55887],[100.46554,20.55967],[100.46491,20.55997],[100.46462,20.55985],[100.46408,20.55925],[100.46333,20.55843],[100.46264,20.55784],[100.4622,20.55757],[100.46169,20.55741],[100.46118,20.55748],[100.4607,20.55773],[100.45976,20.55846],[100.45939,20.55884],[100.45902,20.55936],[100.45866,20.56005],[100.45825,20.56099],[100.458,20.56131],[100.45758,20.56142],[100.45712,20.56138],[100.45685,20.56127],[100.45646,20.56101],[100.4555,20.56048],[100.45511,20.56028],[100.45428,20.5598],[100.45395,20.55945],[100.45288,20.55887],[100.45236,20.5587],[100.45149,20.55866],[100.45102,20.5588],[100.45001,20.55928],[100.4491,20.55967],[100.44835,20.55992],[100.44763,20.56007],[100.44712,20.5603],[100.44634,20.56063],[100.44572,20.56075],[100.44491,20.56071],[100.44378,20.56039],[100.44319,20.56014],[100.44278,20.55996],[100.44232,20.55972],[100.44191,20.5595],[100.44126,20.55887],[100.44113,20.55839],[100.44105,20.55802],[100.44076,20.55771],[100.44042,20.55761],[100.43995,20.55765],[100.43965,20.55786],[100.43931,20.55814],[100.43871,20.55861],[100.43825,20.55892],[100.43828,20.56011],[100.43834,20.56079],[100.4385,20.56119],[100.42996,20.56327],[100.36729,20.58693],[100.35172,20.59555],[100.34506,20.59734],[100.33781,20.59947],[100.3263,20.60233],[100.31705,20.60528],[100.30636,20.60874],[100.29384,20.61288],[100.2824,20.61823],[100.27619,20.62133],[100.26803,20.62579],[100.25673,20.63146],[100.2471,20.63603],[100.24089,20.63946],[100.23449,20.64297],[100.22896,20.64562],[100.22383,20.64813],[100.21753,20.65054],[100.21161,20.65365],[100.20688,20.65621],[100.20218,20.65836],[100.19808,20.66057],[100.19438,20.66218],[100.19189,20.66421],[100.19408,20.66643],[100.19726,20.66791],[100.20089,20.67154],[100.2032,20.67371],[100.20436,20.6752],[100.20554,20.67768],[100.20595,20.68111],[100.20587,20.683],[100.20616,20.68468],[100.20685,20.68789],[100.20761,20.68997],[100.2097,20.69297],[100.21192,20.69604],[100.21355,20.69866],[100.21441,20.7001],[100.21658,20.7028],[100.21895,20.7049],[100.22066,20.70656],[100.22169,20.70769],[100.22254,20.70963],[100.22336,20.71198],[100.22384,20.713],[100.22432,20.71356],[100.22986,20.71616],[100.23218,20.71801],[100.23501,20.72028],[100.23677,20.72118],[100.23879,20.72252],[100.23953,20.72329],[100.24008,20.7245],[100.24093,20.72748],[100.24135,20.72961],[100.24151,20.73022],[100.24207,20.73124],[100.24361,20.73256],[100.24528,20.73471],[100.24594,20.73631],[100.24644,20.73684],[100.24746,20.73808],[100.24888,20.73993],[100.24992,20.74156],[100.25021,20.74279],[100.25019,20.74354],[100.25048,20.74403],[100.25146,20.74497],[100.25238,20.74661],[100.25279,20.74773],[100.25334,20.74843],[100.2552,20.75052],[100.25762,20.7521],[100.26053,20.75351],[100.26173,20.75403],[100.26394,20.75454],[100.26519,20.75507],[100.26649,20.75579],[100.26833,20.75709],[100.26955,20.75847],[100.272,20.76044],[100.27447,20.76215],[100.27572,20.76359],[100.27617,20.76537],[100.27665,20.76634],[100.27741,20.76715],[100.27892,20.7683],[100.28058,20.76941],[100.28294,20.77127],[100.28869,20.77532],[100.29212,20.77713],[100.29573,20.77863],[100.29917,20.78016],[100.30261,20.7816],[100.30565,20.78256],[100.30688,20.78275],[100.3095,20.78288],[100.31201,20.78303],[100.31383,20.78291],[100.31484,20.78273],[100.31617,20.78266],[100.31793,20.78284],[100.31999,20.7829],[100.32313,20.78303],[100.32552,20.78321],[100.32952,20.7849],[100.33358,20.78729],[100.3355,20.78882],[100.33893,20.79153],[100.33946,20.79251],[100.34028,20.7931],[100.34224,20.79315],[100.34503,20.79497],[100.34716,20.79688],[100.35041,20.80129],[100.35233,20.80267],[100.35402,20.80467],[100.35549,20.80677],[100.35663,20.80886],[100.35708,20.81185],[100.35758,20.8134],[100.35774,20.81536],[100.35831,20.8163],[100.35926,20.81765],[100.36099,20.81898],[100.36231,20.82044],[100.36371,20.82234],[100.36507,20.82405],[100.36565,20.82549],[100.366,20.82599],[100.36672,20.8263],[100.36855,20.82655],[100.37094,20.82701],[100.37366,20.82684],[100.37413,20.82676],[100.37459,20.82675],[100.37792,20.82688],[100.3806,20.82749],[100.38492,20.82894],[100.38531,20.8292],[100.39053,20.83029],[100.39459,20.83094],[100.3972,20.83106],[100.40275,20.83072],[100.40507,20.83058],[100.40953,20.83067],[100.4149,20.83135],[100.4197,20.83177],[100.42266,20.83191],[100.42485,20.83175],[100.42772,20.83059],[100.43073,20.8288],[100.43367,20.82647],[100.43685,20.82472],[100.43872,20.82417],[100.44154,20.82416],[100.44472,20.82481],[100.44796,20.82495],[100.45161,20.82505],[100.4521,20.82511],[100.4528,20.82505],[100.45596,20.82514],[100.45881,20.82493],[100.46048,20.82424],[100.46354,20.82299],[100.46653,20.82131],[100.46896,20.82094],[100.475,20.82071],[100.47884,20.82019],[100.47982,20.81988],[100.48305,20.81915],[100.4854,20.81791],[100.48761,20.81674],[100.49031,20.81591],[100.4908,20.81576],[100.49339,20.81542],[100.49714,20.81494],[100.50142,20.81509],[100.505,20.81555],[100.50652,20.81559],[100.50948,20.81567],[100.51391,20.81486],[100.51715,20.81469],[100.52033,20.81525],[100.52581,20.81734],[100.52826,20.81887],[100.53221,20.81989],[100.53591,20.82112],[100.53811,20.82206],[100.54001,20.8224],[100.54223,20.82261],[100.54464,20.82289],[100.54796,20.82268],[100.55174,20.8226],[100.55887,20.82168],[100.56336,20.82158],[100.56807,20.82196],[100.57116,20.82288],[100.57231,20.82357],[100.57408,20.82582],[100.5754,20.82706],[100.57834,20.82791],[100.5818,20.82969],[100.58723,20.83238],[100.58751,20.83249],[100.58879,20.83295],[100.59107,20.83362],[100.59213,20.83381],[100.59382,20.83443],[100.59658,20.8351],[100.59917,20.83671],[100.60591,20.83939],[100.60823,20.84132],[100.61048,20.84343],[100.61114,20.8434],[100.61179,20.84319],[100.61225,20.84305],[100.61233,20.84302],[100.61328,20.84298],[100.61414,20.84312],[100.6147,20.84332],[100.61514,20.84332],[100.61554,20.84311],[100.61579,20.84262],[100.61634,20.84194],[100.61681,20.84165],[100.61781,20.84181],[100.61867,20.84192],[100.61945,20.84188],[100.62,20.84185],[100.62086,20.84179],[100.62147,20.84168],[100.62199,20.84144],[100.62282,20.84113],[100.62354,20.84095],[100.62413,20.84085],[100.62471,20.84103],[100.62545,20.84148],[100.62597,20.84185],[100.62662,20.84211],[100.62753,20.84217],[100.62831,20.8419],[100.62907,20.84133],[100.6295,20.84063],[100.63016,20.83998],[100.6308,20.83909],[100.63195,20.83791],[100.63196,20.83789],[100.63215,20.83703],[100.63209,20.83603],[100.63186,20.83528],[100.63148,20.83438],[100.63117,20.83374],[100.63102,20.83323],[100.63103,20.83233],[100.63123,20.83138],[100.63138,20.82997],[100.63178,20.82901],[100.63233,20.82755],[100.63294,20.82606],[100.63346,20.82494],[100.63442,20.82378],[100.63463,20.82325],[100.63526,20.82294],[100.63581,20.82228],[100.63637,20.82191],[100.63731,20.82187],[100.63788,20.822],[100.63834,20.82272],[100.63858,20.82348],[100.63881,20.82436],[100.63954,20.82496],[100.64004,20.825],[100.64048,20.82485],[100.64073,20.82452],[100.64065,20.82303],[100.64084,20.82251],[100.6413,20.82203],[100.64172,20.82176],[100.64246,20.82116],[100.64301,20.82057],[100.64341,20.81986],[100.64357,20.81917],[100.64339,20.81815],[100.643,20.81737],[100.64274,20.81654],[100.6425,20.81564],[100.64247,20.81495],[100.64281,20.81437],[100.64335,20.81416],[100.64393,20.81435],[100.64403,20.81443],[100.64468,20.81491],[100.64563,20.81541],[100.64633,20.81556],[100.64717,20.81545],[100.64765,20.81521],[100.64923,20.81362],[100.6503,20.81277],[100.65159,20.81113],[100.65202,20.81028],[100.65233,20.81015],[100.65343,20.81007],[100.65469,20.81034],[100.65518,20.80996],[100.65553,20.80943],[100.65587,20.80867],[100.65667,20.80767],[100.65779,20.80664],[100.65852,20.80595],[100.65913,20.80516],[100.6602,20.80466],[100.66129,20.80435],[100.66392,20.8039],[100.66586,20.80365],[100.66705,20.80344],[100.66846,20.80337],[100.66986,20.80358],[100.67042,20.80353],[100.67127,20.80378],[100.6742,20.80398],[100.67614,20.80424],[100.67722,20.80439],[100.67813,20.80438],[100.67898,20.80441],[100.67957,20.8042],[100.68078,20.8039],[100.68166,20.80384],[100.68267,20.80408],[100.68364,20.80473],[100.68443,20.80501],[100.68492,20.80548],[100.68534,20.80576],[100.68575,20.80619],[100.68639,20.80676],[100.68674,20.80724],[100.68677,20.80771],[100.68793,20.80779],[100.68981,20.80789],[100.69406,20.80752],[100.69768,20.80676],[100.70111,20.80578],[100.70173,20.80533],[100.70317,20.80427],[100.70486,20.80264],[100.70742,20.80135],[100.71001,20.79987],[100.71194,20.79785],[100.71371,20.79596],[100.71587,20.79391],[100.71815,20.79279],[100.7205,20.79177],[100.7224,20.79038],[100.72451,20.78844],[100.72592,20.78632],[100.72684,20.78411],[100.72922,20.78034],[100.73107,20.7766],[100.73184,20.77333],[100.73228,20.76878],[100.73331,20.76646],[100.73399,20.76412],[100.7356,20.76126],[100.73727,20.75709],[100.73812,20.75398],[100.73904,20.74957],[100.73963,20.74626],[100.74081,20.74175],[100.74172,20.73932],[100.7439,20.73464],[100.74551,20.73181],[100.74715,20.72786],[100.74839,20.72587],[100.75122,20.72302],[100.7537,20.72014],[100.75656,20.71738],[100.75975,20.71493],[100.76247,20.71352],[100.76522,20.71182],[100.76689,20.71039],[100.76945,20.70724],[100.77194,20.7051],[100.77593,20.70126],[100.77888,20.69832],[100.78108,20.69596],[100.78433,20.6942],[100.78725,20.69283],[100.79169,20.69264],[100.79453,20.69225],[100.79687,20.69006],[100.79791,20.68754],[100.79811,20.68172],[100.79898,20.67777],[100.7989,20.67509],[100.79943,20.67312],[100.80091,20.6707],[100.80347,20.667],[100.80351,20.66694],[100.80357,20.66683],[100.80545,20.66336],[100.80663,20.66231]]]}},{"type":"Feature","properties":{"did":505,"pid":5,"name_en":"Paktha","name_lo":"ປາກທາ","pcode":"LA0505","area_km2":895.5,"village_count":34,"density":0.038},"geometry":{"type":"Polygon","coordinates":[[[100.76742,19.99108],[100.76698,19.99097],[100.76637,19.99061],[100.76602,19.9903],[100.76546,19.98978],[100.76473,19.98925],[100.76412,19.9888],[100.76115,19.98512],[100.75565,19.97936],[100.75223,19.97556],[100.75009,19.97186],[100.74722,19.96911],[100.74068,19.96284],[100.73725,19.95991],[100.73268,19.95671],[100.7283,19.95275],[100.72717,19.95079],[100.72663,19.94805],[100.72698,19.94621],[100.72777,19.94593],[100.72903,19.94542],[100.72987,19.94511],[100.73086,19.94469],[100.73167,19.94441],[100.73219,19.94421],[100.73264,19.9439],[100.73302,19.9437],[100.73367,19.9435],[100.73464,19.94318],[100.73498,19.94301],[100.73528,19.94272],[100.73559,19.94218],[100.73564,19.94192],[100.73566,19.94125],[100.73572,19.94032],[100.7359,19.93966],[100.73618,19.93893],[100.73647,19.93837],[100.73688,19.93762],[100.73704,19.93707],[100.73728,19.93647],[100.7375,19.93612],[100.73785,19.93572],[100.73855,19.93504],[100.73885,19.93456],[100.73894,19.9343],[100.73895,19.93374],[100.73885,19.93324],[100.73866,19.9326],[100.7386,19.93195],[100.73863,19.93037],[100.73878,19.93],[100.73894,19.92995],[100.7391,19.92997],[100.73936,19.93013],[100.73976,19.93023],[100.74029,19.93018],[100.74065,19.93007],[100.74085,19.92994],[100.74129,19.92946],[100.74223,19.92852],[100.74253,19.92829],[100.74306,19.92809],[100.74372,19.92789],[100.74419,19.92774],[100.74538,19.92731],[100.74603,19.92712],[100.74658,19.92704],[100.74709,19.92702],[100.7478,19.92705],[100.74834,19.92699],[100.74886,19.92687],[100.74959,19.92666],[100.75043,19.92661],[100.75117,19.92665],[100.75202,19.92659],[100.7524,19.92644],[100.75289,19.92612],[100.75353,19.92569],[100.75392,19.92545],[100.75442,19.92537],[100.75553,19.92535],[100.75642,19.92522],[100.75703,19.92503],[100.75739,19.92481],[100.75781,19.9244],[100.7582,19.92382],[100.75868,19.92342],[100.75909,19.92322],[100.75989,19.92297],[100.76036,19.9228],[100.76092,19.92257],[100.7614,19.92214],[100.76187,19.92184],[100.76238,19.92161],[100.76295,19.92138],[100.7637,19.92085],[100.76449,19.9205],[100.76537,19.92012],[100.76582,19.91981],[100.76589,19.91967],[100.76592,19.91947],[100.7657,19.9192],[100.76565,19.91898],[100.76575,19.91877],[100.76615,19.91848],[100.76646,19.91827],[100.76659,19.91794],[100.76681,19.91777],[100.76698,19.91778],[100.76714,19.91792],[100.76737,19.91821],[100.76765,19.91825],[100.76789,19.9182],[100.76821,19.91791],[100.76917,19.91738],[100.76935,19.91715],[100.76935,19.91697],[100.76903,19.91662],[100.76843,19.91599],[100.768,19.9155],[100.76778,19.9152],[100.76778,19.91499],[100.76803,19.91471],[100.76852,19.91452],[100.76882,19.91446],[100.76897,19.91434],[100.76895,19.91408],[100.76871,19.91393],[100.76817,19.91384],[100.76781,19.91365],[100.7676,19.91353],[100.76753,19.91339],[100.7675,19.91321],[100.76758,19.91303],[100.76798,19.91251],[100.7681,19.91211],[100.76804,19.91173],[100.76766,19.91142],[100.7671,19.91108],[100.76691,19.91088],[100.76682,19.91067],[100.76688,19.91041],[100.767,19.91016],[100.76747,19.9098],[100.76818,19.9092],[100.76847,19.90867],[100.76847,19.90834],[100.76843,19.90819],[100.76818,19.90797],[100.76784,19.90786],[100.76731,19.90778],[100.76685,19.90767],[100.7666,19.90722],[100.76628,19.90681],[100.76592,19.90654],[100.76537,19.90626],[100.76488,19.90606],[100.76441,19.9059],[100.76382,19.90571],[100.76348,19.90539],[100.76309,19.90493],[100.76293,19.90461],[100.76277,19.9043],[100.76315,19.90396],[100.76375,19.90313],[100.76389,19.90279],[100.76402,19.90197],[100.76418,19.90151],[100.76462,19.90088],[100.76575,19.89992],[100.76621,19.89935],[100.76692,19.89876],[100.76702,19.89856],[100.7671,19.89824],[100.76701,19.89802],[100.76688,19.89783],[100.76684,19.89765],[100.76685,19.8975],[100.767,19.8973],[100.76715,19.8972],[100.76746,19.89716],[100.76866,19.89707],[100.76914,19.89696],[100.76939,19.89677],[100.76946,19.89656],[100.7694,19.89622],[100.76916,19.89583],[100.76892,19.89564],[100.76855,19.8955],[100.76788,19.89541],[100.7674,19.89536],[100.76713,19.8953],[100.76697,19.89518],[100.76679,19.89497],[100.76675,19.89466],[100.76689,19.89437],[100.76715,19.89409],[100.76733,19.89387],[100.76736,19.89355],[100.76755,19.8932],[100.76791,19.89283],[100.76836,19.8926],[100.7685,19.89246],[100.76859,19.89226],[100.76863,19.89195],[100.76895,19.89152],[100.76927,19.89109],[100.76936,19.89078],[100.76943,19.8903],[100.76946,19.88961],[100.76956,19.88938],[100.76984,19.88923],[100.77007,19.88918],[100.77126,19.88924],[100.77193,19.88921],[100.77232,19.88907],[100.77248,19.88891],[100.77251,19.8886],[100.77246,19.8882],[100.77217,19.88772],[100.77196,19.8874],[100.77152,19.88715],[100.7713,19.887],[100.77123,19.88688],[100.77132,19.88661],[100.77187,19.88596],[100.7721,19.8856],[100.77212,19.88518],[100.77204,19.88465],[100.77187,19.88433],[100.77117,19.88378],[100.771,19.88355],[100.77093,19.883],[100.77085,19.88262],[100.77077,19.88252],[100.77055,19.88252],[100.77024,19.88276],[100.76998,19.88284],[100.76984,19.88279],[100.76981,19.88263],[100.76981,19.88244],[100.77003,19.88196],[100.77023,19.88168],[100.77059,19.88137],[100.77086,19.88124],[100.77113,19.8811],[100.77161,19.88086],[100.77212,19.88032],[100.77211,19.88031],[100.77,19.87904],[100.76814,19.87777],[100.76641,19.87655],[100.76517,19.87561],[100.76245,19.87374],[100.76108,19.87297],[100.75937,19.87191],[100.75746,19.87093],[100.75631,19.8699],[100.75436,19.86852],[100.75297,19.86786],[100.75098,19.86657],[100.74857,19.86563],[100.74622,19.86498],[100.74344,19.86407],[100.74109,19.86392],[100.73919,19.8634],[100.73767,19.86284],[100.73665,19.8623],[100.73409,19.86054],[100.73103,19.8585],[100.72946,19.85688],[100.72813,19.85562],[100.72588,19.85323],[100.72343,19.85119],[100.72161,19.8488],[100.72053,19.84745],[100.72028,19.84697],[100.71899,19.84536],[100.7183,19.84442],[100.7158,19.84209],[100.71477,19.84106],[100.71357,19.83991],[100.71111,19.838],[100.71031,19.83722],[100.70914,19.83654],[100.7084,19.83602],[100.70619,19.83461],[100.70494,19.83419],[100.70349,19.83345],[100.70166,19.83272],[100.70053,19.83208],[100.6993,19.83156],[100.69827,19.83107],[100.69687,19.83104],[100.69581,19.83077],[100.69474,19.83035],[100.69398,19.82978],[100.69257,19.82861],[100.69084,19.82666],[100.69027,19.82612],[100.68962,19.82556],[100.68785,19.8241],[100.68581,19.82251],[100.68324,19.82071],[100.68172,19.8199],[100.6786,19.81831],[100.67605,19.81726],[100.67229,19.81615],[100.66959,19.81592],[100.66724,19.81584],[100.66581,19.81587],[100.66474,19.81578],[100.66281,19.8157],[100.66097,19.81562],[100.65843,19.81598],[100.65644,19.81686],[100.65438,19.81814],[100.65373,19.81866],[100.65301,19.81906],[100.6523,19.81946],[100.65104,19.81981],[100.64936,19.82007],[100.64804,19.82027],[100.647,19.82023],[100.64585,19.81995],[100.64412,19.81968],[100.64244,19.81904],[100.63971,19.81793],[100.63783,19.81707],[100.6364,19.81667],[100.63451,19.81601],[100.63196,19.81531],[100.63028,19.8148],[100.62854,19.81453],[100.62732,19.8143],[100.62595,19.81426],[100.62523,19.8141],[100.62451,19.814],[100.62227,19.81347],[100.62209,19.81339],[100.6212,19.813],[100.61773,19.81173],[100.61669,19.81112],[100.61532,19.81031],[100.61381,19.80989],[100.61202,19.80974],[100.61079,19.80946],[100.60852,19.80936],[100.60715,19.80941],[100.60548,19.80993],[100.60333,19.81061],[100.60184,19.81134],[100.60074,19.81164],[100.5915,19.80972],[100.58927,19.80607],[100.58223,19.79904],[100.58284,19.79548],[100.58236,19.79251],[100.58107,19.79059],[100.57978,19.78985],[100.57489,19.78928],[100.57179,19.78856],[100.56589,19.78627],[100.56349,19.78577],[100.56025,19.78524],[100.55719,19.78506],[100.55403,19.7854],[100.55255,19.78603],[100.54884,19.78799],[100.54579,19.78879],[100.54221,19.78881],[100.53893,19.78828],[100.53592,19.78708],[100.53059,19.78475],[100.5272,19.78351],[100.52296,19.78231],[100.5211,19.78205],[100.51754,19.78219],[100.51138,19.78163],[100.50779,19.78067],[100.50412,19.77857],[100.50169,19.77598],[100.4998,19.77448],[100.49979,19.77447],[100.49968,19.77439],[100.49624,19.77177],[100.49245,19.7712],[100.48909,19.7709],[100.48512,19.77175],[100.48135,19.77293],[100.47877,19.77291],[100.47607,19.77139],[100.47391,19.7709],[100.47075,19.77203],[100.46938,19.7731],[100.46857,19.77527],[100.46754,19.77934],[100.46537,19.782],[100.46206,19.78442],[100.45681,19.78615],[100.45292,19.78822],[100.44903,19.78955],[100.44661,19.7896],[100.44273,19.7893],[100.44008,19.78969],[100.43647,19.79137],[100.43844,19.79381],[100.43942,19.79687],[100.44032,19.79977],[100.44191,19.80744],[100.44025,19.80954],[100.44183,19.81209],[100.44317,19.81465],[100.44382,19.81765],[100.44401,19.8205],[100.44417,19.82327],[100.44872,19.82683],[100.44698,19.82916],[100.44492,19.83152],[100.4432,19.83369],[100.44159,19.8363],[100.44315,19.83855],[100.44642,19.84349],[100.44804,19.84588],[100.44999,19.84844],[100.45451,19.85191],[100.46172,19.85747],[100.46463,19.85847],[100.46772,19.85758],[100.47063,19.8567],[100.4739,19.85676],[100.47954,19.85945],[100.48436,19.86326],[100.4871,19.86509],[100.49007,19.86603],[100.49318,19.86615],[100.49637,19.86665],[100.49963,19.86981],[100.49979,19.8705],[100.4998,19.87058],[100.50042,19.87323],[100.50052,19.8835],[100.50074,19.88437],[100.51151,19.89069],[100.51241,19.89572],[100.51257,19.89668],[100.51884,19.90349],[100.5134,19.90881],[100.51845,19.91455],[100.51978,19.91718],[100.52028,19.92224],[100.52031,19.92644],[100.52036,19.92951],[100.51588,19.93601],[100.51545,19.93825],[100.51566,19.94125],[100.51685,19.94455],[100.51952,19.94982],[100.5234,19.95757],[100.52461,19.96028],[100.52602,19.96669],[100.52689,19.96953],[100.52921,19.97539],[100.52924,19.97945],[100.53214,19.98681],[100.53283,19.9887],[100.53566,19.99262],[100.53584,19.99589],[100.53759,20.00009],[100.53762,20.00014],[100.53765,20.00018],[100.53956,20.00307],[100.5405,20.00584],[100.54226,20.01325],[100.5423,20.01415],[100.54172,20.01633],[100.54059,20.02001],[100.54084,20.02192],[100.54192,20.02429],[100.54438,20.02689],[100.54807,20.02926],[100.55079,20.03134],[100.55087,20.0333],[100.5507,20.03408],[100.54938,20.03694],[100.54881,20.04007],[100.54928,20.04199],[100.5498,20.04304],[100.55042,20.04369],[100.55259,20.04685],[100.55312,20.04925],[100.55382,20.05515],[100.55581,20.06142],[100.55819,20.07141],[100.5593,20.07852],[100.55963,20.08487],[100.56049,20.08788],[100.56252,20.09172],[100.56503,20.09502],[100.5677,20.09779],[100.56833,20.0988],[100.56837,20.1089],[100.56884,20.11666],[100.56965,20.1228],[100.57063,20.1258],[100.57023,20.13493],[100.57187,20.14065],[100.57146,20.14354],[100.57409,20.14918],[100.57509,20.15508],[100.57574,20.17066],[100.57644,20.17028],[100.57936,20.17172],[100.58207,20.17275],[100.58699,20.17499],[100.59094,20.17686],[100.59422,20.17849],[100.5978,20.18063],[100.60412,20.18412],[100.61151,20.189],[100.61396,20.19095],[100.62217,20.19739],[100.62591,20.20045],[100.6335,20.20666],[100.63553,20.20879],[100.63867,20.21194],[100.64216,20.21596],[100.64448,20.21841],[100.64625,20.22003],[100.64803,20.22206],[100.64886,20.22299],[100.64959,20.22221],[100.65136,20.21966],[100.65452,20.21702],[100.65698,20.21336],[100.65947,20.21008],[100.66207,20.20674],[100.66541,20.20273],[100.6681,20.19995],[100.67079,20.19675],[100.67212,20.19447],[100.67335,20.19131],[100.6743,20.18879],[100.67526,20.18444],[100.67616,20.18013],[100.67658,20.17462],[100.67706,20.17022],[100.67764,20.16444],[100.67859,20.15916],[100.68,20.15243],[100.68194,20.14611],[100.68337,20.13813],[100.68408,20.13249],[100.68468,20.12996],[100.68554,20.12593],[100.68659,20.12227],[100.68802,20.11755],[100.6888,20.11296],[100.68926,20.10764],[100.69041,20.10187],[100.6946,20.09375],[100.70175,20.08606],[100.70214,20.08627],[100.70252,20.08638],[100.70296,20.08642],[100.70347,20.08629],[100.70394,20.08608],[100.70445,20.0857],[100.70491,20.08532],[100.70574,20.08449],[100.70636,20.08403],[100.70747,20.08312],[100.70801,20.08275],[100.70864,20.08251],[100.70923,20.08246],[100.7101,20.08246],[100.71108,20.08258],[100.71201,20.08279],[100.7125,20.08309],[100.71293,20.08361],[100.71323,20.08419],[100.71331,20.08461],[100.71336,20.08525],[100.71347,20.08589],[100.71369,20.08647],[100.71401,20.08706],[100.7145,20.08775],[100.71495,20.08766],[100.71528,20.08759],[100.71569,20.08755],[100.71639,20.08749],[100.71693,20.08743],[100.71731,20.08735],[100.71766,20.08712],[100.71791,20.08688],[100.71826,20.08664],[100.71869,20.08654],[100.71934,20.08646],[100.71984,20.08644],[100.72043,20.08638],[100.72075,20.08608],[100.721,20.08574],[100.72115,20.08532],[100.72138,20.08473],[100.72163,20.0844],[100.72206,20.0842],[100.72237,20.08417],[100.7228,20.08433],[100.72332,20.08439],[100.72364,20.08434],[100.72403,20.08415],[100.72443,20.08375],[100.72483,20.08328],[100.72518,20.08279],[100.7256,20.08221],[100.72592,20.08202],[100.72632,20.08195],[100.72683,20.08192],[100.72747,20.08189],[100.72794,20.08185],[100.7284,20.08177],[100.72886,20.08169],[100.72947,20.08158],[100.72969,20.08169],[100.73004,20.08189],[100.73039,20.08218],[100.73066,20.0823],[100.73101,20.08236],[100.73142,20.08239],[100.73204,20.08228],[100.73278,20.08192],[100.73342,20.08161],[100.73409,20.08104],[100.73503,20.08028],[100.73561,20.07953],[100.73603,20.07881],[100.73639,20.07783],[100.73667,20.07704],[100.73674,20.07529],[100.73661,20.07432],[100.73637,20.07326],[100.73602,20.07215],[100.7358,20.07152],[100.73551,20.07105],[100.73516,20.07053],[100.73481,20.07003],[100.73441,20.06956],[100.734,20.06917],[100.73345,20.06877],[100.73298,20.06835],[100.73244,20.06798],[100.73201,20.0676],[100.7317,20.06713],[100.73157,20.06675],[100.7316,20.06634],[100.7318,20.06592],[100.73216,20.06538],[100.73259,20.06508],[100.73244,20.06479],[100.73231,20.06428],[100.73213,20.06386],[100.73197,20.06338],[100.73206,20.06298],[100.73207,20.06238],[100.7321,20.06207],[100.73193,20.06177],[100.73163,20.06146],[100.73123,20.06121],[100.73087,20.0609],[100.73035,20.06052],[100.72983,20.06021],[100.72929,20.05985],[100.72875,20.05942],[100.72826,20.05919],[100.7277,20.05814],[100.72718,20.05768],[100.72666,20.05707],[100.7262,20.05643],[100.72579,20.05586],[100.72539,20.05531],[100.72497,20.05446],[100.72457,20.05376],[100.72403,20.05191],[100.72321,20.05051],[100.72286,20.05001],[100.72217,20.04874],[100.72075,20.04786],[100.71999,20.04621],[100.72064,20.04461],[100.7207,20.04358],[100.72096,20.04224],[100.72048,20.04155],[100.71992,20.04008],[100.72018,20.03932],[100.72058,20.03855],[100.72064,20.03791],[100.7207,20.03702],[100.72109,20.03567],[100.7206,20.03428],[100.72015,20.03215],[100.72033,20.03129],[100.72043,20.03018],[100.7206,20.02909],[100.72081,20.02833],[100.721,20.0276],[100.72127,20.0271],[100.72143,20.02654],[100.72169,20.02584],[100.72187,20.0251],[100.72178,20.02397],[100.72232,20.02357],[100.72301,20.02331],[100.72339,20.02321],[100.72395,20.02215],[100.72464,20.02088],[100.7249,20.02047],[100.72544,20.01978],[100.72601,20.01937],[100.72684,20.01881],[100.72748,20.01841],[100.72815,20.01787],[100.72854,20.01752],[100.72895,20.01707],[100.72932,20.0165],[100.72963,20.01588],[100.72998,20.01507],[100.7306,20.01393],[100.73093,20.01336],[100.73131,20.01269],[100.7318,20.01223],[100.73252,20.01174],[100.73349,20.01059],[100.73371,20.00999],[100.73365,20.00904],[100.73349,20.00839],[100.73331,20.00798],[100.73304,20.00745],[100.73291,20.00664],[100.73275,20.00522],[100.73269,20.00414],[100.73264,20.00321],[100.73273,20.00253],[100.73297,20.00178],[100.73364,20.00109],[100.73538,19.99928],[100.73934,19.997],[100.74432,19.99475],[100.75226,19.99301],[100.75964,19.99159],[100.76742,19.99108]]]}},{"type":"Feature","properties":{"did":504,"pid":5,"name_en":"Phaoudom","name_lo":"ຜາອຸດົມ","pcode":"LA0504","area_km2":1710.5,"village_count":73,"density":0.043},"geometry":{"type":"Polygon","coordinates":[[[101.01302,20.35939],[101.00842,20.35669],[101.00307,20.35507],[100.99863,20.35497],[100.99649,20.35163],[100.99606,20.34353],[100.99622,20.33755],[101.0007,20.33615],[101.0059,20.33148],[101.01049,20.3259],[101.01566,20.32212],[101.02177,20.31927],[101.02446,20.31304],[101.02651,20.3074],[101.03488,20.3031],[101.04158,20.30145],[101.04958,20.29894],[101.05258,20.29332],[101.05965,20.28988],[101.06513,20.28671],[101.07309,20.28539],[101.07748,20.28759],[101.08439,20.29044],[101.09134,20.29209],[101.10233,20.29683],[101.10677,20.29693],[101.11096,20.29433],[101.11489,20.28932],[101.11627,20.28486],[101.12137,20.28407],[101.12989,20.28606],[101.14318,20.28785],[101.15389,20.29108],[101.16015,20.29481],[101.1668,20.29526],[101.1707,20.29175],[101.17146,20.28668],[101.17259,20.27951],[101.17872,20.27545],[101.18249,20.27673],[101.18363,20.28215],[101.18416,20.28635],[101.18729,20.28822],[101.19269,20.28804],[101.19836,20.28996],[101.20268,20.29484],[101.20574,20.2997],[101.20724,20.30303],[101.21034,20.30639],[101.21521,20.31063],[101.21867,20.31012],[101.22129,20.31071],[101.22351,20.30984],[101.22558,20.30621],[101.2268,20.2992],[101.22837,20.2908],[101.22982,20.28807],[101.22847,20.27983],[101.2225,20.27588],[101.21728,20.27195],[101.2131,20.26709],[101.20707,20.26528],[101.20203,20.2647],[101.2,20.26489],[101.1965,20.26315],[101.19584,20.25907],[101.19368,20.25449],[101.18974,20.25011],[101.18606,20.24526],[101.1801,20.24107],[101.17536,20.23834],[101.17197,20.2323],[101.17308,20.22827],[101.17675,20.22262],[101.18188,20.21963],[101.18643,20.21973],[101.1945,20.22085],[101.20205,20.22221],[101.20657,20.22374],[101.21029,20.22669],[101.21331,20.22699],[101.21684,20.22754],[101.21939,20.22688],[101.22448,20.22532],[101.23105,20.2257],[101.23716,20.22529],[101.23951,20.22455],[101.24331,20.22313],[101.25003,20.21831],[101.25216,20.21504],[101.25269,20.21004],[101.2549,20.20284],[101.25652,20.19858],[101.25916,20.19386],[101.26127,20.19032],[101.26618,20.18565],[101.26854,20.18212],[101.26919,20.17617],[101.26327,20.16984],[101.25677,20.16684],[101.2543,20.1644],[101.2496,20.15706],[101.24875,20.15412],[101.24611,20.14968],[101.24135,20.14549],[101.23827,20.14245],[101.23353,20.13972],[101.2258,20.13634],[101.21963,20.13758],[101.21482,20.13551],[101.20927,20.13473],[101.20415,20.13101],[101.19112,20.12317],[101.18909,20.12083],[101.18526,20.1214],[101.179,20.12127],[101.17103,20.12044],[101.16269,20.12026],[101.15674,20.12177],[101.15076,20.12459],[101.14581,20.1281],[101.14158,20.1303],[101.13205,20.13633],[101.12882,20.1402],[101.12391,20.14206],[101.11797,20.14292],[101.11412,20.14415],[101.11154,20.15],[101.1063,20.1512],[101.09936,20.15039],[101.09348,20.14927],[101.08827,20.14916],[101.0838,20.14709],[101.08212,20.14475],[101.08011,20.14175],[101.07525,20.14131],[101.07138,20.13848],[101.06907,20.13832],[101.06076,20.13652],[101.05699,20.13528],[101.05087,20.13491],[101.04608,20.1332],[101.04204,20.13028],[101.03978,20.12746],[101.03792,20.12573],[101.02948,20.12278],[101.02667,20.12148],[101.02384,20.11903],[101.01972,20.11412],[101.01709,20.11197],[101.01294,20.11073],[101.01077,20.10966],[101.01212,20.10476],[101.01222,20.10094],[101.01256,20.09541],[101.01306,20.0916],[101.01047,20.09021],[101.0089,20.08826],[101.00915,20.08674],[101.0106,20.08525],[101.0147,20.08286],[101.01899,20.08086],[101.02149,20.07824],[101.02268,20.07101],[101.01792,20.06728],[101.01112,20.06483],[101.00713,20.06264],[101.00167,20.05997],[101.00136,20.05887],[101.0007,20.05814],[101,20.05719],[100.99981,20.0571],[100.9998,20.0571],[100.99707,20.0558],[100.99375,20.05437],[100.99189,20.05271],[100.99054,20.05144],[100.9871,20.05034],[100.98484,20.04913],[100.98271,20.04713],[100.97342,20.04531],[100.96785,20.04369],[100.96434,20.04361],[100.9602,20.0412],[100.95584,20.04043],[100.95025,20.03964],[100.94584,20.04053],[100.93542,20.04361],[100.93258,20.04503],[100.93093,20.04765],[100.92879,20.04909],[100.92567,20.04753],[100.91581,20.04249],[100.91115,20.03974],[100.90615,20.03647],[100.90115,20.03337],[100.89578,20.03076],[100.89059,20.02816],[100.88543,20.02456],[100.8841,20.02155],[100.8812,20.0185],[100.87885,20.01447],[100.87441,20.01022],[100.8712,20.00551],[100.86815,20.00163],[100.86482,20.00138],[100.86201,20.00181],[100.8587,20.00107],[100.8549,19.99957],[100.85336,20.00011],[100.85333,20.00014],[100.85316,20.00028],[100.8522,20.0011],[100.85107,20.0017],[100.85003,20.00187],[100.84894,20.00172],[100.84694,20.00132],[100.846,20.00082],[100.84562,20.00029],[100.84552,20.00014],[100.8455,20.00011],[100.84114,19.99826],[100.83751,19.99732],[100.83473,19.99693],[100.83162,19.99661],[100.82789,19.99679],[100.8255,19.99743],[100.81859,19.99841],[100.81705,19.99854],[100.81573,19.99863],[100.81436,19.9987],[100.81288,19.99858],[100.81214,19.99857],[100.81127,19.99847],[100.81058,19.9983],[100.80988,19.99812],[100.80894,19.99772],[100.80791,19.99755],[100.80727,19.99745],[100.80683,19.99745],[100.80657,19.99752],[100.80622,19.9977],[100.80566,19.9979],[100.80509,19.99793],[100.80456,19.99787],[100.80389,19.99777],[100.80325,19.99759],[100.80274,19.99732],[100.80229,19.99705],[100.80192,19.99692],[100.80151,19.99689],[100.80099,19.99686],[100.80054,19.99681],[100.8002,19.99662],[100.79997,19.99643],[100.79981,19.99611],[100.79981,19.99572],[100.7999,19.99547],[100.80017,19.99525],[100.80068,19.99502],[100.801,19.99486],[100.80142,19.99448],[100.80151,19.99424],[100.80149,19.99373],[100.80135,19.99349],[100.80106,19.9934],[100.80048,19.99336],[100.80009,19.99331],[100.79965,19.99321],[100.79938,19.99295],[100.79923,19.9927],[100.79916,19.99242],[100.79914,19.99198],[100.79914,19.99064],[100.79901,19.99026],[100.79893,19.99002],[100.79861,19.98977],[100.79833,19.98966],[100.7978,19.98964],[100.7973,19.9897],[100.79687,19.98969],[100.79643,19.98956],[100.79578,19.9893],[100.79523,19.98902],[100.79471,19.98887],[100.79437,19.98883],[100.79391,19.98889],[100.79309,19.98903],[100.79243,19.9891],[100.79193,19.98921],[100.79154,19.98938],[100.79111,19.98958],[100.79044,19.98978],[100.78967,19.98982],[100.78945,19.98978],[100.78892,19.98949],[100.7885,19.98923],[100.78794,19.98903],[100.78713,19.98883],[100.78671,19.9891],[100.78604,19.98947],[100.78551,19.98974],[100.78416,19.99013],[100.78217,19.99087],[100.78079,19.99144],[100.78005,19.99172],[100.77914,19.99219],[100.77776,19.99292],[100.77683,19.99323],[100.77616,19.99342],[100.77554,19.99347],[100.77477,19.99338],[100.77368,19.99315],[100.77307,19.993],[100.77238,19.99282],[100.77194,19.99256],[100.77093,19.99173],[100.77049,19.99148],[100.76995,19.99138],[100.76863,19.99126],[100.76742,19.99108],[100.75964,19.99159],[100.75226,19.99301],[100.74432,19.99475],[100.73934,19.997],[100.73538,19.99928],[100.73364,20.00109],[100.73297,20.00178],[100.73273,20.00253],[100.73264,20.00321],[100.73269,20.00414],[100.73275,20.00522],[100.73291,20.00664],[100.73304,20.00745],[100.73331,20.00798],[100.73349,20.00839],[100.73365,20.00904],[100.73371,20.00999],[100.73349,20.01059],[100.73252,20.01174],[100.7318,20.01223],[100.73131,20.01269],[100.73093,20.01336],[100.7306,20.01393],[100.72998,20.01507],[100.72963,20.01588],[100.72932,20.0165],[100.72895,20.01707],[100.72854,20.01752],[100.72815,20.01787],[100.72748,20.01841],[100.72684,20.01881],[100.72601,20.01937],[100.72544,20.01978],[100.7249,20.02047],[100.72464,20.02088],[100.72395,20.02215],[100.72339,20.02321],[100.72301,20.02331],[100.72232,20.02357],[100.72178,20.02397],[100.72187,20.0251],[100.72169,20.02584],[100.72143,20.02654],[100.72127,20.0271],[100.721,20.0276],[100.72081,20.02833],[100.7206,20.02909],[100.72043,20.03018],[100.72033,20.03129],[100.72015,20.03215],[100.7206,20.03428],[100.72109,20.03567],[100.7207,20.03702],[100.72064,20.03791],[100.72058,20.03855],[100.72018,20.03932],[100.71992,20.04008],[100.72048,20.04155],[100.72096,20.04224],[100.7207,20.04358],[100.72064,20.04461],[100.71999,20.04621],[100.72075,20.04786],[100.72217,20.04874],[100.72286,20.05001],[100.72321,20.05051],[100.72403,20.05191],[100.72457,20.05376],[100.72497,20.05446],[100.72539,20.05531],[100.72579,20.05586],[100.7262,20.05643],[100.72666,20.05707],[100.72718,20.05768],[100.7277,20.05814],[100.72826,20.05919],[100.72875,20.05942],[100.72929,20.05985],[100.72983,20.06021],[100.73035,20.06052],[100.73087,20.0609],[100.73123,20.06121],[100.73163,20.06146],[100.73193,20.06177],[100.7321,20.06207],[100.73207,20.06238],[100.73206,20.06298],[100.73197,20.06338],[100.73213,20.06386],[100.73231,20.06428],[100.73244,20.06479],[100.73259,20.06508],[100.73216,20.06538],[100.7318,20.06592],[100.7316,20.06634],[100.73157,20.06675],[100.7317,20.06713],[100.73201,20.0676],[100.73244,20.06798],[100.73298,20.06835],[100.73345,20.06877],[100.734,20.06917],[100.73441,20.06956],[100.73481,20.07003],[100.73516,20.07053],[100.73551,20.07105],[100.7358,20.07152],[100.73602,20.07215],[100.73637,20.07326],[100.73661,20.07432],[100.73674,20.07529],[100.73667,20.07704],[100.73639,20.07783],[100.73603,20.07881],[100.73561,20.07953],[100.73503,20.08028],[100.73409,20.08104],[100.73342,20.08161],[100.73278,20.08192],[100.73204,20.08228],[100.73142,20.08239],[100.73101,20.08236],[100.73066,20.0823],[100.73039,20.08218],[100.73004,20.08189],[100.72969,20.08169],[100.72947,20.08158],[100.72886,20.08169],[100.7284,20.08177],[100.72794,20.08185],[100.72747,20.08189],[100.72683,20.08192],[100.72632,20.08195],[100.72592,20.08202],[100.7256,20.08221],[100.72518,20.08279],[100.72483,20.08328],[100.72443,20.08375],[100.72403,20.08415],[100.72364,20.08434],[100.72332,20.08439],[100.7228,20.08433],[100.72237,20.08417],[100.72206,20.0842],[100.72163,20.0844],[100.72138,20.08473],[100.72115,20.08532],[100.721,20.08574],[100.72075,20.08608],[100.72043,20.08638],[100.71984,20.08644],[100.71934,20.08646],[100.71869,20.08654],[100.71826,20.08664],[100.71791,20.08688],[100.71766,20.08712],[100.71731,20.08735],[100.71693,20.08743],[100.71639,20.08749],[100.71569,20.08755],[100.71528,20.08759],[100.71495,20.08766],[100.7145,20.08775],[100.71401,20.08706],[100.71369,20.08647],[100.71347,20.08589],[100.71336,20.08525],[100.71331,20.08461],[100.71323,20.08419],[100.71293,20.08361],[100.7125,20.08309],[100.71201,20.08279],[100.71108,20.08258],[100.7101,20.08246],[100.70923,20.08246],[100.70864,20.08251],[100.70801,20.08275],[100.70747,20.08312],[100.70636,20.08403],[100.70574,20.08449],[100.70491,20.08532],[100.70445,20.0857],[100.70394,20.08608],[100.70347,20.08629],[100.70296,20.08642],[100.70252,20.08638],[100.70214,20.08627],[100.70175,20.08606],[100.6946,20.09375],[100.69041,20.10187],[100.68926,20.10764],[100.6888,20.11296],[100.68802,20.11755],[100.68659,20.12227],[100.68554,20.12593],[100.68468,20.12996],[100.68408,20.13249],[100.68337,20.13813],[100.68194,20.14611],[100.68,20.15243],[100.67859,20.15916],[100.67764,20.16444],[100.67706,20.17022],[100.67658,20.17462],[100.67616,20.18013],[100.67526,20.18444],[100.6743,20.18879],[100.67335,20.19131],[100.67212,20.19447],[100.67079,20.19675],[100.6681,20.19995],[100.66541,20.20273],[100.66207,20.20674],[100.65947,20.21008],[100.65698,20.21336],[100.65452,20.21702],[100.65136,20.21966],[100.64959,20.22221],[100.64886,20.22299],[100.64748,20.22389],[100.64969,20.2269],[100.65371,20.23179],[100.65726,20.23742],[100.6599,20.24245],[100.66252,20.2472],[100.66526,20.25249],[100.66745,20.25683],[100.67054,20.26341],[100.6737,20.26867],[100.67474,20.27249],[100.67707,20.27953],[100.68084,20.28617],[100.6839,20.29207],[100.68692,20.29696],[100.68989,20.30286],[100.69232,20.30609],[100.6954,20.31103],[100.6981,20.31422],[100.70281,20.31958],[100.70819,20.32517],[100.71262,20.32925],[100.71774,20.33282],[100.71874,20.33348],[100.71901,20.33366],[100.72277,20.33616],[100.72726,20.33913],[100.73146,20.34141],[100.73673,20.34435],[100.74332,20.34618],[100.74833,20.34682],[100.75385,20.34727],[100.7599,20.34763],[100.76598,20.34708],[100.77167,20.34648],[100.77697,20.3456],[100.78349,20.34344],[100.78708,20.34204],[100.79254,20.34038],[100.79561,20.34022],[100.80254,20.34095],[100.80603,20.34143],[100.81165,20.34276],[100.81668,20.34408],[100.82171,20.34572],[100.82578,20.3475],[100.83023,20.34969],[100.83361,20.35173],[100.83865,20.3547],[100.84619,20.35921],[100.85,20.36157],[100.85286,20.36388],[100.85755,20.3675],[100.86213,20.3712],[100.86512,20.37329],[100.86972,20.37575],[100.87703,20.37929],[100.88212,20.38295],[100.88903,20.38731],[100.89535,20.39034],[100.90024,20.39345],[100.90517,20.39655],[100.91045,20.39866],[100.92332,20.40269],[100.92835,20.40396],[100.93442,20.405],[100.93942,20.40499],[100.94496,20.4042],[100.95007,20.40276],[100.95595,20.40009],[100.95806,20.39895],[100.96555,20.39404],[100.96874,20.39153],[100.97294,20.38843],[100.97752,20.38515],[100.98119,20.38205],[100.98636,20.3779],[100.99021,20.37554],[100.99333,20.3733],[100.99591,20.37194],[100.9998,20.37013],[100.99981,20.37013],[101.00059,20.36976],[101.00315,20.36838],[101.00599,20.36636],[101.00811,20.3645],[101.01017,20.36204],[101.01229,20.35981],[101.01302,20.35939]]]}},{"type":"Feature","properties":{"did":502,"pid":5,"name_en":"Tongpheung","name_lo":"ຕົ້ນເຜິ້ງ","pcode":"LA0502","area_km2":878.2,"village_count":39,"density":0.044},"geometry":{"type":"Polygon","coordinates":[[[100.55064,20.48938],[100.52396,20.49613],[100.4971,20.50508],[100.46321,20.50956],[100.4104,20.49587],[100.40566,20.4936],[100.38348,20.483],[100.37889,20.48052],[100.37581,20.47797],[100.37138,20.47439],[100.36685,20.47127],[100.36001,20.46694],[100.35798,20.46527],[100.35413,20.46137],[100.34989,20.45817],[100.34493,20.45326],[100.34178,20.44919],[100.34,20.44697],[100.33754,20.4446],[100.33443,20.44191],[100.32961,20.43751],[100.325,20.43402],[100.32196,20.43151],[100.31912,20.42882],[100.31634,20.4265],[100.31364,20.424],[100.30884,20.41986],[100.30582,20.41607],[100.30183,20.41107],[100.29861,20.40797],[100.29679,20.40543],[100.29564,20.40362],[100.29365,20.39998],[100.29303,20.39885],[100.29022,20.39854],[100.28984,20.39851],[100.28896,20.39845],[100.28719,20.39869],[100.28648,20.39878],[100.28436,20.39929],[100.28243,20.39941],[100.27978,20.39951],[100.27748,20.40024],[100.27475,20.40096],[100.27263,20.40152],[100.27094,20.40159],[100.26867,20.40124],[100.2664,20.40079],[100.26396,20.39964],[100.26219,20.39869],[100.26073,20.3974],[100.25869,20.39519],[100.25646,20.39343],[100.254,20.39126],[100.25213,20.38934],[100.25196,20.38912],[100.25005,20.38673],[100.24878,20.38511],[100.24841,20.3834],[100.24812,20.3817],[100.24807,20.3803],[100.24695,20.37278],[100.24508,20.36928],[100.24293,20.36693],[100.23881,20.36439],[100.23465,20.36195],[100.23142,20.36042],[100.22753,20.35726],[100.22438,20.35203],[100.22312,20.34797],[100.22403,20.34295],[100.2262,20.33366],[100.22625,20.33348],[100.22624,20.3319],[100.22422,20.32385],[100.2223,20.31978],[100.21934,20.3164],[100.21501,20.31328],[100.21076,20.31186],[100.205,20.31114],[100.19905,20.3106],[100.18984,20.30944],[100.18421,20.30722],[100.17684,20.30588],[100.17459,20.30479],[100.17212,20.30347],[100.16918,20.30198],[100.16708,20.29946],[100.16591,20.29765],[100.16612,20.2924],[100.16739,20.28758],[100.16802,20.28404],[100.17017,20.28191],[100.1732,20.28014],[100.17499,20.27765],[100.17626,20.27352],[100.17765,20.27045],[100.17922,20.26697],[100.17965,20.26473],[100.17924,20.26277],[100.17787,20.2601],[100.17684,20.25737],[100.17391,20.24887],[100.17219,20.24648],[100.16909,20.24458],[100.16623,20.24439],[100.16322,20.24417],[100.16025,20.24392],[100.15396,20.24471],[100.14773,20.24561],[100.14452,20.24639],[100.14163,20.24741],[100.13862,20.24767],[100.13239,20.24832],[100.12927,20.24869],[100.1231,20.24944],[100.11651,20.24986],[100.11351,20.25043],[100.11046,20.25092],[100.1075,20.25215],[100.1049,20.25374],[100.10205,20.25552],[100.09771,20.25972],[100.09168,20.26648],[100.08956,20.26883],[100.08835,20.27131],[100.08862,20.27437],[100.08875,20.27715],[100.08988,20.28239],[100.09548,20.29911],[100.09628,20.30322],[100.0962,20.30387],[100.09598,20.30569],[100.0947,20.308],[100.09334,20.3108],[100.09342,20.313],[100.09494,20.31482],[100.09582,20.31796],[100.09505,20.32333],[100.0926,20.32937],[100.09159,20.33268],[100.09076,20.33514],[100.08885,20.33835],[100.08647,20.34246],[100.08468,20.34667],[100.08389,20.3524],[100.08349,20.35565],[100.08313,20.35748],[100.08366,20.36011],[100.08372,20.36041],[100.0844,20.36142],[100.0858,20.36352],[100.08687,20.36578],[100.08839,20.36818],[100.09045,20.37051],[100.09673,20.3765],[100.11231,20.39327],[100.11753,20.40049],[100.1216,20.40515],[100.12252,20.40689],[100.12349,20.40926],[100.12376,20.41149],[100.12369,20.41379],[100.12265,20.41729],[100.12086,20.422],[100.11948,20.42565],[100.11884,20.42726],[100.11792,20.43248],[100.1178,20.43497],[100.11825,20.43804],[100.1187,20.43976],[100.12006,20.44214],[100.12162,20.44607],[100.12361,20.45085],[100.1254,20.45559],[100.12645,20.4582],[100.12824,20.46297],[100.129,20.46545],[100.12907,20.46748],[100.12877,20.4687],[100.12819,20.46987],[100.12754,20.47188],[100.12749,20.47327],[100.12781,20.47661],[100.12787,20.47864],[100.12729,20.48239],[100.12723,20.48426],[100.12753,20.48545],[100.12817,20.48654],[100.13127,20.48957],[100.13328,20.49125],[100.13531,20.49504],[100.13656,20.49702],[100.13779,20.4992],[100.13849,20.50108],[100.1389,20.50276],[100.13904,20.50368],[100.13884,20.50605],[100.13878,20.50792],[100.13846,20.5087],[100.13836,20.50881],[100.13755,20.50963],[100.13705,20.51077],[100.13731,20.51181],[100.13799,20.51286],[100.13815,20.5132],[100.13851,20.51394],[100.13891,20.51582],[100.14006,20.52061],[100.14109,20.52279],[100.14297,20.52736],[100.14425,20.53066],[100.14582,20.53459],[100.14748,20.53797],[100.14925,20.54183],[100.14969,20.54382],[100.15017,20.54494],[100.15178,20.55009],[100.15237,20.5517],[100.15292,20.55517],[100.15358,20.5584],[100.15359,20.56054],[100.15407,20.56429],[100.15485,20.56825],[100.15673,20.57185],[100.15692,20.57264],[100.15722,20.57355],[100.15794,20.57527],[100.15965,20.57802],[100.16108,20.58053],[100.16208,20.5828],[100.1628,20.58461],[100.16333,20.58636],[100.16389,20.58858],[100.16443,20.59138],[100.16492,20.59465],[100.16589,20.59912],[100.16634,20.60202],[100.16676,20.60537],[100.16722,20.6074],[100.16738,20.60891],[100.16755,20.6106],[100.16757,20.61259],[100.16773,20.6142],[100.1681,20.61653],[100.16854,20.6178],[100.16914,20.61886],[100.1697,20.61991],[100.17045,20.62082],[100.17169,20.6225],[100.17226,20.62342],[100.173,20.62528],[100.17322,20.62618],[100.17337,20.62732],[100.17344,20.62877],[100.17402,20.63118],[100.17483,20.6341],[100.17515,20.63504],[100.17572,20.63737],[100.17632,20.63915],[100.17706,20.64099],[100.17778,20.64207],[100.1785,20.64354],[100.17909,20.64477],[100.17975,20.64661],[100.18018,20.64737],[100.18088,20.64814],[100.18147,20.64874],[100.18307,20.65021],[100.18428,20.65141],[100.18519,20.65261],[100.18551,20.65351],[100.18596,20.65482],[100.1862,20.65581],[100.18665,20.65627],[100.18701,20.65726],[100.18764,20.65879],[100.18866,20.66028],[100.18953,20.66147],[100.19011,20.66237],[100.19101,20.66342],[100.19189,20.66421],[100.19438,20.66218],[100.19808,20.66057],[100.20218,20.65836],[100.20688,20.65621],[100.21161,20.65365],[100.21753,20.65054],[100.22383,20.64813],[100.22896,20.64562],[100.23449,20.64297],[100.24089,20.63946],[100.2471,20.63603],[100.25673,20.63146],[100.26803,20.62579],[100.27619,20.62133],[100.2824,20.61823],[100.29384,20.61288],[100.30636,20.60874],[100.31705,20.60528],[100.3263,20.60233],[100.33781,20.59947],[100.34506,20.59734],[100.35172,20.59555],[100.36729,20.58693],[100.42996,20.56327],[100.4385,20.56119],[100.43834,20.56079],[100.43828,20.56011],[100.43825,20.55892],[100.43871,20.55861],[100.43931,20.55814],[100.43965,20.55786],[100.43995,20.55765],[100.44042,20.55761],[100.44076,20.55771],[100.44105,20.55802],[100.44113,20.55839],[100.44126,20.55887],[100.44191,20.5595],[100.44232,20.55972],[100.44278,20.55996],[100.44319,20.56014],[100.44378,20.56039],[100.44491,20.56071],[100.44572,20.56075],[100.44634,20.56063],[100.44712,20.5603],[100.44763,20.56007],[100.44835,20.55992],[100.4491,20.55967],[100.45001,20.55928],[100.45102,20.5588],[100.45149,20.55866],[100.45236,20.5587],[100.45288,20.55887],[100.45395,20.55945],[100.45428,20.5598],[100.45511,20.56028],[100.4555,20.56048],[100.45646,20.56101],[100.45685,20.56127],[100.45712,20.56138],[100.45758,20.56142],[100.458,20.56131],[100.45825,20.56099],[100.45866,20.56005],[100.45902,20.55936],[100.45939,20.55884],[100.45976,20.55846],[100.4607,20.55773],[100.46118,20.55748],[100.46169,20.55741],[100.4622,20.55757],[100.46264,20.55784],[100.46333,20.55843],[100.46408,20.55925],[100.46462,20.55985],[100.46491,20.55997],[100.46554,20.55967],[100.4666,20.55887],[100.46723,20.55865],[100.46848,20.55832],[100.47049,20.55686],[100.4753,20.55323],[100.47962,20.54913],[100.48656,20.54488],[100.49405,20.53974],[100.49908,20.53694],[100.50192,20.53524],[100.5061,20.53159],[100.51066,20.52825],[100.51548,20.52455],[100.51847,20.5232],[100.52316,20.52211],[100.52328,20.5221],[100.52545,20.52187],[100.53058,20.52118],[100.53551,20.52146],[100.53844,20.52079],[100.53927,20.52029],[100.54058,20.51981],[100.54204,20.51919],[100.54316,20.51832],[100.54367,20.51762],[100.5447,20.51693],[100.54589,20.51664],[100.54658,20.51581],[100.54689,20.51453],[100.54665,20.51297],[100.54607,20.51186],[100.54486,20.51081],[100.54372,20.51006],[100.54264,20.50972],[100.54168,20.50921],[100.54158,20.5082],[100.54174,20.50743],[100.54259,20.50622],[100.54392,20.50496],[100.54477,20.50395],[100.54531,20.50233],[100.54595,20.50055],[100.5466,20.49928],[100.54737,20.4991],[100.54805,20.49957],[100.54908,20.49933],[100.55027,20.49846],[100.55095,20.49815],[100.55146,20.49687],[100.55163,20.49578],[100.55124,20.49486],[100.54937,20.49375],[100.54863,20.49271],[100.54931,20.4913],[100.55064,20.48938]]]}}]}